2010/08/09 18:59
MYEG 091859Z AUTO 10008KT 10SM SCT019 SCT025 SCT095 30/25 A2997 RMK AO2 

2010/08/09 18:59
MYEG 091859Z AUTO 10008KT 10SM SCT019 SCT025 SCT095 30/25 A2997 RMK AO2

2010/08/09 18:45
KBAX 091845Z AUTO 25005KT 7SM CLR 25/22 A2992 RMK AO2

2010/08/09 18:45
KBAX 091845Z AUTO 25005KT 7SM CLR 25/22 A2992 RMK AO2

2010/08/09 18:45
KBAX 091845Z AUTO 25005KT 7SM CLR 25/22 A2992 RMK AO2

2010/08/09 18:45
KBAX 091845Z AUTO 25005KT 7SM CLR 25/22 A2992 RMK AO2

2010/08/09 18:55
KFDW 091855Z AUTO 05003KT 10SM CLR 34/15 A3003 RMK AO1

2010/08/09 18:55
KFDW 091855Z AUTO 05003KT 10SM CLR 34/15 A3003 RMK AO1

2010/08/09 18:55
KQSA 091855Z 08011KT 9999 FEW130 BKN150 26/18 A2989 RMK SLP295 WND DATA ESTMD ALSTG/SLP ESTMD

2010/08/09 18:45
CYQM 091845Z 20013KT 15SM FEW015 BKN040 BKN100 22/ RMK CU2SC3AC2

2010/08/09 18:45
KMTN 091845Z 14010KT 10SM SCT050 33/23 A3000

2010/08/09 18:55
KCCA 091855Z AUTO 00000KT 9SM FEW040 36/24 A2993 RMK AO2

2010/08/09 18:45
KMWC 091845Z 25008KT 10SM SCT040 27/20 A2991

2010/08/09 18:45
CYQM 091845Z 20013KT 15SM FEW015 BKN040 BKN100 22/ RMK CU2SC3AC2

2010/08/09 18:45
KMSN 091845Z 30007KT 10SM BKN025 28/22 A2992 RMK AO2 

2010/08/09 18:46
CWOB 091846Z AUTO ///// 1/8SM CLR 05/ A2970

2010/08/09 18:45
CYQQ 091845Z 35009KT 20SM FEW040 SCT100 RMK SC2AC2

2010/08/09 18:45
CYSN 091845Z 21010KT 10SM -SHRA OVC060 RMK SC8

2010/08/09 18:46
CZCP 091846Z AUTO 05008KT 1/8SM CLR 06/ A2981

2010/08/09 18:45
KBBG 091845Z 00000KT 10SM TS SCT050 BKN110 BKN250 33/22 A2998 RMK TS S MOV E

2010/08/09 18:45
KSWF 091845Z 27010G18KT 10SM FEW120 32/16 A2998

2010/08/09 18:47
KEVB 091847Z 12011G20KT 10SM SCT018 32/25 A2994

2010/08/09 18:46
KFHR 091846Z AUTO 11003KT 10SM BKN022 BKN042 OVC075 15/12 A2999 RMK AO2

2010/08/09 18:45
PAKN 091845Z 19008G16KT 10SM BKN022 BKN028 OVC036 12/09 A2953 RMK AO2

2010/08/09 18:45
PAKW 091845Z AUTO 24004KT 10SM -RA FEW008 OVC014 14/12 A2999 RMK AO2 RAB09 P0000 TSNO

2010/08/09 18:45
KMSN 091845Z 30007KT 10SM BKN025 28/22 A2992 RMK AO2

2010/08/09 18:45
CWWA 091845Z AUTO 16001KT 15/13 RMK AO1 T01460129

2010/08/09 18:45
KMSN 091845Z 30007KT 10SM BKN025 28/22 A2992 RMK AO2

2010/08/09 18:47
KEVB 091847Z 12011G20KT 10SM SCT018 32/25 A2994

2010/08/09 18:46
KFHR 091846Z AUTO 11003KT 10SM BKN022 BKN042 OVC075 15/12 A2999 RMK AO2

2010/08/09 18:45
PAKN 091845Z 19008G16KT 10SM BKN022 BKN028 OVC036 12/09 A2953 RMK AO2

2010/08/09 18:45
PAKW 091845Z AUTO 24004KT 10SM -RA FEW008 OVC014 14/12 A2999 RMK AO2 RAB09 P0000 TSNO

2010/08/09 18:45
KMTN 091845Z 14010KT 10SM SCT050 33/23 A3000

2010/08/09 18:55
KCCA 091855Z AUTO 00000KT 9SM FEW040 36/24 A2993 RMK AO2

2010/08/09 18:45
KMWC 091845Z 25008KT 10SM SCT040 27/20 A2991

2010/08/09 18:45
KBBG 091845Z 00000KT 10SM TS SCT050 BKN110 BKN250 33/22 A2998 RMK TS S MOV E

2010/08/09 18:45
KSWF 091845Z 27010G18KT 10SM FEW120 32/16 A2998

2010/08/09 18:45
CYQQ 091845Z 35009KT 20SM FEW040 SCT100 RMK SC2AC2

2010/08/09 18:45
KMSN 091845Z 30007KT 10SM BKN025 28/22 A2992

2010/08/09 18:45
KCZK 091845Z 24010G20KT 10SM BKN030 19/12 RMK SLP162 NO SPECI CLD HGT AND VIS VISUALLY ESTMD 

2010/08/09 18:45
KMTN 091845Z 14010KT 10SM SCT050 33/23 A3000

2010/08/09 18:45
KMSN 091845Z 30007KT 10SM BKN025 28/22 A2992

2010/08/09 18:45
KMSN 091845Z 30007KT 10SM BKN025 28/22 A2992

2010/08/09 18:45
KORG 091845Z AUTO 00000KT 10SM SCT046 SCT055 36/24 A2996 RMK AO2

2010/08/09 18:45
KOXI 091845Z AUTO 22004KT 7SM SCT049 SCT055 BKN100 29/22 A2995 RMK AO1 T02890222

2010/08/09 18:47
KPSN 091847Z AUTO 20005KT 34/22 A2997 RMK AO2 PWINO

2010/08/09 18:45
KRCR 091845Z AUTO 13003KT 7SM SCT110 31/23 A2996 RMK AO2

2010/08/09 18:45
K1H2 091845Z AUTO 16005KT 10SM SCT038 35/25 A2993 RMK AO2 T03460251

2010/08/09 18:45
K3LF 091845Z AUTO 22005KT 10SM CLR 33/25 A2992 RMK AO2

2010/08/09 18:45
K3T5 091845Z AUTO 18008KT 10SM CLR 34/23 A2993 RMK AO2 T03400228

2010/08/09 18:45
KAJG 091845Z AUTO 23005KT 10SM CLR 33/24 A2994 RMK AO2 T03310242

2010/08/09 18:45
KAQO 091845Z AUTO 20006KT CLR 36/18 A2997 RMK AO2 PWINO

2010/08/09 18:47
KASW 091847Z AUTO 00000KT 7SM SCT050 OVC110 28/22 A2998 RMK AO2 T02810218

2010/08/09 18:45
KAXH 091845Z AUTO 00000KT 10SM SCT050 35/22 A2995 RMK AO2 T03490224

2010/08/09 18:45
KBBD 091845Z AUTO VRB06KT 10SM FEW055 34/18 A2997 RMK

2010/08/09 18:46
KBPC 091846Z AUTO 19007G16KT 10SM CLR 35/15 A2994 RMK AO2

2010/08/09 18:45
KC75 091845Z AUTO 11004KT 10SM CLR 30/22 A2992 RMK AO2 T02970219

2010/08/09 18:45
KCUL 091845Z AUTO 22005KT 10SM CLR 34/22 A2993 RMK AO2 T03390223 PWINO

2010/08/09 18:45
KERV 091845Z AUTO 15008KT 10SM CLR 33/19 A2999 RMK AO2 T03310185

2010/08/09 18:45
KGNC 091845Z AUTO 16011G17KT 10SM SCT120 33/18 A3005 RMK AO2 T03270176

2010/08/09 18:45
KGWB 091845Z AUTO 00000KT 10SM CLR 31/18 A2997 RMK AO2

2010/08/09 18:45
KGYB 091845Z AUTO 18005KT 10SM SCT049 34/21 A2998 RMK AO2 T03420212

2010/08/09 18:45
KHHF 091845Z AUTO 20010G16KT 140V230 10SM CLR 37/16 A2991 RMK AO2 T03660164

2010/08/09 18:46
KHQZ 091846Z AUTO 14011KT 10SM SCT049 36/21 A2993 RMK AO2

2010/08/09 18:45
KINJ 091845Z AUTO 17006KT 10SM SCT049 35/22 A2994 RMK AO2 T03490215

2010/08/09 18:45
KJOT 091845Z AUTO 19005KT 10SM CLR 28/21 A2993 RMK AO2

2010/08/09 18:45
KJVL 091845Z 27007KT 10SM BKN026 29/23 A2991

2010/08/09 18:45
KMHR 091845Z 19005KT 10SM SKC 23/12 A2989

2010/08/09 18:45
KATW 091845Z 28005KT 10SM BKN026 28/22 A2991

2010/08/09 18:47
KCIC 091847Z VRB04KT 40SM FEW070 A2988

2010/08/09 18:47
KGEU 091847Z 10004KT 20SM SCT120 36/03 A2988

2010/08/09 18:45
KUES 091845Z 25006KT 10SM SCT025 27/21 A2993

2010/08/09 18:47
KNEW 091847Z 07027G33KT 1SM +TSRA BR FEW004 BKN017 BKN075 28/26 A2998 RMK AO2 PK WND 07033/1846 WSHFT 1833 TSB27RAB38 OCNL LTGCG NE TS NE MOV SW P0017

2010/08/09 18:45
KMSN 091845Z 30007KT 10SM BKN025 28/22 A2992 RMK AO2

2010/08/09 18:45
PAKN 091845Z 19008G16KT 10SM BKN022 BKN028 OVC036 12/09 A2953

2010/08/09 18:48
CYFC 091848Z AUTO 19011KT 9SM SCT007 BKN011 BKN017 OVC045 22/20 A2987 RMK SLP116 DENSITY ALT 900FT RVR MISG

2010/08/09 18:48
KCHS 091848Z VRB06KT 3SM -RA FEW010 OVC034 29/26 A2999 RMK AO2 RAB35 TCU S P0014 

2010/08/09 18:47
KCQT 091847Z AUTO 00000KT 8SM CLR 24/14 A2992 RMK AO2 SLP128 T02390139 TSNO $ 

2010/08/09 18:47
CYDF 091847Z 24015G20KT 12SM -SHRA BKN036 BKN052 OVC100 RMK SC5SC2AC2

2010/08/09 18:45
KCZK 091845Z 24010G20KT 10SM BKN030 19/12

2010/08/09 18:45
PAKN 091845Z 19008G16KT 10SM BKN022 BKN028 OVC036 12/09 A2953

2010/08/09 18:45
KCZK 091845Z 24010G20KT 10SM BKN030 19/12

2010/08/09 18:48
CYUS 091848Z AUTO ///// 9SM CLR 19/ A2993

2010/08/09 19:00
HAAB 091900Z 21006KT 9/9 FEW023 CB BKN025 17/12 Q1024

2010/08/09 18:45
KRPJ 091845Z AUTO 30006KT 10SM CLR 29/23 A2994 RMK AO2 T02860231

2010/08/09 18:45
KRSV 091845Z AUTO 21003KT 10SM CLR 35/24 A2995 RMK AO2 T03480240

2010/08/09 18:46
KSFY 091846Z AUTO 01004KT 10SM CLR 29/23 A2991 RMK AO2

2010/08/09 18:47
KSUA 091847Z 12010G20KT 7SM SCT025 32/24 A2992

2010/08/09 18:45
KBYY 091845Z AUTO 17004KT 10SM CLR 34/26 A2994 RMK AO2 T03400261

2010/08/09 18:45
KCPT 091845Z AUTO 19005KT 10SM FEW034 SCT046 BKN070 34/22 A2996 RMK AO2

2010/08/09 18:45
KCVB 091845Z AUTO 00000KT 10SM CLR 34/19 A2996 RMK AO2 T03370190

2010/08/09 18:45
KCWC 091845Z AUTO 23004KT 10SM SCT075 BKN090 37/17 A2991 RMK AO2 T03680170

2010/08/09 18:45
KDKB 091845Z AUTO 24003KT 10SM CLR 28/21 A2993 RMK AO2 T02800211

2010/08/09 18:45
KDKR 091845Z AUTO 22005KT 10SM CLR 34/34 A2999 RMK AO2

2010/08/09 18:45
KDNV 091845Z AUTO 23006KT 10SM SCT036 SCT090 32/24 A2991 RMK AO2 T03180237

2010/08/09 18:47
KDUX 091847Z AUTO 16009G18KT 130V190 10SM CLR 33/15 A3001 RMK AO2 T03300149

2010/08/09 18:45
KDZB 091845Z AUTO 16007KT 7SM CLR 35/17 A2995 RMK AO2 T03460172

2010/08/09 18:50
KEBG 091850Z AUTO 18006KT 10SM SCT045 SCT060 36/23 A2989 RMK AO2 T03640234

2010/08/09 18:45
KECU 091845Z AUTO 16011G21KT 10SM FEW085 32/19 A3007 RMK AO2

2010/08/09 18:45
KENL 091845Z AUTO 15004KT 10SM CLR 33/24 A2993 RMK AO2 T03330243

2010/08/09 18:45
KFEP 091845Z AUTO 29010G15KT 10SM CLR 29/23 A2995 RMK AO2 T02930227

2010/08/09 18:45
KFOA 091845Z AUTO 12007KT 10SM CLR 37/26 A2993 RMK AO2 T03650260

2010/08/09 18:45
KFWC 091845Z AUTO 17004KT 10SM CLR 34/25 A2993 RMK AO2

2010/08/09 18:45
KGBG 091845Z AUTO 12004KT 10SM SCT100 28/23 A2991 RMK AO2

2010/08/09 18:45
KGOP 091845Z AUTO 19007KT 10SM CLR 35/21 A2997 RMK AO2

2010/08/09 18:45
KHSB 091845Z AUTO 24004KT 10SM BKN050 35/18 A2993 RMK AO2

2010/08/09 18:45
KIGQ 091845Z AUTO 22007KT 188V258 10SM CLR 31/21 A2993 RMK AO2

2010/08/09 18:45
KIJX 091845Z AUTO 00000KT 10SM CLR 32/26 A2991 RMK AO2 T03190257

2010/08/09 18:45
KIKK 091845Z AUTO 00000KT 10SM CLR 33/22 A2993 RMK AO2

2010/08/09 18:45
KJAS 091845Z AUTO 32003KT 10SM CLR 36/22 A2998 RMK AO2 T03550215

2010/08/09 18:45
KJDD 091845Z AUTO RMK AO2 PWINO TSNO

2010/08/09 18:45
KJSO 091845Z AUTO 18003KT 10SM CLR 33/21 A2999 RMK AO2 T03330208

2010/08/09 18:45
KJXI 091845Z AUTO 13005KT 10SM CLR 35/23 A2997 RMK AO2

2010/08/09 18:45
KLNC 091845Z AUTO 17006KT 10SM BKN049 BKN060 34/22 A2993 RMK AO2 T03440219

2010/08/09 18:45
KLUD 091845Z AUTO 15004KT 10SM SCT050 SCT070 35/19 A2994 RMK AO2 T03490191

2010/08/09 18:55
KMNZ 091855Z AUTO 14005KT 10SM SCT065 36/18 A2996 RMK AO2

2010/08/09 18:45
KPNT 091845Z AUTO 33003KT 10SM CLR 33/20 A2993 RMK AO2

2010/08/09 18:45
KPRG 091845Z AUTO 19005KT 10SM CLR 33/24 A2994 RMK AO2 T03340243

2010/08/09 18:47
KADS 091847Z 16007G14KT 10SM SCT060 36/18 A2993

2010/08/09 18:45
KCGF 091845Z 29006KT 10SM FEW060 BKN150 32/19 A3000

2010/08/09 18:45
KLOT 091845Z AUTO 29006KT 10SM CLR 29/22 A2993 RMK AO2 T02920220

2010/08/09 18:47
KM30 091847Z AUTO 23004KT 10SM CLR 35/21 A2992 RMK AO2

2010/08/09 18:45
KMDD 091845Z AUTO 17010KT 10SM SCT050 34/17 A3001 RMK AO2 T03400170

2010/08/09 18:45
KPEQ 091845Z AUTO 00000KT 10SM CLR 30/18 A2999 RMK AO2 LTG DSNT SW T03030183

2010/08/09 18:45
KPEZ 091845Z AUTO 11003KT 10SM CLR 36/18 A2994 RMK AO2 T03550181

2010/08/09 18:48
KPKV 091848Z AUTO 11009KT 10SM SCT043 BKN050 BKN060 32/24 A2994 RMK AO2 T03190235

2010/08/09 18:55
KPYX 091855Z AUTO 16013KT 10SM CLR 37/14 A2995 RMK AO2

2010/08/09 18:45
KRAS 091845Z AUTO 11006KT 8SM CLR 32/26 A2997 RMK AO2

2010/08/09 18:45
KRPH 091845Z AUTO 21003KT 10SM SCT055 SCT065 34/18 A2992 RMK AO2 T03430181

2010/08/09 18:45
KRYW 091845Z AUTO 12007KT 7SM CLR 34/18 A2998 RMK AO2

2010/08/09 18:45
KSAR 091845Z AUTO 12006KT 7SM SCT046 35/24 A2992 RMK AO2

2010/08/09 18:45
KSLO 091845Z AUTO 00000KT 10SM SCT038 34/23 A2993 RMK AO2 T03400229

2010/08/09 18:46
KSNK 091846Z AUTO 17009KT 140V200 10SM SCT060 35/19 A2999 RMK AO2 T03480189

2010/08/09 18:45
KSWW 091845Z AUTO 13011G16KT 10SM SCT060 BKN095 BKN120 34/18 A3001 RMK AO1 T03400175

2010/08/09 18:45
KT65 091845Z AUTO 18007G14KT 7SM SCT038 35/24 A2988 RMK AO2 T03470244

2010/08/09 18:45
KT82 091845Z AUTO 18004KT 10SM CLR 33/16 A3001 RMK AO1 T03260164

2010/08/09 18:45
KTAZ 091845Z AUTO 00000KT 10SM CLR 34/27 A2990 RMK AO2

2010/08/09 18:45
KTFP 091845Z AUTO 15011G14KT 10SM SCT029 34/25 A2993 RMK AO2 T03420245

2010/08/09 18:45
KTIP 091845Z AUTO 23005KT 10SM CLR 34/27 A2994 RMK AO2 T03430273

2010/08/09 18:45
KUVA 091845Z AUTO 13009G14KT 10SM CLR 35/20 A2994 RMK AO2 T03530195

2010/08/09 18:48
KCRG 091848Z 34004KT 5SM +RA BR FEW004 BKN018 OVC030 27/26 A2995 RMK AO2 RAB08 P0026

2010/08/09 18:48
KSTS 091848Z 18004KT 10SM BKN011 16/12 A2993 RMK AO2

2010/08/09 18:45
KCZK 091845Z 24010G20KT 10SM BKN030 19/12 RMK SLP162 NO SPECI CLD HGT AND VIS VISUALLY ESTMD

2010/08/09 18:47
KCQT 091847Z AUTO 00000KT 8SM CLR 24/14 A2992 RMK AO2 SLP128 T02390139 TSNO $

2010/08/09 18:48
KCHS 091848Z VRB06KT 3SM -RA FEW010 OVC034 29/26 A2999 RMK AO2 RAB35 TCU S P0014

2010/08/09 19:00
HAAB 091900Z 21006KT 9/9 FEW023 CB BKN025 17/12 Q1024

2010/08/09 18:45
KORG 091845Z AUTO 00000KT 10SM SCT046 SCT055 36/24 A2996 RMK AO2

2010/08/09 18:45
KOXI 091845Z AUTO 22004KT 7SM SCT049 SCT055 BKN100 29/22 A2995 RMK AO1 T02890222

2010/08/09 18:45
KRCR 091845Z AUTO 13003KT 7SM SCT110 31/23 A2996 RMK AO2

2010/08/09 18:45
K1H2 091845Z AUTO 16005KT 10SM SCT038 35/25 A2993 RMK AO2 T03460251

2010/08/09 18:45
K3LF 091845Z AUTO 22005KT 10SM CLR 33/25 A2992 RMK AO2

2010/08/09 18:45
K3T5 091845Z AUTO 18008KT 10SM CLR 34/23 A2993 RMK AO2 T03400228

2010/08/09 18:45
KAJG 091845Z AUTO 23005KT 10SM CLR 33/24 A2994 RMK AO2 T03310242

2010/08/09 18:45
KAQO 091845Z AUTO 20006KT CLR 36/18 A2997 RMK AO2 PWINO

2010/08/09 18:47
KASW 091847Z AUTO 00000KT 7SM SCT050 OVC110 28/22 A2998 RMK AO2 T02810218

2010/08/09 18:45
KAXH 091845Z AUTO 00000KT 10SM SCT050 35/22 A2995 RMK AO2 T03490224

2010/08/09 18:45
KBBD 091845Z AUTO VRB06KT 10SM FEW055 34/18 A2997 RMK

2010/08/09 18:46
KBPC 091846Z AUTO 19007G16KT 10SM CLR 35/15 A2994 RMK AO2

2010/08/09 18:45
KC75 091845Z AUTO 11004KT 10SM CLR 30/22 A2992 RMK AO2 T02970219

2010/08/09 18:45
KERV 091845Z AUTO 15008KT 10SM CLR 33/19 A2999 RMK AO2 T03310185

2010/08/09 18:45
KGNC 091845Z AUTO 16011G17KT 10SM SCT120 33/18 A3005 RMK AO2 T03270176

2010/08/09 18:45
KGWB 091845Z AUTO 00000KT 10SM CLR 31/18 A2997 RMK AO2

2010/08/09 18:45
KGYB 091845Z AUTO 18005KT 10SM SCT049 34/21 A2998 RMK AO2 T03420212

2010/08/09 18:45
KHHF 091845Z AUTO 20010G16KT 140V230 10SM CLR 37/16 A2991 RMK AO2 T03660164

2010/08/09 18:46
KHQZ 091846Z AUTO 14011KT 10SM SCT049 36/21 A2993 RMK AO2

2010/08/09 18:45
KINJ 091845Z AUTO 17006KT 10SM SCT049 35/22 A2994 RMK AO2 T03490215

2010/08/09 18:45
KJOT 091845Z AUTO 19005KT 10SM CLR 28/21 A2993 RMK AO2

2010/08/09 18:45
KJVL 091845Z 27007KT 10SM BKN026 29/23 A2991

2010/08/09 18:45
KATW 091845Z 28005KT 10SM BKN026 28/22 A2991

2010/08/09 18:47
KCIC 091847Z VRB04KT 40SM FEW070 A2988

2010/08/09 18:47
KGEU 091847Z 10004KT 20SM SCT120 36/03 A2988

2010/08/09 18:45
KUES 091845Z 25006KT 10SM SCT025 27/21 A2993

2010/08/09 18:45
KRPJ 091845Z AUTO 30006KT 10SM CLR 29/23 A2994 RMK AO2 T02860231

2010/08/09 18:45
KRSV 091845Z AUTO 21003KT 10SM CLR 35/24 A2995 RMK AO2 T03480240

2010/08/09 18:47
KSUA 091847Z 12010G20KT 7SM SCT025 32/24 A2992

2010/08/09 18:45
KBYY 091845Z AUTO 17004KT 10SM CLR 34/26 A2994 RMK AO2 T03400261

2010/08/09 18:45
KCPT 091845Z AUTO 19005KT 10SM FEW034 SCT046 BKN070 34/22 A2996 RMK AO2

2010/08/09 18:45
KCVB 091845Z AUTO 00000KT 10SM CLR 34/19 A2996 RMK AO2 T03370190

2010/08/09 18:45
KCWC 091845Z AUTO 23004KT 10SM SCT075 BKN090 37/17 A2991 RMK AO2 T03680170

2010/08/09 18:45
KDKB 091845Z AUTO 24003KT 10SM CLR 28/21 A2993 RMK AO2 T02800211

2010/08/09 18:45
KDKR 091845Z AUTO 22005KT 10SM CLR 34/34 A2999 RMK AO2

2010/08/09 18:45
KDNV 091845Z AUTO 23006KT 10SM SCT036 SCT090 32/24 A2991 RMK AO2 T03180237

2010/08/09 18:47
KDUX 091847Z AUTO 16009G18KT 130V190 10SM CLR 33/15 A3001 RMK AO2 T03300149

2010/08/09 18:45
KDZB 091845Z AUTO 16007KT 7SM CLR 35/17 A2995 RMK AO2 T03460172

2010/08/09 18:50
KEBG 091850Z AUTO 18006KT 10SM SCT045 SCT060 36/23 A2989 RMK AO2 T03640234

2010/08/09 18:45
KECU 091845Z AUTO 16011G21KT 10SM FEW085 32/19 A3007 RMK AO2

2010/08/09 18:45
KENL 091845Z AUTO 15004KT 10SM CLR 33/24 A2993 RMK AO2 T03330243

2010/08/09 18:45
KFEP 091845Z AUTO 29010G15KT 10SM CLR 29/23 A2995 RMK AO2 T02930227

2010/08/09 18:45
KFOA 091845Z AUTO 12007KT 10SM CLR 37/26 A2993 RMK AO2 T03650260

2010/08/09 18:45
KFWC 091845Z AUTO 17004KT 10SM CLR 34/25 A2993 RMK AO2

2010/08/09 18:45
KGBG 091845Z AUTO 12004KT 10SM SCT100 28/23 A2991 RMK AO2

2010/08/09 18:45
KGOP 091845Z AUTO 19007KT 10SM CLR 35/21 A2997 RMK AO2

2010/08/09 18:45
KHSB 091845Z AUTO 24004KT 10SM BKN050 35/18 A2993 RMK AO2

2010/08/09 18:45
KIGQ 091845Z AUTO 22007KT 188V258 10SM CLR 31/21 A2993 RMK AO2

2010/08/09 18:45
KIJX 091845Z AUTO 00000KT 10SM CLR 32/26 A2991 RMK AO2 T03190257

2010/08/09 18:45
KIKK 091845Z AUTO 00000KT 10SM CLR 33/22 A2993 RMK AO2

2010/08/09 18:45
KJAS 091845Z AUTO 32003KT 10SM CLR 36/22 A2998 RMK AO2 T03550215

2010/08/09 18:45
KJDD 091845Z AUTO RMK AO2 PWINO TSNO

2010/08/09 18:45
KJSO 091845Z AUTO 18003KT 10SM CLR 33/21 A2999 RMK AO2 T03330208

2010/08/09 18:45
KJXI 091845Z AUTO 13005KT 10SM CLR 35/23 A2997 RMK AO2

2010/08/09 18:48
KJDN 091848Z AUTO VRB03KT 31/07 A2987 RMK AO2 SLP094 T03060072 PWINO TSNO 

2010/08/09 18:45
KMHR 091845Z 19005KT 10SM SKC 23/12 A2989

2010/08/09 18:45
KMSN 091845Z 30007KT 10SM BKN025 28/22 A2992 RMK AO2

2010/08/09 18:48
KCHS 091848Z VRB06KT 3SM -RA FEW010 OVC034 29/26 A2999 RMK AO2 RAB35 TCU S P0014

2010/08/09 18:45
KLNC 091845Z AUTO 17006KT 10SM BKN049 BKN060 34/22 A2993 RMK AO2 T03440219

2010/08/09 18:45
KLUD 091845Z AUTO 15004KT 10SM SCT050 SCT070 35/19 A2994 RMK AO2 T03490191

2010/08/09 18:55
KMNZ 091855Z AUTO 14005KT 10SM SCT065 36/18 A2996 RMK AO2

2010/08/09 18:45
KPNT 091845Z AUTO 33003KT 10SM CLR 33/20 A2993 RMK AO2

2010/08/09 18:45
KPRG 091845Z AUTO 19005KT 10SM CLR 33/24 A2994 RMK AO2 T03340243

2010/08/09 18:47
KADS 091847Z 16007G14KT 10SM SCT060 36/18 A2993

2010/08/09 18:45
KCGF 091845Z 29006KT 10SM FEW060 BKN150 32/19 A3000

2010/08/09 18:45
KLOT 091845Z AUTO 29006KT 10SM CLR 29/22 A2993 RMK AO2 T02920220

2010/08/09 18:47
KM30 091847Z AUTO 23004KT 10SM CLR 35/21 A2992 RMK AO2

2010/08/09 18:45
KMDD 091845Z AUTO 17010KT 10SM SCT050 34/17 A3001 RMK AO2 T03400170

2010/08/09 18:45
KPEQ 091845Z AUTO 00000KT 10SM CLR 30/18 A2999 RMK AO2 LTG DSNT SW T03030183

2010/08/09 18:45
KPEZ 091845Z AUTO 11003KT 10SM CLR 36/18 A2994 RMK AO2 T03550181

2010/08/09 18:48
KPKV 091848Z AUTO 11009KT 10SM SCT043 BKN050 BKN060 32/24 A2994 RMK AO2 T03190235

2010/08/09 18:55
KPYX 091855Z AUTO 16013KT 10SM CLR 37/14 A2995 RMK AO2

2010/08/09 18:45
KRAS 091845Z AUTO 11006KT 8SM CLR 32/26 A2997 RMK AO2

2010/08/09 18:45
KRPH 091845Z AUTO 21003KT 10SM SCT055 SCT065 34/18 A2992 RMK AO2 T03430181

2010/08/09 18:45
KRYW 091845Z AUTO 12007KT 7SM CLR 34/18 A2998 RMK AO2

2010/08/09 18:45
KSAR 091845Z AUTO 12006KT 7SM SCT046 35/24 A2992 RMK AO2

2010/08/09 18:45
KSLO 091845Z AUTO 00000KT 10SM SCT038 34/23 A2993 RMK AO2 T03400229

2010/08/09 18:46
KSNK 091846Z AUTO 17009KT 140V200 10SM SCT060 35/19 A2999 RMK AO2 T03480189

2010/08/09 18:45
KSWW 091845Z AUTO 13011G16KT 10SM SCT060 BKN095 BKN120 34/18 A3001 RMK AO1 T03400175

2010/08/09 18:45
KT65 091845Z AUTO 18007G14KT 7SM SCT038 35/24 A2988 RMK AO2 T03470244

2010/08/09 18:45
KT82 091845Z AUTO 18004KT 10SM CLR 33/16 A3001 RMK AO1 T03260164

2010/08/09 18:45
KTAZ 091845Z AUTO 00000KT 10SM CLR 34/27 A2990 RMK AO2

2010/08/09 18:45
KTFP 091845Z AUTO 15011G14KT 10SM SCT029 34/25 A2993 RMK AO2 T03420245

2010/08/09 18:45
KTIP 091845Z AUTO 23005KT 10SM CLR 34/27 A2994 RMK AO2 T03430273

2010/08/09 18:45
KUVA 091845Z AUTO 13009G14KT 10SM CLR 35/20 A2994 RMK AO2 T03530195

2010/08/09 18:45
KCZK 091845Z 24010G20KT 10SM BKN030 19/12 RMK SLP162 NO SPECI CLD HGT AND VIS VISUALLY ESTMD

2010/08/09 18:47
KPSN 091847Z AUTO 20005KT 34/22 A2997 RMK AO2 PWINO

2010/08/09 18:45
KCUL 091845Z AUTO 22005KT 10SM CLR 34/22 A2993 RMK AO2 T03390223 PWINO

2010/08/09 18:47
KCQT 091847Z AUTO 00000KT 8SM CLR 24/14 A2992 RMK AO2 SLP128 T02390139 TSNO $

2010/08/09 18:46
KSFY 091846Z AUTO 01004KT 10SM CLR 29/23 A2991 RMK AO2

2010/08/09 18:47
KNEW 091847Z 07027G33KT 1SM +TSRA BR FEW004 BKN017 BKN075 28/26 A2998 RMK AO2 PK WND 07033/1846 WSHFT 1833 TSB27RAB38 OCNL LTGCG NE TS NE MOV SW P0017

2010/08/09 18:48
KCRG 091848Z 34004KT 5SM +RA BR FEW004 BKN018 OVC030 27/26 A2995 RMK AO2 RAB08 P0026

2010/08/09 18:48
KSTS 091848Z 18004KT 10SM BKN011 16/12 A2993 RMK AO2

2010/08/09 18:48
KIGM 091848Z AUTO VRB06KT CLR 32/M06 A3003 RMK AO2 SLP093 T03171056 TSNO $ 

2010/08/09 18:48
CYFC 091848Z AUTO 19011KT 9SM SCT007 BKN011 BKN017 OVC045 22/20 A2987 RMK SLP116 DENSITY ALT 900FT RVR MISG

2010/08/09 18:48
KCHS 091848Z VRB06KT 3SM -RA FEW010 OVC034 29/26 A2999

2010/08/09 18:48
MMMX 091848Z 34004KT 4SM SCT025CB SCT080 BKN200 24/13 A3027 NOSIG RMK 8/363 HZY

2010/08/09 18:45
MMMX 091845Z 34004KT 4SM SCT025CB SCT080 BKN200 24/13 A3027 NOSIG RMK 8/363 HZY

2010/08/09 18:47
KNEW 091847Z 07027G33KT 1SM +TSRA BR FEW004 BKN017 BKN075 28/26 A2998

2010/08/09 18:48
CYAZ 091848Z 15006KT 5SM BR FEW003 BKN007 OVC015 RMK SF2SF2SC2 CIG AND VIS LWR E

2010/08/09 18:50
HLLB 091850Z 33015KT 9999 SCT020 25/19 Q1013

2010/08/09 18:49
LEGE 091849Z 21005KT 3000 TSRA SCT012 FEW028CB BKN034 21/20 Q1017

2010/08/09 18:48
KCHS 091848Z VRB06KT 3SM -RA FEW010 OVC034 29/26 A2999

2010/08/09 18:47
KNEW 091847Z 07027G33KT 1SM +TSRA BR FEW004 BKN017 BKN075 28/26 A2998

2010/08/09 18:46
CWOB 091846Z AUTO ///// 1/8SM CLR 05/ A2970

2010/08/09 18:47
CYDF 091847Z 24015G20KT 12SM -SHRA BKN036 BKN052 OVC100 RMK SC5SC2AC2

2010/08/09 18:48
CYFC 091848Z AUTO 19011KT 9SM SCT007 BKN011 BKN017 OVC045 22/20 A2987 RMK SLP116 DENSITY ALT 900FT RVR MISG

2010/08/09 18:45
CYQM 091845Z 20013KT 15SM FEW015 BKN040 BKN100 22/ RMK CU2SC3AC2

2010/08/09 18:45
CYQQ 091845Z 35009KT 20SM FEW040 SCT100 RMK SC2AC2

2010/08/09 18:45
CYSN 091845Z 21010KT 10SM -SHRA OVC060 RMK SC8

2010/08/09 18:48
CYUS 091848Z AUTO ///// 9SM CLR 19/ A2993

2010/08/09 18:45
MMMX 091845Z 34004KT 4SM SCT025CB SCT080 BKN200 24/13 A3027 NOSIG RMK 8/363 HZY

2010/08/09 18:48
KCHS 091848Z VRB06KT 3SM -RA FEW010 OVC034 29/26 A2999

2010/08/09 18:50
MSSA 091850Z 06006KT 9999 FEW037 30/21 Q1014

2010/08/09 18:50
MSSS 091850Z 15004KT 9999 FEW027 BKN300 29/24 Q1016

2010/08/09 18:50
MSSM 091850Z 00000KT CAVOK 33/25 Q1009

2010/08/09 18:50
MSLU 091850Z 10007KT CAVOK 33/27 Q1009

2010/08/09 18:50
MSLP 091850Z 13006KT 9999 FEW027 SCT300 33/23 Q1011 MDT CU TO NW/N

2010/08/09 18:50
OAKB 091850Z VRB03KT 9999 SCT070 BKN130 23/18 Q1013 NOSIG RMK BLU BLU 

2010/08/09 18:50
KLZU 091850Z 06005KT 10SM FEW050 34/21 A3004

2010/08/09 18:50
PAKU 091850Z 06020KT 3/8SM FG VV002 03/03 A2976

2010/08/09 18:50
KGYH 091850Z 32004KT 10SM SCT050 34/19 A3003

2010/08/09 18:47
KGYR 091847Z 24005KT 20SM SCT120 39/06 A2987

2010/08/09 18:45
KGYY 091845Z 24009KT 10SM SCT090 BKN250 31/21 A2992

2010/08/09 18:50
KHXD 091850Z 06011G17KT 030V100 10SM SCT030 31/26 A2999

2010/08/09 18:47
KPOC 091847Z 25005KT 7SM SKC A2995

2010/08/09 18:48
KCHS 091848Z VRB06KT 3SM -RA FEW010 OVC034 29/26 A2999 RMK AO2 RAB35 TCU S P0014

2010/08/09 18:49
KNEW 091849Z 08025G33KT 1/2SM +TSRA FG BKN019 BKN027 BKN070 27/26 A2999 RMK AO2 PK WND 07033/1846 WSHFT 1833 TSB27E48B49RAB38 OCNL LTGCG NE TS NE MOV SW P0019

2010/08/09 18:48
PADU 091848Z 25006KT 10SM FEW013 SCT022 BKN035 10/08 A2953 RMK AO2 MH

2010/08/09 18:48
PATO 091848Z AUTO 10011G32KT 050V140 2 1/2SM -RA BKN021 OVC026 13/10 A2973 RMK AO2 PK WND 11039/1833 P0003 T01280100 TSNO

2010/08/09 18:49
KMBS 091849Z 19008KT 2 1/2SM -RA BR FEW015 BKN028 OVC060 24/22 A2994 RMK AO2 SFC VIS 4 RAB23 P0001

2010/08/09 18:49
KOPF 091849Z 18009KT 10SM SCT013 BKN021 27/25 A2993 RMK AO2 RAE10 P0000

2010/08/09 19:00
SBSL 091900Z 34010KT 9999 SCT020 30/24 Q1011

2010/08/09 18:50
EYPA 091850Z 22003KT 190V280 CAVOK 18/16 Q1014

2010/08/09 18:50
MSLP 091850Z 13006KT 9999 FEW027 SCT300 33/23 Q1011 A2986 MDT CU TO NW/N

2010/08/09 18:50
MSSS 091850Z 15004KT 9999 FEW027 BKN300 29/24 Q1016 A3001

2010/08/09 18:50
EYKA 091850Z 15003KT CAVOK 18/18 Q1016

2010/08/09 18:50
EETN 091850Z 18007KT 9999 FEW020 SCT049 BKN068 20/16 Q1012 NOSIG

2010/08/09 18:50
CYFC 091850Z AUTO 19010G16KT 9SM BKN009 BKN017 OVC045 22/20 A2987 RMK SLP116 DENSITY ALT 900FT RVR MISG

2010/08/09 18:45
MMMX 091845Z 34004KT 4SM SCT025CB SCT080 BKN200 24/13 A3027 NOSIG RMK 8/363 HZY

2010/08/09 18:45
KSWF 091845Z 27010G18KT 10SM FEW120 32/16 A2998

2010/08/09 18:49
LEGE 091849Z 21005KT 3000 TSRA SCT012 FEW028CB BKN034 21/20 Q1017

2010/08/09 18:45
K1H2 091845Z AUTO 16005KT 10SM SCT038 35/25 A2993

2010/08/09 18:45
KC75 091845Z AUTO 11004KT 10SM CLR 30/22 A2992

2010/08/09 18:45
KDKB 091845Z AUTO 24003KT 10SM CLR 28/21 A2993

2010/08/09 18:45
KDNV 091845Z AUTO 23006KT 10SM SCT036 SCT090 32/24 A2991

2010/08/09 18:45
KENL 091845Z AUTO 15004KT 10SM CLR 33/24 A2993

2010/08/09 18:45
KFEP 091845Z AUTO 29010G15KT 10SM CLR 29/23 A2995

2010/08/09 18:45
KFOA 091845Z AUTO 12007KT 10SM CLR 37/26 A2993

2010/08/09 18:45
KFWC 091845Z AUTO 17004KT 10SM CLR 34/25 A2993

2010/08/09 18:45
KGBG 091845Z AUTO 12004KT 10SM SCT100 28/23 A2991

2010/08/09 18:45
KHSB 091845Z AUTO 24004KT 10SM BKN050 35/18 A2993

2010/08/09 18:45
KIGQ 091845Z AUTO 22007KT 188V258 10SM CLR 31/21 A2993

2010/08/09 18:45
KIJX 091845Z AUTO 00000KT 10SM CLR 32/26 A2991

2010/08/09 18:45
KIKK 091845Z AUTO 00000KT 10SM CLR 33/22 A2993

2010/08/09 18:45
KJOT 091845Z AUTO 19005KT 10SM CLR 28/21 A2993

2010/08/09 18:45
KLOT 091845Z AUTO 29006KT 10SM CLR 29/22 A2993

2010/08/09 18:45
KPNT 091845Z AUTO 33003KT 10SM CLR 33/20 A2993

2010/08/09 18:45
KPRG 091845Z AUTO 19005KT 10SM CLR 33/24 A2994

2010/08/09 18:45
KSAR 091845Z AUTO 12006KT 7SM SCT046 35/24 A2992

2010/08/09 18:45
KSLO 091845Z AUTO 00000KT 10SM SCT038 34/23 A2993

2010/08/09 18:45
KTAZ 091845Z AUTO 00000KT 10SM CLR 34/27 A2990

2010/08/09 18:45
KTIP 091845Z AUTO 23005KT 10SM CLR 34/27 A2994

2010/08/09 18:45
KBYY 091845Z AUTO 17004KT 10SM CLR 34/26 A2994

2010/08/09 18:45
KLNC 091845Z AUTO 17006KT 10SM BKN049 BKN060 34/22 A2993

2010/08/09 18:48
KIGM 091848Z AUTO VRB06KT CLR 32/M06 A3003

2010/08/09 18:48
KJDN 091848Z AUTO VRB03KT 31/07 A2987

2010/08/09 18:45
KSWF 091845Z 27010G18KT 10SM FEW120 32/16 A2998

2010/08/09 18:45
KIKK 091845Z AUTO 00000KT 10SM CLR 33/22 A2993

2010/08/09 18:50
EETN 091850Z 18007KT 9999 FEW020 SCT049 BKN068 20/16 Q1012 NOSIG

2010/08/09 18:50
LLBG 091850Z 33004KT 9999 SCT026 28/22 Q1007 NOSIG

2010/08/09 18:50
LLOV 091850Z 29009KT CAVOK 27/17 Q1008

2010/08/09 18:50
LLET 091850Z 32006KT CAVOK 35/16 Q1004

2010/08/09 18:50
LLSD 091850Z 30005KT 9999 SCT026 28/22 Q1006

2010/08/09 18:50
EYKA 091850Z 15003KT CAVOK 18/18 Q1016

2010/08/09 18:50
EYPA 091850Z 22003KT 190V280 CAVOK 18/16 Q1014

2010/08/09 18:45
LMML 091845Z 31004KT CAVOK 24/18 Q1015 NOSIG 

2010/08/09 18:50
HLLB 091850Z 33015KT 9999 SCT020 25/19 Q1013

2010/08/09 18:49
KDOV 091849Z AUTO 11007KT 10SM FEW150 31/21 A2999 RMK AO2 RAE1756B1827E1849 SLP159

2010/08/09 18:48
KCHS 091848Z VRB06KT 3SM -RA FEW010 OVC034 29/26 A2999 RMK AO2 RAB35 TCU S P0014

2010/08/09 18:49
KDOV 091849Z AUTO 11007KT 10SM FEW150 31/21 A2999 RMK AO2 RAE1756B1827E1849 SLP159

2010/08/09 18:50
KQEN 091850Z AUTO 24008KT 1SM BR FEW001 BKN075 19/18 A3043 RMK A02

2010/08/09 18:50
KQES 091850Z AUTO 16005KT 7SM SCT070 SCT100 26/22 A2983 RMK A02

2010/08/09 18:50
KQEY 091850Z AUTO 14004KT 7SM -SHRA OVC032 25/22 A2961 RMK A02

2010/08/09 19:00
KQEV 091900Z AUTO 27002KT 5SM BR BKN100 26/23 A2978 RMK A02

2010/08/09 18:51
CYQA 091851Z AUTO 25004KT 240V310 9SM BKN022 BKN027 BKN056 26/22 A2992 RMK SLP132 DENSITY ALT 2400FT

2010/08/09 18:48
CWSA 091848Z AUTO 12011KT 9SM -RA FEW029 FEW044 FEW051 BKN073 20/17 A3005

2010/08/09 18:50
CYPQ 091850Z AUTO ///// 5SM FEW021 BKN027 BKN054 BKN060 25/22 A2990 RMK ICG

2010/08/09 18:50
VECC 091850Z 20005KT 2800 HZ FEW020 30/26 Q1001 NOSIG

2010/08/09 18:48
KEHA 091848Z AUTO 15011KT 35/16 RMK AO1 PK WND 15 000 T03500156

2010/08/09 18:49
PAPM 091849Z AUTO 18022G27KT 1 1/2SM -RA BR BKN009 BKN014 OVC075 09/09 A2939 RMK AO2 TSNO CIG 004V010 RAB46 P0000 PK WND 18027/1758 $

2010/08/09 18:49
PAYA 091849Z 10006KT 5SM HZ FEW011 OVC026 14/12 A2993 RMK AO2 BAY TWR WND 120MMKT

2010/08/09 18:50
KAID 091850Z 16006KT 10SM CLR 31/22 A2987

2010/08/09 18:50
KISM 091850Z 15019G23KT 7SM FEW024 BKN031 28/24 A2991

2010/08/09 18:51
KSBD 091851Z 26008KT 5SM HZ SKC 26/06 A2992

2010/08/09 18:50
KTRK 091850Z 00000KT 10SM FEW050 20/08 A3010 NOSPECI

2010/08/09 18:50
KVQQ 091850Z 07013G19KT 030V110 10SM VCSH SCT032 BKN040 BKN050 32/26 A2994 RMK VCSH E

2010/08/09 18:47
PAEL 091847Z 00000KT 10SM FEW002 FEW007 OVC023 12/11 A2995 RMK NOSPECI

2010/08/09 18:50
PATW 091850Z 18005KT 5SM -RA BCFG SCT000 OVC020 09/08 A2969 RMK BCGF ALQDS EPC NOSPECI

2010/08/09 18:48
KIGM 091848Z AUTO VRB06KT CLR 32/M06 A3003 RMK AO2 SLP093 T03171056 TSNO $

2010/08/09 18:48
KJDN 091848Z AUTO VRB03KT 31/07 A2987 RMK AO2 SLP094 T03060072 PWINO TSNO

2010/08/09 18:48
KEHA 091848Z AUTO 15011KT 35/16 RMK AO1 PK WND 15 000 T03500156

2010/08/09 18:50
EYVI 091850Z 14003KT 4000 BR MIFG NSC 17/16 Q1017 NOSIG

2010/08/09 19:00
MPTO 091900Z 17004KT 9999 SCT016TCU BKN090 29/25 Q1011 NOSIG

2010/08/09 18:50
OAKB 091850Z VRB03KT 9999 SCT070 BKN130 23/18 Q1013 NOSIG RMK BLU BLU 

2010/08/09 18:49
YSDU 091849Z AUTO 08009KT 9999NDV // BKN014 BKN026 OVC054 11/10 Q1015

2010/08/09 18:45
MMCE 091845Z 10010KT 7SM SCT015 SCT200 31/26 A2985 RMK 8/105

2010/08/09 18:45
MMCM 091845Z 09010KT 7SM SCT015 31/26 A2984 RMK 8/500

2010/08/09 18:45
MMCT 091845Z 12006KT 7SM BKN020TCU BKN080 BKN250 33/26 A2989 RMK 8/268 CB N NE MSGTX MMMD

2010/08/09 18:49
MMCZ 091849Z 15007KT 8SM SCT015TCU BKN250 30/24 A2993 RMK 8/206

2010/08/09 18:48
MMMD 091848Z 11006KT 7SM BKN025 BKN300 34/25 A2988 RMK 8/202

2010/08/09 18:49
MMMT 091849Z 36010KT 10SM SCT020 SCT180 31/24 A2984 RMK 8/101

2010/08/09 18:49
MMTG 091849Z 00000KT 10SM FEW022 SCT070 SCT300 30/22 A2992 RMK 8/132

2010/08/09 18:45
MMUN 091845Z 14008KT 8SM SCT020TCU BKN250 33/22 A2992 RMK 8/202 DSNT RA W CB 4TH QUAD AC

2010/08/09 18:50
MMVA 091850Z 09008KT 4SM BKN020 OVC080 33/26 A2981 RMK 8/41/ HZY

2010/08/09 19:00
LQMO 091900Z VRB02KT CAVOK 27/14 Q1011

2010/08/09 18:50
KLZU 091850Z 06005KT 10SM FEW050 34/21 A3004

2010/08/09 18:50
PAKU 091850Z 06020KT 3/8SM FG VV002 03/03 A2976

2010/08/09 18:50
KGYH 091850Z 32004KT 10SM SCT050 34/19 A3003

2010/08/09 18:47
KGYR 091847Z 24005KT 20SM SCT120 39/06 A2987

2010/08/09 18:45
KGYY 091845Z 24009KT 10SM SCT090 BKN250 31/21 A2992

2010/08/09 18:50
KHXD 091850Z 06011G17KT 030V100 10SM SCT030 31/26 A2999

2010/08/09 18:47
KPOC 091847Z 25005KT 7SM SKC A2995

2010/08/09 18:51
KSBD 091851Z 26008KT 5SM HZ SKC 26/06 A2992

2010/08/09 18:50
KTRK 091850Z 00000KT 10SM FEW050 20/08 A3010 NOSPECI

2010/08/09 18:50
KVQQ 091850Z 07013G19KT 030V110 10SM VCSH SCT032 BKN040 BKN050 32/26 A2994 RMK VCSH E

2010/08/09 18:47
PAEL 091847Z 00000KT 10SM FEW002 FEW007 OVC023 12/11 A2995 RMK NOSPECI

2010/08/09 18:50
PATW 091850Z 18005KT 5SM -RA BCFG SCT000 OVC020 09/08 A2969 RMK BCGF ALQDS EPC NOSPECI

2010/08/09 18:48
KIGM 091848Z AUTO VRB06KT CLR 32/M06 A3003 RMK AO2 SLP093 T03171056 TSNO $

2010/08/09 18:48
KJDN 091848Z AUTO VRB03KT 31/07 A2987 RMK AO2 SLP094 T03060072 PWINO TSNO

2010/08/09 18:50
KAID 091850Z 16006KT 10SM CLR 31/22 A2987

2010/08/09 18:50
KISM 091850Z 15019G23KT 7SM FEW024 BKN031 28/24 A2991

2010/08/09 18:48
KEHA 091848Z AUTO 15011KT 35/16 RMK AO1 PK WND 15 000 T03500156

2010/08/09 18:48
KCHS 091848Z VRB06KT 3SM -RA FEW010 OVC034 29/26 A2999 RMK AO2 RAB35 TCU S P0014

2010/08/09 18:49
PAYA 091849Z 10006KT 5SM HZ FEW011 OVC026 14/12 A2993 RMK AO2 BAY TWR WND 120MMKT

2010/08/09 18:50
LLBG 091850Z 33004KT 9999 SCT026 28/22 Q1007 NOSIG

2010/08/09 18:50
LLET 091850Z 32006KT CAVOK 35/16 Q1004

2010/08/09 18:50
LLOV 091850Z 29009KT CAVOK 27/17 Q1008

2010/08/09 18:49
KNEW 091849Z 08025G33KT 1/2SM +TSRA FG BKN019 BKN027 BKN070 27/26 A2999 RMK AO2 PK WND 07033/1846 WSHFT 1833 TSB27E48B49RAB38 OCNL LTGCG NE TS NE MOV SW P0019

2010/08/09 18:48
PADU 091848Z 25006KT 10SM FEW013 SCT022 BKN035 10/08 A2953 RMK AO2 MH

2010/08/09 18:48
PATO 091848Z AUTO 10011G32KT 050V140 2 1/2SM -RA BKN021 OVC026 13/10 A2973 RMK AO2 PK WND 11039/1833 P0003 T01280100 TSNO

2010/08/09 18:49
KMBS 091849Z 19008KT 2 1/2SM -RA BR FEW015 BKN028 OVC060 24/22 A2994 RMK AO2 SFC VIS 4 RAB23 P0001

2010/08/09 18:49
KOPF 091849Z 18009KT 10SM SCT013 BKN021 27/25 A2993 RMK AO2 RAE10 P0000

2010/08/09 18:49
PAPM 091849Z AUTO 18022G27KT 1 1/2SM -RA BR BKN009 BKN014 OVC075 09/09 A2939 RMK AO2 TSNO CIG 004V010 RAB46 P0000 PK WND 18027/1758 $

2010/08/09 18:51
CYFC 091851Z AUTO 19009G16KT 9SM SCT009 BKN012 BKN017 OVC045 22/20 A2987 RMK SLP115 DENSITY ALT 900FT RVR MISG

2010/08/09 18:50
CYFC 091850Z AUTO 19010G16KT 9SM BKN009 BKN017 OVC045 22/20 A2987 RMK SLP116 DENSITY ALT 900FT RVR MISG

2010/08/09 18:45
LMML 091845Z 31004KT CAVOK 24/18 Q1015 NOSIG

2010/08/09 18:49
KDOV 091849Z AUTO 11007KT 10SM FEW150 31/21 A2999

2010/08/09 18:49
KNEW 091849Z 08025G33KT 1/2SM +TSRA FG BKN019 BKN027 BKN070 27/26 A2999

2010/08/09 18:49
KOPF 091849Z 18009KT 10SM SCT013 BKN021 27/25 A2993

2010/08/09 18:49
KMBS 091849Z 19008KT 2 1/2SM -RA BR FEW015 BKN028 OVC060 24/22 A2994

2010/08/09 18:51
KSAN 091851Z 27006KT 10SM FEW020 21/14 A2995 RMK AO2 SLP141 T02060139 

2010/08/09 18:50
HLLB 091850Z 33015KT 9999 SCT020 25/19 Q1013

2010/08/09 18:50
EYVI 091850Z 14003KT 4000 BR MIFG NSC 17/16 Q1017 NOSIG

2010/08/09 18:50
HLLB 091850Z 33015KT 9999 SCT020 25/19 Q1013

2010/08/09 19:00
LQMO 091900Z VRB02KT CAVOK 27/14 Q1011

2010/08/09 18:45
LMML 091845Z 31004KT CAVOK 24/18 Q1015 NOSIG 

2010/08/09 18:49
YSDU 091849Z AUTO 08009KT 9999NDV // BKN014 BKN026 OVC054 11/10 Q1015

2010/08/09 18:50
HLLB 091850Z 33015KT 9999 SCT020 25/19 Q1013

2010/08/09 18:50
HLLB 091850Z 33015KT 9999 SCT020 25/19 Q1013

2010/08/09 18:49
KNEW 091849Z 08025G33KT 1/2SM +TSRA FG BKN019 BKN027 BKN070 27/26 A2999

2010/08/09 18:49
KMBS 091849Z 19008KT 2 1/2SM -RA BR FEW015 BKN028 OVC060 24/22 A2994

2010/08/09 18:48
PADU 091848Z 25006KT 10SM FEW013 SCT022 BKN035 10/08 A2953

2010/08/09 18:55
KBLV 091855Z AUTO 20006KT 10SM CLR 35/26 A2991 RMK AO2 SLP124 T03490256

2010/08/09 18:56
KNSI 091856Z 17005KT 7SM FEW009 BKN0011 16/13 A2995 RMK AO2 SLP138 T01610128 TSNO

2010/08/09 18:50
LLBG 091850Z 33004KT 9999 SCT026 28/22 Q1007 NOSIG

2010/08/09 18:50
LLET 091850Z 32006KT CAVOK 35/16 Q1004

2010/08/09 18:50
LLOV 091850Z 29009KT CAVOK 27/17 Q1008

2010/08/09 19:00
MPTO 091900Z 17004KT 9999 SCT016TCU BKN090 29/25 Q1011 NOSIG

2010/08/09 18:50
MSAC 091850Z 10004KT 9999 FEW037 BKN300 30/23 Q1010

2010/08/09 18:50
MSLP 091850Z 13006KT 9999 FEW027 SCT300 33/23 Q1011 A2986 MDT CU TO NW/N

2010/08/09 18:50
MSSA 091850Z 06006KT 9999 FEW037 30/21 Q1014

2010/08/09 18:50
MSSM 091850Z 00000KT CAVOK 33/25 Q1009

2010/08/09 18:50
MSSS 091850Z 15004KT 9999 FEW027 BKN300 29/24 Q1016 A3001

2010/08/09 18:50
OAKB 091850Z VRB03KT 9999 SCT070 BKN130 23/18 Q1013 NOSIG RMK BLU BLU

2010/08/09 18:50
OAMS 091850Z 22011KT 9999 BKN190 34/01 Q1004 BLU BLU

2010/08/09 18:51
KGDP 091851Z AUTO 25009G19KT 10SM CLR 28/13 A3019 RMK AO2 SLP141 T02780133 TSNO 

2010/08/09 19:00
OKBK 091900Z 20005KT 8000 NSC 38/13 Q0998 NOSIG

2010/08/09 18:51
KCAK 091851Z 24009G19KT 10SM FEW065 SCT250 30/17 A3002 RMK AO2 SLP154 T03000172 

2010/08/09 18:51
KSGR 091851Z 18007KT 10SM FEW045 34/22 A2994 RMK AO2 

2010/08/09 18:51
KBVE 091851Z AUTO 22003KT -RA BKN026 24/24 A2998 RMK AO2 SLP152 P0050 T02440239 TSNO $ 

2010/08/09 18:51
KCON 091851Z AUTO 29009KT 10SM FEW065 33/16 A2991 RMK AO2 SLP125 T03330156 

2010/08/09 18:51
KCRP 091851Z 12014KT 10SM BKN040 33/25 A2992 RMK AO2 SLP130 T03330250 

2010/08/09 18:51
KSMX 091851Z VRB03KT 10SM FEW015 18/11 A2994 RMK AO2 SLP141 T01780111 

2010/08/09 18:51
KORF 091851Z 09007KT 10SM FEW035 31/20 A3002 RMK AO2 SLP166 T03110200 $ 

2010/08/09 18:51
KJCT 091851Z AUTO 17005KT 10SM FEW065 35/17 A2996 RMK AO2 SLP104 T03500172 TSNO 

2010/08/09 19:00
FAJS 091900Z 21016KT CAVOK 06/M10 Q1028 NOSIG

2010/08/09 18:50
KALN 091850Z 15006KT 7SM FEW050 BKN200 34/27 A2991

2010/08/09 18:51
KBAZ 091851Z AUTO VRB05KT 10SM CLR 35/20 A2994 RMK AO2 SLP126 T03500200

2010/08/09 18:46
KBJC 091846Z VRB04KT 50SM SCT060 BKN120 28/07 A3013 RMK TCU W

2010/08/09 18:46
KBKS 091846Z AUTO 16005KT 10SM SCT039 36/23 A2989 RMK AO1 T03580231

2010/08/09 18:51
KHDO 091851Z AUTO 16007KT 100V200 10SM CLR 36/20 A2996 RMK AO2 SLP127 T03560200

2010/08/09 18:48
KPVU 091848Z 21005KT 15SM SCT090 26/07 A3008

2010/08/09 18:47
KRYY 091847Z 11004KT 10SM SCT070 34/19 A3002

2010/08/09 18:50
KTIX 091850Z 13010KT 7SM SCT030 29/24 A2992

2010/08/09 18:45
KTYQ 091845Z AUTO 24003KT 10SM CLR 32/21 A2998 RMK AO2

2010/08/09 18:46
KXBP 091846Z AUTO 22004KT 10SM SCT060 SCT075 SCT100 36/19 A2993 RMK AO2 T03590194

2010/08/09 18:51
KORD 091851Z 29005KT 10SM FEW070 SCT150 SCT200 BKN250 30/21 A2992 RMK AO2 SLP124 T03000211

2010/08/09 18:51
KOXR 091851Z 26007KT 10SM BKN012 18/13 A2994 RMK AO2 SLP138 T01780128

2010/08/09 18:51
KPHX 091851Z 21005KT 10SM FEW120 SCT150 SCT180 37/05 A2986 RMK AO2 SLP090 T03720050 $

2010/08/09 18:51
KPIT 091851Z 23006KT 10SM FEW042 SCT150 BKN250 31/14 A3002 RMK AO2 SLP162 T03110139

2010/08/09 18:51
KPVD 091851Z 24010G17KT 10SM FEW049TCU SCT065 32/19 A2995 RMK AO2 TCU ALQDS SLP141 T03170194

2010/08/09 18:51
KPWM 091851Z 16007KT 10SM SCT065 BKN080 BKN090 30/19 A2989 RMK AO2 SLP122 T03000194 $

2010/08/09 18:51
KRDU 091851Z 18004KT 10SM SCT050 BKN250 34/20 A3003 RMK AO2 SLP162 T03390200

2010/08/09 18:51
KROW 091851Z 16006KT 10SM CLR 31/15 A3004 RMK AO2 SLP101 T03060150

2010/08/09 18:51
KSJT 091851Z VRB05KT 10SM FEW070 36/19 A2996 RMK AO2 SLP114 T03560189

2010/08/09 18:51
KSLK 091851Z AUTO 25009KT 7SM SCT037 SCT050 BKN085 27/19 A2995 RMK AO2 SLP132 T02670189

2010/08/09 18:51
KSMO 091851Z 24006KT 10SM FEW015 18/13 A2994 RMK AO2 SLP139 T01830128

2010/08/09 18:51
KSTL 091851Z VRB04KT 9SM FEW050 BKN130 BKN200 36/24 A2991 RMK AO2 SLP113 T03560239

2010/08/09 18:51
KTEB 091851Z 18010G17KT 10SM FEW070 33/18 A2994 RMK AO2 SLP138 T03280183

2010/08/09 18:50
KTZR 091850Z 22005KT 10SM SCT045 30/19 A3002

2010/08/09 18:51
KVNY 091851Z 17006KT 10SM CLR 25/13 A2991 RMK AO2 SLP121 T02500128

2010/08/09 18:51
KYNG 091851Z 19007KT 10SM FEW050 SCT100 BKN250 29/17 A3002 RMK AO2 SLP156 T02940167

2010/08/09 18:47
K1F0 091847Z AUTO 24006KT 10SM SCT060 37/20 A2990 RMK AO2

2010/08/09 18:58
K36U 091858Z AUTO 25016G22KT 10SM CLR 24/03 A3011 RMK AO2

2010/08/09 18:51
KACT 091851Z 16008KT 10SM FEW049 37/21 A2993 RMK AO2 SLP127 T03670211 $

2010/08/09 18:51
KAHN 091851Z 00000KT 6SM HZ SCT050 SCT065 33/20 A3002 RMK AO2 SLP156 T03330200

2010/08/09 18:51
KALB 091851Z 26010G15KT 9SM SCT065 SCT100 32/18 A2993 RMK AO2 SLP131 T03220178

2010/08/09 18:51
KASH 091851Z 24004KT 10SM SCT110 33/17 A2992 RMK AO2 T03270172 SLP132

2010/08/09 18:51
KAVX 091851Z AUTO 27005KT 10SM CLR 17/12 A2997 RMK AO2 SLP140 T01720122 TSNO

2010/08/09 18:51
KBDL 091851Z 24010G15KT 10SM FEW070 SCT100 SCT250 33/15 A2993 RMK AO2 SLP133 T03330150

2010/08/09 18:51
KBGD 091851Z AUTO 21010G17KT 10SM CLR 35/14 A2997 RMK AO2 SLP094 T03500139 TSNO

2010/08/09 18:51
KBKW 091851Z AUTO 26005KT 6SM HZ CLR 28/17 A3013 RMK AO2 SLP162 T02830167

2010/08/09 18:51
KCLE 091851Z 21005KT 10SM FEW050 BKN250 31/18 A3000 RMK AO2 SLP152 T03060183

2010/08/09 18:51
KCMH 091851Z 00000KT 10SM SCT065 SCT110 BKN200 31/17 A3000 RMK AO2 SLP152 T03110172

2010/08/09 18:51
KCSG 091851Z 05005KT 9SM SCT070 SCT085 36/18 A2997 RMK AO2 SLP142 T03610178

2010/08/09 18:51
KDAW 091851Z AUTO VRB03KT 10SM FEW100 32/16 A2990 RMK AO2 SLP120 T03220156

2010/08/09 18:52
KDUC 091852Z AUTO 22010KT 10SM CLR 37/19 A2991 RMK AO2

2010/08/09 18:51
KEKN 091851Z AUTO VRB03KT 9SM CLR 30/18 A3009 RMK AO2 SLP175 T03000183 TSNO

2010/08/09 18:51
KELP 091851Z VRB04KT 10SM FEW075 32/12 A3006 RMK AO2 SLP099 CB DSNT NE T03170122

2010/08/09 18:51
KERI 091851Z 27008KT 7SM BKN075 28/19 A2999 RMK AO2 SLP149 T02830194

2010/08/09 18:51
KEWR 091851Z 15011G14KT 9SM BKN065 BKN140 BKN250 33/19 A2995 RMK AO2 SLP142 HAZE ALOFT T03280189 $

2010/08/09 18:51
KHTS 091851Z VRB03KT 9SM CLR 31/18 A3002 RMK AO2 SLP156 T03110183

2010/08/09 18:51
KILG 091851Z 15013KT 9SM SCT049 BKN060 32/22 A2999 RMK AO2 SLP155 T03170217 $

2010/08/09 18:48
KIZA 091848Z AUTO 28004KT 10SM CLR 21/11 A2993 RMK AO2

2010/08/09 18:51
KJFK 091851Z 18012KT 5SM HZ FEW050 SCT140 BKN250 29/22 A2999 RMK AO2 SLP154 T02940217

2010/08/09 18:49
KL35 091849Z AUTO 03005KT 10SM CLR 22/M08 A3017 RMK AO2

2010/08/09 18:51
KLGA 091851Z 17013G18KT 10SM FEW060 SCT250 33/19 A2996 RMK AO2 SLP144 T03280189

2010/08/09 18:51
KLGU 091851Z AUTO 22015KT 10SM CLR 26/08 A3002 RMK AO2 SLP116 T02610083

2010/08/09 18:50
KLRU 091850Z AUTO 00000KT 10SM CLR 30/13 A3011 RMK AO2

2010/08/09 18:51
KMDW 091851Z 28008KT 10SM FEW035 SCT070 BKN200 BKN250 30/20 A2991 RMK AO2 SLP117 T03000200 PNO

2010/08/09 18:51
KMPV 091851Z AUTO 25006KT 10SM FEW041 SCT060 27/17 A2997 RMK AO2 LTG DSNT S AND SW SLP145 T02670172

2010/08/09 18:51
KMYL 091851Z AUTO 28004KT 10SM FEW065 BKN100 21/09 A2996 RMK AO2 SLP104 T02060094

2010/08/09 18:45
KMYR 091845Z 13012KT 10SM FEW015 30/25 A3005

2010/08/09 18:50
KONM 091850Z AUTO 33006KT 10SM CLR 31/10 A3011 RMK AO2 T03090098

2010/08/09 18:50
KONP 091850Z AUTO 35009KT 10SM OVC024 15/11 A3006 RMK AO1

2010/08/09 18:47
PALJ 091847Z 24007KT 30SM BKN060 OVC100 13/10 A2953 RMK EST PASS OPEN NOSPECI

2010/08/09 18:50
PAWR 091850Z 12009G20KT 1SM -RA BR VV007 12/11 A2980 RMK SLP091 NOSPECI

2010/08/09 19:00
FAJS 091900Z 21016KT CAVOK 06/M10 Q1028 NOSIG

2010/08/09 18:50
LSZH 091850Z 28003KT CAVOK 21/14 Q1016 NOSIG

2010/08/09 18:50
LSGG 091850Z 30003KT 250V360 9999 FEW060 25/11 Q1016 NOSIG

2010/08/09 18:50
LSZB 091850Z 31006KT 9999 SCT055 22/14 Q1016 NOSIG

2010/08/09 18:50
LSZA 091850Z 15004KT 9999 FEW050 24/18 Q1015 NOSIG

2010/08/09 18:50
EYSA 091850Z 17005KT 9999 BKN043 19/16 Q1016

2010/08/09 18:51
CYFC 091851Z AUTO 19009G16KT 9SM SCT009 BKN012 BKN017 OVC045 22/20 A2987 RMK SLP115 DENSITY ALT 900FT RVR MISG

2010/08/09 18:51
KNYC 091851Z AUTO VRB04KT 10SM CLR 34/19 A2999 RMK AO2 SLP144 T03390194 TSNO 

2010/08/09 18:51
KDAG 091851Z AUTO 07006KT 10SM CLR 32/00 A2991 RMK AO2 SLP098 T03220000 TSNO 

2010/08/09 18:51
KABE 091851Z 25008KT 10SM FEW060 SCT080 33/19 A2998 RMK AO2 SLP148 T03280189 

2010/08/09 18:51
KSNT 091851Z AUTO 00000KT 13/11 A3008 RMK AO2 SLP104 P0009 T01330106 PWINO TSNO 

2010/08/09 18:51
KATT 091851Z AUTO 00000KT 10SM CLR 36/19 A2996 RMK AO2 SLP126 T03560189 

2010/08/09 18:51
KP59 091851Z AUTO 35015KT 25/21 A2988 RMK AO2 SLP110 T02500206 PWINO TSNO 

2010/08/09 19:00
BKPR 091900Z 32005KT CAVOK 21/14 Q1018 NOSIG RMK BLU

2010/08/09 18:50
LSZH 091850Z 28003KT CAVOK 21/14 Q1016 NOSIG

2010/08/09 18:50
LSGG 091850Z 30003KT 250V360 9999 FEW060 25/11 Q1016 NOSIG

2010/08/09 18:50
LSZB 091850Z 31006KT 9999 SCT055 22/14 Q1016 NOSIG

2010/08/09 18:50
LSZA 091850Z 15004KT 9999 FEW050 24/18 Q1015 NOSIG

2010/08/09 18:50
EETU 091850Z AUTO 17006KT 9999NDV OVC110/// 20/17 Q1014

2010/08/09 18:50
EYSA 091850Z 17005KT 9999 BKN043 19/16 Q1016

2010/08/09 19:00
OSDI 091900Z 20014KT CAVOK 28/18 Q1007

2010/08/09 19:00
OSAP 091900Z 28015KT CAVOK 28/15 Q1005

2010/08/09 19:00
OSLK 091900Z 12004KT CAVOK 27/22 Q1006

2010/08/09 18:49
PAYA 091849Z 10006KT 5SM HZ FEW011 OVC026 14/12 A2993

2010/08/09 18:51
KHSE 091851Z AUTO 16010KT 10SM -RA FEW016 BKN026 OVC090 28/25 A3005 RMK AO2 RAB49 SLP175 P0000 T02830250 TSNO 

2010/08/09 18:45
MMCE 091845Z 10010KT 7SM SCT015 SCT200 31/26 A2985 RMK 8/105

2010/08/09 18:45
MMCM 091845Z 09010KT 7SM SCT015 31/26 A2984 RMK 8/500

2010/08/09 18:49
MMCZ 091849Z 15007KT 8SM SCT015TCU BKN250 30/24 A2993 RMK 8/206

2010/08/09 18:48
MMMD 091848Z 11006KT 7SM BKN025 BKN300 34/25 A2988 RMK 8/202

2010/08/09 18:49
MMMT 091849Z 36010KT 10SM SCT020 SCT180 31/24 A2984 RMK 8/101

2010/08/09 18:48
MMMX 091848Z 34004KT 4SM SCT025CB SCT080 BKN200 24/13 A3027 NOSIG RMK 8/363 HZY

2010/08/09 18:49
MMTG 091849Z 00000KT 10SM FEW022 SCT070 SCT300 30/22 A2992 RMK 8/132

2010/08/09 18:45
MMUN 091845Z 14008KT 8SM SCT020TCU BKN250 33/22 A2992 RMK 8/202 DSNT RA W CB 4TH QUAD AC

2010/08/09 18:50
MMVA 091850Z 09008KT 4SM BKN020 OVC080 33/26 A2981 RMK 8/41/ HZY

2010/08/09 19:00
MPTO 091900Z 17004KT 9999 SCT016TCU BKN090 29/25 Q1011 NOSIG

2010/08/09 18:50
MSSS 091850Z 15004KT 9999 FEW027 BKN300 29/24 Q1016 A3001

2010/08/09 18:55
KQFS 091855Z AUTO VRB04KT 9999 FEW005 SCT007 BKN025 BKN150 26/24 A2983 RMK AO2 SLP095 P0000 T02570240 $

2010/08/09 18:55
KQW3 091855Z AUTO RMK AO2 SLPNO

2010/08/09 18:50
EDDF 091850Z 15004KT 9999 FEW048 SCT300 22/12 Q1016 NOSIG

2010/08/09 18:50
EDDH 091850Z 22002KT CAVOK 17/15 Q1015 NOSIG

2010/08/09 18:50
EDDK 091850Z 05003KT CAVOK 19/15 Q1016 NOSIG

2010/08/09 18:50
EDDL 091850Z 17004KT 9999 FEW040 BKN280 20/13 Q1015 NOSIG

2010/08/09 18:50
EDDM 091850Z 04007KT CAVOK 19/14 Q1017 NOSIG

2010/08/09 18:50
EDDN 091850Z VRB01KT CAVOK 18/15 Q1017 NOSIG

2010/08/09 18:50
EDDS 091850Z 36004KT CAVOK 20/11 Q1017 NOSIG

2010/08/09 18:50
EDDT 091850Z 28005KT CAVOK 20/15 Q1016 NOSIG

2010/08/09 18:50
EDDV 091850Z 32002KT CAVOK 18/13 Q1016 NOSIG

2010/08/09 18:50
EDDB 091850Z 28004KT CAVOK 20/16 Q1015 NOSIG

2010/08/09 18:50
EDDC 091850Z 26003KT 9999 FEW031 SCT100 19/14 Q1017 NOSIG

2010/08/09 18:50
EDDE 091850Z 28006KT 9999 FEW044 BKN080 19/12 Q1017 NOSIG

2010/08/09 18:50
EDDG 091850Z VRB01KT 9999 FEW043 BKN260 18/14 Q1016 NOSIG

2010/08/09 18:50
EDDP 091850Z 30002KT CAVOK 18/14 Q1016 NOSIG

2010/08/09 18:50
EDDR 091850Z 10003KT CAVOK 20/11 Q1016 NOSIG

2010/08/09 18:50
EDDW 091850Z 18005KT 9999 FEW025 SCT080 BKN250 18/13 Q1016 NOSIG

2010/08/09 18:52
KNRB 091852Z 10009KT 10SM FEW015 SCT030TCU BKN065 31/23 A2995 RMK AO2 RAE19 SLP142 TCU OHD T2 SET P0000 T03060233 

2010/08/09 18:52
KNHK 091852Z 13010KT 9SM FEW025 SCT250 31/22 A3001 RMK AO2 SLP162 T03110222 

2010/08/09 18:52
KP69 091852Z AUTO 17003KT 28/13 A2979 RMK AO2 SLP065 T02780128 PWINO TSNO 

2010/08/09 18:52
KREO 091852Z AUTO VRB04KT 26/08 A2993 RMK AO2 SLP100 T02560083 PWINO TSNO 

2010/08/09 18:51
KOKM 091851Z AUTO 15010G16KT 10SM CLR 38/22 A2991 RMK AO1

2010/08/09 18:52
KOMA 091852Z 36003KT 10SM SCT035 SCT160 SCT250 33/25 A2984 RMK AO2 SLP094 T03330250

2010/08/09 18:52
KORE 091852Z AUTO 25006KT 10SM FEW060 32/16 A2994 RMK AO2 SLP135 T03170161

2010/08/09 18:50
KORS 091850Z AUTO 18003KT 10SM BKN017 BKN075 15/13 A2996 RMK AO2

2010/08/09 18:52
KOUN 091852Z AUTO 14013KT 10SM CLR 37/21 A2993 RMK AO2

2010/08/09 18:50
KPLU 091850Z AUTO 27003KT 10SM OVC012 16/13 A2997 RMK AO2

2010/08/09 18:52
KPPF 091852Z AUTO 20008KT 10SM CLR 37/22 A2992 RMK AO2 SLP120 T03720222

2010/08/09 18:50
KPTS 091850Z AUTO 18010KT 10SM CLR 36/21 A2992 RMK AO2 T03600208

2010/08/09 18:48
KPVJ 091848Z AUTO 19005KT 10SM CLR 37/22 A2991 RMK AO2

2010/08/09 18:52
KPWK 091852Z 26008KT 10SM FEW040 31/21 A2993 RMK AO2 SLP128 T03060211

2010/08/09 18:52
KPYM 091852Z AUTO 21009KT 10SM FEW042 32/21 A2995 RMK AO2 SLP140 T03220206

2010/08/09 18:52
KRAP 091852Z 18016G20KT 10SM CLR 33/16 A2994 RMK AO2 SLP104 T03280161

2010/08/09 18:52
KSGF 091852Z 24004KT 10SM CLR 35/22 A2996 RMK AO2 SLP127 T03500217

2010/08/09 18:53
KSNL 091853Z AUTO 21009KT 10SM CLR 37/21 A2994 RMK AO2

2010/08/09 18:55
KSOP 091855Z AUTO 12004KT 10SM CLR 33/21 A3002 RMK AO1

2010/08/09 18:52
KSPI 091852Z 20004KT 10SM CLR 32/26 A2991 RMK AO2 SLP122 T03220256

2010/08/09 18:52
KSPS 091852Z AUTO 20011G15KT 10SM FEW075 38/17 A2989 RMK AO2 SLP104 P0003 T03830172

2010/08/09 18:50
KSRE 091850Z AUTO 15010G16KT 10SM CLR 37/18 A2993 RMK AO2

2010/08/09 18:52
KSUX 091852Z 04005KT 10SM OVC013 28/23 A2987 RMK AO2 SLP108 T02780233

2010/08/09 18:45
KSVC 091845Z AUTO 30007KT 030V040 10SM CLR 29/07 A3018 RMK AO2

2010/08/09 18:52
KTAN 091852Z AUTO 20006KT 10SM CLR 31/22 A2993 RMK AO2 SLP134 T03110217

2010/08/09 18:54
KTMK 091854Z AUTO 32007KT 10SM SCT019 OVC027 17/12 A3003 RMK AO2

2010/08/09 18:52
KTOL 091852Z 00000KT 9SM CLR 31/21 A2997 RMK AO2 SLP141 T03060206

2010/08/09 18:53
KTQH 091853Z AUTO 16010G15KT 10SM SCT065 38/23 A2995 RMK AO2

2010/08/09 18:52
KTRM 091852Z AUTO VRB04KT 10SM CLR 36/04 A2977 RMK AO2 SLP084 T03560044

2010/08/09 18:55
KUDG 091855Z 14006KT 4SM FEW075 32/23 A3003 RMK AO1

2010/08/09 18:52
KUGN 091852Z VRB05KT 10SM SCT033 30/22 A2991 RMK AO2 SLP112 T03000217

2010/08/09 18:52
KVTN 091852Z AUTO 00000KT 10SM CLR 32/16 A2996 RMK AO2 SLP121 T03220161

2010/08/09 18:48
KWWR 091848Z AUTO 17013G17KT 10SM CLR 37/18 A2994 RMK AO2 T03700182

2010/08/09 18:48
PAPT 091848Z 17009KT 25SM BKN015 OVC040 10/09 A2958 RMK NOSPECI

2010/08/09 18:52
KDDC 091852Z AUTO 19011G20KT 10SM CLR 38/16 A2991 RMK AO2 SLP087 T03830156

2010/08/09 18:52
KDPA 091852Z 24008KT 10SM CLR 29/22 A2993 RMK AO2 SLP128 T02940222

2010/08/09 18:51
KDUA 091851Z AUTO 20008KT 10SM SCT065 37/19 A2992 RMK AO2

2010/08/09 18:52
KDVN 091852Z AUTO 10008KT 10SM CLR 29/24 A2993 RMK AO2 SLP128 T02890239

2010/08/09 18:50
KDVO 091850Z AUTO 34007KT 10SM SCT016 BKN030 18/13 A2994 RMK AO2

2010/08/09 18:50
KESN 091850Z 24008KT 6SM HZ SCT070 33/22 A3004

2010/08/09 18:52
KEST 091852Z AUTO 08004KT 10SM OVC019 27/23 A2993 RMK AO2 SLP126 T02720233

2010/08/09 18:50
KFET 091850Z AUTO 33005KT 10SM SCT013 29/24 A2987 RMK AO2 T02880242

2010/08/09 18:52
KFIT 091852Z AUTO 24004KT 10SM FEW095 32/18 A2994 RMK AO2 SLP135 T03170178

2010/08/09 18:50
KGCD 091850Z AUTO 24003KT 10SM CLR 24/05 A2993 RMK AO2 T02390047

2010/08/09 18:52
KGCM 091852Z AUTO 17011G14KT 10SM CLR 36/22 A2995 RMK AO2

2010/08/09 18:51
KGMJ 091851Z AUTO 15007KT 10SM SCT060 36/19 A2994 RMK AO2

2010/08/09 18:50
KHDE 091850Z AUTO 07007KT 10SM CLR 29/22 A2994 RMK AO2 T02940216

2010/08/09 18:52
KHIE 091852Z AUTO VRB05KT 10SM FEW045 SCT055 BKN075 27/18 A2994 RMK AO2 SLP135 T02720183

2010/08/09 18:50
KHJH 091850Z AUTO 14003KT 10SM CLR 34/22 A2986 RMK AO2 T03420224

2010/08/09 18:52
KHUT 091852Z 14012KT 10SM CLR 39/19 A2989 RMK AO2 SLP090 T03890194

2010/08/09 18:50
KIBM 091850Z AUTO 32008KT 10SM CLR 27/16 A3008 RMK AO2 T02690155

2010/08/09 18:50
KIDP 091850Z AUTO 18007KT 10SM CLR 36/21 A2991 RMK AO2

2010/08/09 18:52
KIEN 091852Z AUTO 14007KT 10SM CLR 34/14 A2994 RMK AO2 SLP103 T03440144

2010/08/09 18:52
KDCA 091852Z 17011KT 8SM SCT055 BKN250 33/21 A2999 RMK AO2 SLP154 T03330206

2010/08/09 18:50
KEKM 091850Z 17005KT 7SM SCT040 SCT049 BKN075 28/21 A2996 RMK A02

2010/08/09 18:47
KEMT 091847Z 18005KT 8SM SKC A2992

2010/08/09 18:52
KGLS 091852Z 15011KT 10SM CLR 33/24 A2996 RMK AO2 SLP146 T03330244

2010/08/09 18:55
KGLY 091855Z AUTO 20005KT 10SM CLR 34/27 A2992 RMK AO2

2010/08/09 18:52
KHRL 091852Z 19006KT 10SM SCT044 36/24 A2987 RMK AO2 SLP116 T03560239

2010/08/09 18:52
KIAD 091852Z 19007KT 9SM SCT055 BKN250 32/21 A2999 RMK AO2 SLP152 T03170206

2010/08/09 18:55
KLZZ 091855Z AUTO 15006KT 10SM SCT060 35/18 A2996 RMK AO2

2010/08/09 18:52
KMEB 091852Z AUTO 08006KT 10SM CLR 33/21 A3001 RMK AO2 SLP160 T03330211

2010/08/09 18:55
KPAN 091855Z AUTO 20004KT 10SM CLR 26/09 A3018 RMK AO1

2010/08/09 18:50
KSAW 091850Z 04011KT 10SM SKC 27/21 A2988

2010/08/09 18:48
K4O4 091848Z AUTO 19004KT 10SM CLR 35/22 A2995 RMK AO2

2010/08/09 18:51
KADH 091851Z AUTO 14007KT 10SM SCT060 SCT075 36/17 A2993 RMK AO2

2010/08/09 18:50
KAFK 091850Z AUTO 19007KT 10SM CLR 31/24 A2986 RMK AO2 T03050239

2010/08/09 18:52
KAFN 091852Z AUTO 23008G14KT 10SM FEW085 29/16 A2997 RMK AO2 SLP148 T02940161

2010/08/09 18:45
KALM 091845Z AUTO 20004KT 10SM CLR 30/14 A3007 RMK AO2

2010/08/09 18:52
KALS 091852Z AUTO A3026 RMK AO2 LTG DSNT S SLPNO PWINO FZRANO PNO $

2010/08/09 18:50
KANW 091850Z AUTO 00000KT 10SM CLR 30/18 A2997 RMK AO2 T03000177

2010/08/09 18:52
KAQW 091852Z AUTO 23003KT 9SM BKN060 29/18 A2995 RMK AO2 SLP136 T02890183

2010/08/09 18:52
KARR 091852Z 20004KT 10SM CLR 28/23 A2994 RMK AO2 SLP132 T02830228

2010/08/09 18:52
KATL 091852Z 11005KT 10SM FEW055 SCT250 34/20 A3002 RMK AO2 SLP154 T03390200

2010/08/09 18:50
KATS 091850Z AUTO 14011KT 10SM CLR 31/14 A3003 RMK AO2

2010/08/09 18:50
KAUH 091850Z AUTO 34004KT 10SM CLR 30/23 A2991 RMK AO2 T03040226

2010/08/09 18:50
KAUN 091850Z AUTO 18003KT 10SM CLR 26/13 A2992 RMK AO1

2010/08/09 18:50
KAXS 091850Z AUTO 21007KT 10SM CLR 36/19 A2991 RMK AO2 T03610190

2010/08/09 18:50
KAXX 091850Z AUTO 20007KT 10SM -RA SCT100 BKN120 19/11 A3034 RMK AO2

2010/08/09 18:52
KBDR 091852Z 18010KT 8SM CLR 31/21 A2995 RMK AO2 SLP143 T03110206

2010/08/09 18:50
KBIE 091850Z AUTO 15006KT 10SM CLR 33/21 A2986 RMK AO2 T03310212

2010/08/09 18:52
KBIS 091852Z 19007KT 10SM CLR 34/17 A2988 RMK AO2 SLP104 T03440167

2010/08/09 18:52
KBLF 091852Z AUTO 00000KT 10SM CLR 30/15 A3015 RMK AO2 SLP165 T03000150

2010/08/09 18:52
KBLH 091852Z AUTO 14005KT 10SM CLR 37/M01 A2981 RMK AO2 SLP087 T03721006

2010/08/09 18:52
KBML 091852Z AUTO 00000KT 10SM FEW042 SCT049 BKN060 26/17 A2994 RMK AO2 SLP135 T02560167

2010/08/09 18:50
KBTA 091850Z AUTO 00000KT 10SM CLR 31/24 A2987 RMK AO2 T03110243

2010/08/09 18:50
KBVN 091850Z AUTO 00000KT 10SM CLR 29/22 A2991 RMK AO2 T02940220

2010/08/09 18:45
KBVS 091845Z AUTO 20004KT 10SM OVC014 16/13 A2999 RMK A01 P000

2010/08/09 18:51
KBYH 091851Z 00000KT 10SM SCT030 BKN250 36/26 A2995

2010/08/09 18:52
KCFV 091852Z AUTO 19008KT 10SM CLR 37/21 A2991 RMK AO2 SLP118 T03720211

2010/08/09 18:50
KCHK 091850Z AUTO 19012G18KT 10SM SCT060 38/23 A2990 RMK AO2

2010/08/09 18:52
KCID 091852Z 07004KT 10SM CLR 30/24 A2991 RMK AO2 SLP120 T03000239

2010/08/09 18:52
KCKV 091852Z AUTO 27005KT 10SM VCTS FEW080 34/22 A2995 RMK AO2 LTG DSNT SW TSB48 SLP133 T03440222

2010/08/09 18:50
KCLK 091850Z AUTO 18010G15KT 10SM CLR 36/13 A2990 RMK AO2

2010/08/09 18:52
KCLT 091852Z 00000KT 10SM SCT045 BKN250 33/20 A3003 RMK AO2 SLP157 T03330200

2010/08/09 18:52
KCNU 091852Z AUTO 18011G17KT 10SM CLR 37/22 A2991 RMK AO2 SLP114 T03670217

2010/08/09 18:50
KCQB 091850Z AUTO 19007G14KT 10SM CLR 37/21 A2992 RMK AO2 TSNO

2010/08/09 18:52
KCQX 091852Z AUTO VRB06G17KT 10SM BKN006 28/23 A2999 RMK AO2 SLP155 T02830233

2010/08/09 18:50
KCUH 091850Z AUTO 15010G14KT 10SM CLR 37/20 A2990 RMK AO2

2010/08/09 18:52
KCVG 091852Z 22004KT 8SM FEW055 SCT150 BKN220 33/19 A2999 RMK AO2 SLP142 T03280189

2010/08/09 18:50
KOJA 091850Z AUTO 16012KT 10SM CLR 36/20 A2991 RMK AO2

2010/08/09 18:52
KOKB 091852Z AUTO 24008KT 9SM CLR 23/14 A2993 RMK AO2 SLP134 T02330139

2010/08/09 18:52
KOKC 091852Z 17010G18KT 10SM FEW060 36/22 A2992 RMK AO2 SLP111 T03610217

2010/08/09 18:52
KIJD 091852Z AUTO 20009G16KT 10SM SCT060 32/19 A2995 RMK AO2 SLP140 T03220189

2010/08/09 18:52
KIOW 091852Z AUTO 22006KT 10SM CLR 32/23 A2990 RMK AO2 SLP118 T03170228

2010/08/09 18:52
KISN 091852Z 05008KT 10SM CLR 28/16 A2986 RMK AO2 SLP099 T02780161

2010/08/09 18:51
KJSV 091851Z AUTO 16004KT 10SM CLR 34/22 A2994 RMK AO2

2010/08/09 18:50
KJYR 091850Z AUTO 35004KT 10SM CLR 32/25 A2988 RMK AO2

2010/08/09 18:50
KLAM 091850Z AUTO 00000KT 10SM SCT050 24/12 A3027 RMK AO2

2010/08/09 18:50
KLCG 091850Z AUTO 00000KT 5SM HZ BKN011 27/24 A2990 RMK AO2 T02690236

2010/08/09 18:50
KLHM 091850Z AUTO 18004KT 10SM CLR 25/12 A2987 RMK AO1 T02470122

2010/08/09 18:52
KLWC 091852Z AUTO 18009KT 10SM CLR 38/23 A2987 RMK AO2 SLP102 T03780233

2010/08/09 18:52
KMDH 091852Z AUTO 09003KT 10SM FEW060 37/22 A2992 RMK AO2 SLP126 T03670222 TSNO

2010/08/09 18:52
KMFD 091852Z 24008KT 8SM CLR 31/16 A3003 RMK AO2 SLP157 T03060161

2010/08/09 18:52
KMHK 091852Z 21013KT 10SM CLR 39/19 A2983 RMK AO2 SLP087 T03890189

2010/08/09 18:52
KMKE 091852Z 27005KT 10SM SCT027 BKN140 BKN250 29/21 A2990 RMK AO2 SLP119 T02940211

2010/08/09 18:52
KMLI 091852Z 08005KT 10SM CLR 28/23 A2991 RMK AO2 SLP124 T02830233

2010/08/09 18:50
KMWA 091850Z 31004KT 15SM BKN060 BKN075 37/20 A2993

2010/08/09 18:52
KMWH 091852Z AUTO 19011G15KT 140V220 10SM CLR 26/10 A2982 RMK AO2 SLP090 T02560100 TSNO

2010/08/09 18:55
KOAJ 091855Z AUTO 12011KT 10SM FEW060 32/24 A3002 RMK AO1

2010/08/09 18:50
ESGG 091850Z 25008KT 9999 BKN017 15/12 Q1012

2010/08/09 18:50
ESGJ 091850Z 23011KT 9999 FEW012 SCT017 BKN025 16/14 Q1011

2010/08/09 18:50
ESGP 091850Z 26009KT 9999 OVC035 16/12 Q1012

2010/08/09 18:50
ESMK 091850Z AUTO 28004KT 9999NDV NCD 17/12 Q1014

2010/08/09 18:50
ESMQ 091850Z AUTO 25008KT 9999NDV OVC028/// 17/14 Q1012

2010/08/09 18:50
ESMS 091850Z 30004KT 9999 FEW043 16/12 Q1014

2010/08/09 18:50
ESMT 091850Z AUTO 26009KT 9999NDV OVC038/// 16/12 Q1013

2010/08/09 18:50
ESMX 091850Z 23007KT 9999 FEW013 SCT016 OVC034 15/14 Q1013

2010/08/09 18:50
ESTA 091850Z 26009KT 9999 FEW029 OVC043 17/10 Q1013

2010/08/09 18:50
ESTL 091850Z AUTO 22004KT 9999NDV BKN040/// 15/12 Q1014

2010/08/09 18:51
KSAN 091851Z 27006KT 10SM FEW020 21/14 A2995 RMK AO2 SLP141 T02060139

2010/08/09 18:51
KGDP 091851Z AUTO 25009G19KT 10SM CLR 28/13 A3019 RMK AO2 SLP141 T02780133 TSNO

2010/08/09 18:51
KCAK 091851Z 24009G19KT 10SM FEW065 SCT250 30/17 A3002 RMK AO2 SLP154 T03000172

2010/08/09 18:51
KCON 091851Z AUTO 29009KT 10SM FEW065 33/16 A2991 RMK AO2 SLP125 T03330156

2010/08/09 18:51
KSMX 091851Z VRB03KT 10SM FEW015 18/11 A2994 RMK AO2 SLP141 T01780111

2010/08/09 18:51
KBVE 091851Z AUTO 22003KT -RA BKN026 24/24 A2998 RMK AO2 SLP152 P0050 T02440239 TSNO $

2010/08/09 18:51
KCRP 091851Z 12014KT 10SM BKN040 33/25 A2992 RMK AO2 SLP130 T03330250

2010/08/09 18:51
KORF 091851Z 09007KT 10SM FEW035 31/20 A3002 RMK AO2 SLP166 T03110200 $

2010/08/09 18:51
KJCT 091851Z AUTO 17005KT 10SM FEW065 35/17 A2996 RMK AO2 SLP104 T03500172 TSNO

2010/08/09 18:51
KSNT 091851Z AUTO 00000KT 13/11 A3008 RMK AO2 SLP104 P0009 T01330106 PWINO TSNO

2010/08/09 18:51
KNYC 091851Z AUTO VRB04KT 10SM CLR 34/19 A2999 RMK AO2 SLP144 T03390194 TSNO

2010/08/09 18:51
KABE 091851Z 25008KT 10SM FEW060 SCT080 33/19 A2998 RMK AO2 SLP148 T03280189

2010/08/09 18:51
KDAG 091851Z AUTO 07006KT 10SM CLR 32/00 A2991 RMK AO2 SLP098 T03220000 TSNO

2010/08/09 18:51
KATT 091851Z AUTO 00000KT 10SM CLR 36/19 A2996 RMK AO2 SLP126 T03560189

2010/08/09 18:51
KP59 091851Z AUTO 35015KT 25/21 A2988 RMK AO2 SLP110 T02500206 PWINO TSNO

2010/08/09 18:51
KHSE 091851Z AUTO 16010KT 10SM -RA FEW016 BKN026 OVC090 28/25 A3005 RMK AO2 RAB49 SLP175 P0000 T02830250 TSNO

2010/08/09 18:52
KREO 091852Z AUTO VRB04KT 26/08 A2993 RMK AO2 SLP100 T02560083 PWINO TSNO

2010/08/09 18:52
KP69 091852Z AUTO 17003KT 28/13 A2979 RMK AO2 SLP065 T02780128 PWINO TSNO

2010/08/09 18:51
KSGR 091851Z 18007KT 10SM FEW045 34/22 A2994 RMK AO2

2010/08/09 18:50
BGSF 091850Z 07006KT 030V130 9999 SCT045 BKN110 16/08 Q1008

2010/08/09 18:50
BGBW 091850Z AUTO 06003KT 9999NDV -RA BKN014/// OVC017/// 11/10 Q1008

2010/08/09 18:50
BGJN 091850Z 18009KT 9999 SCT100 BKN150 13/03 Q1008

2010/08/09 18:50
EDDF 091850Z 15004KT 9999 FEW048 SCT300 22/12 Q1016 NOSIG

2010/08/09 18:50
EDDH 091850Z 22002KT CAVOK 17/15 Q1015 NOSIG

2010/08/09 18:50
EDDK 091850Z 05003KT CAVOK 19/15 Q1016 NOSIG

2010/08/09 18:50
EDDL 091850Z 17004KT 9999 FEW040 BKN280 20/13 Q1015 NOSIG

2010/08/09 18:50
EDDM 091850Z 04007KT CAVOK 19/14 Q1017 NOSIG

2010/08/09 18:50
EDDN 091850Z VRB01KT CAVOK 18/15 Q1017 NOSIG

2010/08/09 18:50
EDDS 091850Z 36004KT CAVOK 20/11 Q1017 NOSIG

2010/08/09 18:50
EDDT 091850Z 28005KT CAVOK 20/15 Q1016 NOSIG

2010/08/09 18:50
EDDV 091850Z 32002KT CAVOK 18/13 Q1016 NOSIG

2010/08/09 18:50
EDDB 091850Z 28004KT CAVOK 20/16 Q1015 NOSIG

2010/08/09 18:50
EDDC 091850Z 26003KT 9999 FEW031 SCT100 19/14 Q1017 NOSIG

2010/08/09 18:50
EDDE 091850Z 28006KT 9999 FEW044 BKN080 19/12 Q1017 NOSIG

2010/08/09 18:50
EDDG 091850Z VRB01KT 9999 FEW043 BKN260 18/14 Q1016 NOSIG

2010/08/09 18:50
EDDP 091850Z 30002KT CAVOK 18/14 Q1016 NOSIG

2010/08/09 18:50
EDDR 091850Z 10003KT CAVOK 20/11 Q1016 NOSIG

2010/08/09 18:50
EDDW 091850Z 18005KT 9999 FEW025 SCT080 BKN250 18/13 Q1016 NOSIG

2010/08/09 18:51
PTRO 091851Z 00000KT 14SM BKN015CB OVC280 25/23 A2986 RMK CB VC ALQDS 

2010/08/09 18:51
EKSB 091851Z 27005KT CAVOK 17/09 Q1015

2010/08/09 18:50
EKVD 091850Z AUTO 26008KT //// ///////// 16/11 Q1015

2010/08/09 18:50
EKKA 091850Z 25006KT 9999 FEW022 BKN035 16/12 Q1014

2010/08/09 18:50
EKSP 091850Z 25005KT 9999 FEW036 SCT250 15/11 Q1015

2010/08/09 18:50
EKGF 091850Z 19021KT 9999 FEW012 17/16 Q1012

2010/08/09 18:50
EKHN 091850Z AUTO VRB06KT 9999NDV NCD 18/14 Q1016

2010/08/09 18:50
EKHR 091850Z AUTO 20009KT 9999NDV NCD 17/12 Q1014

2010/08/09 18:50
EKCH 091850Z 30005KT 9999 FEW045 BKN210 18/10 Q1014 NOSIG

2010/08/09 18:50
EKBI 091850Z 26004KT 9999 FEW040 BKN200 16/11 Q1015

2010/08/09 18:50
EKYT 091850Z 26010KT 9999 SCT034 16/11 Q1013

2010/08/09 18:50
EKRK 091850Z AUTO 30006KT 9999NDV FEW043/// 16/11 Q1014

2010/08/09 18:50
EKAH 091850Z AUTO 28007KT 9999NDV BKN043/// 17/10 Q1014

2010/08/09 18:50
EKEB 091850Z AUTO 23005KT 9999NDV BKN061/// 16/11 Q1015

2010/08/09 18:50
EKRN 091850Z AUTO 24005KT 9999NDV NCD 18/15 Q1015

2010/08/09 19:00
SPIM 091900Z 18007KT 6000 FEW013 BKN018 18/13 Q1016 NOSIG RMK BIRD HAZARD RWY 15 PP000

2010/08/09 18:48
MMGM 091848Z 23014KT 10SM FEW020 35/22 A2980 RMK 8/100 HZY

2010/08/09 18:49
MMHO 091849Z 00000KT 10SM SKC 36/20 A2981 RMK HZY

2010/08/09 18:45
MMMZ 091845Z 18004KT 15SM SCT090 OVC220 29/23 A2981 RMK 8/077 DSNT CU 1QUAD

2010/08/09 18:47
MMSL 091847Z 20007KT 12SM SCT200 34/22 A2985 RMK 8/001 CU

2010/08/09 18:48
MMTJ 091848Z 34005KT 6SM SKC 22/13 A2995 RMK HZY ST W ISOL CI

2010/08/09 18:51
PTRO 091851Z 00000KT 14SM BKN015CB OVC280 25/23 A2986 RMK CB VC ALQDS

2010/08/09 18:50
KALN 091850Z 15006KT 7SM FEW050 BKN200 34/27 A2991

2010/08/09 18:51
KBAZ 091851Z AUTO VRB05KT 10SM CLR 35/20 A2994 RMK AO2 SLP126 T03500200

2010/08/09 18:46
KBJC 091846Z VRB04KT 50SM SCT060 BKN120 28/07 A3013 RMK TCU W

2010/08/09 18:46
KBKS 091846Z AUTO 16005KT 10SM SCT039 36/23 A2989 RMK AO1 T03580231

2010/08/09 18:51
KHDO 091851Z AUTO 16007KT 100V200 10SM CLR 36/20 A2996 RMK AO2 SLP127 T03560200

2010/08/09 18:48
KPVU 091848Z 21005KT 15SM SCT090 26/07 A3008

2010/08/09 18:47
KRYY 091847Z 11004KT 10SM SCT070 34/19 A3002

2010/08/09 18:50
KTIX 091850Z 13010KT 7SM SCT030 29/24 A2992

2010/08/09 18:45
KTYQ 091845Z AUTO 24003KT 10SM CLR 32/21 A2998 RMK AO2

2010/08/09 18:46
KXBP 091846Z AUTO 22004KT 10SM SCT060 SCT075 SCT100 36/19 A2993 RMK AO2 T03590194

2010/08/09 18:51
KORD 091851Z 29005KT 10SM FEW070 SCT150 SCT200 BKN250 30/21 A2992 RMK AO2 SLP124 T03000211

2010/08/09 18:51
KPHX 091851Z 21005KT 10SM FEW120 SCT150 SCT180 37/05 A2986 RMK AO2 SLP090 T03720050 $

2010/08/09 18:51
KPIT 091851Z 23006KT 10SM FEW042 SCT150 BKN250 31/14 A3002 RMK AO2 SLP162 T03110139

2010/08/09 18:51
KPWM 091851Z 16007KT 10SM SCT065 BKN080 BKN090 30/19 A2989 RMK AO2 SLP122 T03000194 $

2010/08/09 18:51
KRDU 091851Z 18004KT 10SM SCT050 BKN250 34/20 A3003 RMK AO2 SLP162 T03390200

2010/08/09 18:51
KSJT 091851Z VRB05KT 10SM FEW070 36/19 A2996 RMK AO2 SLP114 T03560189

2010/08/09 18:51
KSLK 091851Z AUTO 25009KT 7SM SCT037 SCT050 BKN085 27/19 A2995 RMK AO2 SLP132 T02670189

2010/08/09 18:51
KSMO 091851Z 24006KT 10SM FEW015 18/13 A2994 RMK AO2 SLP139 T01830128

2010/08/09 18:51
KSTL 091851Z VRB04KT 9SM FEW050 BKN130 BKN200 36/24 A2991 RMK AO2 SLP113 T03560239

2010/08/09 18:50
KTZR 091850Z 22005KT 10SM SCT045 30/19 A3002

2010/08/09 18:51
KVNY 091851Z 17006KT 10SM CLR 25/13 A2991 RMK AO2 SLP121 T02500128

2010/08/09 18:47
K1F0 091847Z AUTO 24006KT 10SM SCT060 37/20 A2990 RMK AO2

2010/08/09 18:58
K36U 091858Z AUTO 25016G22KT 10SM CLR 24/03 A3011 RMK AO2

2010/08/09 18:51
KACT 091851Z 16008KT 10SM FEW049 37/21 A2993 RMK AO2 SLP127 T03670211 $

2010/08/09 18:51
KAHN 091851Z 00000KT 6SM HZ SCT050 SCT065 33/20 A3002 RMK AO2 SLP156 T03330200

2010/08/09 18:51
KASH 091851Z 24004KT 10SM SCT110 33/17 A2992 RMK AO2 T03270172 SLP132

2010/08/09 18:51
KAVX 091851Z AUTO 27005KT 10SM CLR 17/12 A2997 RMK AO2 SLP140 T01720122 TSNO

2010/08/09 18:51
KBGD 091851Z AUTO 21010G17KT 10SM CLR 35/14 A2997 RMK AO2 SLP094 T03500139 TSNO

2010/08/09 18:51
KCLE 091851Z 21005KT 10SM FEW050 BKN250 31/18 A3000 RMK AO2 SLP152 T03060183

2010/08/09 18:51
KCMH 091851Z 00000KT 10SM SCT065 SCT110 BKN200 31/17 A3000 RMK AO2 SLP152 T03110172

2010/08/09 18:51
KCSG 091851Z 05005KT 9SM SCT070 SCT085 36/18 A2997 RMK AO2 SLP142 T03610178

2010/08/09 18:51
KDAW 091851Z AUTO VRB03KT 10SM FEW100 32/16 A2990 RMK AO2 SLP120 T03220156

2010/08/09 18:52
KDUC 091852Z AUTO 22010KT 10SM CLR 37/19 A2991 RMK AO2

2010/08/09 18:51
KERI 091851Z 27008KT 7SM BKN075 28/19 A2999 RMK AO2 SLP149 T02830194

2010/08/09 18:51
KEWR 091851Z 15011G14KT 9SM BKN065 BKN140 BKN250 33/19 A2995 RMK AO2 SLP142 HAZE ALOFT T03280189 $

2010/08/09 18:51
KILG 091851Z 15013KT 9SM SCT049 BKN060 32/22 A2999 RMK AO2 SLP155 T03170217 $

2010/08/09 18:51
KJFK 091851Z 18012KT 5SM HZ FEW050 SCT140 BKN250 29/22 A2999 RMK AO2 SLP154 T02940217

2010/08/09 18:49
KL35 091849Z AUTO 03005KT 10SM CLR 22/M08 A3017 RMK AO2

2010/08/09 18:51
KLGA 091851Z 17013G18KT 10SM FEW060 SCT250 33/19 A2996 RMK AO2 SLP144 T03280189

2010/08/09 18:51
KLGU 091851Z AUTO 22015KT 10SM CLR 26/08 A3002 RMK AO2 SLP116 T02610083

2010/08/09 18:50
KLRU 091850Z AUTO 00000KT 10SM CLR 30/13 A3011 RMK AO2

2010/08/09 18:51
KMDW 091851Z 28008KT 10SM FEW035 SCT070 BKN200 BKN250 30/20 A2991 RMK AO2 SLP117 T03000200 PNO

2010/08/09 18:51
KMPV 091851Z AUTO 25006KT 10SM FEW041 SCT060 27/17 A2997 RMK AO2 LTG DSNT S AND SW SLP145 T02670172

2010/08/09 18:45
KMYR 091845Z 13012KT 10SM FEW015 30/25 A3005

2010/08/09 18:50
KONM 091850Z AUTO 33006KT 10SM CLR 31/10 A3011 RMK AO2 T03090098

2010/08/09 18:50
KONP 091850Z AUTO 35009KT 10SM OVC024 15/11 A3006 RMK AO1

2010/08/09 18:55
KBLV 091855Z AUTO 20006KT 10SM CLR 35/26 A2991 RMK AO2 SLP124 T03490256

2010/08/09 18:56
KNSI 091856Z 17005KT 7SM FEW009 BKN0011 16/13 A2995 RMK AO2 SLP138 T01610128 TSNO

2010/08/09 18:52
KNRB 091852Z 10009KT 10SM FEW015 SCT030TCU BKN065 31/23 A2995 RMK AO2 RAE19 SLP142 TCU OHD T2 SET P0000 T03060233

2010/08/09 18:52
KNHK 091852Z 13010KT 9SM FEW025 SCT250 31/22 A3001 RMK AO2 SLP162 T03110222

2010/08/09 18:51
KBYH 091851Z 00000KT 10SM SCT030 BKN250 36/26 A2995

2010/08/09 18:51
KOKM 091851Z AUTO 15010G16KT 10SM CLR 38/22 A2991 RMK AO1

2010/08/09 18:52
KOMA 091852Z 36003KT 10SM SCT035 SCT160 SCT250 33/25 A2984 RMK AO2 SLP094 T03330250

2010/08/09 18:52
KORE 091852Z AUTO 25006KT 10SM FEW060 32/16 A2994 RMK AO2 SLP135 T03170161

2010/08/09 18:50
KORS 091850Z AUTO 18003KT 10SM BKN017 BKN075 15/13 A2996 RMK AO2

2010/08/09 18:52
KOUN 091852Z AUTO 14013KT 10SM CLR 37/21 A2993 RMK AO2

2010/08/09 18:50
KPLU 091850Z AUTO 27003KT 10SM OVC012 16/13 A2997 RMK AO2

2010/08/09 18:52
KPPF 091852Z AUTO 20008KT 10SM CLR 37/22 A2992 RMK AO2 SLP120 T03720222

2010/08/09 18:48
KPVJ 091848Z AUTO 19005KT 10SM CLR 37/22 A2991 RMK AO2

2010/08/09 18:52
KPWK 091852Z 26008KT 10SM FEW040 31/21 A2993 RMK AO2 SLP128 T03060211

2010/08/09 18:52
KPYM 091852Z AUTO 21009KT 10SM FEW042 32/21 A2995 RMK AO2 SLP140 T03220206

2010/08/09 18:52
KRAP 091852Z 18016G20KT 10SM CLR 33/16 A2994 RMK AO2 SLP104 T03280161

2010/08/09 18:52
KSGF 091852Z 24004KT 10SM CLR 35/22 A2996 RMK AO2 SLP127 T03500217

2010/08/09 18:53
KSNL 091853Z AUTO 21009KT 10SM CLR 37/21 A2994 RMK AO2

2010/08/09 18:55
KSOP 091855Z AUTO 12004KT 10SM CLR 33/21 A3002 RMK AO1

2010/08/09 18:52
KSPI 091852Z 20004KT 10SM CLR 32/26 A2991 RMK AO2 SLP122 T03220256

2010/08/09 18:50
KSRE 091850Z AUTO 15010G16KT 10SM CLR 37/18 A2993 RMK AO2

2010/08/09 18:52
KSUX 091852Z 04005KT 10SM OVC013 28/23 A2987 RMK AO2 SLP108 T02780233

2010/08/09 18:45
KSVC 091845Z AUTO 30007KT 030V040 10SM CLR 29/07 A3018 RMK AO2

2010/08/09 18:52
KTAN 091852Z AUTO 20006KT 10SM CLR 31/22 A2993 RMK AO2 SLP134 T03110217

2010/08/09 18:54
KTMK 091854Z AUTO 32007KT 10SM SCT019 OVC027 17/12 A3003 RMK AO2

2010/08/09 18:53
KTQH 091853Z AUTO 16010G15KT 10SM SCT065 38/23 A2995 RMK AO2

2010/08/09 18:52
KTRM 091852Z AUTO VRB04KT 10SM CLR 36/04 A2977 RMK AO2 SLP084 T03560044

2010/08/09 18:55
KUDG 091855Z 14006KT 4SM FEW075 32/23 A3003 RMK AO1

2010/08/09 18:52
KUGN 091852Z VRB05KT 10SM SCT033 30/22 A2991 RMK AO2 SLP112 T03000217

2010/08/09 18:48
KWWR 091848Z AUTO 17013G17KT 10SM CLR 37/18 A2994 RMK AO2 T03700182

2010/08/09 18:48
PAPT 091848Z 17009KT 25SM BKN015 OVC040 10/09 A2958 RMK NOSPECI

2010/08/09 18:52
KDDC 091852Z AUTO 19011G20KT 10SM CLR 38/16 A2991 RMK AO2 SLP087 T03830156

2010/08/09 18:52
KDPA 091852Z 24008KT 10SM CLR 29/22 A2993 RMK AO2 SLP128 T02940222

2010/08/09 18:51
KDUA 091851Z AUTO 20008KT 10SM SCT065 37/19 A2992 RMK AO2

2010/08/09 18:52
KDVN 091852Z AUTO 10008KT 10SM CLR 29/24 A2993 RMK AO2 SLP128 T02890239

2010/08/09 18:50
KDVO 091850Z AUTO 34007KT 10SM SCT016 BKN030 18/13 A2994 RMK AO2

2010/08/09 18:52
KEST 091852Z AUTO 08004KT 10SM OVC019 27/23 A2993 RMK AO2 SLP126 T02720233

2010/08/09 18:50
KFET 091850Z AUTO 33005KT 10SM SCT013 29/24 A2987 RMK AO2 T02880242

2010/08/09 18:52
KFIT 091852Z AUTO 24004KT 10SM FEW095 32/18 A2994 RMK AO2 SLP135 T03170178

2010/08/09 18:50
KGCD 091850Z AUTO 24003KT 10SM CLR 24/05 A2993 RMK AO2 T02390047

2010/08/09 18:52
KGCM 091852Z AUTO 17011G14KT 10SM CLR 36/22 A2995 RMK AO2

2010/08/09 18:51
KGMJ 091851Z AUTO 15007KT 10SM SCT060 36/19 A2994 RMK AO2

2010/08/09 18:50
KHDE 091850Z AUTO 07007KT 10SM CLR 29/22 A2994 RMK AO2 T02940216

2010/08/09 18:52
KHIE 091852Z AUTO VRB05KT 10SM FEW045 SCT055 BKN075 27/18 A2994 RMK AO2 SLP135 T02720183

2010/08/09 18:50
KHJH 091850Z AUTO 14003KT 10SM CLR 34/22 A2986 RMK AO2 T03420224

2010/08/09 18:52
KHUT 091852Z 14012KT 10SM CLR 39/19 A2989 RMK AO2 SLP090 T03890194

2010/08/09 18:50
KIBM 091850Z AUTO 32008KT 10SM CLR 27/16 A3008 RMK AO2 T02690155

2010/08/09 18:50
KIDP 091850Z AUTO 18007KT 10SM CLR 36/21 A2991 RMK AO2

2010/08/09 18:52
KIEN 091852Z AUTO 14007KT 10SM CLR 34/14 A2994 RMK AO2 SLP103 T03440144

2010/08/09 18:52
KIJD 091852Z AUTO 20009G16KT 10SM SCT060 32/19 A2995 RMK AO2 SLP140 T03220189

2010/08/09 18:52
KIOW 091852Z AUTO 22006KT 10SM CLR 32/23 A2990 RMK AO2 SLP118 T03170228

2010/08/09 18:52
KISN 091852Z 05008KT 10SM CLR 28/16 A2986 RMK AO2 SLP099 T02780161

2010/08/09 18:51
KJSV 091851Z AUTO 16004KT 10SM CLR 34/22 A2994 RMK AO2

2010/08/09 18:50
KJYR 091850Z AUTO 35004KT 10SM CLR 32/25 A2988 RMK AO2

2010/08/09 18:50
KLAM 091850Z AUTO 00000KT 10SM SCT050 24/12 A3027 RMK AO2

2010/08/09 18:51
KSGR 091851Z 18007KT 10SM FEW045 34/22 A2994 RMK AO2

2010/08/09 18:51
KJCT 091851Z AUTO 17005KT 10SM FEW065 35/17 A2996 RMK AO2 SLP104 T03500172 TSNO

2010/08/09 18:47
PALJ 091847Z 24007KT 30SM BKN060 OVC100 13/10 A2953 RMK EST PASS OPEN NOSPECI

2010/08/09 18:50
PAWR 091850Z 12009G20KT 1SM -RA BR VV007 12/11 A2980 RMK SLP091 NOSPECI

2010/08/09 18:51
KDAG 091851Z AUTO 07006KT 10SM CLR 32/00 A2991 RMK AO2 SLP098 T03220000 TSNO

2010/08/09 18:50
PHJH 091850Z 08015KT 15SM FEW040 27/17 A3009

2010/08/09 18:52
KDCA 091852Z 17011KT 8SM SCT055 BKN250 33/21 A2999 RMK AO2 SLP154 T03330206

2010/08/09 18:50
KEKM 091850Z 17005KT 7SM SCT040 SCT049 BKN075 28/21 A2996 RMK A02

2010/08/09 18:47
KEMT 091847Z 18005KT 8SM SKC A2992

2010/08/09 18:52
KGLS 091852Z 15011KT 10SM CLR 33/24 A2996 RMK AO2 SLP146 T03330244

2010/08/09 18:55
KGLY 091855Z AUTO 20005KT 10SM CLR 34/27 A2992 RMK AO2

2010/08/09 18:52
KHRL 091852Z 19006KT 10SM SCT044 36/24 A2987 RMK AO2 SLP116 T03560239

2010/08/09 18:52
KIAD 091852Z 19007KT 9SM SCT055 BKN250 32/21 A2999 RMK AO2 SLP152 T03170206

2010/08/09 18:52
KMEB 091852Z AUTO 08006KT 10SM CLR 33/21 A3001 RMK AO2 SLP160 T03330211

2010/08/09 18:55
KPAN 091855Z AUTO 20004KT 10SM CLR 26/09 A3018 RMK AO1

2010/08/09 18:50
KSAW 091850Z 04011KT 10SM SKC 27/21 A2988

2010/08/09 18:48
K4O4 091848Z AUTO 19004KT 10SM CLR 35/22 A2995 RMK AO2

2010/08/09 18:51
KADH 091851Z AUTO 14007KT 10SM SCT060 SCT075 36/17 A2993 RMK AO2

2010/08/09 18:50
KAFK 091850Z AUTO 19007KT 10SM CLR 31/24 A2986 RMK AO2 T03050239

2010/08/09 18:52
KAFN 091852Z AUTO 23008G14KT 10SM FEW085 29/16 A2997 RMK AO2 SLP148 T02940161

2010/08/09 18:45
KALM 091845Z AUTO 20004KT 10SM CLR 30/14 A3007 RMK AO2

2010/08/09 18:50
KANW 091850Z AUTO 00000KT 10SM CLR 30/18 A2997 RMK AO2 T03000177

2010/08/09 18:52
KAQW 091852Z AUTO 23003KT 9SM BKN060 29/18 A2995 RMK AO2 SLP136 T02890183

2010/08/09 18:52
KARR 091852Z 20004KT 10SM CLR 28/23 A2994 RMK AO2 SLP132 T02830228

2010/08/09 18:52
KATL 091852Z 11005KT 10SM FEW055 SCT250 34/20 A3002 RMK AO2 SLP154 T03390200

2010/08/09 18:50
KATS 091850Z AUTO 14011KT 10SM CLR 31/14 A3003 RMK AO2

2010/08/09 18:50
KAUH 091850Z AUTO 34004KT 10SM CLR 30/23 A2991 RMK AO2 T03040226

2010/08/09 18:50
KAUN 091850Z AUTO 18003KT 10SM CLR 26/13 A2992 RMK AO1

2010/08/09 18:50
KAXS 091850Z AUTO 21007KT 10SM CLR 36/19 A2991 RMK AO2 T03610190

2010/08/09 18:50
KAXX 091850Z AUTO 20007KT 10SM -RA SCT100 BKN120 19/11 A3034 RMK AO2

2010/08/09 18:50
KBIE 091850Z AUTO 15006KT 10SM CLR 33/21 A2986 RMK AO2 T03310212

2010/08/09 18:52
KBIS 091852Z 19007KT 10SM CLR 34/17 A2988 RMK AO2 SLP104 T03440167

2010/08/09 18:52
KBLF 091852Z AUTO 00000KT 10SM CLR 30/15 A3015 RMK AO2 SLP165 T03000150

2010/08/09 18:52
KBLH 091852Z AUTO 14005KT 10SM CLR 37/M01 A2981 RMK AO2 SLP087 T03721006

2010/08/09 18:52
KBML 091852Z AUTO 00000KT 10SM FEW042 SCT049 BKN060 26/17 A2994 RMK AO2 SLP135 T02560167

2010/08/09 18:50
KBTA 091850Z AUTO 00000KT 10SM CLR 31/24 A2987 RMK AO2 T03110243

2010/08/09 18:50
KBVN 091850Z AUTO 00000KT 10SM CLR 29/22 A2991 RMK AO2 T02940220

2010/08/09 18:45
KBVS 091845Z AUTO 20004KT 10SM OVC014 16/13 A2999 RMK A01 P000

2010/08/09 18:52
KCFV 091852Z AUTO 19008KT 10SM CLR 37/21 A2991 RMK AO2 SLP118 T03720211

2010/08/09 18:50
KCHK 091850Z AUTO 19012G18KT 10SM SCT060 38/23 A2990 RMK AO2

2010/08/09 18:52
KCKV 091852Z AUTO 27005KT 10SM VCTS FEW080 34/22 A2995 RMK AO2 LTG DSNT SW TSB48 SLP133 T03440222

2010/08/09 18:50
KCLK 091850Z AUTO 18010G15KT 10SM CLR 36/13 A2990 RMK AO2

2010/08/09 18:52
KCLT 091852Z 00000KT 10SM SCT045 BKN250 33/20 A3003 RMK AO2 SLP157 T03330200

2010/08/09 18:50
KCQB 091850Z AUTO 19007G14KT 10SM CLR 37/21 A2992 RMK AO2 TSNO

2010/08/09 18:52
KCQX 091852Z AUTO VRB06G17KT 10SM BKN006 28/23 A2999 RMK AO2 SLP155 T02830233

2010/08/09 18:50
KCUH 091850Z AUTO 15010G14KT 10SM CLR 37/20 A2990 RMK AO2

2010/08/09 18:52
KCVG 091852Z 22004KT 8SM FEW055 SCT150 BKN220 33/19 A2999 RMK AO2 SLP142 T03280189

2010/08/09 18:50
KOJA 091850Z AUTO 16012KT 10SM CLR 36/20 A2991 RMK AO2

2010/08/09 18:52
KOKB 091852Z AUTO 24008KT 9SM CLR 23/14 A2993 RMK AO2 SLP134 T02330139

2010/08/09 18:52
KOKC 091852Z 17010G18KT 10SM FEW060 36/22 A2992 RMK AO2 SLP111 T03610217

2010/08/09 18:50
KLCG 091850Z AUTO 00000KT 5SM HZ BKN011 27/24 A2990 RMK AO2 T02690236

2010/08/09 18:50
KLHM 091850Z AUTO 18004KT 10SM CLR 25/12 A2987 RMK AO1 T02470122

2010/08/09 18:52
KLWC 091852Z AUTO 18009KT 10SM CLR 38/23 A2987 RMK AO2 SLP102 T03780233

2010/08/09 18:52
KMDH 091852Z AUTO 09003KT 10SM FEW060 37/22 A2992 RMK AO2 SLP126 T03670222 TSNO

2010/08/09 18:52
KMKE 091852Z 27005KT 10SM SCT027 BKN140 BKN250 29/21 A2990 RMK AO2 SLP119 T02940211

2010/08/09 18:52
KMLI 091852Z 08005KT 10SM CLR 28/23 A2991 RMK AO2 SLP124 T02830233

2010/08/09 18:50
KMWA 091850Z 31004KT 15SM BKN060 BKN075 37/20 A2993

2010/08/09 18:52
KMWH 091852Z AUTO 19011G15KT 140V220 10SM CLR 26/10 A2982 RMK AO2 SLP090 T02560100 TSNO

2010/08/09 18:55
KOAJ 091855Z AUTO 12011KT 10SM FEW060 32/24 A3002 RMK AO1

2010/08/09 18:51
KSAN 091851Z 27006KT 10SM FEW020 21/14 A2995 RMK AO2 SLP141 T02060139

2010/08/09 18:51
KOXR 091851Z 26007KT 10SM BKN012 18/13 A2994 RMK AO2 SLP138 T01780128

2010/08/09 18:51
KPVD 091851Z 24010G17KT 10SM FEW049TCU SCT065 32/19 A2995 RMK AO2 TCU ALQDS SLP141 T03170194

2010/08/09 18:51
KROW 091851Z 16006KT 10SM CLR 31/15 A3004 RMK AO2 SLP101 T03060150

2010/08/09 18:51
KTEB 091851Z 18010G17KT 10SM FEW070 33/18 A2994 RMK AO2 SLP138 T03280183

2010/08/09 18:51
KYNG 091851Z 19007KT 10SM FEW050 SCT100 BKN250 29/17 A3002 RMK AO2 SLP156 T02940167

2010/08/09 18:51
KALB 091851Z 26010G15KT 9SM SCT065 SCT100 32/18 A2993 RMK AO2 SLP131 T03220178

2010/08/09 18:51
KBDL 091851Z 24010G15KT 10SM FEW070 SCT100 SCT250 33/15 A2993 RMK AO2 SLP133 T03330150

2010/08/09 18:51
KBKW 091851Z AUTO 26005KT 6SM HZ CLR 28/17 A3013 RMK AO2 SLP162 T02830167

2010/08/09 18:51
KEKN 091851Z AUTO VRB03KT 9SM CLR 30/18 A3009 RMK AO2 SLP175 T03000183 TSNO

2010/08/09 18:51
KELP 091851Z VRB04KT 10SM FEW075 32/12 A3006 RMK AO2 SLP099 CB DSNT NE T03170122

2010/08/09 18:51
KHTS 091851Z VRB03KT 9SM CLR 31/18 A3002 RMK AO2 SLP156 T03110183

2010/08/09 18:48
KIZA 091848Z AUTO 28004KT 10SM CLR 21/11 A2993 RMK AO2

2010/08/09 18:51
KMYL 091851Z AUTO 28004KT 10SM FEW065 BKN100 21/09 A2996 RMK AO2 SLP104 T02060094

2010/08/09 18:51
KGDP 091851Z AUTO 25009G19KT 10SM CLR 28/13 A3019 RMK AO2 SLP141 T02780133 TSNO

2010/08/09 18:51
KCAK 091851Z 24009G19KT 10SM FEW065 SCT250 30/17 A3002 RMK AO2 SLP154 T03000172

2010/08/09 18:51
KCON 091851Z AUTO 29009KT 10SM FEW065 33/16 A2991 RMK AO2 SLP125 T03330156

2010/08/09 18:51
KSMX 091851Z VRB03KT 10SM FEW015 18/11 A2994 RMK AO2 SLP141 T01780111

2010/08/09 18:51
KBVE 091851Z AUTO 22003KT -RA BKN026 24/24 A2998 RMK AO2 SLP152 P0050 T02440239 TSNO $

2010/08/09 18:51
KCRP 091851Z 12014KT 10SM BKN040 33/25 A2992 RMK AO2 SLP130 T03330250

2010/08/09 18:51
KORF 091851Z 09007KT 10SM FEW035 31/20 A3002 RMK AO2 SLP166 T03110200 $

2010/08/09 18:51
KSNT 091851Z AUTO 00000KT 13/11 A3008 RMK AO2 SLP104 P0009 T01330106 PWINO TSNO

2010/08/09 18:51
KNYC 091851Z AUTO VRB04KT 10SM CLR 34/19 A2999 RMK AO2 SLP144 T03390194 TSNO

2010/08/09 18:51
KABE 091851Z 25008KT 10SM FEW060 SCT080 33/19 A2998 RMK AO2 SLP148 T03280189

2010/08/09 18:51
KATT 091851Z AUTO 00000KT 10SM CLR 36/19 A2996 RMK AO2 SLP126 T03560189

2010/08/09 18:51
KP59 091851Z AUTO 35015KT 25/21 A2988 RMK AO2 SLP110 T02500206 PWINO TSNO

2010/08/09 18:51
KHSE 091851Z AUTO 16010KT 10SM -RA FEW016 BKN026 OVC090 28/25 A3005 RMK AO2 RAB49 SLP175 P0000 T02830250 TSNO

2010/08/09 18:55
KLZZ 091855Z AUTO 15006KT 10SM SCT060 35/18 A2996 RMK AO2

2010/08/09 18:52
KREO 091852Z AUTO VRB04KT 26/08 A2993 RMK AO2 SLP100 T02560083 PWINO TSNO

2010/08/09 18:52
KP69 091852Z AUTO 17003KT 28/13 A2979 RMK AO2 SLP065 T02780128 PWINO TSNO

2010/08/09 18:52
KALS 091852Z AUTO A3026 RMK AO2 LTG DSNT S SLPNO PWINO FZRANO PNO $

2010/08/09 18:52
KBDR 091852Z 18010KT 8SM CLR 31/21 A2995 RMK AO2 SLP143 T03110206

2010/08/09 18:52
KCID 091852Z 07004KT 10SM CLR 30/24 A2991 RMK AO2 SLP120 T03000239

2010/08/09 18:52
KCNU 091852Z AUTO 18011G17KT 10SM CLR 37/22 A2991 RMK AO2 SLP114 T03670217

2010/08/09 18:50
KPTS 091850Z AUTO 18010KT 10SM CLR 36/21 A2992 RMK AO2 T03600208

2010/08/09 18:52
KSPS 091852Z AUTO 20011G15KT 10SM FEW075 38/17 A2989 RMK AO2 SLP104 P0003 T03830172

2010/08/09 18:52
KTOL 091852Z 00000KT 9SM CLR 31/21 A2997 RMK AO2 SLP141 T03060206

2010/08/09 18:52
KVTN 091852Z AUTO 00000KT 10SM CLR 32/16 A2996 RMK AO2 SLP121 T03220161

2010/08/09 18:50
KESN 091850Z 24008KT 6SM HZ SCT070 33/22 A3004

2010/08/09 18:52
KMFD 091852Z 24008KT 8SM CLR 31/16 A3003 RMK AO2 SLP157 T03060161

2010/08/09 18:52
KMHK 091852Z 21013KT 10SM CLR 39/19 A2983 RMK AO2 SLP087 T03890189

2010/08/09 18:50
OAKB 091850Z VRB03KT 9999 SCT070 BKN130 23/18 Q1013 NOSIG RMK BLU BLU

2010/08/09 18:52
KBLU 091852Z AUTO 20007KT 190V270 10SM CLR 21/07 A3010 RMK AO2 SLP107 T02110067 TSNO 

2010/08/09 18:52
KSDB 091852Z AUTO 17008KT 10SM CLR 24/02 A3006 RMK AO2 SLP126 T02440017 TSNO 

2010/08/09 18:50
EDDB 091850Z 28004KT CAVOK 20/16 Q1015 NOSIG

2010/08/09 18:50
EDDC 091850Z 26003KT 9999 FEW031 SCT100 19/14 Q1017 NOSIG

2010/08/09 18:50
EDDG 091850Z VRB01KT 9999 FEW043 BKN260 18/14 Q1016 NOSIG

2010/08/09 18:50
EDDP 091850Z 30002KT CAVOK 18/14 Q1016 NOSIG

2010/08/09 18:50
EDDR 091850Z 10003KT CAVOK 20/11 Q1016 NOSIG

2010/08/09 18:50
EDDT 091850Z 28005KT CAVOK 20/15 Q1016 NOSIG

2010/08/09 18:50
EDDV 091850Z 32002KT CAVOK 18/13 Q1016 NOSIG

2010/08/09 18:50
EDDW 091850Z 18005KT 9999 FEW025 SCT080 BKN250 18/13 Q1016 NOSIG

2010/08/09 18:50
EYSA 091850Z 17005KT 9999 BKN043 19/16 Q1016

2010/08/09 18:49
MMCZ 091849Z 15007KT 8SM SCT015TCU BKN250 30/24 A2993 RMK 8/206

2010/08/09 18:48
MMMD 091848Z 11006KT 7SM BKN025 BKN300 34/25 A2988 RMK 8/202

2010/08/09 18:45
MMUN 091845Z 14008KT 8SM SCT020TCU BKN250 33/22 A2992 RMK 8/202 DSNT RA W CB 4TH QUAD AC

2010/08/09 18:45
MMCE 091845Z 10010KT 7SM SCT015 SCT200 31/26 A2985 RMK 8/105

2010/08/09 18:45
MMCM 091845Z 09010KT 7SM SCT015 31/26 A2984 RMK 8/500

2010/08/09 18:49
MMMT 091849Z 36010KT 10SM SCT020 SCT180 31/24 A2984 RMK 8/101

2010/08/09 18:45
MMCT 091845Z 12006KT 7SM BKN020TCU BKN080 BKN250 33/26 A2989 RMK 8/268 CB N NE MSGTX MMMD

2010/08/09 18:49
MMTG 091849Z 00000KT 10SM FEW022 SCT070 SCT300 30/22 A2992 RMK 8/132

2010/08/09 18:52
KN60 091852Z AUTO 16006KT 26/17 A2985 RMK AO1 SLP097 T02610167 

2010/08/09 18:45
KMYR 091845Z 13012KT 10SM FEW015 30/25 A3005

2010/08/09 19:00
ZMUB 091900Z 00000MPS CAVOK 07/01 Q1008 NOSIG RMK QFE649.8 64

2010/08/09 18:50
BGSF 091850Z 07006KT 030V130 9999 SCT045 BKN110 16/08 Q1008

2010/08/09 18:50
BGBW 091850Z AUTO 06003KT 9999NDV -RA BKN014/// OVC017/// 11/10 Q1008

2010/08/09 18:50
BGJN 091850Z 18009KT 9999 SCT100 BKN150 13/03 Q1008

2010/08/09 18:50
ESGG 091850Z 25008KT 9999 BKN017 15/12 Q1012

2010/08/09 18:50
ESGJ 091850Z 23011KT 9999 FEW012 SCT017 BKN025 16/14 Q1011

2010/08/09 18:50
ESGP 091850Z 26009KT 9999 OVC035 16/12 Q1012

2010/08/09 18:50
ESMK 091850Z AUTO 28004KT 9999NDV NCD 17/12 Q1014

2010/08/09 18:50
ESMQ 091850Z AUTO 25008KT 9999NDV OVC028/// 17/14 Q1012

2010/08/09 18:50
ESMS 091850Z 30004KT 9999 FEW043 16/12 Q1014

2010/08/09 18:50
ESMT 091850Z AUTO 26009KT 9999NDV OVC038/// 16/12 Q1013

2010/08/09 18:50
ESMX 091850Z 23007KT 9999 FEW013 SCT016 OVC034 15/14 Q1013

2010/08/09 18:50
ESTA 091850Z 26009KT 9999 FEW029 OVC043 17/10 Q1013

2010/08/09 18:50
ESTL 091850Z AUTO 22004KT 9999NDV BKN040/// 15/12 Q1014

2010/08/09 18:50
EKCH 091850Z 30005KT 9999 FEW045 BKN210 18/10 Q1014 NOSIG

2010/08/09 18:50
EKBI 091850Z 26004KT 9999 FEW040 BKN200 16/11 Q1015

2010/08/09 18:50
EKYT 091850Z 26010KT 9999 SCT034 16/11 Q1013

2010/08/09 18:50
EKRK 091850Z AUTO 30006KT 9999NDV FEW043/// 16/11 Q1014

2010/08/09 18:50
EKAH 091850Z AUTO 28007KT 9999NDV BKN043/// 17/10 Q1014

2010/08/09 18:50
EKEB 091850Z AUTO 23005KT 9999NDV BKN061/// 16/11 Q1015

2010/08/09 18:50
EKRN 091850Z AUTO 24005KT 9999NDV NCD 18/15 Q1015

2010/08/09 18:51
EKSB 091851Z 27005KT CAVOK 17/09 Q1015

2010/08/09 18:50
EKVD 091850Z AUTO 26008KT //// ///////// 16/11 Q1015

2010/08/09 18:50
EKKA 091850Z 25006KT 9999 FEW022 BKN035 16/12 Q1014

2010/08/09 18:50
EKSP 091850Z 25005KT 9999 FEW036 SCT250 15/11 Q1015

2010/08/09 18:50
EKGF 091850Z 19021KT 9999 FEW012 17/16 Q1012

2010/08/09 18:50
EKHN 091850Z AUTO VRB06KT 9999NDV NCD 18/14 Q1016

2010/08/09 18:50
EKHR 091850Z AUTO 20009KT 9999NDV NCD 17/12 Q1014

2010/08/09 18:50
EFHK 091850Z 18008KT 9999 FEW020 BKN070 20/16 Q1011 NOSIG

2010/08/09 18:50
EFJY 091850Z AUTO 15003KT CAVOK 19/17 Q1010

2010/08/09 18:50
EFKU 091850Z AUTO 21008KT 9999NDV BKN047 20/17 Q1010

2010/08/09 18:50
EFOU 091850Z 25003KT 9999 BKN011 18/18 Q1008

2010/08/09 18:50
EFRO 091850Z AUTO 03011KT 9999NDV SCT008 BKN010 13/12 Q1009

2010/08/09 18:50
EFTP 091850Z 15008KT 100V210 6000 FEW005 FEW015CB BKN025 18/17 Q1010 RESHRA

2010/08/09 18:50
EFTU 091850Z AUTO 21006KT 160V250 9999 SCT008 BKN017 OVC053 18/17 Q1008 RESHRA

2010/08/09 18:50
EFVA 091850Z 17001KT 7000 -RA SCT006 BKN013 OVC023 19/18 Q1008

2010/08/09 18:48
KEHA 091848Z AUTO 15011KT 35/16

2010/08/09 18:48
KIZA 091848Z AUTO 28004KT 10SM CLR 21/11 A2993

2010/08/09 18:45
KMYR 091845Z 13012KT 10SM FEW015 30/25 A3005

2010/08/09 18:50
LSZG 091850Z 10004KT 9999 FEW050 22/13 Q1016 NOSIG

2010/08/09 18:50
LSZR 091850Z 16002KT CAVOK 19/15 Q1016 NOSIG RMK P

2010/08/09 18:52
KABI 091852Z VRB04KT 10SM FEW060 34/19 A2997 RMK AO2 SLP117 T03440189 

2010/08/09 18:46
KBJC 091846Z VRB04KT 50SM SCT060 BKN120 28/07 A3013

2010/08/09 18:45
KGYY 091845Z 24009KT 10SM SCT090 BKN250 31/21 A2992

2010/08/09 18:52
K9V9 091852Z AUTO 14008KT 30/23 A2991 RMK AO2 SLP114 T03000228 PWINO TSNO 

2010/08/09 18:50
EDDB 091850Z 28004KT CAVOK 20/16 Q1015 NOSIG

2010/08/09 18:50
EDDC 091850Z 26003KT 9999 FEW031 SCT100 19/14 Q1017 NOSIG

2010/08/09 18:50
EDDE 091850Z 28006KT 9999 FEW044 BKN080 19/12 Q1017 NOSIG

2010/08/09 18:50
EDDF 091850Z 15004KT 9999 FEW048 SCT300 22/12 Q1016 NOSIG

2010/08/09 18:50
EDDG 091850Z VRB01KT 9999 FEW043 BKN260 18/14 Q1016 NOSIG

2010/08/09 18:50
EDDH 091850Z 22002KT CAVOK 17/15 Q1015 NOSIG

2010/08/09 18:50
EDDK 091850Z 05003KT CAVOK 19/15 Q1016 NOSIG

2010/08/09 18:50
EDDL 091850Z 17004KT 9999 FEW040 BKN280 20/13 Q1015 NOSIG

2010/08/09 18:50
EDDM 091850Z 04007KT CAVOK 19/14 Q1017 NOSIG

2010/08/09 18:50
EDDN 091850Z VRB01KT CAVOK 18/15 Q1017 NOSIG

2010/08/09 18:50
EDDP 091850Z 30002KT CAVOK 18/14 Q1016 NOSIG

2010/08/09 18:50
EDDR 091850Z 10003KT CAVOK 20/11 Q1016 NOSIG

2010/08/09 18:50
EDDS 091850Z 36004KT CAVOK 20/11 Q1017 NOSIG

2010/08/09 18:50
EDDT 091850Z 28005KT CAVOK 20/15 Q1016 NOSIG

2010/08/09 18:50
EDDV 091850Z 32002KT CAVOK 18/13 Q1016 NOSIG

2010/08/09 18:50
EDDW 091850Z 18005KT 9999 FEW025 SCT080 BKN250 18/13 Q1016 NOSIG

2010/08/09 18:50
EKAH 091850Z AUTO 28007KT 9999NDV BKN043/// 17/10 Q1014

2010/08/09 18:50
EKBI 091850Z 26004KT 9999 FEW040 BKN200 16/11 Q1015

2010/08/09 18:50
EKCH 091850Z 30005KT 9999 FEW045 BKN210 18/10 Q1014 NOSIG

2010/08/09 18:50
EKEB 091850Z AUTO 23005KT 9999NDV BKN061/// 16/11 Q1015

2010/08/09 18:50
EKKA 091850Z 25006KT 9999 FEW022 BKN035 16/12 Q1014

2010/08/09 18:50
EKRK 091850Z AUTO 30006KT 9999NDV FEW043/// 16/11 Q1014

2010/08/09 18:50
EKRN 091850Z AUTO 24005KT 9999NDV NCD 18/15 Q1015

2010/08/09 18:50
EKSP 091850Z 25005KT 9999 FEW036 SCT250 15/11 Q1015

2010/08/09 18:50
EKVD 091850Z AUTO 26008KT //// ///////// 16/11 Q1015

2010/08/09 18:50
EKYT 091850Z 26010KT 9999 SCT034 16/11 Q1013

2010/08/09 18:50
LSGG 091850Z 30003KT 250V360 9999 FEW060 25/11 Q1016 NOSIG

2010/08/09 18:50
LSZA 091850Z 15004KT 9999 FEW050 24/18 Q1015 NOSIG

2010/08/09 18:50
LSZB 091850Z 31006KT 9999 SCT055 22/14 Q1016 NOSIG

2010/08/09 18:50
LSZH 091850Z 28003KT CAVOK 21/14 Q1016 NOSIG

2010/08/09 18:50
EDDB 091850Z 28004KT CAVOK 20/16 Q1015 NOSIG

2010/08/09 18:50
EDDC 091850Z 26003KT 9999 FEW031 SCT100 19/14 Q1017 NOSIG

2010/08/09 18:50
EDDE 091850Z 28006KT 9999 FEW044 BKN080 19/12 Q1017 NOSIG

2010/08/09 18:50
EDDF 091850Z 15004KT 9999 FEW048 SCT300 22/12 Q1016 NOSIG

2010/08/09 18:50
EDDG 091850Z VRB01KT 9999 FEW043 BKN260 18/14 Q1016 NOSIG

2010/08/09 18:50
EDDH 091850Z 22002KT CAVOK 17/15 Q1015 NOSIG

2010/08/09 18:50
EDDK 091850Z 05003KT CAVOK 19/15 Q1016 NOSIG

2010/08/09 18:50
EDDL 091850Z 17004KT 9999 FEW040 BKN280 20/13 Q1015 NOSIG

2010/08/09 18:50
EDDM 091850Z 04007KT CAVOK 19/14 Q1017 NOSIG

2010/08/09 18:50
EDDN 091850Z VRB01KT CAVOK 18/15 Q1017 NOSIG

2010/08/09 18:50
EDDP 091850Z 30002KT CAVOK 18/14 Q1016 NOSIG

2010/08/09 18:50
EDDR 091850Z 10003KT CAVOK 20/11 Q1016 NOSIG

2010/08/09 18:50
EDDS 091850Z 36004KT CAVOK 20/11 Q1017 NOSIG

2010/08/09 18:50
EDDT 091850Z 28005KT CAVOK 20/15 Q1016 NOSIG

2010/08/09 18:50
EDDV 091850Z 32002KT CAVOK 18/13 Q1016 NOSIG

2010/08/09 18:50
EDDW 091850Z 18005KT 9999 FEW025 SCT080 BKN250 18/13 Q1016 NOSIG

2010/08/09 18:50
EKAH 091850Z AUTO 28007KT 9999NDV BKN043/// 17/10 Q1014

2010/08/09 18:50
EKBI 091850Z 26004KT 9999 FEW040 BKN200 16/11 Q1015

2010/08/09 18:50
EKCH 091850Z 30005KT 9999 FEW045 BKN210 18/10 Q1014 NOSIG

2010/08/09 18:50
EKEB 091850Z AUTO 23005KT 9999NDV BKN061/// 16/11 Q1015

2010/08/09 18:50
EKKA 091850Z 25006KT 9999 FEW022 BKN035 16/12 Q1014

2010/08/09 18:50
EKRK 091850Z AUTO 30006KT 9999NDV FEW043/// 16/11 Q1014

2010/08/09 18:50
EKSP 091850Z 25005KT 9999 FEW036 SCT250 15/11 Q1015

2010/08/09 18:50
EKYT 091850Z 26010KT 9999 SCT034 16/11 Q1013

2010/08/09 18:45
LMML 091845Z 31004KT CAVOK 24/18 Q1015 NOSIG

2010/08/09 19:00
LQMO 091900Z VRB02KT CAVOK 27/14 Q1011

2010/08/09 18:50
LSGG 091850Z 30003KT 250V360 9999 FEW060 25/11 Q1016 NOSIG

2010/08/09 18:50
LSZA 091850Z 15004KT 9999 FEW050 24/18 Q1015 NOSIG

2010/08/09 18:50
LSZB 091850Z 31006KT 9999 SCT055 22/14 Q1016 NOSIG

2010/08/09 18:50
LSZH 091850Z 28003KT CAVOK 21/14 Q1016 NOSIG

2010/08/09 18:45
KMWS 091845Z 24004G05KT 25/02 RMK SNOW DEPTH M 

2010/08/09 18:53
KLND 091853Z AUTO 00000KT 10SM FEW120 27/07 A3002 RMK AO2 SLP089 T02720067 

2010/08/09 18:53
KMSN 091853Z VRB04KT 10SM BKN025 28/22 A2992 RMK AO2 SLP125 T02830217 

2010/08/09 18:51
KVCT 091851Z VRB05KT 10SM BKN047 36/23 A2993 RMK AO2 SLP133 T03560228 

2010/08/09 18:53
KCQC 091853Z AUTO 35009KT 10SM OVC110 26/11 A3023 RMK AO2 SLP128 T02610106 TSNO 

2010/08/09 18:53
K6R6 091853Z AUTO 13010KT 32/21 A2996 RMK AO2 SLP106 T03170211 PWINO TSNO 

2010/08/09 18:53
KTLH 091853Z 07008G16KT 10SM FEW050 35/20 A2995 RMK AO2 SLP139 T03500200 

2010/08/09 18:53
KTCS 091853Z AUTO 00000KT 10SM CLR 29/12 A3011 RMK AO2 SLP109 T02890122 TSNO 

2010/08/09 18:53
KNUI 091853Z AUTO 11008KT 10SM CLR 32/22 A3001 RMK AO2 SLP161 T03170222 

2010/08/09 18:53
KNIP 091853Z 05013G22KT 3SM RA FEW020 BKN035CB BKN250 28/25 A2996 RMK AO2 RAB46 SLP139 CB OHD MOV SW P0000 T02780250 

2010/08/09 18:53
CWCL 091853Z AUTO 35004KT 7SM -RA BKN013 OVC042 10/08 A2997

2010/08/09 18:50
BGBW 091850Z AUTO 06003KT 9999NDV -RA BKN014/// OVC017/// 11/10 Q1008

2010/08/09 18:50
BGJN 091850Z 18009KT 9999 SCT100 BKN150 13/03 Q1008

2010/08/09 18:50
BGSF 091850Z 07006KT 030V130 9999 SCT045 BKN110 16/08 Q1008

2010/08/09 18:50
EFKU 091850Z AUTO 21008KT 9999NDV BKN047 20/17 Q1010

2010/08/09 18:50
EFOU 091850Z 25003KT 9999 BKN011 18/18 Q1008

2010/08/09 18:50
KAPG 091850Z 19008KT 7SM FEW030 SCT200 33/21 A3000

2010/08/09 18:51
KBYH 091851Z 00000KT 10SM SCT030 BKN250 36/26 A2995

2010/08/09 18:55
KHMN 091855Z AUTO VRB03KT 10SM CLR 30/14 A3006 RMK AO2 SLP095 T02970137 $

2010/08/09 18:55
KHST 091855Z AUTO 19006KT 10SM -DZ FEW080 SCT190 27/24 A2992 RMK AO2 RAE1821DZB1821 SLP134 P0002 T02660243

2010/08/09 18:55
KLRF 091855Z AUTO VRB03KT 10SM CLR 36/23 A2993 RMK AO2 SLP133 T03630234

2010/08/09 18:52
KNHK 091852Z 13010KT 9SM FEW025 SCT250 31/22 A3001 RMK AO2 SLP162 T03110222

2010/08/09 18:52
KNRB 091852Z 10009KT 10SM FEW015 SCT030TCU BKN065 31/23 A2995 RMK AO2 RAE19 SLP142 TCU OHD T2 SET P0000 T03060233

2010/08/09 18:55
KRDR 091855Z AUTO 19013KT 10SM CLR 35/18 A2985 RMK AO2 SLP119 T03460177 TSNO $

2010/08/09 18:51
KSAN 091851Z 27006KT 10SM FEW020 21/14 A2995 RMK AO2 SLP141 T02060139

2010/08/09 19:00
LPLA 091900Z 03006KT 9999 FEW025 23/18 Q1022

2010/08/09 18:50
OAFZ 091850Z AUTO VRB03KT //// ////// 27/05 Q1012

2010/08/09 18:50
OAUZ 091850Z AUTO VRB02KT //// ////// 33/05 Q1004

2010/08/09 19:00
OKBK 091900Z 20005KT 8000 NSC 38/13 Q0998 NOSIG

2010/08/09 19:00
OSAP 091900Z 28015KT CAVOK 28/15 Q1005

2010/08/09 19:00
OSDI 091900Z 20014KT CAVOK 28/18 Q1007

2010/08/09 19:00
OSLK 091900Z 12004KT CAVOK 27/22 Q1006

2010/08/09 18:53
KBRO 091853Z 13015G18KT 10SM SCT039 BKN050 BKN065 36/24 A2989 RMK AO2 SLP121 T03560244

2010/08/09 18:53
KBTL 091853Z 17005KT 10SM BKN065 23/22 A2997 RMK AO2 RAE09 SLP141 P0000 T02330222

2010/08/09 18:53
KBTM 091853Z AUTO 00000KT 10SM CLR 20/08 A3002 RMK AO2 SLP122 T02000083

2010/08/09 18:53
KBUR 091853Z 18006KT 10SM CLR 24/13 A2992 RMK AO2 SLP119 T02390128

2010/08/09 18:51
KBVE 091851Z AUTO 22003KT -RA BKN026 24/24 A2998 RMK AO2 SLP152 P0050 T02440239 TSNO $

2010/08/09 18:53
KBVY 091853Z 25009G16KT 10SM FEW065 32/16 A2990 RMK AO2 SLP119 T03170161

2010/08/09 18:53
KBWG 091853Z AUTO 18006KT 10SM FEW055 36/21 A2996 RMK AO2 SLP136 T03560211

2010/08/09 18:53
KBYI 091853Z AUTO 12013KT 10SM -RA FEW045 SCT095 17/12 A3000 RMK AO2 SLP126 P0000 T01720122

2010/08/09 18:51
KCAK 091851Z 24009G19KT 10SM FEW065 SCT250 30/17 A3002 RMK AO2 SLP154 T03000172

2010/08/09 18:53
KCCR 091853Z 31010KT 10SM CLR 21/12 A2990 RMK AO2 SLP113 T02060117

2010/08/09 18:53
KCDC 091853Z AUTO 23009G15KT 10SM CLR 24/08 A3015 RMK AO2 SLP143 T02440078

2010/08/09 18:55
KCDN 091855Z AUTO 10004KT 10SM CLR 34/23 A3002 RMK A02 P000

2010/08/09 18:53
KCHO 091853Z 17009KT 9SM FEW055 33/20 A3000 RMK AO2 SLP150 T03330200

2010/08/09 18:55
KCKI 091855Z AUTO 06006KT 10SM CLR 32/21 A3000 RMK AO2

2010/08/09 18:53
KCLL 091853Z 23006KT 10SM CLR 36/21 A2994 RMK AO2 SLP132 T03560206

2010/08/09 18:53
KCLM 091853Z AUTO 30006KT 10SM BKN025 BKN060 15/11 A3000 RMK AO2 SLP158 T01500111

2010/08/09 18:53
KCMI 091853Z 19008KT 10SM CLR 33/25 A2994 RMK AO2 SLP132 T03330250

2010/08/09 18:53
KCMX 091853Z AUTO 28009KT 10SM FEW016 25/20 A2990 RMK AO2 SLP121 T02500200

2010/08/09 18:53
KCNM 091853Z AUTO 10006KT 10SM CLR 32/19 A3002 RMK AO2 SLP104 T03220189 TSNO

2010/08/09 18:53
KCNO 091853Z 25004KT 6SM HZ CLR 27/13 A2992 RMK AO2 SLP126 T02720128

2010/08/09 18:53
KCNY 091853Z AUTO 23011G17KT 10SM BKN085 29/04 A3007 RMK AO2 SLP126 T02890044

2010/08/09 18:53
KCOT 091853Z AUTO 10005KT 10SM CLR 36/19 A2991 RMK AO2 SLP118 T03610194

2010/08/09 18:53
KABR 091853Z AUTO 12008KT 10SM CLR 32/19 A2990 RMK AO2 SLP115 T03170194

2010/08/09 18:53
KACK 091853Z 22010KT 10SM CLR 25/22 A2999 RMK AO2 SLP156 T02500222

2010/08/09 18:53
KACV 091853Z AUTO 29005KT 10SM OVC003 12/11 A2995 RMK AO2 SLP147 T01220111

2010/08/09 18:53
KAEX 091853Z 00000KT 10SM CLR 36/20 A2993 RMK AO2 SLP137 T03610200

2010/08/09 18:53
KAGS 091853Z 11006KT 10SM FEW065 34/22 A2998 RMK AO2 SLP150 T03390217

2010/08/09 18:53
KALI 091853Z AUTO VRB04KT 10SM SCT045 35/23 A2990 RMK AO2 SLP123 T03500233

2010/08/09 18:53
KALW 091853Z 26009G15KT 10SM CLR 26/06 A2985 RMK AO2 SLP102 T02610061

2010/08/09 18:53
KAMA 091853Z 18011G18KT 10SM CLR 32/15 A3002 RMK AO2 SLP104 T03220150

2010/08/09 18:53
KAMW 091853Z AUTO 15005KT 10SM BKN027 29/24 A2989 RMK AO2 SLP111 T02940239

2010/08/09 18:53
KAOH 091853Z AUTO 23007KT 10SM BKN049 BKN055 32/20 A3000 RMK AO2 SLP148 T03170200

2010/08/09 18:53
KAOO 091853Z AUTO 21006KT 10SM CLR 31/14 A3005 RMK AO2 SLP164 T03060144

2010/08/09 18:53
KARA 091853Z 01006KT 10SM FEW040 34/25 A2996 RMK AO2 SLP144 T03440250

2010/08/09 18:53
KASD 091853Z AUTO 17006KT 10SM VCTS CLR 27/24 A2997 RMK AO2 LTG DSNT ALQDS TSE33B37RAB04E36 SLP149 P0019 T02670244

2010/08/09 18:53
KASX 091853Z AUTO 24006KT 10SM CLR 29/22 A2991 RMK AO2 SLP126 T02940222

2010/08/09 18:53
KATY 091853Z AUTO 11006KT 10SM CLR 31/16 A2994 RMK AO2 SLP125 T03110161

2010/08/09 18:53
KAUG 091853Z AUTO 26004KT 10SM FEW100 29/18 A2991 RMK AO2 SLP127 T02940183

2010/08/09 18:53
KAUS 091853Z 15007KT 120V190 10SM FEW055 36/20 A2994 RMK AO2 SLP126 T03560200

2010/08/09 18:53
KAWM 091853Z AUTO 29003KT 10SM CLR 34/24 A2992 RMK AO2 LTG DSNT N-SE SLP125 T03440244

2010/08/09 18:53
KAXN 091853Z AUTO 03003KT 10SM CLR 31/16 A2995 RMK AO2 SLP135 T03110161

2010/08/09 18:53
KAZO 091853Z 17005KT 10SM SCT007 BKN070 24/22 A2997 RMK AO2 RAE17 SLP143 P0000 T02440222

2010/08/09 18:53
KBAF 091853Z VRB03KT 10SM BKN070 BKN080 33/16 A2993 RMK AO2 SLP131 T03330156

2010/08/09 18:53
KBCE 091853Z AUTO 13009G17KT 100V170 10SM BKN070 18/05 A3030 RMK AO2 SLP155 T01830050

2010/08/09 18:50
KBCT 091850Z AUTO 15008KT 10SM FEW022 32/24 A2992

2010/08/09 18:53
KBDE 091853Z AUTO 00000KT 10SM CLR 31/19 A2989 RMK AO2 SLP117 T03110194

2010/08/09 18:53
KBEH 091853Z AUTO 19009KT 10SM FEW018 SCT070 28/23 A2994 RMK AO2 SLP134 T02780233

2010/08/09 18:53
KBFD 091853Z AUTO 20008KT 10SM CLR 27/15 A3006 RMK AO2 SLP164 T02720150

2010/08/09 18:53
KBFI 091853Z 17003KT 10SM OVC023 17/12 A2998 RMK AO2 SLP151 T01720122

2010/08/09 18:53
KBFM 091853Z 16005KT 10SM SCT041 33/24 A2997 RMK AO2 SLP149 TCU DSNT ALQDS T03280244

2010/08/09 18:53
KBGR 091853Z 24006KT 10SM SCT041 BKN060 28/18 A2989 RMK AO2 SLP118 T02780178

2010/08/09 18:53
KBHK 091853Z AUTO 10007KT 10SM CLR 33/09 A2988 RMK AO2 SLP092 T03280094

2010/08/09 18:53
KBHM 091853Z VRB04KT 10SM BKN060 35/20 A3000 RMK AO2 SLP150 T03500200

2010/08/09 18:53
KBIL 091853Z 00000KT 10SM FEW090 28/11 A2990 RMK AO2 SLP090 CB DSNT S-W T02780106

2010/08/09 18:51
KCRP 091851Z 12014KT 10SM BKN040 33/25 A2992 RMK AO2 SLP130 T03330250

2010/08/09 18:53
KCXO 091853Z VRB04KT 10SM FEW049 35/22 A2994 RMK AO2 SLP134 T03500222

2010/08/09 18:51
KDAG 091851Z AUTO 07006KT 10SM CLR 32/00 A2991 RMK AO2 SLP098 T03220000 TSNO

2010/08/09 18:53
KDAN 091853Z AUTO 18007KT 8SM SCT050 SCT070 35/20 A3002 RMK AO2 SLP154 T03500200

2010/08/09 18:53
KDBQ 091853Z 03005KT 10SM FEW080 29/24 A2994 RMK AO2 SLP130 T02890239

2010/08/09 18:53
KDCU 091853Z AUTO 18007KT 9SM CLR 34/23 A2998 RMK AO2 LTG DSNT N SLP143 T03390228

2010/08/09 18:53
KDEW 091853Z AUTO 19006KT 10SM CLR 22/11 A2986 RMK AO2 SLP103 T02220111

2010/08/09 18:53
KDHT 091853Z AUTO 20010G17KT 10SM CLR 33/14 A3003 RMK AO2 SLP101 T03280139 TSNO

2010/08/09 18:53
KDLN 091853Z AUTO 20005KT 10SM -RA FEW035 BKN075 20/12 A3002 RMK AO2 LTG DSNT SE AND S RAB00E26B44 SLP123 P0000 T02000117

2010/08/09 18:53
KDLS 091853Z AUTO 33014KT 10SM CLR 26/08 A2984 RMK AO2 SLP104 T02560083

2010/08/09 18:53
KDMN 091853Z AUTO 00000KT 10SM CLR 31/09 A3008 RMK AO2 SLP106 T03110089 TSNO

2010/08/09 18:53
KDNL 091853Z AUTO 10007KT 10SM BKN055 33/19 A3001 RMK AO2 SLP154 T03330189

2010/08/09 18:53
KDRT 091853Z AUTO 14010G20KT 10SM CLR 34/21 A2991 RMK AO2 SLP110 T03390211

2010/08/09 18:53
KDVT 091853Z 27005KT 10SM CLR 35/02 A2989 RMK AO2 SLP093 T03500022

2010/08/09 18:53
KDWH 091853Z 00000KT 10SM BKN042 OVC055 33/24 A2995 RMK AO2 SLP138 T03280239

2010/08/09 18:55
KDYB 091855Z AUTO 02008KT 10SM SCT047 32/22 A2998 RMK AO1

2010/08/09 18:53
KEET 091853Z AUTO 13006KT 10SM FEW055 SCT075 SCT090 35/20 A2998 RMK AO2 SLP145 T03500200

2010/08/09 18:53
KELN 091853Z AUTO 31016G24KT 10SM CLR 24/11 A2983 RMK AO2 SLP090 T02390106

2010/08/09 18:53
KENW 091853Z 29007KT 10SM SCT031 29/22 A2991 RMK AO2 SLP123 T02940222

2010/08/09 18:53
KEPH 091853Z AUTO 16006G14KT 10SM CLR 25/09 A2980 RMK AO2 SLP083 T02500094

2010/08/09 18:53
KEQY 091853Z AUTO 00000KT 10SM FEW060 33/21 A3003 RMK AO2 SLP162 T03330211

2010/08/09 18:53
KESF 091853Z AUTO VRB03KT 10SM CLR 37/22 A2995 RMK AO2 SLP138 T03670222

2010/08/09 18:53
KEWB 091853Z 20009KT 8SM FEW050 SCT100 30/21 A2995 RMK AO2 SLP140 TCU N T03000211

2010/08/09 18:53
KEYE 091853Z AUTO 23004KT 10SM CLR 33/19 A2996 RMK AO2 SLP135 T03330194

2010/08/09 18:53
KFAT 091853Z 22005KT 10SM FEW080 28/13 A2988 RMK AO2 SLP113 CU OMTNS DSNT NE T02780128

2010/08/09 18:53
KFAY 091853Z AUTO VRB05KT 10SM CLR 34/18 A3000 RMK AO2 SLP153 T03440183

2010/08/09 18:53
KFCM 091853Z 00000KT 10SM CLR 34/20 A2990 RMK AO2 SLP118 T03440200

2010/08/09 18:53
KFFC 091853Z AUTO 00000KT 9SM CLR 34/20 A3002 RMK AO2 SLP158 T03390200

2010/08/09 18:53
KFFT 091853Z AUTO 00000KT 6SM HZ CLR 34/19 A2998 RMK AO2 SLP143 T03390194

2010/08/09 18:53
KFHR 091853Z AUTO 00000KT 10SM SCT022 BKN042 OVC075 15/12 A2999 RMK AO2 SLP155 T01500117

2010/08/09 18:53
KFMN 091853Z 33009G17KT 10SM FEW070 27/08 A3016 RMK AO2 SLP147 T02720083

2010/08/09 18:53
KFSM 091853Z 32006KT 10SM CLR 36/22 A2992 RMK AO2 SLP124 T03610222

2010/08/09 18:53
KLIT 091853Z 08008KT 10SM BKN060TCU BKN250 37/23 A2993 RMK AO2 RAB35E45 SLP132 TCU OHD W TCU DSNT N NE P0000 T03670233

2010/08/09 18:55
KLKR 091855Z AUTO 00000KT 7SM SCT044 32/25 A3003 RMK AO2

2010/08/09 18:53
KLLQ 091853Z AUTO 00000KT 10SM CLR 36/23 A2995 RMK AO2 SLP138 T03610228

2010/08/09 18:53
KLOL 091853Z AUTO VRB06KT 10SM CLR 31/05 A2996 RMK AO2 SLP096 T03060050

2010/08/09 18:53
KLOU 091853Z 00000KT 10SM CLR 35/19 A2996 RMK AO2 SLP138 T03500194

2010/08/09 18:53
KLSE 091853Z 24005KT 10SM FEW028 31/23 A2991 RMK AO2 SLP114 T03060233

2010/08/09 18:53
KLUK 091853Z 20004KT 8SM FEW060 33/21 A2997 RMK AO2 SLP144 T03280206

2010/08/09 18:53
KLVJ 091853Z AUTO 20003KT 10SM SCT043 BKN065 34/22 A2996 RMK AO2 SLP143 T03440222

2010/08/09 18:53
KLVK 091853Z 29004KT 10SM CLR 23/12 A2989 RMK AO2 SLP120 T02280122 $

2010/08/09 18:53
KLVM 091853Z AUTO 30007G16KT 10SM CLR 28/08 A2994 RMK AO2 LTG DSNT S AND SW SLP092 T02830083

2010/08/09 18:53
KLVS 091853Z AUTO 00000KT 10SM CLR 26/09 A3022 RMK AO2 SLP110 T02560094 TSNO

2010/08/09 18:53
KLWV 091853Z AUTO 20007KT 9SM CLR 36/23 A2993 RMK AO2 SLP131 T03560228

2010/08/09 18:53
KMAE 091853Z AUTO 31006KT 10SM CLR 28/13 A2987 RMK AO2 SLP113 T02780133

2010/08/09 18:53
KMCB 091853Z AUTO 17011KT 10SM VCTS CLR 29/24 A2997 RMK AO2 LTG DSNT ALQDS TSB13RAE24 SLP142 P0000 T02890244

2010/08/09 18:53
KMCE 091853Z AUTO VRB04KT 10SM CLR 26/13 A2987 RMK AO2 SLP113 T02560128

2010/08/09 18:53
KMEM 091853Z 03006KT 10SM BKN047CB BKN250 36/23 A2995 RMK AO2 SLP136 CB E T03560233

2010/08/09 18:55
KMEZ 091855Z AUTO 09005KT 10SM SCT060 35/21 A2997 RMK AO2

2010/08/09 18:53
KMFR 091853Z 31005KT 10SM FEW070 25/11 A2990 RMK AO2 SLP115 T02500106

2010/08/09 18:53
KMGW 091853Z 00000KT 10SM CLR 31/18 A3005 RMK AO2 SLP163 T03060178

2010/08/09 18:53
KMGY 091853Z AUTO VRB04KT 10SM FEW055 32/19 A2999 RMK AO2 SLP147 T03220194

2010/08/09 18:53
KMHT 091853Z 25008G15KT 10SM SCT065 BKN080 33/17 A2989 RMK AO2 SLP129 T03280167

2010/08/09 18:53
KMIC 091853Z 00000KT 10SM CLR 32/21 A2990 RMK AO2 SLP117 T03220206

2010/08/09 18:53
KMIE 091853Z 18005KT 10SM CLR 32/21 A2998 RMK AO2 SLP138 T03170211

2010/08/09 18:53
KMIW 091853Z AUTO 17006KT 10SM CLR 30/24 A2988 RMK AO2 SLP111 T03000239

2010/08/09 18:53
KMKL 091853Z 25010KT 10SM CLR 34/25 A2995 RMK AO2 SLP137 T03440250

2010/08/09 18:53
KMLP 091853Z AUTO VRB04KT 10SM CLR 17/05 A3002 RMK AO2 SLP075 T01670050 TSNO

2010/08/09 18:53
KMLS 091853Z AUTO 00000KT 10SM CLR 32/09 A2986 RMK AO2 SLP084 T03170089

2010/08/09 18:53
KMLT 091853Z AUTO VRB03KT 10SM FEW049 OVC060 25/17 A2990 RMK AO2 SLP128 T02500172

2010/08/09 18:53
KMMK 091853Z AUTO 16011G16KT BKN070 32/20 A2994 RMK AO2 SLP136 T03220200 $

2010/08/09 18:53
KMMV 091853Z AUTO 00000KT 10SM OVC025 16/10 A3003 RMK AO2 SLP168 T01560100

2010/08/09 18:53
KMNN 091853Z AUTO 21006KT 10SM CLR 31/19 A3001 RMK AO2 SLP155 T03060189

2010/08/09 18:53
KMOD 091853Z 00000KT 10SM CLR 24/12 A2988 RMK AO2 SLP116 T02440122

2010/08/09 18:54
PALP 091854Z 07019KT 1SM -DZ BR OVC003 02/02 A2978 RMK VIS 7/8 V 1 1/8SM.

2010/08/09 18:50
PALV 091850Z 0000KT 5SM -RA BR FEW005 OVC015 13/12 A2961 RMK EST PASS CLSD NOSPECI

2010/08/09 18:52
PATA 091852Z 15003KT 10SM -RA FEW010 BKN020 OVC060 13/11 A2956 RMK AO2 SLP013 P0003 T01280106

2010/08/09 18:50
PAXK 091850Z 00000KT 10SM BKN050 10/08 A2971 RMK NOSPECI

2010/08/09 18:53
PHJR 091853Z 08008G15KT 10SM OVC050 27/17 A3010 RMK AO2 SLP200 T02720172

2010/08/09 18:53
KMRB 091853Z 00000KT 8SM SCT070 33/17 A2998 RMK AO2 SLP146 T03280172

2010/08/09 18:53
KMSL 091853Z AUTO 34004KT 10SM FEW065 34/24 A2998 RMK AO2 LTG DSNT SW AND W SLP144 T03440239

2010/08/09 18:53
KMSO 091853Z VRB03KT 10SM CLR 26/09 A2987 RMK AO2 SLP092 T02560089

2010/08/09 18:53
KMSP 091853Z 11004KT 10SM CLR 33/20 A2991 RMK AO2 SLP120 T03330200

2010/08/09 18:53
KMSS 091853Z AUTO 29004KT 10SM FEW034 26/21 A2990 RMK AO2 SLP125 T02610211

2010/08/09 18:53
KMSY 091853Z 00000KT 10SM FEW040CB SCT060 SCT150 BKN250 34/25 A2995 RMK AO2 SLP145 CB NE-E DSNT N AND SE AND S AND NW MOV SW T03440250

2010/08/09 18:53
KMVY 091853Z 24012G19KT 10SM CLR 29/22 A2998 RMK AO2 SLP151 T02940217

2010/08/09 18:53
KMYV 091853Z AUTO VRB05KT CLR 26/13 A2987 RMK AO2 SLP118 T02560128 PNO $

2010/08/09 18:53
KNEW 091853Z 10023G33KT 1/2SM +TSRA FG BKN017 BKN027 BKN070 27/25 A2999 RMK AO2 PK WND 07033/1846 WSHFT 1833 TSB27E48B49RAB38 SLP147 FRQ LTGCG OHD TS OHD MOV SW P0025 T02670250

2010/08/09 18:53
KOAK 091853Z 30006KT 10SM FEW016 19/12 A2994 RMK AO2 SLP137 T01890122

2010/08/09 18:53
KODX 091853Z AUTO 08003KT 10SM CLR 29/22 A2991 RMK AO2 SLP116 T02890217

2010/08/09 18:53
KOGD 091853Z AUTO 20013G21KT 160V220 10SM FEW085 28/05 A3002 RMK AO2 WSHFT 1835 SLP102 T02780050

2010/08/09 18:53
KOLF 091853Z AUTO 14005KT 10SM CLR 30/13 A2986 RMK AO2 SLP099 T03000128

2010/08/09 18:53
KOMK 091853Z AUTO 19007KT 10SM CLR 27/09 A2979 RMK AO2 SLP078 T02670094

2010/08/09 18:53
KONO 091853Z AUTO 00000KT 10SM CLR 27/11 A2985 RMK AO2 SLP092 T02720106

2010/08/09 18:53
KONT 091853Z 22006KT 9SM CLR 26/11 A2991 RMK AO2 SLP117 T02560111

2010/08/09 18:51
KORF 091851Z 09007KT 10SM FEW035 31/20 A3002 RMK AO2 SLP166 T03110200 $

2010/08/09 18:53
KOSH 091853Z VRB04KT 10SM SCT032 28/22 A2991 RMK AO2 SLP114 T02780217

2010/08/09 18:53
KOSU 091853Z 25006KT 9SM FEW046 31/20 A3001 RMK AO2 SLP154 T03110200 $

2010/08/09 18:53
KOVS 091853Z AUTO 27006KT 10SM CLR 31/23 A2991 RMK AO2 SLP125 T03110228

2010/08/09 18:53
KOWD 091853Z 26009KT 210V280 10SM SCT060 33/16 A2992 RMK AO2 SLP130 T03330161

2010/08/09 18:53
KOXB 091853Z AUTO 16007KT 10SM CLR 28/24 A3003 RMK AO2 SLP169 T02780239

2010/08/09 18:53
KPAE 091853Z 29005KT 10SM BKN012 OVC022 17/13 A2999 RMK AO2 SLP154 T01670128

2010/08/09 18:53
KPAH 091853Z 21005KT 10SM FEW037 34/25 A2992 RMK AO2 SLP127 T03390250

2010/08/09 18:53
KPBF 091853Z AUTO 00000KT 10SM FEW060 36/23 A2994 RMK AO2 SLP134 T03610228

2010/08/09 18:53
KPDK 091853Z 00000KT 10SM FEW060 34/18 A3002 RMK AO2 SLP145 T03390183

2010/08/09 18:53
KPDT 091853Z 29011KT 10SM CLR 25/06 A2985 RMK AO2 SLP093 T02500061

2010/08/09 18:53
KPDX 091853Z 00000KT 10SM SCT025 OVC031 16/08 A3001 RMK AO2 SLP163 T01610083

2010/08/09 18:53
KPGA 091853Z AUTO 03005KT 10SM CLR 28/11 A3008 RMK AO2 SLP123 T02780111

2010/08/09 18:53
KPIH 091853Z 27015KT 10SM BKN090 24/11 A3004 RMK AO2 RAE14 SLP124 P0000 T02390111

2010/08/09 18:53
KPIL 091853Z AUTO 10014KT 10SM CLR 34/26 A2990 RMK AO2 SLP124 T03390256

2010/08/09 18:53
KWST 091853Z AUTO 21007KT 9SM CLR 29/22 A2998 RMK AO2 SLP153 T02890217

2010/08/09 18:53
KWVI 091853Z AUTO 16003KT 10SM OVC008 15/12 A2996 RMK AO2 SLP144 T01500122

2010/08/09 18:53
KXNA 091853Z 17007KT 10SM FEW050 34/20 A2998 RMK AO2 SLP133 T03440200

2010/08/09 18:53
KYKM 091853Z VRB04KT 10SM FEW080 26/08 A2982 RMK AO2 SLP090 T02560078

2010/08/09 19:00
TUPJ 091900Z 12009KT 9999 SCT018CB BKN220 29/24 A2996

2010/08/09 18:53
KHKA 091853Z AUTO 20005KT 7SM CLR 35/26 A2992 RMK AO2 LTG DSNT S SLP129 T03500256

2010/08/09 18:53
KHKS 091853Z VRB04KT 10SM FEW045 36/24 A2995 RMK AO2 SLP132 T03610244

2010/08/09 18:53
KHKY 091853Z 00000KT 10SM BKN050 32/20 A3005 RMK AO2 SLP149 T03220200

2010/08/09 18:53
KHLG 091853Z 24007KT 6SM HZ CLR 32/14 A3003 RMK AO2 SLP160 T03170139

2010/08/09 18:53
KHLN 091853Z 10004KT 10SM CLR 22/09 A2991 RMK AO2 SLP115 T02220094

2010/08/09 18:53
KHOT 091853Z AUTO 16006KT 10SM CLR 36/22 A2995 RMK AO2 SLP132 T03610217

2010/08/09 18:53
KHOU 091853Z 00000KT 10SM SCT045 34/23 A2994 RMK AO2 SLP141 T03440228

2010/08/09 18:53
KHQM 091853Z AUTO 23008KT 10SM SCT013 OVC025 15/12 A3001 RMK AO2 SLP165 T01500117

2010/08/09 18:53
KHRI 091853Z AUTO 23011KT 10SM CLR 27/06 A2982 RMK AO2 SLP092 T02670061

2010/08/09 18:53
KHRO 091853Z AUTO 23005KT 10SM CLR 31/23 A2999 RMK AO2 TSE16RAB01E35 SLP138 P0001 T03110233

2010/08/09 18:53
KHSI 091853Z AUTO 01005KT 10SM CLR 31/23 A2991 RMK AO2 SLP106 T03060233

2010/08/09 18:53
KHSV 091853Z 15006KT 10SM SCT055TCU BKN070 35/22 A2997 RMK AO2 SLP140 TCU W T03500217

2010/08/09 18:53
KHUL 091853Z AUTO 27006KT 10SM SCT049 OVC060 24/18 A2986 RMK AO2 SLP108 T02440178

2010/08/09 18:53
KHVR 091853Z AUTO 09005KT 10SM CLR 29/10 A2985 RMK AO2 SLP091 T02890100

2010/08/09 18:53
KHYR 091853Z AUTO 00000KT 10SM FEW036 31/21 A2994 RMK AO2 SLP130 T03060211

2010/08/09 18:53
KIAH 091853Z VRB03KT 10SM SCT045 36/23 A2994 RMK AO2 SLP139 T03560228

2010/08/09 18:53
KICR 091853Z AUTO 11007KT 10SM CLR 32/19 A2992 RMK AO2 SLP112 T03220194 TSNO

2010/08/09 18:53
KIDA 091853Z 23009KT 10SM SCT050 BKN085 OVC100 21/12 A3005 RMK AO2 RAB1757E16B38E50 SLP138 OCNL LTGCG DSNT S MOV N TS DSNT S MOV N P0000 T02060117

2010/08/09 18:53
KILM 091853Z AUTO 11008KT 080V150 10SM CLR 31/23 A3001 RMK AO2 SLP163 T03060228 TSNO

2010/08/09 18:53
KIWI 091853Z AUTO 17004KT 10SM SCT035 BKN055 29/21 A2991 RMK AO2 SLP128 T02890206

2010/08/09 18:53
KJBR 091853Z AUTO 13006KT 10SM CLR 36/23 A2991 RMK AO2 SLP125 T03610233

2010/08/09 18:51
KJCT 091851Z AUTO 17005KT 10SM FEW065 35/17 A2996 RMK AO2 SLP104 T03500172 TSNO

2010/08/09 18:53
KJER 091853Z AUTO 08013KT 10SM FEW100 25/09 A2995 RMK AO2 SLP105 T02500089

2010/08/09 18:53
KJKL 091853Z AUTO VRB03KT 10SM CLR 32/18 A3005 RMK AO2 SLP156 T03220178

2010/08/09 18:55
KJZI 091855Z AUTO 08012KT 10SM FEW019 SCT024 BKN100 31/31 A2999 RMK A02 P000

2010/08/09 18:52
KLAL 091852Z 08005KT 12SM SCT030 BKN250 32/22 A2988

2010/08/09 18:53
KLBX 091853Z AUTO VRB05KT 10SM FEW041 34/24 A2994 RMK AO2 SLP139 T03440244

2010/08/09 18:53
KLCH 091853Z 00000KT 10SM FEW050 35/23 A2995 RMK AO2 SLP150 T03500228

2010/08/09 18:53
KLEB 091853Z 00000KT 10SM FEW065 SCT090 31/17 A2990 RMK AO2 SLP113 T03060172

2010/08/09 18:53
KLFK 091853Z AUTO 17004KT 10SM CLR 36/22 A2995 RMK AO2 SLP137 T03560217

2010/08/09 18:53
KLFT 091853Z VRB04KT 10SM CLR 35/23 A2996 RMK AO2 SLP143 T03500233

2010/08/09 18:53
KLGB 091853Z 18008KT 9SM CLR 21/13 A2993 RMK AO2 SLP136 T02110128

2010/08/09 18:53
KSHN 091853Z AUTO 21012KT 10SM FEW017 17/12 A2997 RMK AO2 SLP147 T01720122

2010/08/09 18:53
KSHR 091853Z AUTO 00000KT 10SM CLR 31/08 A2992 RMK AO2 SLP086 T03060078

2010/08/09 18:53
KSIY 091853Z AUTO 00000KT 10SM 26/08 A2992 RMK AO2 SLP118 T02610078 $

2010/08/09 18:53
KSJC 091853Z 06005KT 10SM FEW007 23/11 A2991 RMK AO2 SLP126 T02280111

2010/08/09 18:53
KSLC 091853Z 17011KT 140V200 10SM SCT080TCU SCT120 SCT200 28/04 A3001 RMK AO2 PK WND 20027/1817 RAB29E39 SLP106 VIRGA SW AND DSNT NW-N CB DSNT N AND SW TCU S-NW AND DSNT NE P0000 T02830039

2010/08/09 18:53
KSMF 091853Z VRB03KT 10SM CLR 23/15 A2987 RMK AO2 SLP115 T02280150

2010/08/09 18:53
KSNA 091853Z VRB06KT 8SM FEW018 23/13 A2993 RMK AO2 SLP133 T02280128

2010/08/09 18:53
KSNS 091853Z 32003KT 10SM OVC015 17/12 A2995 RMK AO2 SLP149 T01670117

2010/08/09 18:55
KSPA 091855Z AUTO 32004KT 10SM SCT055 SCT090 33/26 A3002 RMK AO2

2010/08/09 18:53
KSPB 091853Z AUTO 00000KT 10SM OVC023 16/11 A3000 RMK AO2 SLP160 T01610106

2010/08/09 18:53
KSPW 091853Z AUTO 08006KT 10SM OVC017 27/23 A2992 RMK AO2 SLP123 T02670228

2010/08/09 18:53
KSSF 091853Z 10008KT 070V140 10SM FEW050 36/20 A2993 RMK AO2 SLP122 T03560200

2010/08/09 18:53
KSTC 091853Z 00000KT 10SM CLR 32/19 A2992 RMK AO2 SLP132 T03220189 $

2010/08/09 18:53
KSTP 091853Z 00000KT 10SM CLR 33/21 A2991 RMK AO2 SLP120 T03280206

2010/08/09 18:53
KSTS 091853Z 19005KT 10SM BKN011 17/12 A2992 RMK AO2 SLP127 T01670117

2010/08/09 18:53
KTCC 091853Z AUTO 18009G15KT 10SM CLR 33/14 A3001 RMK AO2 SLP090 T03330144 TSNO

2010/08/09 18:53
KTCL 091853Z 11008KT 9SM CLR 35/21 A2997 RMK AO2 SLP146 T03500211

2010/08/09 18:53
KTIW 091853Z VRB03KT 10SM OVC014 17/12 A2999 RMK AO2 SLP153 T01670122

2010/08/09 18:47
KTOA 091847Z 28010KT 7SM SKC 22/14 A2995

2010/08/09 18:53
KTTD 091853Z 32005KT 10SM OVC031 17/09 A3000 RMK AO2 SLP157 T01720094

2010/08/09 18:53
KTUS 091853Z 21005KT 10SM CLR 34/15 A2998 RMK AO2 SLP100 T03390150

2010/08/09 18:53
KTVC 091853Z 24008KT 10SM FEW027 SCT050 SCT075 29/22 A2987 RMK AO2 SLP110 T02890217

2010/08/09 18:53
KTVL 091853Z AUTO VRB05KT 10SM CLR 22/08 A3011 RMK AO2 SLP145 T02170078

2010/08/09 18:53
KTVR 091853Z AUTO VRB04KT 10SM CLR 37/23 A2993 RMK AO2 SLP141 T03670228

2010/08/09 18:53
KFST 091853Z AUTO 13007G15KT 10SM FEW049 33/19 A3000 RMK AO2 SLP104 T03280194 TSNO

2010/08/09 18:53
KFTY 091853Z 00000KT 8SM CLR 34/20 A3001 RMK AO2 SLP152 T03390200

2010/08/09 18:53
KFVE 091853Z AUTO 31004KT 1/2SM +RA FG SCT017 BKN032 OVC039 17/16 A2985 RMK AO2 RAB36 SLP103 P0040 T01720161

2010/08/09 18:53
KFYV 091853Z 22005KT 10SM CLR 35/21 A2997 RMK AO2 SLP130 T03500211

2010/08/09 18:53
KGEG 091853Z 18008KT 10SM FEW065 SCT100 BKN200 24/08 A2986 RMK AO2 SLP096 T02390078

2010/08/09 18:53
KGEY 091853Z AUTO 08004KT 10SM CLR 29/06 A2991 RMK AO2 SLP083 T02940056

2010/08/09 18:53
KGEZ 091853Z AUTO VRB06KT 9SM FEW050 33/21 A2995 RMK AO2 SLP134 T03330206

2010/08/09 18:53
KGFK 091853Z 19013G19KT 10SM FEW250 34/18 A2984 RMK AO2 SLP101 T03440183

2010/08/09 18:53
KGFL 091853Z AUTO 22010KT 190V260 10SM BKN055 BKN070 31/19 A2990 RMK AO2 SLP120 T03110194

2010/08/09 18:53
KGGW 091853Z AUTO VRB03KT 10SM CLR 29/09 A2986 RMK AO2 SLP097 T02940094 TSNO

2010/08/09 18:53
KGLH 091853Z 00000KT 10SM CLR 37/22 A2993 RMK AO2 SLP137 T03670222

2010/08/09 18:53
KGLR 091853Z AUTO 00000KT 7SM CLR 28/22 A2990 RMK AO2 SLP117 T02830222

2010/08/09 18:53
KGMU 091853Z 00000KT 10SM FEW049 33/20 A3004 RMK AO2 SLP159 T03280200

2010/08/09 18:53
KGPT 091853Z 16009KT 10SM FEW037 SCT070 34/26 A2994 RMK AO2 SLP139 T03390256

2010/08/09 18:53
KGRB 091853Z 20008KT 10SM FEW025 BKN038 BKN045 29/23 A2988 RMK AO2 SLP115 T02940233

2010/08/09 18:53
KGRI 091853Z VRB03KT 10SM CLR 32/22 A2991 RMK AO2 SLP109 T03170217

2010/08/09 18:53
KGRR 091853Z 24007KT 10SM BKN019 BKN200 28/22 A2995 RMK AO2 SLP134 T02780222

2010/08/09 18:53
KGSH 091853Z AUTO 19005KT 6SM HZ CLR 29/22 A2996 RMK AO2 SLP140 T02940222

2010/08/09 18:53
KGSP 091853Z 20003KT 10SM CLR 33/22 A3002 RMK AO2 SLP152 T03330222

2010/08/09 18:53
KGTF 091853Z 13004KT 10SM -RA FEW075 SCT110 24/07 A2988 RMK AO2 RAB30 SLP092 P0000 T02390072

2010/08/09 18:53
KGUP 091853Z AUTO 06004KT 10SM FEW070 26/09 A3025 RMK AO2 SLP083 T02560089 TSNO

2010/08/09 18:53
KGVL 091853Z AUTO VRB03KT 10SM SCT043 32/21 A3007 RMK AO2 SLP163 T03220211

2010/08/09 18:53
KGWO 091853Z AUTO 11007KT 10SM CLR 37/25 A2994 RMK AO2 SLP134 T03670250

2010/08/09 18:53
KHAO 091853Z AUTO 28006KT 9SM CLR 34/18 A2998 RMK AO2 SLP148 T03440183

2010/08/09 18:53
KHBG 091853Z AUTO 09006KT 10SM FEW036 34/24 A2995 RMK AO2 SLP139 T03390244

2010/08/09 18:53
KHEI 091853Z AUTO 17015G24KT 10SM CLR 33/16 A2989 RMK AO2 SLP094 T03280161

2010/08/09 18:53
KHFD 091853Z 27010G15KT 10SM FEW090 34/15 A2992 RMK AO2 SLP132 T03440150

2010/08/09 18:53
KHGR 091853Z 18005KT 10SM SCT070 33/14 A2998 RMK AO2 SLP155 T03330139

2010/08/09 18:53
KHHR 091853Z 25007KT 10SM CLR 21/13 A2993 RMK AO2 SLP135 T02110133 $

2010/08/09 18:53
KHIB 091853Z AUTO VRB04KT 10SM CLR 30/20 A2993 RMK AO2 SLP131 T03000200

2010/08/09 18:53
KHIO 091853Z 00000KT 10SM OVC028 16/09 A3001 RMK AO2 SLP162 T01610094

2010/08/09 18:53
KHJO 091853Z AUTO 25004KT 10SM CLR 28/13 A2988 RMK AO2 SLP117 T02830133

2010/08/09 18:53
KBIV 091853Z AUTO 20007KT 10SM CLR 29/22 A2994 RMK AO2 SLP133 T02940222

2010/08/09 18:53
KBKE 091853Z AUTO 31004KT 10SM CLR 23/07 A2991 RMK AO2 SLP106 T02330072

2010/08/09 18:53
KBLI 091853Z 19006KT 10SM SCT010 BKN041 OVC100 16/13 A2996 RMK AO2 SLP152 T01560128

2010/08/09 18:53
KBMG 091853Z 23005KT 10SM CLR 33/23 A2997 RMK AO2 SLP139 T03330228

2010/08/09 18:53
KBMQ 091853Z AUTO VRB05KT 10SM CLR 34/18 A2999 RMK AO2 SLP133 T03440183 $

2010/08/09 18:53
KBNA 091853Z 30005KT 10SM SCT055 BKN240 36/22 A2997 RMK AO2 SLP139 T03560217

2010/08/09 18:53
KBOI 091853Z 29007KT 10SM CLR 26/09 A2989 RMK AO2 SLP090 T02610094

2010/08/09 18:53
KBPI 091853Z AUTO 21017G21KT 10SM CLR 23/02 A3016 RMK AO2 SLP114 T02330017 TSNO

2010/08/09 18:53
KBPK 091853Z AUTO 00000KT 9SM CLR 34/24 A2995 RMK AO2 SLP129 T03440244

2010/08/09 18:53
KBPT 091853Z 18004KT 10SM CLR 35/23 A2995 RMK AO2 SLP141 T03500233

2010/08/09 18:53
KBRD 091853Z AUTO 00000KT 10SM CLR 31/17 A2993 RMK AO2 SLP129 T03060167

2010/08/09 18:51
KSGR 091851Z 18007KT 10SM FEW045 34/22 A2994 RMK AO2

2010/08/09 18:53
KUAO 091853Z AUTO VRB03KT 10SM OVC026 17/10 A3001 RMK AO2 SLP163 T01670100

2010/08/09 18:53
KUTS 091853Z AUTO VRB05KT 10SM CLR 36/21 A2995 RMK AO2 SLP134 T03560206

2010/08/09 18:53
KVCB 091853Z AUTO VRB03KT 10SM CLR 25/13 A2989 RMK AO2 SLP119 T02500128

2010/08/09 18:53
KVEL 091853Z AUTO 15006KT 10SM CLR 25/08 A3012 RMK AO2 SLP142 T02500078

2010/08/09 18:53
KVGT 091853Z 16008KT 10SM CLR 32/06 A2993 RMK AO2 SLP102 T03170056

2010/08/09 18:53
KVPZ 091853Z AUTO 17006KT 7SM CLR 28/23 A2995 RMK AO2 SLP136 T02830233

2010/08/09 18:53
KVUO 091853Z AUTO 29007KT 10SM OVC031 17/09 A3001 RMK AO2 SLP163 T01670089

2010/08/09 18:53
KWRL 091853Z AUTO 36005KT 10SM CLR 29/07 A2993 RMK AO2 SLP086 T02940067

2010/08/09 18:53
KPIR 091853Z AUTO 12011G18KT 10SM CLR 32/20 A2989 RMK AO2 SLP107 T03170200

2010/08/09 18:53
KPKB 091853Z VRB03KT 7SM CLR 31/17 A3005 RMK AO2 SLP166 T03060172

2010/08/09 18:53
KPKD 091853Z AUTO 24005KT 10SM CLR 31/18 A2994 RMK AO2 SLP129 T03110178

2010/08/09 18:53
KPQL 091853Z 14010KT 10SM FEW032 SCT040 BKN050 31/26 A2995 RMK AO2 SLP144 T03110256

2010/08/09 18:53
KPRB 091853Z AUTO A2992 RMK AO2 SLPNO PWINO FZRANO TSNO

2010/08/09 18:53
KPRC 091853Z 23010KT 10SM SCT080 27/06 A3015 RMK AO2 SLP125 T02720061

2010/08/09 18:53
KPSC 091853Z VRB04KT 10SM CLR 26/07 A2981 RMK AO2 SLP092 T02560072

2010/08/09 18:55
KPSO 091855Z AUTO 21005KT 10SM BKN100 22/07 A3030 RMK AO2 LTG DSNT E

2010/08/09 18:53
KPSP 091853Z 08005KT 10SM CLR 36/M01 A2980 RMK AO2 SLP088 T03611011

2010/08/09 18:53
KPSX 091853Z AUTO 20011G18KT 10SM CLR 35/26 A2994 RMK AO2 SLP137 T03500261

2010/08/09 18:53
KPUW 091853Z AUTO VRB03KT 10SM CLR 24/07 A2989 RMK AO2 SLP110 T02440072

2010/08/09 18:53
KRAC 091853Z AUTO VRB04KT 10SM SCT030 29/22 A2992 RMK AO2 SLP126 T02940222

2010/08/09 18:53
KRBG 091853Z AUTO 35005KT 10SM OVC020 18/12 A2999 RMK AO2 SLP152 T01830122

2010/08/09 18:53
KRDD 091853Z 00000KT 10SM CLR 28/12 A2984 RMK AO2 SLP100 T02830122

2010/08/09 18:53
KRHI 091853Z AUTO 32006KT 10SM FEW040 29/19 A2995 RMK AO2 SLP130 T02940189

2010/08/09 18:53
KRIW 091853Z AUTO 13005KT 10SM CLR 27/07 A3003 RMK AO2 SLP096 T02720067

2010/08/09 18:53
KRKP 091853Z AUTO 14008KT 10SM CLR 34/25 A2993 RMK AO2 SLP136 T03390250

2010/08/09 18:53
KRME 091853Z 22006KT 10SM FEW045 29/19 A2994 RMK AO2 SLP134 T02940194

2010/08/09 18:53
KRMG 091853Z AUTO 12005KT 10SM FEW055 35/21 A2999 RMK AO2 SLP143 T03500206

2010/08/09 18:53
KRNT 091853Z 00000KT 9SM OVC018 16/12 A2998 RMK AO2 SLP157 T01610122

2010/08/09 18:53
KRUE 091853Z AUTO 00000KT 10SM FEW060 37/22 A2993 RMK AO2 SLP124 T03720222

2010/08/09 18:53
KRWF 091853Z AUTO 10005KT 10SM CLR 32/21 A2990 RMK AO2 SLP118 T03170206

2010/08/09 18:53
KRXE 091853Z AUTO 24014G21KT 10SM CLR 23/09 A3004 RMK AO2 RAB1755E11 SLP132 P0000 T02280094

2010/08/09 18:53
KSAC 091853Z 22005KT 10SM CLR 23/13 A2988 RMK AO2 SLP119 T02280133

2010/08/09 18:53
KSAF 091853Z VRB04KT 10SM CLR 30/12 A3018 RMK AO2 SLP102 T03000122

2010/08/09 18:51
KSAN 091851Z 27006KT 10SM FEW020 21/14 A2995 RMK AO2 SLP141 T02060139

2010/08/09 18:53
KSAT 091853Z 00000KT 10SM FEW050 33/21 A2995 RMK AO2 SLP123 T03330206

2010/08/09 18:53
KSBA 091853Z 19006KT 10SM CLR 18/13 A2994 RMK AO2 SLP138 T01780128

2010/08/09 18:53
KSBM 091853Z AUTO 26009KT 10SM FEW022 SCT027 SCT034 28/23 A2991 RMK AO2 SLP121 T02830228

2010/08/09 18:53
KSDL 091853Z VRB04KT 10SM CLR 36/07 A2991 RMK AO2 SLP097 T03560067

2010/08/09 18:53
KSEA 091853Z 18005KT 10SM SCT014 OVC022 16/12 A2999 RMK AO2 SLP161 T01610117

2010/08/09 18:49
KSEE 091849Z VRB06KT 15SM SKC 26/12 A2993

2010/08/09 18:53
KSFF 091853Z 21007KT 10SM FEW070 25/09 A2985 RMK AO2 SLP094 T02500094

2010/08/09 18:50
EFHK 091850Z 18008KT 9999 FEW020 BKN070 20/16 Q1011 NOSIG

2010/08/09 18:50
EFJY 091850Z AUTO 15003KT CAVOK 19/17 Q1010

2010/08/09 18:50
EFKU 091850Z AUTO 21008KT 9999NDV BKN047 20/17 Q1010

2010/08/09 18:50
EFOU 091850Z 25003KT 9999 BKN011 18/18 Q1008

2010/08/09 18:50
EFRO 091850Z AUTO 03011KT 9999NDV SCT008 BKN010 13/12 Q1009

2010/08/09 18:50
EFTP 091850Z 15008KT 100V210 6000 FEW005 FEW015CB BKN025 18/17 Q1010 RESHRA

2010/08/09 18:50
EFTU 091850Z AUTO 21006KT 160V250 9999 SCT008 BKN017 OVC053 18/17 Q1008 RESHRA

2010/08/09 18:50
EFVA 091850Z 17001KT 7000 -RA SCT006 BKN013 OVC023 19/18 Q1008

2010/08/09 18:50
LSZG 091850Z 10004KT 9999 FEW050 22/13 Q1016 NOSIG

2010/08/09 18:50
LSZR 091850Z 16002KT CAVOK 19/15 Q1016 NOSIG RMK P

2010/08/09 18:50
EGBB 091850Z 20008KT 9999 FEW030 SCT035 19/15 Q1011

2010/08/09 18:50
EGCC 091850Z 24006KT 220V280 9999 FEW035 18/12 Q1010

2010/08/09 18:50
EGKK 091850Z 22009KT 9999 BKN020 19/14 Q1014

2010/08/09 18:50
EGLL 091850Z 22013KT 9999 SCT028 21/14 Q1013

2010/08/09 18:50
EGPF 091850Z 25006KT 9999 FEW035 15/10 Q1007

2010/08/09 18:50
EGPH 091850Z 23010KT 9999 FEW025 16/10 Q1007

2010/08/09 18:50
EGPK 091850Z 23006KT 9999 FEW020 SCT035 14/11 Q1008

2010/08/09 18:50
EGSS 091850Z 23012KT 9999 SCT042 21/13 Q1012

2010/08/09 18:50
ESNG 091850Z 06006KT 030V090 9999 FEW034 SCT046 14/11 Q1012

2010/08/09 18:50
ESNK 091850Z AUTO 00000KT 9999NDV OVC014/// 17/16 Q1008

2010/08/09 18:50
ESNN 091850Z VRB04KT 9999 BKN008 OVC013 17/16 Q1007

2010/08/09 18:50
ESNO 091850Z 08005KT 040V100 9000 -RA BKN005 16/15 Q1008 REDZ

2010/08/09 18:50
ESNQ 091850Z AUTO 03005KT 9999NDV BKN034/// 14/10 Q1012

2010/08/09 18:50
ESNS 091850Z 06003KT 9999 BKN015 16/15 Q1009

2010/08/09 18:50
ESNU 091850Z 03006KT 9999 FEW008 BKN009 OVC016 17/15 Q1008

2010/08/09 18:50
ESNZ 091850Z 02005KT 9999 -RA FEW055 15/13 Q1009

2010/08/09 18:50
ESUT 091850Z AUTO 17006KT 9999NDV NCD 17/12 Q1010

2010/08/09 18:50
EGHH 091850Z 23012KT 9999 OVC008 18/16 Q1014

2010/08/09 18:50
EGLF 091850Z 22012KT 9999 SCT020 SCT042 18/14 Q1013

2010/08/09 18:50
EGMC 091850Z 21013KT CAVOK 21/13 Q1013

2010/08/09 18:50
ETNG 091850Z 21003KT CAVOK 20/12 Q1016

2010/08/09 19:00
RPLC 091900Z 00000KT 9999 FEW036 SCT100 OVC270 25/23 Q1009 A2981 RMK NOSIG 

2010/08/09 18:50
ESGL 091850Z AUTO 24010KT 9999NDV FEW011/// OVC015/// 16/// Q1010

2010/08/09 18:50
ESGR 091850Z AUTO 25009KT 210V290 9999NDV OVC010/// 16/15 Q1010

2010/08/09 18:50
ESNL 091850Z AUTO 05004KT 9999NDV FEW023/// OVC027/// 16/13 Q1010

2010/08/09 18:50
ESNX 091850Z AUTO 01006KT 9999NDV FEW015/// OVC024/// 15/12 Q1011

2010/08/09 18:50
ESNY 091850Z AUTO 00000KT 9999 OVC002 17/17 Q1007

2010/08/09 19:00
LQSA 091900Z 30004KT 9999 SCT050 21/15 Q1018 NOSIG

2010/08/09 18:54
EKVG 091854Z 13009KT 9999 FEW013 BKN020 12/10 Q1009 RMK/RWY 13-31 CLOSED DUE WIP NOTAM E0050/10 WIND 850FT 13013KT

2010/08/09 18:50
EGHQ 091850Z 22012KT 2000 -DZ BR BKN003 17/17 Q1013

2010/08/09 18:50
EGJB 091850Z 24013KT 9999 BKN003 17/16 Q1016

2010/08/09 18:50
EGJJ 091850Z 25007KT 200V290 9999 BKN007 17/17 Q1016 TEMPO BKN005

2010/08/09 18:50
EGTE 091850Z 20011KT 9999 SCT012 20/17 Q1013

2010/08/09 18:50
ESDF 091850Z AUTO 24005KT 9999NDV OVC036/// 17/12 Q1013

2010/08/09 18:50
ESPA 091850Z 01007KT 340V040 9999 BKN019 OVC072 16/14 Q1009

2010/08/09 18:50
ESSL 091850Z 24009KT 6000 +DZ BR FEW008 SCT010 BKN013 16/16 Q1009 RERA

2010/08/09 18:50
ESKN 091850Z 24012KT 9999 SCT011 BKN016 18/16 Q1008 REDZ

2010/08/09 18:50
ESOE 091850Z 24005KT 9999 FEW013 SCT038 18/17 Q1008

2010/08/09 18:50
ESOK 091850Z AUTO 21003KT 9999NDV FEW033/// 18/17 Q1008

2010/08/09 18:50
ESOW 091850Z 00000KT 9999 BKN016 18/17 Q1007

2010/08/09 18:50
ESSA 091850Z 22007KT 9999 FEW030 19/17 Q1007 NOSIG

2010/08/09 18:50
ESSB 091850Z 18004KT CAVOK 18/16 Q1007

2010/08/09 18:50
ESSD 091850Z 28003KT 9999 FEW010 SCT020 BKN040 17/16 Q1007 REDZ

2010/08/09 18:50
ESSP 091850Z AUTO 24010KT 9999NDV BKN015/// 18/16 Q1008

2010/08/09 18:50
ESSV 091850Z 23014KT 9999 BKN020 18/15 Q1010

2010/08/09 18:50
EFHA 091850Z AUTO 15003KT 9999 FEW038 19/15 Q1010

2010/08/09 18:50
EFHF 091850Z AUTO 20009KT 170V240 CAVOK 20/17 Q1011

2010/08/09 18:50
EFKA 091850Z AUTO 18003KT 8000 -SHRA BKN075 OVC105 18/18 Q1008

2010/08/09 18:50
EFKK 091850Z 35003KT 8000 BKN003 OVC025 18/17 Q1008

2010/08/09 18:50
EFMA 091850Z AUTO 19007KT 160V220 9999 BKN007 18/17 Q1007

2010/08/09 18:50
EFPO 091850Z AUTO 14004KT 9999 FEW015 BKN055 19/17 Q1008

2010/08/09 18:50
EFSI 091850Z AUTO 15003KT 6000 SCT080 18/17 Q1009

2010/08/09 18:53
KDAB 091853Z 09008G14KT 10SM FEW024 SCT110 31/23 A2993 RMK AO2 SLP133 CB DSNT SW-W T03110233 

2010/08/09 18:53
KDNK 091853Z AUTO 25003KT 10SM CLR 34/22 A2995 RMK AO2 SLP138 T03390217 

2010/08/09 18:53
KCTY 091853Z AUTO 08006KT 34/23 A2992 RMK AO2 SLP129 T03390233 PWINO TSNO 

2010/08/09 18:53
KTYS 091853Z 31004KT 10SM FEW045 34/22 A3000 RMK AO2 SLP146 T03390217 

2010/08/09 18:53
KTRI 091853Z 30006KT 10SM SCT045 BKN150 33/18 A3005 RMK AO2 SLP157 T03330178 

2010/08/09 18:53
KSAV 091853Z 07008KT 040V110 10SM SCT049 34/21 A2997 RMK AO2 SLP148 T03440206 

2010/08/09 18:53
KMGM 091853Z 13007G14KT 10SM CLR 36/20 A2996 RMK AO2 SLP142 T03560200 

2010/08/09 18:53
KSDM 091853Z VRB05KT 10SM CLR 22/13 A2993 RMK AO2 SLP132 T02220128 

2010/08/09 18:53
KLAX 091853Z 26009KT 10SM FEW015 19/12 A2994 RMK AO2 SLP138 T01890122 $ 

2010/08/09 18:53
KP92 091853Z AUTO VRB04KT 33/26 A2996 RMK AO2 SLP144 T03280261 PWINO TSNO 

2010/08/09 18:53
KLXV 091853Z AUTO 01009G14KT 10SM SCT060 BKN110 13/08 A3043 RMK AO2 RAB18E39 SLP140 P0000 T01330083 TSNO 

2010/08/09 18:53
KBNO 091853Z AUTO 13007KT 10SM CLR 24/06 A2995 RMK AO2 SLP105 T02390061 TSNO 

2010/08/09 18:52
KCZZ 091852Z AUTO VRB04G15KT 27/M04 A2993 RMK AO2 SLP107 T02721039 PWINO TSNO 

2010/08/09 18:53
KBTR 091853Z VRB04KT 10SM SCT040 SCT080 SCT120 35/24 A2993 RMK AO2 SLP132 CB DSNT N-E-SE MOVG SW T03500244 

2010/08/09 18:53
KRNM 091853Z 31007KT 10SM CLR 24/11 A2994 RMK AO2 SLP126 T02440111 

2010/08/09 18:53
KELY 091853Z AUTO 21008KT 10SM CLR 24/M02 A3013 RMK AO2 SLP105 T02441017 

2010/08/09 18:53
KSGR 091853Z 18005KT 10SM FEW045 34/23 A2994 RMK AO2 SLP145 T03440228 

2010/08/09 18:53
KCHA 091853Z 00000KT 10SM FEW050 SCT120 BKN250 35/21 A2999 RMK AO2 SLP145 T03500211 

2010/08/09 18:53
KOVE 091853Z AUTO VRB04KT 10SM CLR 26/14 A2989 RMK AO2 SLP122 T02560139 TSNO $ 

2010/08/09 18:53
KMCN 091853Z 08010G14KT 040V110 9SM CLR 34/21 A2999 RMK AO2 SLP150 T03440206 

2010/08/09 18:53
KTUP 091853Z 27004KT 10SM BKN034 BKN050 35/25 A2995 RMK AO2 SLP137 T03500250 

2010/08/09 18:53
KCUT 091853Z AUTO 16008KT 10SM CLR 26/13 A3011 RMK AO2 SLP125 T02560128 TSNO 

2010/08/09 18:53
KP68 091853Z AUTO 20013G17KT 26/M03 A3008 RMK AO2 SLP097 T02611033 PWINO TSNO 

2010/08/09 18:54
PGUM 091854Z 17003KT 10SM CLR 25/24 A2991 RMK AO2 SLP120 T02500239 

2010/08/09 18:54
EKVG 091854Z 13009KT 9999 FEW013 BKN020 12/10 Q1009 RMK/RWY 13-31 CLOSED DUE WIP NOTAM E0050/10 WIND 850FT 13013KT

2010/08/09 18:53
KMSY 091853Z 00000KT 10SM FEW040CB SCT060 SCT150 BKN250 34/25 A2995 RMK AO2 SLP145 CB NE-E DSNT N AND SE AND S AND NW MOV SW T03440250 

2010/08/09 18:53
KOQT 091853Z AUTO 00000KT 10SM CLR 33/23 A3003 RMK AO2 SLP148 T03330228 TSNO 

2010/08/09 18:54
KJAN 091854Z 00000KT 10SM SCT049 36/23 A2994 RMK AO2 SLP133 T03560233 

2010/08/09 18:54
KBTV 091854Z 00000KT 10SM -RA SCT031CB BKN065 BKN100 26/20 A2989 RMK AO2 RAB08 SLP121 CB VC NW-S MOV E P0012 T02610200 

2010/08/09 18:53
KMWT 091853Z AUTO VRB05KT 10SM CLR 35/21 A2995 RMK AO2 SLP126 T03500206 TSNO 

2010/08/09 18:53
KFAR 091853Z 21009KT 10SM CLR 32/21 A2988 RMK AO2 SLP115 T03220206 

2010/08/09 18:53
KHTL 091853Z AUTO 36005KT 9SM VCTS -RA BKN035 OVC043 24/22 A2993 RMK AO2 TSB31RAB20E30B50 SLP127 P0000 T02440217 

2010/08/09 18:50
EGAA 091850Z 23008KT 9999 FEW032 15/11 Q1008

2010/08/09 18:50
EGAC 091850Z 23009KT 9999 FEW030 16/10 Q1008

2010/08/09 18:50
EGBB 091850Z 20008KT 9999 FEW030 SCT035 19/15 Q1011

2010/08/09 18:50
EGCC 091850Z 24006KT 220V280 9999 FEW035 18/12 Q1010

2010/08/09 18:50
EGFF 091850Z 26009KT 9999 FEW020 SCT024 BKN037 18/17 Q1012

2010/08/09 18:50
EGGP 091850Z 28007KT 9999 SCT035 18/14 Q1009

2010/08/09 18:50
EGGW 091850Z 23007KT 9999 FEW040 18/15 Q1013

2010/08/09 18:50
EGHH 091850Z 23012KT 9999 OVC008 18/16 Q1014

2010/08/09 18:50
EGJB 091850Z 24013KT 9999 BKN003 17/16 Q1016

2010/08/09 18:50
EGJJ 091850Z 25007KT 200V290 9999 BKN007 17/17 Q1016 TEMPO BKN005

2010/08/09 18:50
EGKK 091850Z 22009KT 9999 BKN020 19/14 Q1014

2010/08/09 18:50
EGLC 091850Z 24012KT 9999 FEW030 21/13 Q1013

2010/08/09 18:50
EGLF 091850Z 22012KT 9999 SCT020 SCT042 18/14 Q1013

2010/08/09 18:50
EGLL 091850Z 22013KT 9999 SCT028 21/14 Q1013

2010/08/09 18:50
EGMC 091850Z 21013KT CAVOK 21/13 Q1013

2010/08/09 18:50
EGNM 091850Z 26008KT 220V280 9999 FEW020 16/12 Q1009

2010/08/09 18:50
EGNV 091850Z 23011KT 9999 FEW030 19/13 Q1008

2010/08/09 18:50
EGNX 091850Z 20014KT 9999 SCT025 20/14 Q1010

2010/08/09 18:50
EGPB 091850Z 13009KT 9999 FEW009 15/13 Q1007

2010/08/09 18:50
EGPD 091850Z VRB03KT 9000 -SHRA SCT047 14/13 Q1005 TEMPO SHRA

2010/08/09 18:50
EGPF 091850Z 25006KT 9999 FEW035 15/10 Q1007

2010/08/09 18:50
EGPH 091850Z 23010KT 9999 FEW025 16/10 Q1007

2010/08/09 18:50
EGPK 091850Z 23006KT 9999 FEW020 SCT035 14/11 Q1008

2010/08/09 18:50
EGSS 091850Z 23012KT 9999 SCT042 21/13 Q1012

2010/08/09 18:50
EGTE 091850Z 20011KT 9999 SCT012 20/17 Q1013

2010/08/09 18:50
EKRN 091850Z AUTO 24005KT 9999NDV NCD 18/15 Q1015

2010/08/09 18:51
EKSB 091851Z 27005KT CAVOK 17/09 Q1015

2010/08/09 18:50
EKVD 091850Z AUTO 26008KT //// ///////// 16/11 Q1015

2010/08/09 19:00
LPLA 091900Z 03006KT 9999 FEW025 23/18 Q1022

2010/08/09 19:00
LQSA 091900Z 30004KT 9999 SCT050 21/15 Q1018 NOSIG

2010/08/09 18:50
EGHQ 091850Z 22012KT 2000 -DZ BR BKN003 17/17 Q1013

2010/08/09 18:50
EGJB 091850Z 24013KT 9999 BKN003 17/16 Q1016

2010/08/09 18:50
EGJJ 091850Z 25007KT 200V290 9999 BKN007 17/17 Q1016 TEMPO BKN005

2010/08/09 18:50
EGTE 091850Z 20011KT 9999 SCT012 20/17 Q1013

2010/08/09 18:50
EGGD 091850Z 23005KT 4500 -RADZ BR SCT001 SCT002 BKN003 17/17 Q1013

2010/08/09 18:50
EGGP 091850Z 28007KT 9999 SCT035 18/14 Q1009

2010/08/09 18:50
EGHI 091850Z 22008KT 170V260 9999 BKN012 17/14 Q1014 

2010/08/09 18:50
EGNT 091850Z 26011KT 9999 FEW030 17/10 Q1008

2010/08/09 18:50
EGNV 091850Z 23011KT 9999 FEW030 19/13 Q1008

2010/08/09 18:50
EGPB 091850Z 13009KT 9999 FEW009 15/13 Q1007

2010/08/09 18:50
EGAA 091850Z 23008KT 9999 FEW032 15/11 Q1008

2010/08/09 18:50
EGAC 091850Z 23009KT 9999 FEW030 16/10 Q1008

2010/08/09 18:50
EGFF 091850Z 26009KT 9999 FEW020 SCT024 BKN037 18/17 Q1012

2010/08/09 18:50
EGGW 091850Z 23007KT 9999 FEW040 18/15 Q1013

2010/08/09 18:50
EGLC 091850Z 24012KT 9999 FEW030 21/13 Q1013

2010/08/09 18:50
EGNM 091850Z 26008KT 220V280 9999 FEW020 16/12 Q1009

2010/08/09 18:50
EGNX 091850Z 20014KT 9999 SCT025 20/14 Q1010

2010/08/09 18:50
EGPD 091850Z VRB03KT 9000 -SHRA SCT047 14/13 Q1005 TEMPO SHRA

2010/08/09 18:50
EGHH 091850Z 23012KT 9999 OVC008 18/16 Q1014

2010/08/09 18:50
EGLF 091850Z 22012KT 9999 SCT020 SCT042 18/14 Q1013

2010/08/09 18:50
EGMC 091850Z 21013KT CAVOK 21/13 Q1013

2010/08/09 18:50
ESKN 091850Z 24012KT 9999 SCT011 BKN016 18/16 Q1008 REDZ

2010/08/09 18:50
ESOE 091850Z 24005KT 9999 FEW013 SCT038 18/17 Q1008

2010/08/09 18:50
ESOK 091850Z AUTO 21003KT 9999NDV FEW033/// 18/17 Q1008

2010/08/09 18:50
ESOW 091850Z 00000KT 9999 BKN016 18/17 Q1007

2010/08/09 18:50
ESSA 091850Z 22007KT 9999 FEW030 19/17 Q1007 NOSIG

2010/08/09 18:50
ESSB 091850Z 18004KT CAVOK 18/16 Q1007

2010/08/09 18:50
ESSD 091850Z 28003KT 9999 FEW010 SCT020 BKN040 17/16 Q1007 REDZ

2010/08/09 18:50
ESSP 091850Z AUTO 24010KT 9999NDV BKN015/// 18/16 Q1008

2010/08/09 18:50
ESSV 091850Z 23014KT 9999 BKN020 18/15 Q1010

2010/08/09 18:50
EGBB 091850Z 20008KT 9999 FEW030 SCT035 19/15 Q1011

2010/08/09 18:50
EGCC 091850Z 24006KT 220V280 9999 FEW035 18/12 Q1010

2010/08/09 18:50
EGKK 091850Z 22009KT 9999 BKN020 19/14 Q1014

2010/08/09 18:50
EGLL 091850Z 22013KT 9999 SCT028 21/14 Q1013

2010/08/09 18:50
EGPF 091850Z 25006KT 9999 FEW035 15/10 Q1007

2010/08/09 18:50
EGPH 091850Z 23010KT 9999 FEW025 16/10 Q1007

2010/08/09 18:50
EGPK 091850Z 23006KT 9999 FEW020 SCT035 14/11 Q1008

2010/08/09 18:50
EGSS 091850Z 23012KT 9999 SCT042 21/13 Q1012

2010/08/09 18:50
ESNG 091850Z 06006KT 030V090 9999 FEW034 SCT046 14/11 Q1012

2010/08/09 18:50
ESNK 091850Z AUTO 00000KT 9999NDV OVC014/// 17/16 Q1008

2010/08/09 18:50
ESNN 091850Z VRB04KT 9999 BKN008 OVC013 17/16 Q1007

2010/08/09 18:50
ESNO 091850Z 08005KT 040V100 9000 -RA BKN005 16/15 Q1008 REDZ

2010/08/09 18:50
ESNQ 091850Z AUTO 03005KT 9999NDV BKN034/// 14/10 Q1012

2010/08/09 18:50
ESNS 091850Z 06003KT 9999 BKN015 16/15 Q1009

2010/08/09 18:50
ESNU 091850Z 03006KT 9999 FEW008 BKN009 OVC016 17/15 Q1008

2010/08/09 18:50
ESNZ 091850Z 02005KT 9999 -RA FEW055 15/13 Q1009

2010/08/09 18:50
ESUT 091850Z AUTO 17006KT 9999NDV NCD 17/12 Q1010

2010/08/09 18:50
ESGL 091850Z AUTO 24010KT 9999NDV FEW011/// OVC015/// 16/// Q1010

2010/08/09 18:50
ESGR 091850Z AUTO 25009KT 210V290 9999NDV OVC010/// 16/15 Q1010

2010/08/09 18:50
ESNL 091850Z AUTO 05004KT 9999NDV FEW023/// OVC027/// 16/13 Q1010

2010/08/09 18:50
ESNX 091850Z AUTO 01006KT 9999NDV FEW015/// OVC024/// 15/12 Q1011

2010/08/09 18:50
ESNY 091850Z AUTO 00000KT 9999 OVC002 17/17 Q1007

2010/08/09 19:00
GVAC 091900Z 06009KT 9999 SCT013 27/19 Q1012 NOSIG

2010/08/09 18:50
ESDF 091850Z AUTO 24005KT 9999NDV OVC036/// 17/12 Q1013

2010/08/09 18:50
ESPA 091850Z 01007KT 340V040 9999 BKN019 OVC072 16/14 Q1009

2010/08/09 18:50
ESSL 091850Z 24009KT 6000 +DZ BR FEW008 SCT010 BKN013 16/16 Q1009 RERA

2010/08/09 19:00
LQSA 091900Z 30004KT 9999 SCT050 21/15 Q1018 NOSIG

2010/08/09 18:53
K40J 091853Z AUTO 04007KT 34/22 A2993 RMK AO2 SLP133 T03390217 PWINO TSNO 

2010/08/09 18:50
EETN 091850Z 18007KT 9999 FEW020 SCT049 BKN068 20/16 Q1012 NOSIG

2010/08/09 18:50
EETU 091850Z AUTO 17006KT 9999NDV OVC110/// 20/17 Q1014

2010/08/09 18:50
EFHK 091850Z 18008KT 9999 FEW020 BKN070 20/16 Q1011 NOSIG

2010/08/09 18:50
ESSA 091850Z 22007KT 9999 FEW030 19/17 Q1007 NOSIG

2010/08/09 18:50
EVLA 091850Z AUTO 22007KT 9999 NCD 18/16 Q1014

2010/08/09 18:50
EVRA 091850Z 19003KT 9000 NSC 19/16 Q1014 NOSIG

2010/08/09 18:50
EYKA 091850Z 15003KT CAVOK 18/18 Q1016

2010/08/09 18:50
EYPA 091850Z 22003KT 190V280 CAVOK 18/16 Q1014

2010/08/09 18:50
EYVI 091850Z 14003KT 4000 BR MIFG NSC 17/16 Q1017 NOSIG

2010/08/09 18:48
CWSA 091848Z AUTO 12011KT 9SM -RA FEW029 FEW044 FEW051 BKN073 20/17 A3005

2010/08/09 18:48
CYAZ 091848Z 15006KT 5SM BR FEW003 BKN007 OVC015 RMK SF2SF2SC2 CIG AND VIS LWR E

2010/08/09 18:50
CYFC 091850Z AUTO 19010G16KT 9SM BKN009 BKN017 OVC045 22/20 A2987 RMK SLP116 DENSITY ALT 900FT RVR MISG

2010/08/09 18:51
CYFC 091851Z AUTO 19009G16KT 9SM SCT009 BKN012 BKN017 OVC045 22/20 A2987 RMK SLP115 DENSITY ALT 900FT RVR MISG

2010/08/09 18:50
CYPQ 091850Z AUTO ///// 5SM FEW021 BKN027 BKN054 BKN060 25/22 A2990 RMK ICG

2010/08/09 18:51
CYQA 091851Z AUTO 25004KT 240V310 9SM BKN022 BKN027 BKN056 26/22 A2992 RMK SLP132 DENSITY ALT 2400FT

2010/08/09 18:49
KDOV 091849Z AUTO 11007KT 10SM FEW150 31/21 A2999 RMK AO2 RAE1756B1827E1849 SLP159

2010/08/09 18:49
LEGE 091849Z 21005KT 3000 TSRA SCT012 FEW028CB BKN034 21/20 Q1017

2010/08/09 18:49
YSDU 091849Z AUTO 08009KT 9999NDV // BKN014 BKN026 OVC054 11/10 Q1015

2010/08/09 18:52
KNHK 091852Z 13010KT 9SM FEW025 SCT250 31/22 A3001 RMK AO2 SLP162 T03110222

2010/08/09 18:52
KNRB 091852Z 10009KT 10SM FEW015 SCT030TCU BKN065 31/23 A2995 RMK AO2 RAE19 SLP142 TCU OHD T2 SET P0000 T03060233

2010/08/09 18:56
KNSI 091856Z 17005KT 7SM FEW009 BKN0011 16/13 A2995 RMK AO2 SLP138 T01610128 TSNO

2010/08/09 18:55
KRDR 091855Z AUTO 19013KT 10SM CLR 35/18 A2985 RMK AO2 SLP119 T03460177 TSNO $

2010/08/09 18:55
KSUU 091855Z AUTO 25015KT 10SM CLR 21/12 A2989 RMK AO2 SLP123 T02070125 RVRNO $

2010/08/09 18:50
MSLP 091850Z 13006KT 9999 FEW027 SCT300 33/23 Q1011 A2986 MDT CU TO NW/N

2010/08/09 19:00
SPIM 091900Z 18007KT 6000 FEW013 BKN018 18/13 Q1016 NOSIG RMK BIRD HAZARD RWY 15 PP000

2010/08/09 18:50
ENAL 091850Z 02004KT 360V060 9999 FEW015 BKN030 15/13 Q1010

2010/08/09 18:50
ENCN 091850Z 24008KT 200V280 CAVOK 17/12 Q1010

2010/08/09 18:50
ENHD 091850Z 21007KT 9999 FEW020 14/09 Q1012

2010/08/09 18:50
ENRO 091850Z AUTO 33002KT 9999NDV SCT066/// OVC088/// 14/13 Q1009

2010/08/09 18:50
ENSB 091850Z 24013KT 9999 FEW012 BKN030 08/03 Q1002 

2010/08/09 18:50
ENTC 091850Z 02015KT 9999 FEW018 BKN026 11/07 Q1013 NOSIG

2010/08/09 18:50
ENTO 091850Z 20006KT 9999 FEW025TCU 19/16 Q1008

2010/08/09 18:50
ENAT 091850Z 30007KT 9999 FEW030 BKN048 13/10 Q1014 

2010/08/09 18:50
ENBL 091850Z 29004KT 1000 FG VV005 13/12 Q1010

2010/08/09 18:50
ENEV 091850Z 35008KT 9999 FEW025 12/09 Q1012 

2010/08/09 18:50
ENFL 091850Z 25004KT 9999 VCSH FEW010 SCT015 BKN030 15/13 Q1011

2010/08/09 18:50
ENKB 091850Z 33005KT 280V360 9999 BKN010 14/12 Q1010

2010/08/09 18:50
ENKR 091850Z 05008KT 9999 -RA OVC006 10/09 Q1014 

2010/08/09 18:50
ENML 091850Z 31008KT 9999 FEW015 SCT030 BKN050 19/14 Q1010

2010/08/09 18:50
ENNA 091850Z 35009KT 9999 SCT014 BKN018 10/07 Q1015 

2010/08/09 18:50
EGAA 091850Z 23008KT 9999 FEW032 15/11 Q1008

2010/08/09 18:50
EGAC 091850Z 23009KT 9999 FEW030 16/10 Q1008

2010/08/09 18:50
EGBB 091850Z 20008KT 9999 FEW030 SCT035 19/15 Q1011

2010/08/09 18:50
EGCC 091850Z 24006KT 220V280 9999 FEW035 18/12 Q1010

2010/08/09 18:50
EGFF 091850Z 26009KT 9999 FEW020 SCT024 BKN037 18/17 Q1012

2010/08/09 18:50
EGGD 091850Z 23005KT 4500 -RADZ BR SCT001 SCT002 BKN003 17/17 Q1013

2010/08/09 18:50
EGGP 091850Z 28007KT 9999 SCT035 18/14 Q1009

2010/08/09 18:50
EGGW 091850Z 23007KT 9999 FEW040 18/15 Q1013

2010/08/09 18:50
EGHH 091850Z 23012KT 9999 OVC008 18/16 Q1014

2010/08/09 18:50
EGHI 091850Z 22008KT 170V260 9999 BKN012 17/14 Q1014

2010/08/09 18:50
EGJB 091850Z 24013KT 9999 BKN003 17/16 Q1016

2010/08/09 18:50
EGJJ 091850Z 25007KT 200V290 9999 BKN007 17/17 Q1016 TEMPO BKN005

2010/08/09 18:50
EGKK 091850Z 22009KT 9999 BKN020 19/14 Q1014

2010/08/09 18:50
EGLC 091850Z 24012KT 9999 FEW030 21/13 Q1013

2010/08/09 18:50
EGLF 091850Z 22012KT 9999 SCT020 SCT042 18/14 Q1013

2010/08/09 18:50
EGLL 091850Z 22013KT 9999 SCT028 21/14 Q1013

2010/08/09 18:50
EGMC 091850Z 21013KT CAVOK 21/13 Q1013

2010/08/09 18:50
EGNM 091850Z 26008KT 220V280 9999 FEW020 16/12 Q1009

2010/08/09 18:50
EGNT 091850Z 26011KT 9999 FEW030 17/10 Q1008

2010/08/09 18:50
EGNV 091850Z 23011KT 9999 FEW030 19/13 Q1008

2010/08/09 18:50
EGNX 091850Z 20014KT 9999 SCT025 20/14 Q1010

2010/08/09 18:50
EGPB 091850Z 13009KT 9999 FEW009 15/13 Q1007

2010/08/09 18:50
EGPD 091850Z VRB03KT 9000 -SHRA SCT047 14/13 Q1005 TEMPO SHRA

2010/08/09 18:50
EGPF 091850Z 25006KT 9999 FEW035 15/10 Q1007

2010/08/09 18:50
EGPH 091850Z 23010KT 9999 FEW025 16/10 Q1007

2010/08/09 18:50
EGPK 091850Z 23006KT 9999 FEW020 SCT035 14/11 Q1008

2010/08/09 18:50
EGSS 091850Z 23012KT 9999 SCT042 21/13 Q1012

2010/08/09 18:50
EGTE 091850Z 20011KT 9999 SCT012 20/17 Q1013

2010/08/09 18:50
EDGS 091850Z 26002KT 9999 FEW035 SCT054 16/12 Q1017

2010/08/09 18:50
EDHL 091850Z 21004KT CAVOK 17/17 Q1016

2010/08/09 18:50
EDJA 091850Z 07003KT CAVOK 17/13 Q1017

2010/08/09 18:50
EDLN 091850Z VRB01KT CAVOK 18/12 Q1015

2010/08/09 18:50
EDLP 091850Z 08001KT CAVOK 17/12 Q1016

2010/08/09 18:50
EDLW 091850Z 22004KT CAVOK 18/13 Q1016

2010/08/09 18:50
EDMA 091850Z 04003KT 9999 FEW040 17/14 Q1017

2010/08/09 18:50
EDNY 091850Z 00000KT CAVOK 19/14 Q1016

2010/08/09 18:50
EDQM 091850Z 00000KT CAVOK 14/12 Q1018

2010/08/09 18:50
EDRZ 091850Z 08003KT CAVOK 20/11 Q1017

2010/08/09 18:50
EDSB 091850Z VRB01KT CAVOK 21/15 Q1016

2010/08/09 18:50
EDXW 091850Z AUTO 22005KT 9999NDV NCD 16/10 Q1015

2010/08/09 18:50
EDFE 091850Z 10003KT CAVOK 17/14 Q1016

2010/08/09 18:50
EDFH 091850Z 23002KT CAVOK 18/09 Q1017

2010/08/09 18:50
EDFM 091850Z 06004KT CAVOK 21/12 Q1016

2010/08/09 18:50
EDLV 091850Z VRB02KT CAVOK 18/15 Q1016

2010/08/09 18:50
EDTL 091850Z 03003KT CAVOK 21/13 Q1016

2010/08/09 18:50
EDVK 091850Z 03003KT CAVOK 17/11 Q1017

2010/08/09 18:51
KSAD 091851Z AUTO VRB03KT 10SM CLR 33/12 A2999 RMK AO2 SLP098 T03280117 TSNO 

2010/08/09 18:50
EDVE 091850Z 29002KT CAVOK 19/13 Q1016

2010/08/09 18:50
LXGB 091850Z 07008KT CAVOK 25/22 Q1014

2010/08/09 19:00
GVBA 091900Z 03008KT 9999 FEW015 28/19 Q1013 NOSIG

2010/08/09 18:50
ENBN 091850Z 33004KT 9999 BKN008 13/11 Q1010

2010/08/09 18:50
ENHF 091850Z 05007KT 9999 FEW016 SCT022 BKN033 10/07 Q1015 

2010/08/09 18:50
ENRA 091850Z 10003KT 9999 FEW040TCU 18/13 Q1009

2010/08/09 18:50
ENSH 091850Z 02014KT 9999 FEW020 13/09 Q1011

2010/08/09 18:50
ENEK 091850Z 21019KT 9999 SCT015 16/13 Q1010 W16/S3

2010/08/09 18:50
ENGC 091850Z 22006KT 160V240 9999 SCT017 BKN035 13/11 Q1010

2010/08/09 18:50
ENHE 091850Z 05021KT 9999 BKN015 11/08 Q1012

2010/08/09 18:50
ENOA 091850Z 16008KT 9999 SCT030 15/10 Q1010

2010/08/09 18:50
ENNO 091850Z 07006KT 030V110 9999 FEW040 SCT090 22/15 Q1007

2010/08/09 18:50
ENOV 091850Z VRB03KT 9999 FEW012 BKN024 16/13 Q1010 

2010/08/09 18:50
ENSS 091850Z 05011KT 9999 BKN006 08/07 Q1015 

2010/08/09 18:50
ENHV 091850Z 04003KT 9999 BKN016 10/06 Q1015

2010/08/09 18:50
ENLK 091850Z 02011KT 9999 FEW020 11/08 Q1012

2010/08/09 18:50
ENNK 091850Z 24007KT 9999 ST060 15/12 Q1011 

2010/08/09 18:50
ENNM 091850Z 35007KT CAVOK 14/11 Q1010

2010/08/09 19:00
HRYR 091900Z 11003KT 9999 FEW030 25/11 Q1020 NOSIG

2010/08/09 18:55
NSTU 091855Z 09014KT 12SM SCT017 BKN040 27/25 A2999 RMK SLP156 T02740246

2010/08/09 18:54
KCAR 091854Z AUTO 21006KT 10SM FEW032 BKN100 23/18 A2984 RMK AO2 SLP104 T02330178 

2010/08/09 18:54
KROC 091854Z 22007KT 9SM BKN070 OVC130 27/21 A2994 RMK AO2 SLP136 T02720206 

2010/08/09 18:54
KROA 091854Z 13007KT 10SM BKN048 32/21 A3005 RMK AO2 SLP161 T03220206 

2010/08/09 18:50
EDHL 091850Z 21004KT CAVOK 17/17 Q1016

2010/08/09 18:50
EDLN 091850Z VRB01KT CAVOK 18/12 Q1015

2010/08/09 18:50
EDLP 091850Z 08001KT CAVOK 17/12 Q1016

2010/08/09 18:50
EDLW 091850Z 22004KT CAVOK 18/13 Q1016

2010/08/09 18:50
EDMA 091850Z 04003KT 9999 FEW040 17/14 Q1017

2010/08/09 18:50
EDNY 091850Z 00000KT CAVOK 19/14 Q1016

2010/08/09 18:50
EDQM 091850Z 00000KT CAVOK 14/12 Q1018

2010/08/09 18:50
EDSB 091850Z VRB01KT CAVOK 21/15 Q1016

2010/08/09 18:50
EDXW 091850Z AUTO 22005KT 9999NDV NCD 16/10 Q1015

2010/08/09 18:50
EGDL 091850Z 19006KT 6000 -RADZ FEW007 BKN010 17/16 Q1013 TEMPO 9999 NSW BKN007

2010/08/09 18:50
EGGD 091850Z 23005KT 4500 -RADZ BR SCT001 SCT002 BKN003 17/17 Q1013

2010/08/09 18:50
EGHI 091850Z 22008KT 170V260 9999 BKN012 17/14 Q1014

2010/08/09 18:50
EGNS 091850Z 22007KT 9999 FEW022 16/13 Q1008 NOSIG

2010/08/09 18:50
EGNT 091850Z 26011KT 9999 FEW030 17/10 Q1008

2010/08/09 18:50
EGWU 091850Z 23011KT 9999 FEW026 BKN060 20/14 Q1013 BECMG SCT024

2010/08/09 18:55
EHEH 091855Z AUTO 19001KT 9999NDV BKN260 19/13 Q1015 BLU BLU NOSIG

2010/08/09 18:54
EKVG 091854Z 13009KT 9999 FEW013 BKN020 12/10 Q1009 RMK/RWY 13-31 CLOSED DUE WIP NOTAM E0050/10 WIND 850FT 13013KT

2010/08/09 18:50
ETNG 091850Z 21003KT CAVOK 20/12 Q1016

2010/08/09 18:50
LOWG 091850Z 17002KT 9999 FEW040 20/15 Q1018 NOSIG

2010/08/09 18:50
LOWI 091850Z VRB02KT 9999 FEW045 19/14 Q1017 NOSIG

2010/08/09 18:50
LOWK 091850Z 11004KT 070V140 9999 FEW045 SCT050 21/14 Q1017 NOSIG

2010/08/09 18:50
LOWL 091850Z 00000KT CAVOK 21/12 Q1017 NOSIG

2010/08/09 18:50
LOWS 091850Z 17005KT 9999 FEW070 19/13 Q1017 NOSIG

2010/08/09 18:50
LOWW 091850Z VRB04KT 9999 FEW060 22/13 Q1017 NOSIG

2010/08/09 18:54
KMTP 091854Z AUTO 21007KT 27/22 A3000 RMK AO2 SLP157 T02720217 PWINO TSNO 

2010/08/09 18:54
KNAK 091854Z AUTO 14010KT 7SM CLR 31/21 A2999 RMK AO2 SLP159 T03060211 TSNO 

2010/08/09 18:54
KACY 091854Z 16013G19KT 10SM CLR 31/20 A3001 RMK AO2 SLP160 T03110200 

2010/08/09 18:54
KMQE 091854Z AUTO 24011G19KT 32/17 A2994 RMK AO1 SLP145 T03220167 

2010/08/09 18:54
KGSO 091854Z VRB03KT 10SM SCT049 32/19 A3004 RMK AO2 SLP160 T03220194 

2010/08/09 18:54
K1V4 091854Z AUTO 27/17 A2990 RMK AO2 SLP116 T02670172 PWINO TSNO 

2010/08/09 19:00
NIUE 091900Z AUTO 09001KT //// ////// 23/23 Q1019

2010/08/09 18:50
ENAN 091850Z 02018KT 9999 FEW012 BKN025 10/08 Q1013 NOSIG

2010/08/09 18:50
ENBR 091850Z 10004KT 9999 FEW020 BKN030 14/11 Q1011 NOSIG 

2010/08/09 18:50
ENBO 091850Z 01007KT 330V050 9999 FEW012 14/10 Q1011 NOSIG

2010/08/09 18:50
ENDU 091850Z 35006KT 310V030 9999 FEW025 SCT040 15/09 Q1012

2010/08/09 18:50
ENOL 091850Z 35004KT 9999 FEW015 15/12 Q1009 NOSIG

2010/08/09 18:50
ENVA 091850Z 25008KT CAVOK 18/15 Q1008 NOSIG 

2010/08/09 18:50
ENZV 091850Z 15001KT 9999 FEW020 SCT045 15/09 Q1012 NOSIG

2010/08/09 18:50
ENMS 091850Z 34008KT 9999 FEW040TCU 16/13 Q1009 

2010/08/09 18:50
ENSK 091850Z 06005KT 9999 FEW010 SCT015 BKN017 13/09 Q1012

2010/08/09 18:50
ENST 091850Z 04006KT 9999 FEW010 14/11 Q1010

2010/08/09 18:50
ENVD 091850Z 05016KT 9999W2000S VCFG DZ SCT005 BKN010 OVC040 09/08 Q1015

2010/08/09 18:54
KBKB 091854Z AUTO 00000KT 10SM BKN050 34/22 A2993 RMK AO2 SLP159 T03440222 

2010/08/09 18:53
KHWO 091853Z 19009KT 10SM SCT025 29/23 A2993 RMK AO2 SLP134 T02890233 $

2010/08/09 18:53
KHZY 091853Z AUTO 19004KT 10SM FEW085 29/19 A3000 RMK AO2 SLP153 T02940194

2010/08/09 18:53
KIAG 091853Z 22013KT 10SM VCTS FEW030 BKN060CB BKN085 OVC130 27/19 A2993 RMK AO2 TSB41 SLP128 OCNL LTGCCCG 10N TS 10N MOV E T02670189

2010/08/09 18:53
KICT 091853Z 16011G18KT 10SM SCT075 SCT200 SCT250 38/19 A2989 RMK AO2 SLP100 T03830194

2010/08/09 18:53
KIML 091853Z AUTO 10005KT 10SM SCT120 29/17 A3000 RMK AO2 SLP125 T02940172

2010/08/09 18:53
KIPL 091853Z AUTO VRB04KT 10SM CLR 36/07 A2978 RMK AO2 SLP086 T03560067

2010/08/09 18:53
KITR 091853Z AUTO 14010G15KT 10SM FEW090 30/17 A3004 RMK AO2 SLP108 T03000167

2010/08/09 18:53
KIXD 091853Z 18011G17KT 10SM CLR 37/22 A2990 RMK AO2 SLP109 T03670217

2010/08/09 18:53
KJEF 091853Z 13005KT 10SM FEW080 33/26 A2990 RMK AO2 SLP109 T03280256

2010/08/09 18:53
KJLN 091853Z 19007KT 10SM CLR 35/23 A2994 RMK AO2 SLP125 T03500228 $

2010/08/09 18:53
KLAA 091853Z AUTO VRB04KT 10SM CLR 31/17 A2997 RMK AO2 SLP090 T03060167

2010/08/09 18:53
KLAN 091853Z 19006KT 10SM FEW011 SCT055 OVC120 23/22 A2995 RMK AO2 RAE16 SLP138 P0000 T02330217

2010/08/09 18:53
KLAR 091853Z AUTO 14008G15KT 10SM CLR 23/07 A3022 RMK AO2 SLP124 T02280067

2010/08/09 18:53
KLAW 091853Z AUTO 20009G14KT 10SM FEW080 38/17 A2989 RMK AO2 SLP105 T03830167

2010/08/09 18:53
KLBB 091853Z 21010G16KT 10SM FEW060 SCT180 SCT250 33/17 A3003 RMK AO2 SLP109 CB DSNT W MOV NE T03330172

2010/08/09 18:53
KLBF 091853Z AUTO 08005KT 10SM CLR 29/21 A2996 RMK AO2 SLP113 T02890206

2010/08/09 18:53
KLEE 091853Z 12012G24KT 10SM -RA SCT022 SCT034 28/24 A2992 RMK AO2 RAE02B52 SLP130 P0000 T02780244

2010/08/09 18:53
KLHQ 091853Z AUTO 00000KT 9SM CLR 31/18 A3002 RMK AO2 SLP159 T03060178

2010/08/09 18:53
KLHX 091853Z AUTO 02005KT 10SM CLR 30/17 A3003 RMK AO2 SLP103 T03000167 $

2010/08/09 18:53
KLMT 091853Z 23007KT 10SM FEW050 SCT250 24/06 A2997 RMK AO2 SLP106 T02390061

2010/08/09 18:53
KLNS 091853Z 00000KT 9SM SCT050 31/19 A2999 RMK AO2 SLP152 T03110194

2010/08/09 18:53
KLOZ 091853Z AUTO VRB03KT 10SM FEW040 32/23 A3003 RMK AO2 SLP153 T03220228

2010/08/09 18:53
KLPR 091853Z AUTO 24004KT 9SM FEW045 31/20 A3000 RMK AO2 SLP151 T03110200

2010/08/09 18:53
KLWD 091853Z AUTO 19009G15KT 10SM CLR 30/24 A2988 RMK AO2 SLP105 T03000244

2010/08/09 18:50
KLXN 091850Z AUTO 04005KT 10SM BKN120 31/22 A2995 RMK AO2 T03060219

2010/08/09 18:53
KLXT 091853Z AUTO 17011G15KT 10SM CLR 34/25 A2991 RMK AO2 SLP114 T03440250

2010/08/09 18:53
KMAF 091853Z 17009G18KT 5SM HZ FEW055 34/17 A3001 RMK AO2 SLP109 T03390167

2010/08/09 18:53
KMAI 091853Z AUTO 06010KT 9SM CLR 36/20 A2995 RMK AO2 SLP140 T03610200

2010/08/09 18:53
KMBS 091853Z 17010KT 2 1/2SM -RA BR SCT018 BKN030 OVC060 24/23 A2994 RMK AO2 SFC VIS 4 RAB23 SLP134 P0001 T02390228

2010/08/09 18:53
KMCI 091853Z 20014KT 10SM BKN250 36/24 A2988 RMK AO2 SLP101 T03610244

2010/08/09 18:53
KMCK 091853Z AUTO 11011KT 10SM CLR 32/22 A2995 RMK AO2 SLP112 T03220222

2010/08/09 18:50
KPMV 091850Z AUTO 18005KT 10SM SCT020 32/26 A2986 RMK AO2 T03240255

2010/08/09 18:53
KAAF 091853Z AUTO 12009G16KT 10SM CLR 33/24 A2994 RMK AO2 SLP138 T03280244

2010/08/09 18:53
KABY 091853Z 09009G18KT 10SM BKN060 35/20 A2998 RMK AO2 SLP150 T03500200

2010/08/09 18:53
KADG 091853Z AUTO VRB04KT 10SM CLR 29/21 A2999 RMK AO2 SLP151 T02890211

2010/08/09 18:50
KAEG 091850Z 00000KT 10SM SKC 27/10 A3017

2010/08/09 18:53
KAFW 091853Z 17009KT 10SM FEW070 38/21 A2991 RMK AO2 SLP109 T03780211 $

2010/08/09 18:53
KAGC 091853Z VRB03KT 10SM CLR 31/14 A3002 RMK AO2 SLP161 T03110144

2010/08/09 18:53
KAIA 091853Z AUTO 24016KT 10SM FEW095 33/13 A3000 RMK AO2 SLP112 T03280128 $

2010/08/09 18:53
KAKO 091853Z AUTO 15006G15KT 10SM CLR 31/12 A3008 RMK AO2 SLP113 T03060117 TSNO

2010/08/09 18:53
KAMG 091853Z AUTO 08007KT 10SM FEW060 35/21 A2996 RMK AO2 SLP142 T03500206

2010/08/09 18:53
KANB 091853Z AUTO 15008KT 10SM CLR 34/21 A3000 RMK AO2 SLP145 T03440206

2010/08/09 18:53
KMTH 091853Z AUTO 21007KT 10SM BKN065 29/23 A2991 RMK AO2 SLP129 T02890233

2010/08/09 18:53
KMTJ 091853Z AUTO 29008KT 10SM SCT085 26/11 A3020 RMK AO2 SLP143 T02560106

2010/08/09 18:53
KMTO 091853Z AUTO 18006KT 10SM FEW050 33/24 A2993 RMK AO2 SLP128 T03330244 $

2010/08/09 18:53
KMWL 091853Z AUTO 16011G16KT 120V220 10SM FEW060 37/20 A2991 RMK AO2 SLP113 T03720200

2010/08/09 18:53
KMYF 091853Z 26008KT 220V280 10SM CLR 22/14 A2993 RMK AO2 SLP133 T02220139

2010/08/09 18:53
KODO 091853Z AUTO 17010KT 10SM CLR 32/17 A3002 RMK AO2 SLP115 T03220172

2010/08/09 18:50
KOGA 091850Z AUTO 12006KT 10SM CLR 30/19 A2999 RMK AO2 T03000187

2010/08/09 18:53
KOGB 091853Z AUTO 09005KT 10SM CLR 34/20 A3000 RMK AO2 SLP157 T03390200

2010/08/09 18:53
KOJC 091853Z 20012KT 10SM CLR 36/24 A2989 RMK AO2 SLP105 T03560239

2010/08/09 18:50
KONL 091850Z AUTO 00000KT 10SM CLR 26/21 A2994 RMK AO2 T02610213

2010/08/09 18:53
KOPF 091853Z 20009KT 10SM -RA SCT013 BKN021 27/24 A2992 RMK AO2 RAE10B52 SLP133 P0000 T02670244

2010/08/09 18:53
KORL 091853Z 14006KT 10SM FEW037 32/24 A2990 RMK AO2 RAB36E47 SLP127 P0000 T03170239

2010/08/09 18:53
KOTM 091853Z AUTO 19008KT 10SM CLR 29/23 A2989 RMK AO2 SLP114 T02890228

2010/08/09 18:53
KPBG 091853Z AUTO 11006KT 1 3/4SM RA BR BKN015 BKN049 23/22 A2989 RMK AO2 VIS 3/4V5 TSE01RAB28 SLP119 P0021 T02330217

2010/08/09 18:53
KPBI 091853Z 13015KT 10SM SCT024CB SCT085 BKN250 30/23 A2990 RMK AO2 SLP126 CB SW MOV NW TCU OHD CB DSNT ALQDS T03040230

2010/08/09 18:53
KPEO 091853Z AUTO 20007KT 10SM FEW075 29/18 A2998 RMK AO2 SLP142 T02890178

2010/08/09 18:53
KPGD 091853Z AUTO VRB04KT 10SM FEW090 31/23 A2990 RMK AO2 SLP124 T03110233 TSNO

2010/08/09 18:53
KPHD 091853Z AUTO 22006KT 10SM CLR 30/18 A3003 RMK AO2 SLP162 T03000178

2010/08/09 18:53
KPIE 091853Z 00000KT 10SM -RA BKN028 28/24 A2989 RMK AO2 LTG DSNT N RAB21 SLP122 P0001 T02830239

2010/08/09 18:53
KPMD 091853Z 00000KT 10SM CLR 30/00 A2995 RMK AO2 SLP113 T03000000

2010/08/09 18:50
KTIF 091850Z AUTO 11003KT 10SM CLR 28/19 A2999 RMK AO2 T02840189

2010/08/09 18:53
KTKI 091853Z 15010G15KT 10SM SCT060 36/23 A2992 RMK AO2 SLP124 T03560228

2010/08/09 18:53
KTMB 091853Z 17007KT 10SM -RA BR SCT010 SCT020 SCT048 28/25 A2992 RMK AO2 SLP131 P0000 T02780250

2010/08/09 18:53
KTOI 091853Z 10005KT 10SM CLR 34/22 A2999 RMK AO2 SLP149 T03440222

2010/08/09 18:53
KTOP 091853Z 18010KT 10SM CLR 39/22 A2986 RMK AO2 SLP097 T03890222

2010/08/09 18:53
KTOR 091853Z AUTO 19003KT 10SM -RA FEW110 25/16 A3004 RMK AO2 LTG DSNT NE RAE19B50 SLP123 P0000 T02500156

2010/08/09 18:53
KTPA 091853Z 25005KT 6SM -RA FEW012 BKN028CB OVC250 28/25 A2989 RMK AO2 RAB30 SLP121 VIS W 2 1/2 CB ALQDS MOV SW P0019 T02780250

2010/08/09 18:53
KTRL 091853Z AUTO 17011G17KT 10SM FEW055 36/18 A2993 RMK AO2 SLP128 T03560178

2010/08/09 18:53
KTTN 091853Z 24008KT 8SM FEW060 34/18 A2997 RMK AO2 SLP140 T03390178

2010/08/09 18:53
KTUL 091853Z 16011G14KT 10SM FEW060 37/21 A2990 RMK AO2 SLP113 T03670211

2010/08/09 18:53
KTWF 091853Z 18016G23KT 10SM CLR 28/06 A2993 RMK AO2 PK WND 14029/1829 SLP074 T02830061

2010/08/09 18:53
KTXK 091853Z VRB05KT 10SM CLR 36/23 A2994 RMK AO2 SLP132 T03560228

2010/08/09 18:53
KTYR 091853Z 16005KT 10SM CLR 36/21 A2997 RMK AO2 SLP138 T03560206

2010/08/09 18:53
KUNO 091853Z AUTO 19005KT 10SM CLR 37/21 A2996 RMK AO2 LTG DSNT E SLP128 T03720206

2010/08/09 18:53
KUUU 091853Z AUTO 20009G17KT 10SM CLR 27/21 A2998 RMK AO2 SLP150 T02720211

2010/08/09 18:53
KVIH 091853Z AUTO 00000KT 10SM FEW038 33/24 A2994 RMK AO2 SLP122 T03330244

2010/08/09 18:53
KVLD 091853Z VRB06KT 10SM SCT049 34/22 A2995 RMK AO2 SLP149 T03390217

2010/08/09 18:53
KVPC 091853Z AUTO VRB04KT 10SM CLR 34/21 A3002 RMK AO2 SLP151 T03440206

2010/08/09 18:53
KVRB 091853Z 12014KT 10SM CLR 31/23 A2991 RMK AO2 SLP127 T03060233

2010/08/09 18:47
KWHP 091847Z 14006KT 10SM SKC 27/

2010/08/09 18:53
KYIP 091853Z AUTO 31009KT 10SM -RA FEW100 27/21 A2998 RMK AO2 SLP145 P0000 T02670211 TSNO

2010/08/09 18:53
KZZV 091853Z AUTO VRB06KT 10SM CLR 31/18 A3002 RMK AO2 SLP159 T03110178

2010/08/09 18:53
KAPA 091853Z 00000KT 10SM FEW070 SCT110 26/12 A3013 RMK AO2 SLP129 T02610122

2010/08/09 18:53
KAPF 091853Z 22007KT 5SM -TSRA BR FEW011 BKN044 OVC050 26/24 A2990 RMK AO2 TSB18E50B52RAB07 SLP123 P0037 T02610244

2010/08/09 18:53
KARB 091853Z 31008KT 10SM -RA CLR 25/21 A2998 RMK AO2 RAE13B41 SLP147 P0001 T02500206

2010/08/09 18:53
KASE 091853Z 12007KT 10SM -RA SCT040 BKN080 14/11 A3034 RMK AO2 RAB15 SLP173 P0001 T01390106

2010/08/09 18:53
KBBW 091853Z AUTO 30003KT 10SM CLR 28/21 A2996 RMK AO2 SLP121 T02780206 $

2010/08/09 18:53
KBFF 091853Z AUTO 27005KT 10SM CLR 27/12 A3003 RMK AO2 SLP122 T02670122

2010/08/09 18:53
KBGM 091853Z AUTO 26008KT 10SM CLR 29/14 A3003 RMK AO2 SLP155 T02890144 TSNO

2010/08/09 18:53
KBKL 091853Z 33005KT 4SM HZ CLR 30/22 A2997 RMK AO2 SLP143 T03000217

2010/08/09 18:53
KBKV 091853Z AUTO 10007KT 10SM TS CLR 29/25 A2991 RMK AO2 LTG DSNT SW-NW TSB06RAB04E32 SLP127 P0002 T02890250

2010/08/09 18:53
KBRL 091853Z AUTO 16006KT 10SM CLR 32/24 A2989 RMK AO2 SLP114 T03170239

2010/08/09 18:53
KBVO 091853Z AUTO 16007KT 10SM CLR 37/22 A2990 RMK AO2 SLP113 T03670222

2010/08/09 18:53
KBYG 091853Z AUTO 13003KT 10SM CLR 28/08 A2998 RMK AO2 SLP085 T02830078

2010/08/09 18:53
KCAG 091853Z AUTO VRB03KT 10SM BKN085 20/12 A3023 RMK AO2 RAE12B39E48 SLP182 P0000 T02000117

2010/08/09 18:53
KCDR 091853Z AUTO 16009G14KT 10SM FEW090 34/12 A2991 RMK AO2 SLP097 T03390117

2010/08/09 18:53
KCDS 091853Z AUTO 22007G17KT 10SM CLR 36/19 A2995 RMK AO2 SLP108 T03560194

2010/08/09 18:53
KCDW 091853Z VRB06KT 9SM CLR 33/17 A2996 RMK AO2 SLP149 T03330167

2010/08/09 18:53
KCEW 091853Z AUTO 00000KT 10SM BKN046 34/24 A2997 RMK AO2 SLP145 T03390244

2010/08/09 18:53
KCEZ 091853Z AUTO 28009KT 10SM CLR 27/07 A3020 RMK AO2 SLP144 T02670067

2010/08/09 18:53
KCGI 091853Z 00000KT 10SM CLR 35/24 A2992 RMK AO2 SLP126 T03500239

2010/08/09 18:53
KCKB 091853Z VRB05KT 9SM CLR 31/17 A3004 RMK AO2 SLP158 T03060167

2010/08/09 18:53
KCPR 091853Z 20017G22KT 10SM FEW110 28/03 A3005 RMK AO2 SLP105 T02830033

2010/08/09 18:53
KFDR 091853Z AUTO 21013G17KT 10SM 38/17 A2988 RMK AO2 SLP094 T03780167

2010/08/09 18:53
KFDY 091853Z AUTO 32005KT 7SM CLR 31/20 A2998 RMK AO2 SLP142 T03110200

2010/08/09 18:53
KFLD 091853Z AUTO VRB05KT 10SM BKN023 BKN028 BKN035 27/22 A2992 RMK AO2 SLP125 T02720217

2010/08/09 18:53
KFLL 091853Z 19013KT 10SM SCT028 BKN041 BKN049 29/24 A2990 RMK AO2 SLP125 T02940239

2010/08/09 18:53
KFLO 091853Z 10007KT 10SM CLR 33/21 A3001 RMK AO2 SLP158 T03330211

2010/08/09 18:53
KFMY 091853Z 17007KT 10SM BKN035 BKN055 32/23 A2986 RMK AO2 LTG DSNT S SLP112 T03170228

2010/08/09 18:53
KFNB 091853Z AUTO 17010G14KT 10SM CLR 35/24 A2984 RMK AO2 SLP090 T03500244

2010/08/09 18:53
KFNT 091853Z AUTO 21006G17KT 4SM -RA BR SCT028 BKN075 23/22 A2995 RMK AO2 SLP139 P0008 T02280217 TSNO

2010/08/09 18:53
KFOE 091853Z 19010KT 10SM CLR 38/22 A2987 RMK AO2 SLP101 T03780217

2010/08/09 18:53
KFOK 091853Z 21009KT 9SM CLR 27/21 A3000 RMK AO2 SLP159 T02720206

2010/08/09 18:53
KFPR 091853Z 12014KT 10SM SCT020 31/23 A2991 RMK AO2 SLP127 T03060233

2010/08/09 18:53
KFRG 091853Z 20013KT 10SM CLR 30/21 A2998 RMK AO2 SLP153 T03000211

2010/08/09 18:53
KFTW 091853Z 20010G14KT 10SM CLR 37/21 A2991 RMK AO2 SLP118 T03670211

2010/08/09 18:53
KFUL 091853Z 00000KT 7SM CLR 23/13 A2992 RMK AO2 SLP129 T02330128

2010/08/09 18:53
KFWN 091853Z AUTO 20009KT 8SM FEW055 32/19 A2997 RMK AO2 SLP144 T03220194

2010/08/09 18:53
KFXE 091853Z 15008KT 10SM SCT028 BKN034 BKN041 30/23 A2990 RMK AO2 RAB17E29 SLP127 P0000 T03000228

2010/08/09 18:53
KGAG 091853Z AUTO 17013G20KT 10SM CLR 36/18 A2992 RMK AO2 SLP093 T03610183

2010/08/09 18:53
KGCC 091853Z AUTO 22007G17KT 10SM CLR 31/08 A2995 RMK AO2 SLP090 T03060078

2010/08/09 18:53
KGGG 091853Z 09004KT 10SM CLR 35/22 A2995 RMK AO2 SLP133 T03500222

2010/08/09 18:53
KGIF 091853Z AUTO 08006KT 10SM FEW034 32/23 A2990 RMK AO2 SLP123 T03170228 TSNO

2010/08/09 18:53
KGJT 091853Z 13003KT 10SM SCT090 SCT110 26/11 A3012 RMK AO2 RAB1756E21 SLP132 VCSH E-S P0000 T02560111

2010/08/09 18:53
PAPB 091853Z AUTO 22010KT 1/4SM FG VV001 08/08 A2929 RMK AO2 SLP906 T00780078 TSNO

2010/08/09 18:53
KPQN 091853Z AUTO 10007KT 075V175 10SM SCT027 31/23 A2994 RMK AO2

2010/08/09 18:54
KFGN 091854Z AUTO 16006KT 10SM CLR 24/21 A2988 RMK AO2

2010/08/09 18:53
KPNM 091853Z AUTO 00000KT 10SM CLR 32/20 A2992 RMK AO2

2010/08/09 18:53
KPWC 091853Z AUTO 00000KT 10SM CLR 30/19 A2995 RMK AO2

2010/08/09 18:53
KFFM 091853Z AUTO 00000KT 10SM CLR 29/18 A2990 RMK AO2

2010/08/09 18:52
KGDB 091852Z AUTO 04007KT 10SM CLR 31/20 A2992 RMK AO2 T03080199

2010/08/09 18:53
KAIT 091853Z AUTO 31003KT 10SM CLR 31/20 A2992 RMK AO2

2010/08/09 18:53
KGHW 091853Z AUTO 00000KT 10SM CLR 32/14 A2997 RMK AO2

2010/08/09 18:53
KMWM 091853Z AUTO 09004KT 10SM SCT027 29/22 A2992 RMK AO2

2010/08/09 18:55
KULM 091855Z AUTO 08004KT 10SM CLR 29/23 A2991 RMK AO2

2010/08/09 18:53
KBBB 091853Z AUTO 12005KT 10SM CLR 32/19 A2996 RMK AO2

2010/08/09 18:53
KTWM 091853Z AUTO 18006KT 10SM CLR 28/22 A2989 RMK AO2

2010/08/09 18:55
KMGG 091855Z AUTO 00000KT 10SM CLR 31/23 A2993 RMK AO2 T03120230

2010/08/09 18:49
KMOX 091849Z AUTO 13004KT 10SM CLR 32/19 A2990 RMK AO2

2010/08/09 18:54
KSBY 091854Z 17009G16KT 10SM SCT060 33/19 A3001 RMK AO2 SLP164 T03280189

2010/08/09 18:55
KSDY 091855Z AUTO 08006KT 10SM CLR 29/14 A2986 RMK AO1

2010/08/09 18:54
KSET 091854Z AUTO 15006KT 10SM CLR 34/25 A2989 RMK AO2 SLP115 T03390250

2010/08/09 18:55
KSFM 091855Z 24007KT 1 1/2SM SCT002 SCT060 BKN120 32/17 A2991 RMK AO1

2010/08/09 18:55
KSFZ 091855Z 23004KT 10SM FEW050 31/20 A2994 RMK AO1

2010/08/09 18:55
KSGT 091855Z 00000KT CLR 36/23 A2994 RMK AO1

2010/08/09 18:55
KSGU 091855Z AUTO 00000KT 10SM CLR 28/13 A3002 RMK AO1

2010/08/09 18:54
KSJN 091854Z AUTO 31003KT 10SM SCT100 26/10 A3020 RMK AO2 SLP140 T02560100

2010/08/09 18:55
KSKX 091855Z AUTO 20005KT 10SM CLR 26/09 A3023 RMK AO1 LTG DSNT E

2010/08/09 18:55
KSLG 091855Z AUTO 24006KT 10SM FEW055 36/21 A2997 RMK AO1

2010/08/09 18:55
KSMN 091855Z AUTO 23010KT 10SM SCT090 OVC110 21/10 A3001 RMK AO1

2010/08/09 18:55
KSQI 091855Z AUTO 00000KT 10SM CLR 29/23 A2995 RMK AO1

2010/08/09 18:55
KSUE 091855Z AUTO 16003KT 10SM SCT022 SCT038 BKN049 28/23 A2992 RMK AO1

2010/08/09 18:54
KSUS 091854Z VRB03KT 10SM BKN150 34/25 A2989 RMK AO2 SLP109 T03440250

2010/08/09 18:54
KSYR 091854Z 28011G18KT 10SM SCT050 BKN120 BKN200 31/18 A2993 RMK AO2 SLP128 T03110183

2010/08/09 18:54
KTAD 091854Z AUTO VRB03KT 10SM FEW110 27/13 A3012 RMK AO2 LTG DSNT SE-SW SLP116 T02670133

2010/08/09 18:54
KTQE 091854Z AUTO 33005KT 9SM BKN017 29/26 A2986 RMK AO2 SLP097 T02940256

2010/08/09 18:55
KTVF 091855Z AUTO 22011G16KT 10SM CLR 33/17 A2987 RMK AO1

2010/08/09 18:56
KUCP 091856Z AUTO 00000KT 10SM FEW085 31/18 A3003 RMK AO2 T03110177 SLP173

2010/08/09 18:54
KUIN 091854Z AUTO 18008KT 10SM CLR 31/25 A2990 RMK AO2 SLP116 T03110250

2010/08/09 18:54
KUZA 091854Z AUTO VRB03KT 7SM FEW045 SCT075 33/22 A3003 RMK AO2 SLP154 T03280222

2010/08/09 18:54
KVAY 091854Z AUTO VRB03KT 10SM FEW060 33/17 A2997 RMK AO2 SLP149 T03330172

2010/08/09 18:55
KVBT 091855Z AUTO 19006KT 10SM FEW050 36/22 A2996 RMK AO1

2010/08/09 18:55
KVIS 091855Z AUTO 29003KT 10SM CLR 27/16 A2987 RMK AO1

2010/08/09 18:54
KVSF 091854Z AUTO 27005KT 10SM FEW065 29/17 A2993 RMK AO2 LTG DSNT N SLP132 T02890172

2010/08/09 18:54
KVTA 091854Z AUTO 23003KT 10SM FEW045 30/18 A3001 RMK AO2 SLP156 T03000183

2010/08/09 18:54
KWLD 091854Z AUTO 17010G16KT 10SM CLR 37/22 A2991 RMK AO2 SLP112 T03720217

2010/08/09 18:55
KWVL 091855Z AUTO 24003KT 10SM FEW046 SCT060 SCT065 28/18 A2987 RMK AO1

2010/08/09 18:55
KYKN 091855Z AUTO 00000KT 10SM SCT016 28/23 A2990 RMK AO1

2010/08/09 18:55
KILE 091855Z AUTO 17007G15KT 10SM FEW065 35/21 A2994 RMK AO1

2010/08/09 18:54
KILN 091854Z AUTO 00000KT 10SM SCT050 32/19 A3001 RMK AO2 SLP149 T03170194

2010/08/09 18:54
KIMT 091854Z AUTO 35009KT 10SM CLR 31/21 A2988 RMK AO2 SLP112 T03110211

2010/08/09 18:54
KIND 091854Z 26007KT 10SM FEW055 BKN140 BKN250 34/20 A2995 RMK AO2 SLP134 T03440200

2010/08/09 18:54
KINT 091854Z 15007KT 10SM SCT049 BKN075 32/21 A3005 RMK AO2 SLP162 T03170206

2010/08/09 18:54
KIPT 091854Z 33006KT 10SM CLR 32/14 A2996 RMK AO2 SLP142 T03220144

2010/08/09 18:53
PAQT 091853Z AUTO 05017G26KT 2 1/2SM BR OVC004 03/03 A2978 RMK AO2 PK WND 05026/1845 SLP084 T00330028 TSNO

2010/08/09 18:53
PASC 091853Z 06022KT 3SM BR OVC003 04/03 A2974 RMK AO2 PK WND 06027/1839 SLP072 T00440033

2010/08/09 18:53
PASI 091853Z 24003KT 10SM BKN007 OVC028 14/12 A2998 RMK AO2 SLP151 T01390117

2010/08/09 18:53
PASN 091853Z 24010KT 2 1/2SM BR OVC003 09/09 A2924 RMK AO2 DZE39 SLP903 P0000 T00890089

2010/08/09 18:53
PASO 091853Z AUTO 16007G19KT 10SM FEW036 SCT043 14/11 A2963 RMK AO2 SLP034 T01390106 TSNO

2010/08/09 18:53
PATK 091853Z VRB05KT 10SM -RA OVC065 12/11 A2966 RMK AO2 RAB07E24B43 SLP047 P0000 T01220111

2010/08/09 18:53
PATO 091853Z AUTO 12015G32KT 2 1/2SM -RA BR OVC023 12/11 A2973 RMK AO2 PK WND 11039/1833 SLP067 P0003 T01170106 TSNO

2010/08/09 18:53
PAVL 091853Z AUTO 07017KT 8SM -RA CLR 16/09 A2945 RMK AO2 SLP974 P0000 T01610094 TSNO

2010/08/09 18:53
PAWD 091853Z AUTO A2971 RMK AO2 SLP062 PWINO FZRANO TSNO $

2010/08/09 18:53
PAYA 091853Z 12006KT 6SM BR FEW011 OVC024 14/12 A2993 RMK AO2 SLP135 BAY TWR WND 120MMKT T01440117

2010/08/09 18:53
PAAQ 091853Z 15015G21KT 10SM BKN090 18/07 A2964 RMK AO2 SLP031 T01830067

2010/08/09 18:53
PABE 091853Z 17016G22KT 2SM R19R/5500VP6000FT -RA BR SCT004 BKN007 OVC018 10/09 A2936 RMK AO2 PK WND 16026/1818 SLP943 SFC VIS 1V2 P0001 T01000094

2010/08/09 18:53
PABI 091853Z 18022G33KT 10SM FEW090 SCT110 SCT180 17/04 A2960 RMK AO2 PK WND 17033/1849 SLP022 BLDU VC N+E T01720044

2010/08/09 18:53
PABR 091853Z 07020G26KT 5SM -DZ BR OVC003 02/02 A2988 RMK AO2 PK WND 06026/1849 DZB46 SLP118 P0000 T00170017

2010/08/09 18:53
PABT 091853Z VRB03KT 10SM FEW014 BKN048 OVC080 15/11 A2957 RMK AO2 SLP020 SHRA DSNT NW T01500106

2010/08/09 18:53
PACD 091853Z 00000KT 10SM FEW015 BKN032 BKN065 BKN180 13/09 A2952 RMK AO2 SLP996 T01330089

2010/08/09 18:53
PACV 091853Z 11006KT 10SM FEW012 OVC031 13/11 A2983 RMK AO2 RAE04B43E53 SLP103 P0001 T01330111

2010/08/09 18:53
PADE 091853Z AUTO 08011KT 10SM -RA FEW045 SCT055 13/12 A2939 RMK AO2 SLP951 P0001 T01280117 TSNO

2010/08/09 18:48
PADL 091848Z 17015G23KT 3SM -RA BR SCT005 OVC010 11/09 A2953 RMK SCT V BKN

2010/08/09 18:53
PAEG 091853Z AUTO 13011G18KT 10SM SCT060 BKN095 17/09 A2961 RMK AO2 SLP026 T01720094 TSNO

2010/08/09 18:53
PAEN 091853Z 00000KT 10SM OVC075 16/12 A2963 RMK AO2 SLP033 T01610122

2010/08/09 18:53
PAFA 091853Z 11005KT 10SM BKN075 BKN100 BKN120 14/11 A2957 RMK AO2 SLP017 T01440106

2010/08/09 18:53
PAGK 091853Z 16016G25KT 10SM FEW060 SCT080 SCT110 SCT150 15/07 A2970 RMK AO2 PK WND 16029/1811 SLP055 T01500072

2010/08/09 18:53
PAGY 091853Z AUTO 21016KT 10SM FEW050 OVC065 14/10 A2993 RMK AO2 SLP137 T01440100 TSNO

2010/08/09 18:53
PAHO 091853Z 26010KT 10SM SCT050 BKN200 15/11 A2964 RMK AO2 SLP038 T01500111

2010/08/09 18:53
PAIL 091853Z 14006KT 10SM FEW034 BKN049 OVC080 13/09 A2958 RMK AO2 SLP020 T01280094

2010/08/09 18:53
PAJN 091853Z 09008KT 10SM FEW014 BKN034 OVC050 14/11 A2999 RMK AO2 SLP155 MTN TPS OBSCD ALQDS T01390111

2010/08/09 18:53
PAKV 091853Z AUTO 00000KT 7SM -RA FEW006 SCT010 OVC021 13/12 A2947 RMK AO2 RAB12 SLP982 P0005 T01280122 TSNO

2010/08/09 18:53
PALH 091853Z 35006KT 10SM OVC065 15/12 A2964 RMK AO2 SLP036 T01500122

2010/08/09 18:53
PAMC 091853Z 09004KT 7SM -RA SCT006 BKN015 OVC046 12/12 A2951 RMK AO2 RAB04E19B39 SLP997 P0000 T01220117

2010/08/09 18:53
PAMR 091853Z VRB03KT 10SM BKN070 OVC085 15/11 A2962 RMK AO2 SLP032 T01500106

2010/08/09 18:53
PANC 091853Z 36006KT 10SM OVC060 13/12 A2963 RMK AO2 SLP033 T01330122

2010/08/09 18:53
PANN 091853Z AUTO 31006KT 10SM FEW110 16/09 A2955 RMK AO2 SLP011 T01610089 TSNO

2010/08/09 18:53
PAOM 091853Z 13010KT 10SM FEW013 SCT019 BKN039 12/09 A2933 RMK AO2 SLP933 T01170089

2010/08/09 18:53
PAOR 091853Z 00000KT 10SM FEW075 SCT095 BKN150 16/10 A2967 RMK AO2 SLP047 ACSL DSNT S W T01560100

2010/08/09 18:53
PAOT 091853Z 10018G24KT 10SM FEW040 BKN070 BKN090 16/11 A2943 RMK AO2 RAB30E49 SLP964 P0000 T01560111

2010/08/09 18:53
KPMP 091853Z 12014G19KT 10SM -RA SCT025 BKN046 28/25 A2991 RMK AO2 RAB31 SLP130 P0000 T02830250

2010/08/09 18:50
KPNA 091850Z AUTO 11006KT 10SM SCT095 SCT120 22/00 A3016 RMK AO2 T02201001

2010/08/09 18:53
KPNC 091853Z AUTO 15007G16KT 10SM CLR 37/22 A2989 RMK AO2 SLP105 T03670217

2010/08/09 18:53
KPNS 091853Z AUTO 15010KT 10SM CLR 33/24 A2996 RMK AO2 SLP146 T03280244 TSNO

2010/08/09 18:53
KPOF 091853Z AUTO VRB05KT 10SM FEW055 34/26 A2991 RMK AO2 SLP122 T03440256

2010/08/09 18:53
KPOU 091853Z 21007KT 180V240 10SM CLR 33/14 A2993 RMK AO2 SLP132 T03280144

2010/08/09 18:53
KPTK 091853Z 23008KT 9SM -RA BKN017 OVC130 24/22 A2997 RMK AO2 RAB1757 SLP142 P0002 T02440217

2010/08/09 18:50
KPTT 091850Z AUTO 17011G18KT 10SM CLR 37/15 A2991 RMK AO2

2010/08/09 18:53
KPUB 091853Z 18003KT 10SM CLR 26/15 A3007 RMK AO2 SLP119 T02610150 $

2010/08/09 18:53
KPUC 091853Z AUTO VRB05KT 10SM CLR 24/07 A3017 RMK AO2 SLP151 T02390067

2010/08/09 18:53
KPWA 091853Z 17014G19KT 140V200 10SM CLR 37/21 A2991 RMK AO2 SLP108 T03670206

2010/08/09 18:53
KRAL 091853Z 26005KT 8SM CLR 26/12 A2991 RMK AO2 SLP112 T02560117

2010/08/09 18:53
KRBD 091853Z VRB04G14KT 10SM FEW050 36/22 A2993 RMK AO2 SLP122 T03610217

2010/08/09 18:53
KRSL 091853Z AUTO 17010KT 10SM CLR 38/19 A2986 RMK AO2 SLP086 T03780194

2010/08/09 18:53
KRSW 091853Z AUTO VRB06KT 10SM FEW035 32/23 A2986 RMK AO2 RAB12E21 SLP110 P0000 T03220233 TSNO

2010/08/09 18:53
KRVS 091853Z 17009G15KT 10SM FEW065 38/21 A2990 RMK AO2 SLP125 T03780206

2010/08/09 18:53
KRWI 091853Z AUTO 11005KT 10SM CLR 32/20 A3002 RMK AO2 SLP164 T03220200

2010/08/09 18:53
KRWL 091853Z AUTO 20011G21KT 10SM SCT070 BKN085 20/05 A3022 RMK AO2 RAB00E45 SLP153 T02000050 PNO $

2010/08/09 18:53
KSEG 091853Z AUTO VRB04KT 9SM CLR 32/18 A2998 RMK AO2 SLP149 T03170178

2010/08/09 18:49
KSEZ 091849Z AUTO 21006KT 10SM BKN090 OVC120 27/09 A3015 RMK AO2 T02650086

2010/08/09 18:53
KSLN 091853Z 17011KT 10SM CLR 39/19 A2984 RMK AO2 SLP086 T03940194

2010/08/09 18:53
KSMQ 091853Z AUTO VRB05KT 10SM CLR 33/19 A2994 RMK AO2 SLP137 T03330194 $

2010/08/09 18:53
KSNY 091853Z AUTO 20006KT 10SM CLR 33/11 A3005 RMK AO2 SLP114 T03330106

2010/08/09 18:50
KSOW 091850Z AUTO 26006KT 10SM BKN050 24/09 A3028 RMK AO2

2010/08/09 18:53
KSPG 091853Z 00000KT 10SM FEW060 31/24 A2987 RMK AO2 SLP116 T03060244

2010/08/09 18:53
KSRQ 091853Z VRB04KT 10SM SCT026 31/23 A2987 RMK AO2 SLP115 T03110233

2010/08/09 18:53
KSSI 091853Z AUTO 06013KT 10SM CLR 32/25 A2997 RMK AO2 SLP147 T03170250

2010/08/09 18:53
KSTJ 091853Z 19012G17KT 10SM CLR 33/24 A2985 RMK AO2 SLP096 T03330244

2010/08/09 18:53
KSWO 091853Z 16013G17KT 10SM CLR 39/20 A2989 RMK AO2 SLP104 T03890200

2010/08/09 18:50
KSZT 091850Z AUTO 14006KT 10SM CLR 24/16 A2985 RMK AO2

2010/08/09 18:53
KTDZ 091853Z AUTO 28004KT 7SM CLR 30/20 A2997 RMK AO2 SLP144 T03000200

2010/08/09 18:50
KTEX 091850Z AUTO 00000KT 10SM BKN100 18/09 A3041 RMK AO2 LTG DSNT SE

2010/08/09 18:53
KTHV 091853Z AUTO 00000KT 10SM CLR 33/19 A2999 RMK AO2 SLP153 T03330194

2010/08/09 18:53
KMCO 091853Z 15009KT 10SM SCT033TCU BKN060 BKN190 32/23 A2990 RMK AO2 SLP122 TCU SW-NW T03220233

2010/08/09 18:53
KMCW 091853Z AUTO 15005KT 10SM FEW026 28/23 A2995 RMK AO2 SLP127 T02830233

2010/08/09 18:53
KMFE 091853Z 09007KT 10SM SCT040 34/24 A2988 RMK AO2 SLP117 T03440239

2010/08/09 18:53
KMHE 091853Z AUTO 14006KT 10SM CLR 30/24 A2990 RMK AO2 SLP117 T03000239 TSNO

2010/08/09 18:53
KMIA 091853Z 16007KT 10SM FEW013 SCT075 BKN150 27/24 A2992 RMK AO2 RAE14 SLP133 P0000 T02720239

2010/08/09 18:53
KMKO 091853Z AUTO VRB05KT 10SM SCT060 37/21 A2993 RMK AO2 SLP126 T03670211

2010/08/09 18:53
KMLB 091853Z 11010KT 10SM SCT015CB 31/24 A2991 RMK AO2 SLP127 T03110239

2010/08/09 18:53
KMLC 091853Z AUTO VRB05G19KT 10SM FEW065 36/19 A2993 RMK AO2 SLP123 T03610194

2010/08/09 18:50
KMLE 091850Z AUTO 18003KT 10SM CLR 32/23 A2985 RMK AO2 T03240233

2010/08/09 18:53
KMLU 091853Z 15003KT 10SM CLR 37/23 A2994 RMK AO2 SLP138 T03670228

2010/08/09 18:49
KMMH 091849Z AUTO 12009G19KT 10SM CLR 22/M03 A3017 RMK AO1

2010/08/09 18:54
KISW 091854Z AUTO 31003KT 10SM BKN026 BKN034 29/23 A2993 RMK AO2 SLP128 T02940233 TSNO

2010/08/09 18:55
KIWD 091855Z AUTO 32006KT 10SM CLR 28/21 A2991 RMK AO1

2010/08/09 18:54
KIZG 091854Z AUTO VRB03KT 10SM FEW110 30/16 A2991 RMK AO2 SLP125 T03000161

2010/08/09 18:55
KJHW 091855Z AUTO 22007KT 10SM SCT060 27/18 A3002 RMK AO1 57007

2010/08/09 18:54
KJST 091854Z AUTO 28005KT 10SM FEW075 28/13 A3009 RMK AO2 SLP173 T02780128

2010/08/09 18:56
KJWG 091856Z AUTO 21009KT 10SM SCT075 36/22 A2992 RMK AO2

2010/08/09 18:55
KKLS 091855Z AUTO 30006KT 10SM OVC025 17/11 A3000 RMK AO1

2010/08/09 18:54
KLAF 091854Z 28005KT 10SM CLR 32/24 A2994 RMK AO2 SLP133 T03220244

2010/08/09 18:55
KLBL 091855Z 19014G20KT 10SM CLR 37/15 A2995 RMK AO1

2010/08/09 18:54
KLBT 091854Z AUTO 09005KT 10SM CLR 34/20 A3000 RMK AO2 SLP158 T03440200

2010/08/09 18:55
KLCI 091855Z AUTO 24008KT 10SM SCT065 SCT110 31/16 A2990 RMK AO1

2010/08/09 18:55
KLEW 091855Z 22008KT 10SM FEW050 SCT065 BKN100 30/18 A2993 RMK AO1

2010/08/09 18:54
KLEX 091854Z 29003KT 10SM FEW060 34/18 A3001 RMK AO2 SLP149 T03440178

2010/08/09 18:55
KLGD 091855Z AUTO 00000KT 10SM CLR 25/07 A2985 RMK AO1

2010/08/09 18:54
KLNK 091854Z VRB05KT 10SM CLR 34/25 A2985 RMK AO2 SLP094 T03440250

2010/08/09 18:55
KLPC 091855Z AUTO 25008KT 10SM CLR 19/13 A2995 RMK AO1 PNO

2010/08/09 18:54
KLWM 091854Z 22012G19KT 10SM BKN065 33/16 A2991 RMK AO2 SLP128 T03330161

2010/08/09 18:54
KLWT 091854Z AUTO 08006KT 10SM CLR 27/09 A2992 RMK AO2 SLP095 T02670089

2010/08/09 18:54
KLYH 091854Z 18004KT 10SM CLR 32/21 A3005 RMK AO2 SLP164 T03170206

2010/08/09 18:55
KMBL 091855Z AUTO 27011KT 10SM FEW022 BKN033 27/21 A2991 RMK AO1

2010/08/09 18:54
KMFI 091854Z AUTO 27005KT 10SM CLR 30/22 A2993 RMK AO2 SLP125 T03000222

2010/08/09 18:54
KMGJ 091854Z AUTO 22005KT 10SM CLR 32/17 A2995 RMK AO2 SLP138 T03220172

2010/08/09 18:52
KMHV 091852Z 06004KT 40SM SKC 28/01 A2997

2010/08/09 18:54
KMIV 091854Z AUTO VRB05KT 10SM CLR 32/16 A2999 RMK AO2 SLP152 T03220156

2010/08/09 18:55
KMJX 091855Z AUTO 15008KT 10SM BKN075 32/21 A2996 RMK AO1

2010/08/09 18:54
KMKC 091854Z 18008G17KT 10SM CLR 36/24 A2986 RMK AO2 SLP101 T03610244

2010/08/09 18:55
KMKT 091855Z AUTO 12004KT 10SM FEW027 29/23 A2991 RMK AO1

2010/08/09 18:55
KMML 091855Z AUTO 07008KT 10SM CLR 29/21 A2992 RMK AO1

2010/08/09 18:55
KMNM 091855Z AUTO 16007KT 5SM CLR 28/23 A2987 RMK AO1

2010/08/09 18:54
KMOT 091854Z 00000KT 10SM CLR 29/18 A2984 RMK AO2 SLP096 T02940178

2010/08/09 18:55
KMRF 091855Z AUTO 29004KT 10SM VCTS FEW055 A3011 RMK AO1 LTG DSNT SW TSB47

2010/08/09 18:54
KAAO 091854Z AUTO 20007G16KT 10SM SCT070 37/19 A2989 RMK AO2 SLP102 T03720194

2010/08/09 18:55
KAIZ 091855Z AUTO 31003KT 10SM CLR 35/23 A2993 RMK AO1

2010/08/09 18:54
KAKH 091854Z AUTO 00000KT 10SM CLR 34/20 A3003 RMK AO2 SLP158 T03390200

2010/08/09 18:54
KAKR 091854Z AUTO 21010KT 10SM CLR 31/17 A3001 RMK AO2 SLP153 T03110172

2010/08/09 18:54
KALO 091854Z AUTO 10007KT 10SM CLR 31/23 A2990 RMK AO2 SLP117 T03060233

2010/08/09 18:50
KANE 091850Z 01004KT 12SM SKC 31/23 A2992

2010/08/09 18:54
KAPC 091854Z VRB04KT 10SM OVC013 16/12 A2993 RMK AO2 SLP126 T01610117 $

2010/08/09 18:55
KARG 091855Z AUTO 12006KT 10SM CLR 35/25 A2991 RMK AO1

2010/08/09 18:55
KAUO 091855Z AUTO 07005KT 10SM FEW095 34/20 A2999 RMK AO1

2010/08/09 18:54
KAUW 091854Z AUTO 27008KT 10SM FEW049 SCT060 31/22 A2990 RMK AO2 SLP119 T03110217

2010/08/09 18:54
KAVL 091854Z 36003KT 10SM CLR 31/18 A3010 RMK AO2 SLP162 T03110183

2010/08/09 18:55
KAWO 091855Z AUTO 00000KT 10SM 16/13 A3000 RMK AO1

2010/08/09 18:54
KBFL 091854Z 32008KT 10SM CLR 29/13 A2986 RMK AO2 SLP106 T02890128

2010/08/09 18:55
KBHB 091855Z AUTO 20008KT 10SM FEW033 BKN050 23/21 A2990 RMK AO1

2010/08/09 18:55
KBID 091855Z AUTO 22016KT 10SM CLR 26/23 A2998 RMK AO1

2010/08/09 18:55
KBKX 091855Z AUTO 05014KT 10SM CLR 31/18 A2995 RMK AO1

2010/08/09 18:55
KBLM 091855Z AUTO 17010KT 10SM FEW060 31/18 A3001 RMK AO1

2010/08/09 18:54
KBOS 091854Z 23011G23KT 10SM SCT065 SCT100 33/17 A2991 RMK AO2 SLP128 TCU DSNT N-NE T03280167

2010/08/09 18:53
KBOW 091853Z 12007KT 10SM SCT034 BKN250 32/23 A2990 RMK LAST

2010/08/09 18:55
KBTP 091855Z AUTO 00000KT 10SM CLR 30/17 A3003 RMK AO1 57010

2010/08/09 18:53
KGKJ 091853Z AUTO 22007KT 10SM FEW090 29/17 A3003 RMK AO2 SLP157 T02890167

2010/08/09 18:53
KGKY 091853Z 16009KT 10SM SCT060 36/21 A2992 RMK AO2 SLP122 T03560211

2010/08/09 18:53
KGLD 091853Z AUTO 09010G19KT 10SM CLR 32/17 A3000 RMK AO2 SLP107 T03220172

2010/08/09 18:53
KGNV 091853Z 11010KT 10SM FEW040 31/24 A2992 RMK AO2 RAB17E27 SLP129 P0000 T03110244

2010/08/09 18:53
KGOK 091853Z AUTO 17010KT 10SM CLR 37/22 A2989 RMK AO2 SLP108 T03720217

2010/08/09 18:53
KGUY 091853Z AUTO 18011KT 10SM CLR 37/13 A2993 RMK AO2 SLP074 T03720128

2010/08/09 18:53
KGZH 091853Z AUTO 13006KT 10SM CLR 33/24 A2999 RMK AO2 SLP150 T03330244

2010/08/09 18:53
KHBR 091853Z AUTO 18010KT 10SM CLR 38/16 A2991 RMK AO2 SLP102 T03830156

2010/08/09 18:53
KHLC 091853Z AUTO 09007KT 10SM CLR 36/21 A2989 RMK AO2 SLP091 T03560211

2010/08/09 18:53
KHUF 091853Z 17006KT 10SM CLR 33/22 A2995 RMK AO2 SLP135 T03330222

2010/08/09 18:53
KHVN 091853Z 20008KT 10SM CLR 32/19 A2995 RMK AO2 SLP142 T03170194

2010/08/09 18:53
KCPS 091853Z 13005KT 10SM HZ CLR 34/26 A2990 RMK AO2 SLP120 T03390261

2010/08/09 18:53
KCRE 091853Z 11008KT 10SM CLR 30/26 A3001 RMK AO2 SLP161 T03000256

2010/08/09 18:53
KCRG 091853Z VRB03KT 5SM -RA BR FEW004 BKN018 OVC030 27/26 A2995 RMK AO2 RAB08 SLP142 P0026 T02720256

2010/08/09 18:53
KCRQ 091853Z 26007KT 220V290 10SM CLR 21/13 A2993 RMK AO2 SLP132 T02060133

2010/08/09 18:53
KCRS 091853Z AUTO 16007KT 10SM CLR 36/21 A2993 RMK AO2 SLP129 T03610206

2010/08/09 18:53
KCSM 091853Z 20012G18KT 10SM CLR 38/16 A2993 RMK AO2 SLP104 T03830161

2010/08/09 18:53
KCSV 091853Z AUTO 18004KT 10SM CLR 31/22 A3008 RMK AO2 SLP160 T03060222

2010/08/09 18:53
KCUB 091853Z AUTO 11003KT 10SM SCT055 34/21 A3001 RMK AO2 SLP158 T03390206

2010/08/09 18:53
KCYS 091853Z VRB04KT 10SM BKN100 24/09 A3017 RMK AO2 SLP131 T02390089

2010/08/09 18:53
KDAL 091853Z 24005KT 10SM BKN060 35/21 A2992 RMK AO2 SLP121 TCU NE SW-OHD T03500211

2010/08/09 18:53
KDEN 091853Z 12007KT 10SM SCT060 SCT075 BKN140 27/12 A3009 RMK AO2 SLP106 T02720122

2010/08/09 18:53
KDEQ 091853Z AUTO VRB03KT 10SM CLR 36/23 A2992 RMK AO2 SLP123 T03560228

2010/08/09 18:53
KDET 091853Z 31007KT 10SM CLR 28/20 A2997 RMK AO2 RAB37E48 SLP143 P0000 T02780200

2010/08/09 18:53
KDFI 091853Z AUTO 20008KT 8SM FEW055 31/19 A2997 RMK AO2 SLP142 T03110189

2010/08/09 18:53
KDFW 091853Z 14008KT 10SM SCT060 35/21 A2992 RMK AO2 SLP119 T03500206

2010/08/09 18:53
KDGW 091853Z AUTO 14008KT 10SM BKN100 29/06 A3004 RMK AO2 SLP109 T02890061

2010/08/09 18:53
KDHN 091853Z 03008KT 10SM SCT055 33/23 A3001 RMK AO2 SLP156 T03330228

2010/08/09 18:53
KDKK 091853Z AUTO 24008KT 9SM BKN070 28/18 A2997 RMK AO2 SLP143 T02830183

2010/08/09 18:53
KDMO 091853Z AUTO 19007KT 10SM CLR 35/24 A2992 RMK AO2 SLP120 T03500244

2010/08/09 18:53
KDRO 091853Z AUTO 25009G15KT 10SM FEW075 27/07 A3022 RMK AO2 SLP140 T02670072 $

2010/08/09 18:53
KDTN 091853Z VRB03KT 10SM CLR 36/21 A2994 RMK AO2 SLP133 T03560211

2010/08/09 18:53
KDTO 091853Z 15011KT 10SM SCT060 37/22 A2991 RMK AO2 SLP118 T03670217

2010/08/09 18:53
KDTS 091853Z AUTO VRB05KT 8SM CLR 33/24 A2995 RMK AO2 SLP141 T03330244

2010/08/09 18:53
KDTW 091853Z 27009KT 9SM FEW010 SCT040 OVC130 27/20 A2997 RMK AO2 RAB1755E37 SLP144 P0000 T02720200

2010/08/09 18:53
KDXR 091853Z 21008KT 7SM SCT060 32/17 A2997 RMK AO2 SLP144 T03220172

2010/08/09 18:53
KECP 091853Z 06007G14KT 10SM FEW050 34/22 A2994 RMK AO2 SLP148 T03440222

2010/08/09 18:53
KEEO 091853Z AUTO 00000KT 10SM OVC070 19/11 A3023 RMK AO2 SLP170 T01940106 TSNO

2010/08/09 18:53
KEGE 091853Z 24010G15KT 10SM BKN085 21/08 A3025

2010/08/09 18:53
KELD 091853Z AUTO 20004KT 10SM FEW050 36/23 A2994 RMK AO2 SLP132 T03560233

2010/08/09 18:53
KELM 091853Z 24007KT 10SM CLR 31/17 A2996 RMK AO2 SLP138 T03110172

2010/08/09 18:53
KEMP 091853Z AUTO 19013G17KT 10SM CLR 37/21 A2989 RMK AO2 SLP106 T03720206

2010/08/09 18:53
KEYW 091853Z 24013G19KT 10SM FEW024 BKN075 28/24 A2991 RMK AO2 RAE07 SLP129 P0000 T02830239

2010/08/09 18:54
KBUF 091854Z 23008KT 9SM SCT060 SCT110 BKN130 OVC180 27/18 A2994 RMK AO2 RAE04 SLP135 P0000 T02670183

2010/08/09 18:54
KBUY 091854Z AUTO 16005KT 10SM FEW047 32/21 A3002 RMK AO2 SLP159 T03220211

2010/08/09 18:55
KBVX 091855Z AUTO 00000KT 10SM CLR 37/23 A2994 RMK AO1 LTG DSNT SE

2010/08/09 18:54
KBWI 091854Z 20007KT 9SM SCT055 BKN180 BKN250 34/19 A2998 RMK AO2 SLP150 T03390194

2010/08/09 18:55
KCGZ 091855Z AUTO 00000KT 10SM CLR 36/09 A2991 RMK AO1

2010/08/09 18:47
KCHD 091847Z 27005KT 40SM SCT160 35/08 A2988

2010/08/09 18:55
KCIU 091855Z AUTO 15006KT 10SM BKN026 BKN060 26/19 A2990 RMK AO1

2010/08/09 18:55
KCOD 091855Z AUTO 08008KT 10SM FEW120 26/06 A2997 RMK AO1 LTG DSNT SW

2010/08/09 18:55
KCOE 091855Z AUTO 20003KT 10SM CLR 25/12 A2986 RMK AO1

2010/08/09 18:54
KCOS 091854Z AUTO 10004KT 10SM CLR 23/13 A3019 RMK AO2 SLP139 T02330128 TSNO

2010/08/09 18:54
KCRW 091854Z 28004KT 8SM FEW050 32/18 A3003 RMK AO2 SLP158 T03170183

2010/08/09 18:55
KCVN 091855Z 20013KT 10SM CLR 30/15 A3008 RMK AO1

2010/08/09 18:55
KCVO 091855Z AUTO 00000KT 10SM OVC019 17/11 A3002 RMK AO1

2010/08/09 18:55
KCWI 091855Z 27003KT 10SM FEW020 28/24 A2995 RMK AO1

2010/08/09 18:54
KDDH 091854Z AUTO 25007KT 210V280 10SM BKN060 29/18 A2996 RMK AO2 SLP137 T02940183

2010/08/09 18:54
KDEC 091854Z 23006KT 10SM FEW029 34/24 A2993 RMK AO2 SLP127 T03440244

2010/08/09 18:54
KDSM 091854Z 16004KT 10SM FEW024 SCT250 31/24 A2987 RMK AO2 SLP105 T03060244

2010/08/09 18:54
KMRY 091854Z 32003KT 10SM OVC009 14/11 A2996 RMK AO2 SLP157 T01440111

2010/08/09 18:55
KMSV 091855Z AUTO 26006KT 10SM CLR 30/14 A3003 RMK AO1

2010/08/09 18:55
KMTW 091855Z 26006KT 10SM FEW028 28/22 A2989 RMK AO1

2010/08/09 18:54
KMVL 091854Z AUTO VRB04KT 10SM BKN055 BKN070 27/19 A2993 RMK AO2 SLP133 T02720189

2010/08/09 18:55
KMVN 091855Z AUTO 22008KT 10SM CLR 37/24 A2992 RMK AO1

2010/08/09 18:55
KOCH 091855Z AUTO 28004KT 10SM CLR 36/21 A2994 RMK AO1

2010/08/09 18:54
KOFP 091854Z AUTO 19008KT 10SM SCT065 34/18 A3002 RMK AO2 SLP162 T03440178

2010/08/09 18:55
KOKK 091855Z AUTO 18003KT 9SM FEW120 32/22 A2996 RMK AO1 57010

2010/08/09 18:54
KOLM 091854Z 16005KT 10SM OVC019 17/12 A2999 RMK AO2 SLP154 T01720122

2010/08/09 18:54
KOLS 091854Z AUTO 19007KT 10SM CLR 31/14 A3007 RMK AO2 SLP108 T03060144

2010/08/09 18:55
KOLU 091855Z AUTO 8SM CLR 32/24 A2989 RMK AO1

2010/08/09 18:54
KORH 091854Z 25011G17KT 10SM CLR 31/16 A2998 RMK AO2 SLP145 T03060161

2010/08/09 18:55
KOTG 091855Z AUTO 07009KT 10SM FEW019 28/19 A2996 RMK AO1

2010/08/09 18:55
KOTH 091855Z 35017KT 10SM OVC018 16/11 A3006 RMK AO1

2010/08/09 18:45
KOXC 091845Z 22006KT 7SM SCT060 32/16 A2999

2010/08/09 18:54
KPHF 091854Z 14007KT 10SM FEW095 32/19 A3002 RMK AO2 SLP165 T03170194

2010/08/09 18:54
KPHL 091854Z 21009G16KT 10SM FEW060 SCT250 34/17 A2998 RMK AO2 SLP153 T03390172

2010/08/09 18:54
KPIA 091854Z VRB04KT 10SM CLR 31/23 A2992 RMK AO2 SLP125 T03060228

2010/08/09 18:55
KPIB 091855Z AUTO 09006KT 10SM CLR 33/24 A2998 RMK AO1

2010/08/09 18:54
KPLN 091854Z AUTO 12003KT 7SM SCT019 27/22 A2989 RMK AO2 SLP119 T02670217

2010/08/09 18:54
KPNE 091854Z AUTO 22009G14KT 10SM FEW060 33/19 A2999 RMK AO2 SLP153 T03330189

2010/08/09 18:55
KPQI 091855Z AUTO 20005KT 10SM SCT060 BKN100 23/18 A2982 RMK AO1

2010/08/09 18:55
KPRX 091855Z 18010G16KT 10SM CLR 36/22 A2993 RMK AO1

2010/08/09 18:54
KPSF 091854Z AUTO VRB04KT 10SM SCT060 29/16 A2997 RMK AO2 SLP119 T02940161

2010/08/09 18:55
KPTN 091855Z AUTO 35005KT 10SM SCT040 34/17 A2998 RMK AO1

2010/08/09 18:55
KPTV 091855Z AUTO 29004KT 10SM CLR 27/15 A2989 RMK AO1

2010/08/09 18:54
KPTW 091854Z AUTO 21007KT 8SM CLR 33/19 A3000 RMK AO2 SLP152 T03330194

2010/08/09 18:55
KPVC 091855Z 21015G19KT 10SM SCT120 28/21 A2994 RMK AO1

2010/08/09 18:55
KPWG 091855Z AUTO 18009G17KT 10SM CLR 36/21 A2994 RMK AO1

2010/08/09 18:55
KPWT 091855Z AUTO 18006KT 10SM BKN017 BKN024 OVC038 17/12 A3001 RMK AO1

2010/08/09 18:54
KRBL 091854Z AUTO 16005KT 10SM CLR 28/13 A2986 RMK AO2 SLP107 T02780133

2010/08/09 18:54
KRDG 091854Z 25005KT CLR 34/19 A2997 RMK AO2 SLP151 T03440189 $

2010/08/09 18:55
KRKD 091855Z AUTO 19009KT 10SM CLR 26/20 A2991 RMK AO1

2010/08/09 18:52
KRKR 091852Z AUTO 26004KT 10SM CLR 37/23 A2993 RMK AO2

2010/08/09 18:54
KRKS 091854Z AUTO 21015G21KT 10SM CLR 26/02 A3015 RMK AO2 WSHFT 1816 SLP122 T02560017

2010/08/09 18:54
KROC 091854Z 22007KT 9SM BKN070 OVC130 27/21 A2994 RMK AO2 SLP136 T02720206

2010/08/09 18:54
KRST 091854Z 24004KT 10SM SCT023 SCT030 30/23 A2995 RMK AO2 SLP132 T03000233

2010/08/09 18:55
KRUT 091855Z 21007KT 10SM FEW043 SCT070 BKN090 27/18 A2994 RMK AO1 LTG DSNT NW

2010/08/09 18:54
KDSV 091854Z AUTO 18005KT 10SM BKN070 29/19 A2997 RMK AO2 SLP150 T02940194

2010/08/09 18:55
KDVL 091855Z AUTO 21013KT 10SM CLR 33/19 A2985 RMK AO1

2010/08/09 18:54
KDYL 091854Z AUTO VRB06KT 10SM FEW055 32/18 A2998 RMK AO2 SLP146 T03220183 TSNO

2010/08/09 18:55
KDYR 091855Z AUTO 14003KT 9SM CLR 34/24 A2993 RMK AO1

2010/08/09 18:55
KEAR 091855Z AUTO 10006KT 10SM CLR 30/23 A2995 RMK AO1

2010/08/09 18:54
KECG 091854Z 11007KT 10SM CLR 31/21 A3003 RMK AO2 SLP167 T03060211

2010/08/09 18:55
KEEN 091855Z AUTO 25005KT 10SM SCT060 31/18 A2993 RMK AO1

2010/08/09 18:55
KEHR 091855Z AUTO 00000KT 10SM CLR 35/22 A2994 RMK AO1

2010/08/09 18:55
KENV 091855Z AUTO 00000KT 8SM BKN095 OVC120 24/09 A3003 RMK AO1 P0002

2010/08/09 18:55
KESC 091855Z AUTO 14010KT 8SM CLR 27/21 A2987 RMK AO1

2010/08/09 18:54
KEUG 091854Z 32006KT 10SM OVC013 16/12 A3001 RMK AO2 SLP161 T01560117

2010/08/09 18:55
KEUL 091855Z AUTO 00000KT 10SM CLR 26/09 A2989 RMK AO1

2010/08/09 18:54
KEVV 091854Z VRB03KT 10SM SCT060 36/22 A2994 RMK AO2 SLP132 T03610217

2010/08/09 18:55
KEWK 091855Z AUTO 19014G20KT 10SM FEW070 38/19 A2987 RMK AO1

2010/08/09 18:54
KEWN 091854Z 14007KT 10SM SCT075 31/22 A3003 RMK AO2 SLP168 T03110222

2010/08/09 18:55
KFAM 091855Z AUTO 13003KT 10SM CLR 35/25 A2996 RMK AO1

2010/08/09 18:50
KFFZ 091850Z VRB05KT 50SM SCT150 35/07 A2989

2010/08/09 18:54
KFIG 091854Z AUTO VRB04KT 10SM CLR 31/14 A3004 RMK AO2 SLP163 T03060144

2010/08/09 18:55
KFKL 091855Z AUTO 23007KT 10SM OVC100 28/17 A3007 RMK AO1 57003

2010/08/09 18:55
KFLP 091855Z AUTO 00000KT 10SM FEW044 SCT055 36/25 A2995 RMK AO1

2010/08/09 18:55
KFNL 091855Z AUTO 12005KT 10SM CLR 28/12 A3007 RMK AO1 LTG DSNT SW

2010/08/09 18:55
KFOD 091855Z AUTO 14003KT 10SM OVC027 28/24 A2989 RMK AO1

2010/08/09 18:55
KFRM 091855Z 00000KT 10SM CLR 28/23 A2995 RMK AO1

2010/08/09 18:54
KFZY 091854Z AUTO 24009KT 9SM FEW041 SCT060 31/21 A2992 RMK AO2 SLP127 T03060206

2010/08/09 18:55
KGAD 091855Z AUTO 20007KT 10SM FEW060 36/21 A2999 RMK AO1

2010/08/09 18:55
KGAI 091855Z 15005KT 10SM CLR 32/21 A3002 RMK AO1

2010/08/09 18:55
KGBD 091855Z AUTO 16014G20KT 10SM CLR 38/18 A2989 RMK AO1

2010/08/09 18:54
KGCK 091854Z 19013G20KT 10SM CLR 36/16 A2993 RMK AO2 SLP090 T03610161

2010/08/09 18:54
KGCN 091854Z 25008G19KT 10SM CLR 24/01 A3026 RMK AO2 SLP159 T02390011

2010/08/09 18:55
KGDV 091855Z AUTO 09008KT 10SM CLR 31/11 A2987 RMK AO1

2010/08/09 18:55
KGPZ 091855Z AUTO 27005KT 10SM CLR 29/21 A2993 RMK AO1

2010/08/09 18:55
KGUC 091855Z AUTO 33009KT 10SM BKN095 20/04 A3030 RMK AO1

2010/08/09 18:55
KGXY 091855Z AUTO 11004KT 10SM CLR 28/14 A3008 RMK AO1

2010/08/09 18:55
KHDN 091855Z 16008KT 10SM OVC080 18/07 A3026 RMK AO1

2010/08/09 18:55
KHEF 091855Z AUTO 18010KT 10SM 33/22 A2999 RMK AO1

2010/08/09 18:55
KHEZ 091855Z AUTO 33003KT 10SM FEW042 SCT055 34/24 A2995 RMK AO1 LTG DSNT E

2010/08/09 18:55
KHNB 091855Z AUTO 23005KT 10SM BKN050 35/21 A2995 RMK AO1

2010/08/09 18:54
KHWD 091854Z 26007KT 10SM FEW016 19/12 A2992 RMK AO2 SLP142 T01890122

2010/08/09 18:55
KHYI 091855Z AUTO 18006KT 10SM SCT050 35/22 A2994 RMK AO1

2010/08/09 18:55
KHYS 091855Z AUTO 17005KT 10SM CLR 38/18 A2988 RMK AO1

2010/08/09 18:53
PKMR 091853Z 07005KT 15SM SCT015 BKN045 BKN110 OVC300 28/24 A2983 RMK SLP102 T02760242 

2010/08/09 18:50
EGCN 091850Z 27007KT 9999 SCT041 20/15 Q1010

2010/08/09 18:50
EGDL 091850Z 19006KT 6000 -RADZ FEW007 BKN010 17/16 Q1013 TEMPO 9999 NSW BKN007

2010/08/09 18:50
EGWU 091850Z 23011KT 9999 FEW026 BKN060 20/14 Q1013 BECMG SCT024

2010/08/09 18:50
EBAW 091850Z 13004KT CAVOK 20/14 Q1015 NOSIG

2010/08/09 18:50
EBBR 091850Z 13003KT CAVOK 20/12 Q1015 NOSIG

2010/08/09 18:50
EBCI 091850Z 24004KT CAVOK 21/11 Q1016 NOSIG

2010/08/09 18:50
EBLG 091850Z 03003KT CAVOK 19/11 Q1016 NOSIG

2010/08/09 18:50
EBOS 091850Z 26008KT CAVOK 18/14 Q1015 NOSIG

2010/08/09 18:50
ELLX 091850Z VRB02KT CAVOK 20/11 Q1017 NOSIG

2010/08/09 18:50
ENAT 091850Z 30007KT 9999 FEW030 BKN048 13/10 Q1014 

2010/08/09 18:50
ENBL 091850Z 29004KT 1000 FG VV005 13/12 Q1010

2010/08/09 18:50
ENEV 091850Z 35008KT 9999 FEW025 12/09 Q1012 

2010/08/09 18:50
ENFL 091850Z 25004KT 9999 VCSH FEW010 SCT015 BKN030 15/13 Q1011

2010/08/09 18:50
ENKB 091850Z 33005KT 280V360 9999 BKN010 14/12 Q1010

2010/08/09 18:50
ENKR 091850Z 05008KT 9999 -RA OVC006 10/09 Q1014 

2010/08/09 18:50
ENML 091850Z 31008KT 9999 FEW015 SCT030 BKN050 19/14 Q1010

2010/08/09 18:50
ENNA 091850Z 35009KT 9999 SCT014 BKN018 10/07 Q1015 

2010/08/09 18:50
LOWW 091850Z VRB04KT 9999 FEW060 22/13 Q1017 NOSIG

2010/08/09 18:50
LOWL 091850Z 00000KT CAVOK 21/12 Q1017 NOSIG

2010/08/09 18:50
LOWS 091850Z 17005KT 9999 FEW070 19/13 Q1017 NOSIG

2010/08/09 18:50
LOWI 091850Z VRB02KT 9999 FEW045 19/14 Q1017 NOSIG

2010/08/09 18:50
LOWG 091850Z 17002KT 9999 FEW040 20/15 Q1018 NOSIG

2010/08/09 18:50
LOWK 091850Z 11004KT 070V140 9999 FEW045 SCT050 21/14 Q1017 NOSIG

2010/08/09 19:00
LEJR 091900Z 25003KT 240V310 CAVOK 32/14 Q1013

2010/08/09 18:52
KBLU 091852Z AUTO 20007KT 190V270 10SM CLR 21/07 A3010 RMK AO2 SLP107 T02110067 TSNO

2010/08/09 18:52
KSDB 091852Z AUTO 17008KT 10SM CLR 24/02 A3006 RMK AO2 SLP126 T02440017 TSNO

2010/08/09 18:52
KN60 091852Z AUTO 16006KT 26/17 A2985 RMK AO1 SLP097 T02610167

2010/08/09 18:52
KABI 091852Z VRB04KT 10SM FEW060 34/19 A2997 RMK AO2 SLP117 T03440189

2010/08/09 18:52
K9V9 091852Z AUTO 14008KT 30/23 A2991 RMK AO2 SLP114 T03000228 PWINO TSNO

2010/08/09 18:45
KMWS 091845Z 24004G05KT 25/02 RMK SNOW DEPTH M

2010/08/09 18:53
KLND 091853Z AUTO 00000KT 10SM FEW120 27/07 A3002 RMK AO2 SLP089 T02720067

2010/08/09 18:51
KVCT 091851Z VRB05KT 10SM BKN047 36/23 A2993 RMK AO2 SLP133 T03560228

2010/08/09 18:53
K6R6 091853Z AUTO 13010KT 32/21 A2996 RMK AO2 SLP106 T03170211 PWINO TSNO

2010/08/09 18:53
KMSN 091853Z VRB04KT 10SM BKN025 28/22 A2992 RMK AO2 SLP125 T02830217

2010/08/09 18:53
KCQC 091853Z AUTO 35009KT 10SM OVC110 26/11 A3023 RMK AO2 SLP128 T02610106 TSNO

2010/08/09 18:53
KTCS 091853Z AUTO 00000KT 10SM CLR 29/12 A3011 RMK AO2 SLP109 T02890122 TSNO

2010/08/09 18:53
KTLH 091853Z 07008G16KT 10SM FEW050 35/20 A2995 RMK AO2 SLP139 T03500200

2010/08/09 18:53
KCTY 091853Z AUTO 08006KT 34/23 A2992 RMK AO2 SLP129 T03390233 PWINO TSNO

2010/08/09 18:53
KDNK 091853Z AUTO 25003KT 10SM CLR 34/22 A2995 RMK AO2 SLP138 T03390217

2010/08/09 18:53
KDAB 091853Z 09008G14KT 10SM FEW024 SCT110 31/23 A2993 RMK AO2 SLP133 CB DSNT SW-W T03110233

2010/08/09 18:53
KLXV 091853Z AUTO 01009G14KT 10SM SCT060 BKN110 13/08 A3043 RMK AO2 RAB18E39 SLP140 P0000 T01330083 TSNO

2010/08/09 18:53
KSDM 091853Z VRB05KT 10SM CLR 22/13 A2993 RMK AO2 SLP132 T02220128

2010/08/09 18:53
KTYS 091853Z 31004KT 10SM FEW045 34/22 A3000 RMK AO2 SLP146 T03390217

2010/08/09 18:53
KSAV 091853Z 07008KT 040V110 10SM SCT049 34/21 A2997 RMK AO2 SLP148 T03440206

2010/08/09 18:53
KCHA 091853Z 00000KT 10SM FEW050 SCT120 BKN250 35/21 A2999 RMK AO2 SLP145 T03500211

2010/08/09 18:53
KP92 091853Z AUTO VRB04KT 33/26 A2996 RMK AO2 SLP144 T03280261 PWINO TSNO

2010/08/09 18:53
KLAX 091853Z 26009KT 10SM FEW015 19/12 A2994 RMK AO2 SLP138 T01890122 $

2010/08/09 18:53
KBNO 091853Z AUTO 13007KT 10SM CLR 24/06 A2995 RMK AO2 SLP105 T02390061 TSNO

2010/08/09 18:53
KTRI 091853Z 30006KT 10SM SCT045 BKN150 33/18 A3005 RMK AO2 SLP157 T03330178

2010/08/09 18:53
KMGM 091853Z 13007G14KT 10SM CLR 36/20 A2996 RMK AO2 SLP142 T03560200

2010/08/09 18:52
KCZZ 091852Z AUTO VRB04G15KT 27/M04 A2993 RMK AO2 SLP107 T02721039 PWINO TSNO

2010/08/09 18:53
KTUP 091853Z 27004KT 10SM BKN034 BKN050 35/25 A2995 RMK AO2 SLP137 T03500250

2010/08/09 18:54
PGUM 091854Z 17003KT 10SM CLR 25/24 A2991 RMK AO2 SLP120 T02500239

2010/08/09 18:53
KBTR 091853Z VRB04KT 10SM SCT040 SCT080 SCT120 35/24 A2993 RMK AO2 SLP132 CB DSNT N-E-SE MOVG SW T03500244

2010/08/09 18:53
KRNM 091853Z 31007KT 10SM CLR 24/11 A2994 RMK AO2 SLP126 T02440111

2010/08/09 18:53
KSGR 091853Z 18005KT 10SM FEW045 34/23 A2994 RMK AO2 SLP145 T03440228

2010/08/09 18:53
KOVE 091853Z AUTO VRB04KT 10SM CLR 26/14 A2989 RMK AO2 SLP122 T02560139 TSNO $

2010/08/09 18:53
KELY 091853Z AUTO 21008KT 10SM CLR 24/M02 A3013 RMK AO2 SLP105 T02441017

2010/08/09 18:53
KCUT 091853Z AUTO 16008KT 10SM CLR 26/13 A3011 RMK AO2 SLP125 T02560128 TSNO

2010/08/09 18:53
KP68 091853Z AUTO 20013G17KT 26/M03 A3008 RMK AO2 SLP097 T02611033 PWINO TSNO

2010/08/09 18:53
KMCN 091853Z 08010G14KT 040V110 9SM CLR 34/21 A2999 RMK AO2 SLP150 T03440206

2010/08/09 18:53
KMSY 091853Z 00000KT 10SM FEW040CB SCT060 SCT150 BKN250 34/25 A2995 RMK AO2 SLP145 CB NE-E DSNT N AND SE AND S AND NW MOV SW T03440250

2010/08/09 18:53
KFAR 091853Z 21009KT 10SM CLR 32/21 A2988 RMK AO2 SLP115 T03220206

2010/08/09 18:53
KOQT 091853Z AUTO 00000KT 10SM CLR 33/23 A3003 RMK AO2 SLP148 T03330228 TSNO

2010/08/09 18:50
BGSF 091850Z 07006KT 030V130 9999 SCT045 BKN110 16/08 Q1008

2010/08/09 18:50
BGBW 091850Z AUTO 06003KT 9999NDV -RA BKN014/// OVC017/// 11/10 Q1008

2010/08/09 18:50
BGJN 091850Z 18009KT 9999 SCT100 BKN150 13/03 Q1008

2010/08/09 18:50
BGSS 091850Z 26005KT 9999 FEW011 SCT130 13/10 Q1008 RMK LAST OBS

2010/08/09 18:50
BGAA 091850Z 20007KT 140V260 9999 BKN110 12/07 Q1008

2010/08/09 18:50
BGUQ 091850Z 29007KT 9999 FEW200 11/05 Q1007 RMK LAST OBS

2010/08/09 18:50
BGUK 091850Z AUTO 33011KT 0600NDV FG NCD 06/05 Q1008

2010/08/09 18:50
BGQQ 091850Z AUTO 27006KT 9999NDV NCD 06/01 Q1013

2010/08/09 18:50
BGPT 091850Z AUTO 18009KT 140V210 //// SCT005/// BKN074/// 09/09 Q1008

2010/08/09 18:54
KJAN 091854Z 00000KT 10SM SCT049 36/23 A2994 RMK AO2 SLP133 T03560233

2010/08/09 18:53
KMWT 091853Z AUTO VRB05KT 10SM CLR 35/21 A2995 RMK AO2 SLP126 T03500206 TSNO

2010/08/09 18:54
KBTV 091854Z 00000KT 10SM -RA SCT031CB BKN065 BKN100 26/20 A2989 RMK AO2 RAB08 SLP121 CB VC NW-S MOV E P0012 T02610200

2010/08/09 18:53
KHTL 091853Z AUTO 36005KT 9SM VCTS -RA BKN035 OVC043 24/22 A2993 RMK AO2 TSB31RAB20E30B50 SLP127 P0000 T02440217

2010/08/09 18:53
K40J 091853Z AUTO 04007KT 34/22 A2993 RMK AO2 SLP133 T03390217 PWINO TSNO

2010/08/09 18:51
KSAD 091851Z AUTO VRB03KT 10SM CLR 33/12 A2999 RMK AO2 SLP098 T03280117 TSNO

2010/08/09 18:54
KROC 091854Z 22007KT 9SM BKN070 OVC130 27/21 A2994 RMK AO2 SLP136 T02720206

2010/08/09 18:54
KCAR 091854Z AUTO 21006KT 10SM FEW032 BKN100 23/18 A2984 RMK AO2 SLP104 T02330178

2010/08/09 18:54
KROA 091854Z 13007KT 10SM BKN048 32/21 A3005 RMK AO2 SLP161 T03220206

2010/08/09 18:53
KPQN 091853Z AUTO 10007KT 075V175 10SM SCT027 31/23 A2994 RMK AO2

2010/08/09 18:54
KFGN 091854Z AUTO 16006KT 10SM CLR 24/21 A2988 RMK AO2

2010/08/09 18:53
KPNM 091853Z AUTO 00000KT 10SM CLR 32/20 A2992 RMK AO2

2010/08/09 18:53
KPWC 091853Z AUTO 00000KT 10SM CLR 30/19 A2995 RMK AO2

2010/08/09 18:53
KFFM 091853Z AUTO 00000KT 10SM CLR 29/18 A2990 RMK AO2

2010/08/09 18:52
KGDB 091852Z AUTO 04007KT 10SM CLR 31/20 A2992 RMK AO2 T03080199

2010/08/09 18:53
KAIT 091853Z AUTO 31003KT 10SM CLR 31/20 A2992 RMK AO2

2010/08/09 18:53
KGHW 091853Z AUTO 00000KT 10SM CLR 32/14 A2997 RMK AO2

2010/08/09 18:53
KMWM 091853Z AUTO 09004KT 10SM SCT027 29/22 A2992 RMK AO2

2010/08/09 18:55
KULM 091855Z AUTO 08004KT 10SM CLR 29/23 A2991 RMK AO2

2010/08/09 18:53
KBBB 091853Z AUTO 12005KT 10SM CLR 32/19 A2996 RMK AO2

2010/08/09 18:53
KTWM 091853Z AUTO 18006KT 10SM CLR 28/22 A2989 RMK AO2

2010/08/09 18:55
KMGG 091855Z AUTO 00000KT 10SM CLR 31/23 A2993 RMK AO2 T03120230

2010/08/09 18:49
KMOX 091849Z AUTO 13004KT 10SM CLR 32/19 A2990 RMK AO2

2010/08/09 18:54
KMTP 091854Z AUTO 21007KT 27/22 A3000 RMK AO2 SLP157 T02720217 PWINO TSNO

2010/08/09 18:54
KGSO 091854Z VRB03KT 10SM SCT049 32/19 A3004 RMK AO2 SLP160 T03220194

2010/08/09 18:54
KACY 091854Z 16013G19KT 10SM CLR 31/20 A3001 RMK AO2 SLP160 T03110200

2010/08/09 18:54
K1V4 091854Z AUTO 27/17 A2990 RMK AO2 SLP116 T02670172 PWINO TSNO

2010/08/09 18:54
KNAK 091854Z AUTO 14010KT 7SM CLR 31/21 A2999 RMK AO2 SLP159 T03060211 TSNO

2010/08/09 18:54
KMQE 091854Z AUTO 24011G19KT 32/17 A2994 RMK AO1 SLP145 T03220167

2010/08/09 18:54
KBKB 091854Z AUTO 00000KT 10SM BKN050 34/22 A2993 RMK AO2 SLP159 T03440222

2010/08/09 18:50
ENAL 091850Z 02004KT 360V060 9999 FEW015 BKN030 15/13 Q1010

2010/08/09 18:50
ENCN 091850Z 24008KT 200V280 CAVOK 17/12 Q1010

2010/08/09 18:50
ENHD 091850Z 21007KT 9999 FEW020 14/09 Q1012

2010/08/09 18:50
ENRO 091850Z AUTO 33002KT 9999NDV SCT066/// OVC088/// 14/13 Q1009

2010/08/09 18:50
ENSB 091850Z 24013KT 9999 FEW012 BKN030 08/03 Q1002 

2010/08/09 18:50
ENTC 091850Z 02015KT 9999 FEW018 BKN026 11/07 Q1013 NOSIG

2010/08/09 18:50
ENTO 091850Z 20006KT 9999 FEW025TCU 19/16 Q1008

2010/08/09 18:50
ENNO 091850Z 07006KT 030V110 9999 FEW040 SCT090 22/15 Q1007

2010/08/09 18:50
ENOV 091850Z VRB03KT 9999 FEW012 BKN024 16/13 Q1010 

2010/08/09 18:50
ENSS 091850Z 05011KT 9999 BKN006 08/07 Q1015 

2010/08/09 18:50
ENEK 091850Z 21019KT 9999 SCT015 16/13 Q1010 W16/S3

2010/08/09 18:50
ENGC 091850Z 22006KT 160V240 9999 SCT017 BKN035 13/11 Q1010

2010/08/09 18:50
ENHE 091850Z 05021KT 9999 BKN015 11/08 Q1012

2010/08/09 18:50
ENOA 091850Z 16008KT 9999 SCT030 15/10 Q1010

2010/08/09 18:50
ENBN 091850Z 33004KT 9999 BKN008 13/11 Q1010

2010/08/09 18:50
ENHF 091850Z 05007KT 9999 FEW016 SCT022 BKN033 10/07 Q1015 

2010/08/09 18:50
ENRA 091850Z 10003KT 9999 FEW040TCU 18/13 Q1009

2010/08/09 18:50
ENSH 091850Z 02014KT 9999 FEW020 13/09 Q1011

2010/08/09 18:52
KBLU 091852Z AUTO 20007KT 190V270 10SM CLR 21/07 A3010 RMK AO2 SLP107 T02110067 TSNO

2010/08/09 18:52
KSDB 091852Z AUTO 17008KT 10SM CLR 24/02 A3006 RMK AO2 SLP126 T02440017 TSNO

2010/08/09 18:52
KN60 091852Z AUTO 16006KT 26/17 A2985 RMK AO1 SLP097 T02610167

2010/08/09 18:52
KABI 091852Z VRB04KT 10SM FEW060 34/19 A2997 RMK AO2 SLP117 T03440189

2010/08/09 18:52
K9V9 091852Z AUTO 14008KT 30/23 A2991 RMK AO2 SLP114 T03000228 PWINO TSNO

2010/08/09 18:53
KGEG 091853Z 18008KT 10SM FEW065 SCT100 BKN200 24/08 A2986 RMK AO2 SLP096 T02390078

2010/08/09 18:53
KGRR 091853Z 24007KT 10SM BKN019 BKN200 28/22 A2995 RMK AO2 SLP134 T02780222

2010/08/09 18:51
KBVE 091851Z AUTO 22003KT -RA BKN026 24/24 A2998 RMK AO2 SLP152 P0050 T02440239 TSNO $

2010/08/09 18:51
KCAK 091851Z 24009G19KT 10SM FEW065 SCT250 30/17 A3002 RMK AO2 SLP154 T03000172

2010/08/09 18:53
KCLL 091853Z 23006KT 10SM CLR 36/21 A2994 RMK AO2 SLP132 T03560206

2010/08/09 18:53
KCNY 091853Z AUTO 23011G17KT 10SM BKN085 29/04 A3007 RMK AO2 SLP126 T02890044

2010/08/09 18:53
KBIL 091853Z 00000KT 10SM FEW090 28/11 A2990 RMK AO2 SLP090 CB DSNT S-W T02780106

2010/08/09 18:51
KCRP 091851Z 12014KT 10SM BKN040 33/25 A2992 RMK AO2 SLP130 T03330250

2010/08/09 18:53
KDBQ 091853Z 03005KT 10SM FEW080 29/24 A2994 RMK AO2 SLP130 T02890239

2010/08/09 18:53
KDMN 091853Z AUTO 00000KT 10SM CLR 31/09 A3008 RMK AO2 SLP106 T03110089 TSNO

2010/08/09 18:53
KDRT 091853Z AUTO 14010G20KT 10SM CLR 34/21 A2991 RMK AO2 SLP110 T03390211

2010/08/09 18:53
KFAT 091853Z 22005KT 10SM FEW080 28/13 A2988 RMK AO2 SLP113 CU OMTNS DSNT NE T02780128

2010/08/09 18:53
KFMN 091853Z 33009G17KT 10SM FEW070 27/08 A3016 RMK AO2 SLP147 T02720083

2010/08/09 18:45
KMWS 091845Z 24004G05KT 25/02 RMK SNOW DEPTH M

2010/08/09 18:53
KLND 091853Z AUTO 00000KT 10SM FEW120 27/07 A3002 RMK AO2 SLP089 T02720067

2010/08/09 18:53
KLIT 091853Z 08008KT 10SM BKN060TCU BKN250 37/23 A2993 RMK AO2 RAB35E45 SLP132 TCU OHD W TCU DSNT N NE P0000 T03670233

2010/08/09 18:53
KODX 091853Z AUTO 08003KT 10SM CLR 29/22 A2991 RMK AO2 SLP116 T02890217

2010/08/09 18:51
KORF 091851Z 09007KT 10SM FEW035 31/20 A3002 RMK AO2 SLP166 T03110200 $

2010/08/09 18:53
KPDX 091853Z 00000KT 10SM SCT025 OVC031 16/08 A3001 RMK AO2 SLP163 T01610083

2010/08/09 18:53
KPGA 091853Z AUTO 03005KT 10SM CLR 28/11 A3008 RMK AO2 SLP123 T02780111

2010/08/09 18:53
KYKM 091853Z VRB04KT 10SM FEW080 26/08 A2982 RMK AO2 SLP090 T02560078

2010/08/09 18:53
KHSI 091853Z AUTO 01005KT 10SM CLR 31/23 A2991 RMK AO2 SLP106 T03060233

2010/08/09 18:53
KHSV 091853Z 15006KT 10SM SCT055TCU BKN070 35/22 A2997 RMK AO2 SLP140 TCU W T03500217

2010/08/09 18:53
KHVR 091853Z AUTO 09005KT 10SM CLR 29/10 A2985 RMK AO2 SLP091 T02890100

2010/08/09 18:53
KJBR 091853Z AUTO 13006KT 10SM CLR 36/23 A2991 RMK AO2 SLP125 T03610233

2010/08/09 18:53
KRIW 091853Z AUTO 13005KT 10SM CLR 27/07 A3003 RMK AO2 SLP096 T02720067

2010/08/09 18:53
KRMG 091853Z AUTO 12005KT 10SM FEW055 35/21 A2999 RMK AO2 SLP143 T03500206

2010/08/09 18:51
KSAN 091851Z 27006KT 10SM FEW020 21/14 A2995 RMK AO2 SLP141 T02060139

2010/08/09 18:53
KSAT 091853Z 00000KT 10SM FEW050 33/21 A2995 RMK AO2 SLP123 T03330206

2010/08/09 18:53
KSEA 091853Z 18005KT 10SM SCT014 OVC022 16/12 A2999 RMK AO2 SLP161 T01610117

2010/08/09 18:53
KSTC 091853Z 00000KT 10SM CLR 32/19 A2992 RMK AO2 SLP132 T03220189 $

2010/08/09 18:53
KTUS 091853Z 21005KT 10SM CLR 34/15 A2998 RMK AO2 SLP100 T03390150

2010/08/09 18:53
PHTO 091853Z 00000KT 10SM SCT040 BKN055 23/18 A3012 RMK AO2 SLP197 T02330178 $

2010/08/09 18:53
PHKO 091853Z 00000KT 10SM BKN055 26/18 A3004 RMK AO2 SLP171 T02610178 PNO $

2010/08/09 18:53
PHLI 091853Z 06011KT 10SM SCT020 BKN055 27/21 A3014 RMK AO2 SLP203 T02720206

2010/08/09 18:51
KVCT 091851Z VRB05KT 10SM BKN047 36/23 A2993 RMK AO2 SLP133 T03560228

2010/08/09 18:53
K6R6 091853Z AUTO 13010KT 32/21 A2996 RMK AO2 SLP106 T03170211 PWINO TSNO

2010/08/09 18:53
KMSN 091853Z VRB04KT 10SM BKN025 28/22 A2992 RMK AO2 SLP125 T02830217

2010/08/09 18:53
KPAE 091853Z 29005KT 10SM BKN012 OVC022 17/13 A2999 RMK AO2 SLP154 T01670128

2010/08/09 18:53
KPAH 091853Z 21005KT 10SM FEW037 34/25 A2992 RMK AO2 SLP127 T03390250

2010/08/09 18:53
KPBF 091853Z AUTO 00000KT 10SM FEW060 36/23 A2994 RMK AO2 SLP134 T03610228

2010/08/09 18:53
KPDK 091853Z 00000KT 10SM FEW060 34/18 A3002 RMK AO2 SLP145 T03390183

2010/08/09 18:53
KPDT 091853Z 29011KT 10SM CLR 25/06 A2985 RMK AO2 SLP093 T02500061

2010/08/09 18:53
KPIH 091853Z 27015KT 10SM BKN090 24/11 A3004 RMK AO2 RAE14 SLP124 P0000 T02390111

2010/08/09 18:53
KPIL 091853Z AUTO 10014KT 10SM CLR 34/26 A2990 RMK AO2 SLP124 T03390256

2010/08/09 18:53
KWST 091853Z AUTO 21007KT 9SM CLR 29/22 A2998 RMK AO2 SLP153 T02890217

2010/08/09 18:53
KWVI 091853Z AUTO 16003KT 10SM OVC008 15/12 A2996 RMK AO2 SLP144 T01500122

2010/08/09 18:53
KXNA 091853Z 17007KT 10SM FEW050 34/20 A2998 RMK AO2 SLP133 T03440200

2010/08/09 18:53
KHKA 091853Z AUTO 20005KT 7SM CLR 35/26 A2992 RMK AO2 LTG DSNT S SLP129 T03500256

2010/08/09 18:53
KHKS 091853Z VRB04KT 10SM FEW045 36/24 A2995 RMK AO2 SLP132 T03610244

2010/08/09 18:53
KHKY 091853Z 00000KT 10SM BKN050 32/20 A3005 RMK AO2 SLP149 T03220200

2010/08/09 18:53
KHLG 091853Z 24007KT 6SM HZ CLR 32/14 A3003 RMK AO2 SLP160 T03170139

2010/08/09 18:53
KHLN 091853Z 10004KT 10SM CLR 22/09 A2991 RMK AO2 SLP115 T02220094

2010/08/09 18:53
KHOT 091853Z AUTO 16006KT 10SM CLR 36/22 A2995 RMK AO2 SLP132 T03610217

2010/08/09 18:53
KHOU 091853Z 00000KT 10SM SCT045 34/23 A2994 RMK AO2 SLP141 T03440228

2010/08/09 18:53
KHQM 091853Z AUTO 23008KT 10SM SCT013 OVC025 15/12 A3001 RMK AO2 SLP165 T01500117

2010/08/09 18:53
KHRI 091853Z AUTO 23011KT 10SM CLR 27/06 A2982 RMK AO2 SLP092 T02670061

2010/08/09 18:53
KHRO 091853Z AUTO 23005KT 10SM CLR 31/23 A2999 RMK AO2 TSE16RAB01E35 SLP138 P0001 T03110233

2010/08/09 18:53
KHUL 091853Z AUTO 27006KT 10SM SCT049 OVC060 24/18 A2986 RMK AO2 SLP108 T02440178

2010/08/09 18:53
KHYR 091853Z AUTO 00000KT 10SM FEW036 31/21 A2994 RMK AO2 SLP130 T03060211

2010/08/09 18:53
KIAH 091853Z VRB03KT 10SM SCT045 36/23 A2994 RMK AO2 SLP139 T03560228

2010/08/09 18:53
KICR 091853Z AUTO 11007KT 10SM CLR 32/19 A2992 RMK AO2 SLP112 T03220194 TSNO

2010/08/09 18:53
KIDA 091853Z 23009KT 10SM SCT050 BKN085 OVC100 21/12 A3005 RMK AO2 RAB1757E16B38E50 SLP138 OCNL LTGCG DSNT S MOV N TS DSNT S MOV N P0000 T02060117

2010/08/09 18:53
KILM 091853Z AUTO 11008KT 080V150 10SM CLR 31/23 A3001 RMK AO2 SLP163 T03060228 TSNO

2010/08/09 18:53
KIWI 091853Z AUTO 17004KT 10SM SCT035 BKN055 29/21 A2991 RMK AO2 SLP128 T02890206

2010/08/09 18:51
KJCT 091851Z AUTO 17005KT 10SM FEW065 35/17 A2996 RMK AO2 SLP104 T03500172 TSNO

2010/08/09 18:53
KJER 091853Z AUTO 08013KT 10SM FEW100 25/09 A2995 RMK AO2 SLP105 T02500089

2010/08/09 18:53
KJKL 091853Z AUTO VRB03KT 10SM CLR 32/18 A3005 RMK AO2 SLP156 T03220178

2010/08/09 18:55
KJZI 091855Z AUTO 08012KT 10SM FEW019 SCT024 BKN100 31/31 A2999 RMK A02 P000

2010/08/09 18:52
KLAL 091852Z 08005KT 12SM SCT030 BKN250 32/22 A2988

2010/08/09 18:53
KLBX 091853Z AUTO VRB05KT 10SM FEW041 34/24 A2994 RMK AO2 SLP139 T03440244

2010/08/09 18:53
KLCH 091853Z 00000KT 10SM FEW050 35/23 A2995 RMK AO2 SLP150 T03500228

2010/08/09 18:53
KLEB 091853Z 00000KT 10SM FEW065 SCT090 31/17 A2990 RMK AO2 SLP113 T03060172

2010/08/09 18:53
KLFK 091853Z AUTO 17004KT 10SM CLR 36/22 A2995 RMK AO2 SLP137 T03560217

2010/08/09 18:53
KLFT 091853Z VRB04KT 10SM CLR 35/23 A2996 RMK AO2 SLP143 T03500233

2010/08/09 18:53
KLGB 091853Z 18008KT 9SM CLR 21/13 A2993 RMK AO2 SLP136 T02110128

2010/08/09 18:53
KPIR 091853Z AUTO 12011G18KT 10SM CLR 32/20 A2989 RMK AO2 SLP107 T03170200

2010/08/09 18:53
KPKB 091853Z VRB03KT 7SM CLR 31/17 A3005 RMK AO2 SLP166 T03060172

2010/08/09 18:53
KPKD 091853Z AUTO 24005KT 10SM CLR 31/18 A2994 RMK AO2 SLP129 T03110178

2010/08/09 18:53
KPQL 091853Z 14010KT 10SM FEW032 SCT040 BKN050 31/26 A2995 RMK AO2 SLP144 T03110256

2010/08/09 18:53
KPRB 091853Z AUTO A2992 RMK AO2 SLPNO PWINO FZRANO TSNO

2010/08/09 18:53
KBGR 091853Z 24006KT 10SM SCT041 BKN060 28/18 A2989 RMK AO2 SLP118 T02780178

2010/08/09 18:53
KBHK 091853Z AUTO 10007KT 10SM CLR 33/09 A2988 RMK AO2 SLP092 T03280094

2010/08/09 18:53
KBHM 091853Z VRB04KT 10SM BKN060 35/20 A3000 RMK AO2 SLP150 T03500200

2010/08/09 18:53
KCXO 091853Z VRB04KT 10SM FEW049 35/22 A2994 RMK AO2 SLP134 T03500222

2010/08/09 18:51
KDAG 091851Z AUTO 07006KT 10SM CLR 32/00 A2991 RMK AO2 SLP098 T03220000 TSNO

2010/08/09 18:53
KDAN 091853Z AUTO 18007KT 8SM SCT050 SCT070 35/20 A3002 RMK AO2 SLP154 T03500200

2010/08/09 18:53
KDCU 091853Z AUTO 18007KT 9SM CLR 34/23 A2998 RMK AO2 LTG DSNT N SLP143 T03390228

2010/08/09 18:53
KDEW 091853Z AUTO 19006KT 10SM CLR 22/11 A2986 RMK AO2 SLP103 T02220111

2010/08/09 18:53
KDHT 091853Z AUTO 20010G17KT 10SM CLR 33/14 A3003 RMK AO2 SLP101 T03280139 TSNO

2010/08/09 18:53
KDLN 091853Z AUTO 20005KT 10SM -RA FEW035 BKN075 20/12 A3002 RMK AO2 LTG DSNT SE AND S RAB00E26B44 SLP123 P0000 T02000117

2010/08/09 18:53
KDLS 091853Z AUTO 33014KT 10SM CLR 26/08 A2984 RMK AO2 SLP104 T02560083

2010/08/09 18:53
KDNL 091853Z AUTO 10007KT 10SM BKN055 33/19 A3001 RMK AO2 SLP154 T03330189

2010/08/09 18:53
KDVT 091853Z 27005KT 10SM CLR 35/02 A2989 RMK AO2 SLP093 T03500022

2010/08/09 18:53
KDWH 091853Z 00000KT 10SM BKN042 OVC055 33/24 A2995 RMK AO2 SLP138 T03280239

2010/08/09 18:55
KDYB 091855Z AUTO 02008KT 10SM SCT047 32/22 A2998 RMK AO1

2010/08/09 18:53
KEET 091853Z AUTO 13006KT 10SM FEW055 SCT075 SCT090 35/20 A2998 RMK AO2 SLP145 T03500200

2010/08/09 18:53
KELN 091853Z AUTO 31016G24KT 10SM CLR 24/11 A2983 RMK AO2 SLP090 T02390106

2010/08/09 18:53
KENW 091853Z 29007KT 10SM SCT031 29/22 A2991 RMK AO2 SLP123 T02940222

2010/08/09 18:53
KEPH 091853Z AUTO 16006G14KT 10SM CLR 25/09 A2980 RMK AO2 SLP083 T02500094

2010/08/09 18:53
KEQY 091853Z AUTO 00000KT 10SM FEW060 33/21 A3003 RMK AO2 SLP162 T03330211

2010/08/09 18:53
KESF 091853Z AUTO VRB03KT 10SM CLR 37/22 A2995 RMK AO2 SLP138 T03670222

2010/08/09 18:53
KEWB 091853Z 20009KT 8SM FEW050 SCT100 30/21 A2995 RMK AO2 SLP140 TCU N T03000211

2010/08/09 18:53
KEYE 091853Z AUTO 23004KT 10SM CLR 33/19 A2996 RMK AO2 SLP135 T03330194

2010/08/09 18:53
KFAY 091853Z AUTO VRB05KT 10SM CLR 34/18 A3000 RMK AO2 SLP153 T03440183

2010/08/09 18:53
KFCM 091853Z 00000KT 10SM CLR 34/20 A2990 RMK AO2 SLP118 T03440200

2010/08/09 18:53
KFFC 091853Z AUTO 00000KT 9SM CLR 34/20 A3002 RMK AO2 SLP158 T03390200

2010/08/09 18:53
KFFT 091853Z AUTO 00000KT 6SM HZ CLR 34/19 A2998 RMK AO2 SLP143 T03390194

2010/08/09 18:53
KFHR 091853Z AUTO 00000KT 10SM SCT022 BKN042 OVC075 15/12 A2999 RMK AO2 SLP155 T01500117

2010/08/09 18:53
KFSM 091853Z 32006KT 10SM CLR 36/22 A2992 RMK AO2 SLP124 T03610222

2010/08/09 18:55
KLKR 091855Z AUTO 00000KT 7SM SCT044 32/25 A3003 RMK AO2

2010/08/09 18:53
KLLQ 091853Z AUTO 00000KT 10SM CLR 36/23 A2995 RMK AO2 SLP138 T03610228

2010/08/09 18:53
KLOL 091853Z AUTO VRB06KT 10SM CLR 31/05 A2996 RMK AO2 SLP096 T03060050

2010/08/09 18:53
KLOU 091853Z 00000KT 10SM CLR 35/19 A2996 RMK AO2 SLP138 T03500194

2010/08/09 18:53
KLSE 091853Z 24005KT 10SM FEW028 31/23 A2991 RMK AO2 SLP114 T03060233

2010/08/09 18:53
KLUK 091853Z 20004KT 8SM FEW060 33/21 A2997 RMK AO2 SLP144 T03280206

2010/08/09 18:53
KLVJ 091853Z AUTO 20003KT 10SM SCT043 BKN065 34/22 A2996 RMK AO2 SLP143 T03440222

2010/08/09 18:53
KLVK 091853Z 29004KT 10SM CLR 23/12 A2989 RMK AO2 SLP120 T02280122 $

2010/08/09 18:53
KLVM 091853Z AUTO 30007G16KT 10SM CLR 28/08 A2994 RMK AO2 LTG DSNT S AND SW SLP092 T02830083

2010/08/09 18:53
KLVS 091853Z AUTO 00000KT 10SM CLR 26/09 A3022 RMK AO2 SLP110 T02560094 TSNO

2010/08/09 18:53
KLWV 091853Z AUTO 20007KT 9SM CLR 36/23 A2993 RMK AO2 SLP131 T03560228

2010/08/09 18:53
KMAE 091853Z AUTO 31006KT 10SM CLR 28/13 A2987 RMK AO2 SLP113 T02780133

2010/08/09 18:53
KMCB 091853Z AUTO 17011KT 10SM VCTS CLR 29/24 A2997 RMK AO2 LTG DSNT ALQDS TSB13RAE24 SLP142 P0000 T02890244

2010/08/09 18:53
KMCE 091853Z AUTO VRB04KT 10SM CLR 26/13 A2987 RMK AO2 SLP113 T02560128

2010/08/09 18:53
KBTM 091853Z AUTO 00000KT 10SM CLR 20/08 A3002 RMK AO2 SLP122 T02000083

2010/08/09 18:53
KBUR 091853Z 18006KT 10SM CLR 24/13 A2992 RMK AO2 SLP119 T02390128

2010/08/09 18:53
KBVY 091853Z 25009G16KT 10SM FEW065 32/16 A2990 RMK AO2 SLP119 T03170161

2010/08/09 18:53
KBWG 091853Z AUTO 18006KT 10SM FEW055 36/21 A2996 RMK AO2 SLP136 T03560211

2010/08/09 18:53
KBYI 091853Z AUTO 12013KT 10SM -RA FEW045 SCT095 17/12 A3000 RMK AO2 SLP126 P0000 T01720122

2010/08/09 18:53
KCCR 091853Z 31010KT 10SM CLR 21/12 A2990 RMK AO2 SLP113 T02060117

2010/08/09 18:53
KCDC 091853Z AUTO 23009G15KT 10SM CLR 24/08 A3015 RMK AO2 SLP143 T02440078

2010/08/09 18:55
KCDN 091855Z AUTO 10004KT 10SM CLR 34/23 A3002 RMK A02 P000

2010/08/09 18:53
KCHO 091853Z 17009KT 9SM FEW055 33/20 A3000 RMK AO2 SLP150 T03330200

2010/08/09 18:55
KCKI 091855Z AUTO 06006KT 10SM CLR 32/21 A3000 RMK AO2

2010/08/09 18:53
KCLM 091853Z AUTO 30006KT 10SM BKN025 BKN060 15/11 A3000 RMK AO2 SLP158 T01500111

2010/08/09 18:53
KCMI 091853Z 19008KT 10SM CLR 33/25 A2994 RMK AO2 SLP132 T03330250

2010/08/09 18:53
KCMX 091853Z AUTO 28009KT 10SM FEW016 25/20 A2990 RMK AO2 SLP121 T02500200

2010/08/09 18:53
KCNM 091853Z AUTO 10006KT 10SM CLR 32/19 A3002 RMK AO2 SLP104 T03220189 TSNO

2010/08/09 18:53
KCNO 091853Z 25004KT 6SM HZ CLR 27/13 A2992 RMK AO2 SLP126 T02720128

2010/08/09 18:53
KCOT 091853Z AUTO 10005KT 10SM CLR 36/19 A2991 RMK AO2 SLP118 T03610194

2010/08/09 18:53
KABR 091853Z AUTO 12008KT 10SM CLR 32/19 A2990 RMK AO2 SLP115 T03170194

2010/08/09 18:53
KACK 091853Z 22010KT 10SM CLR 25/22 A2999 RMK AO2 SLP156 T02500222

2010/08/09 18:53
KACV 091853Z AUTO 29005KT 10SM OVC003 12/11 A2995 RMK AO2 SLP147 T01220111

2010/08/09 18:53
KAEX 091853Z 00000KT 10SM CLR 36/20 A2993 RMK AO2 SLP137 T03610200

2010/08/09 18:53
KAGS 091853Z 11006KT 10SM FEW065 34/22 A2998 RMK AO2 SLP150 T03390217

2010/08/09 18:53
KALI 091853Z AUTO VRB04KT 10SM SCT045 35/23 A2990 RMK AO2 SLP123 T03500233

2010/08/09 18:53
KALW 091853Z 26009G15KT 10SM CLR 26/06 A2985 RMK AO2 SLP102 T02610061

2010/08/09 18:53
KAMA 091853Z 18011G18KT 10SM CLR 32/15 A3002 RMK AO2 SLP104 T03220150

2010/08/09 18:53
KAMW 091853Z AUTO 15005KT 10SM BKN027 29/24 A2989 RMK AO2 SLP111 T02940239

2010/08/09 18:53
KAOH 091853Z AUTO 23007KT 10SM BKN049 BKN055 32/20 A3000 RMK AO2 SLP148 T03170200

2010/08/09 18:53
KAOO 091853Z AUTO 21006KT 10SM CLR 31/14 A3005 RMK AO2 SLP164 T03060144

2010/08/09 18:53
KARA 091853Z 01006KT 10SM FEW040 34/25 A2996 RMK AO2 SLP144 T03440250

2010/08/09 18:53
KASD 091853Z AUTO 17006KT 10SM VCTS CLR 27/24 A2997 RMK AO2 LTG DSNT ALQDS TSE33B37RAB04E36 SLP149 P0019 T02670244

2010/08/09 18:53
KASX 091853Z AUTO 24006KT 10SM CLR 29/22 A2991 RMK AO2 SLP126 T02940222

2010/08/09 18:53
KATY 091853Z AUTO 11006KT 10SM CLR 31/16 A2994 RMK AO2 SLP125 T03110161

2010/08/09 18:53
KAUG 091853Z AUTO 26004KT 10SM FEW100 29/18 A2991 RMK AO2 SLP127 T02940183

2010/08/09 18:53
KAUS 091853Z 15007KT 120V190 10SM FEW055 36/20 A2994 RMK AO2 SLP126 T03560200

2010/08/09 18:53
KAWM 091853Z AUTO 29003KT 10SM CLR 34/24 A2992 RMK AO2 LTG DSNT N-SE SLP125 T03440244

2010/08/09 18:53
KAXN 091853Z AUTO 03003KT 10SM CLR 31/16 A2995 RMK AO2 SLP135 T03110161

2010/08/09 18:53
KAZO 091853Z 17005KT 10SM SCT007 BKN070 24/22 A2997 RMK AO2 RAE17 SLP143 P0000 T02440222

2010/08/09 18:53
KBAF 091853Z VRB03KT 10SM BKN070 BKN080 33/16 A2993 RMK AO2 SLP131 T03330156

2010/08/09 18:53
KBCE 091853Z AUTO 13009G17KT 100V170 10SM BKN070 18/05 A3030 RMK AO2 SLP155 T01830050

2010/08/09 18:50
KBCT 091850Z AUTO 15008KT 10SM FEW022 32/24 A2992

2010/08/09 18:53
KBDE 091853Z AUTO 00000KT 10SM CLR 31/19 A2989 RMK AO2 SLP117 T03110194

2010/08/09 18:53
KBEH 091853Z AUTO 19009KT 10SM FEW018 SCT070 28/23 A2994 RMK AO2 SLP134 T02780233

2010/08/09 18:53
KBFD 091853Z AUTO 20008KT 10SM CLR 27/15 A3006 RMK AO2 SLP164 T02720150

2010/08/09 18:53
KBFI 091853Z 17003KT 10SM OVC023 17/12 A2998 RMK AO2 SLP151 T01720122

2010/08/09 18:53
KBFM 091853Z 16005KT 10SM SCT041 33/24 A2997 RMK AO2 SLP149 TCU DSNT ALQDS T03280244

2010/08/09 18:50
LIBD 091850Z VRB01KT CAVOK 24/17 Q1014

2010/08/09 18:45
LIBR 091845Z 32013KT CAVOK 25/21 Q1014 NOSIG

2010/08/09 18:50
LICC 091850Z VRB02KT CAVOK 27/20 Q1013

2010/08/09 18:50
LICJ 091850Z 05008KT CAVOK 26/19 Q1016

2010/08/09 18:50
LIPB 091850Z 17009KT 9999 FEW100 25/14 Q1014

2010/08/09 18:50
LIPE 091850Z 12008KT CAVOK 25/18 Q1014

2010/08/09 18:45
LIPH 091845Z 16002KT 9999 FEW080 25/19 Q1014

2010/08/09 18:50
LIPK 091850Z VRB02KT CAVOK 25/14 Q1014

2010/08/09 18:50
LIPQ 091850Z VRB02KT CAVOK 24/19 Q1014

2010/08/09 18:45
LIPR 091845Z 11003KT CAVOK 26/21 Q1014

2010/08/09 18:45
LIPX 091845Z 00000KT CAVOK 28/19 Q1014

2010/08/09 18:50
LIPZ 091850Z VRB03KT CAVOK 25/18 Q1014

2010/08/09 18:50
ENHV 091850Z 04003KT 9999 BKN016 10/06 Q1015

2010/08/09 18:50
ENLK 091850Z 02011KT 9999 FEW020 11/08 Q1012

2010/08/09 18:50
ENNK 091850Z 24007KT 9999 ST060 15/12 Q1011 

2010/08/09 18:50
ENNM 091850Z 35007KT CAVOK 14/11 Q1010

2010/08/09 18:53
KMEM 091853Z 03006KT 10SM BKN047CB BKN250 36/23 A2995 RMK AO2 SLP136 CB E T03560233

2010/08/09 18:55
KMEZ 091855Z AUTO 09005KT 10SM SCT060 35/21 A2997 RMK AO2

2010/08/09 18:53
KMFR 091853Z 31005KT 10SM FEW070 25/11 A2990 RMK AO2 SLP115 T02500106

2010/08/09 18:53
KMGW 091853Z 00000KT 10SM CLR 31/18 A3005 RMK AO2 SLP163 T03060178

2010/08/09 18:53
KMGY 091853Z AUTO VRB04KT 10SM FEW055 32/19 A2999 RMK AO2 SLP147 T03220194

2010/08/09 18:53
KMHT 091853Z 25008G15KT 10SM SCT065 BKN080 33/17 A2989 RMK AO2 SLP129 T03280167

2010/08/09 18:53
KMIC 091853Z 00000KT 10SM CLR 32/21 A2990 RMK AO2 SLP117 T03220206

2010/08/09 18:53
KMIE 091853Z 18005KT 10SM CLR 32/21 A2998 RMK AO2 SLP138 T03170211

2010/08/09 18:53
KMIW 091853Z AUTO 17006KT 10SM CLR 30/24 A2988 RMK AO2 SLP111 T03000239

2010/08/09 18:53
KMKL 091853Z 25010KT 10SM CLR 34/25 A2995 RMK AO2 SLP137 T03440250

2010/08/09 18:53
KMLP 091853Z AUTO VRB04KT 10SM CLR 17/05 A3002 RMK AO2 SLP075 T01670050 TSNO

2010/08/09 18:53
KMLS 091853Z AUTO 00000KT 10SM CLR 32/09 A2986 RMK AO2 SLP084 T03170089

2010/08/09 18:53
KMLT 091853Z AUTO VRB03KT 10SM FEW049 OVC060 25/17 A2990 RMK AO2 SLP128 T02500172

2010/08/09 18:53
KMMK 091853Z AUTO 16011G16KT BKN070 32/20 A2994 RMK AO2 SLP136 T03220200 $

2010/08/09 18:53
KMMV 091853Z AUTO 00000KT 10SM OVC025 16/10 A3003 RMK AO2 SLP168 T01560100

2010/08/09 18:53
KMNN 091853Z AUTO 21006KT 10SM CLR 31/19 A3001 RMK AO2 SLP155 T03060189

2010/08/09 18:53
KMOD 091853Z 00000KT 10SM CLR 24/12 A2988 RMK AO2 SLP116 T02440122

2010/08/09 18:54
PALP 091854Z 07019KT 1SM -DZ BR OVC003 02/02 A2978 RMK VIS 7/8 V 1 1/8SM.

2010/08/09 18:50
PALV 091850Z 0000KT 5SM -RA BR FEW005 OVC015 13/12 A2961 RMK EST PASS CLSD NOSPECI

2010/08/09 18:52
PATA 091852Z 15003KT 10SM -RA FEW010 BKN020 OVC060 13/11 A2956 RMK AO2 SLP013 P0003 T01280106

2010/08/09 18:50
PAXK 091850Z 00000KT 10SM BKN050 10/08 A2971 RMK NOSPECI

2010/08/09 18:53
PHJR 091853Z 08008G15KT 10SM OVC050 27/17 A3010 RMK AO2 SLP200 T02720172

2010/08/09 18:53
KMRB 091853Z 00000KT 8SM SCT070 33/17 A2998 RMK AO2 SLP146 T03280172

2010/08/09 18:53
KMSL 091853Z AUTO 34004KT 10SM FEW065 34/24 A2998 RMK AO2 LTG DSNT SW AND W SLP144 T03440239

2010/08/09 18:53
KMSO 091853Z VRB03KT 10SM CLR 26/09 A2987 RMK AO2 SLP092 T02560089

2010/08/09 18:53
KMSP 091853Z 11004KT 10SM CLR 33/20 A2991 RMK AO2 SLP120 T03330200

2010/08/09 18:53
KMSS 091853Z AUTO 29004KT 10SM FEW034 26/21 A2990 RMK AO2 SLP125 T02610211

2010/08/09 18:53
KMSY 091853Z 00000KT 10SM FEW040CB SCT060 SCT150 BKN250 34/25 A2995 RMK AO2 SLP145 CB NE-E DSNT N AND SE AND S AND NW MOV SW T03440250

2010/08/09 18:53
KMVY 091853Z 24012G19KT 10SM CLR 29/22 A2998 RMK AO2 SLP151 T02940217

2010/08/09 18:53
KMYV 091853Z AUTO VRB05KT CLR 26/13 A2987 RMK AO2 SLP118 T02560128 PNO $

2010/08/09 18:53
KNEW 091853Z 10023G33KT 1/2SM +TSRA FG BKN017 BKN027 BKN070 27/25 A2999 RMK AO2 PK WND 07033/1846 WSHFT 1833 TSB27E48B49RAB38 SLP147 FRQ LTGCG OHD TS OHD MOV SW P0025 T02670250

2010/08/09 18:53
KOAK 091853Z 30006KT 10SM FEW016 19/12 A2994 RMK AO2 SLP137 T01890122

2010/08/09 18:53
KOGD 091853Z AUTO 20013G21KT 160V220 10SM FEW085 28/05 A3002 RMK AO2 WSHFT 1835 SLP102 T02780050

2010/08/09 18:53
KOLF 091853Z AUTO 14005KT 10SM CLR 30/13 A2986 RMK AO2 SLP099 T03000128

2010/08/09 18:53
KOMK 091853Z AUTO 19007KT 10SM CLR 27/09 A2979 RMK AO2 SLP078 T02670094

2010/08/09 18:53
KONO 091853Z AUTO 00000KT 10SM CLR 27/11 A2985 RMK AO2 SLP092 T02720106

2010/08/09 18:53
KONT 091853Z 22006KT 9SM CLR 26/11 A2991 RMK AO2 SLP117 T02560111

2010/08/09 18:53
KOSH 091853Z VRB04KT 10SM SCT032 28/22 A2991 RMK AO2 SLP114 T02780217

2010/08/09 18:53
KOSU 091853Z 25006KT 9SM FEW046 31/20 A3001 RMK AO2 SLP154 T03110200 $

2010/08/09 18:53
KOVS 091853Z AUTO 27006KT 10SM CLR 31/23 A2991 RMK AO2 SLP125 T03110228

2010/08/09 18:53
KOWD 091853Z 26009KT 210V280 10SM SCT060 33/16 A2992 RMK AO2 SLP130 T03330161

2010/08/09 18:53
KOXB 091853Z AUTO 16007KT 10SM CLR 28/24 A3003 RMK AO2 SLP169 T02780239

2010/08/09 18:53
KFST 091853Z AUTO 13007G15KT 10SM FEW049 33/19 A3000 RMK AO2 SLP104 T03280194 TSNO

2010/08/09 18:53
KFTY 091853Z 00000KT 8SM CLR 34/20 A3001 RMK AO2 SLP152 T03390200

2010/08/09 18:53
KFVE 091853Z AUTO 31004KT 1/2SM +RA FG SCT017 BKN032 OVC039 17/16 A2985 RMK AO2 RAB36 SLP103 P0040 T01720161

2010/08/09 18:53
KFYV 091853Z 22005KT 10SM CLR 35/21 A2997 RMK AO2 SLP130 T03500211

2010/08/09 18:53
KGEY 091853Z AUTO 08004KT 10SM CLR 29/06 A2991 RMK AO2 SLP083 T02940056

2010/08/09 18:53
KGEZ 091853Z AUTO VRB06KT 9SM FEW050 33/21 A2995 RMK AO2 SLP134 T03330206

2010/08/09 18:53
KGFK 091853Z 19013G19KT 10SM FEW250 34/18 A2984 RMK AO2 SLP101 T03440183

2010/08/09 18:53
KGFL 091853Z AUTO 22010KT 190V260 10SM BKN055 BKN070 31/19 A2990 RMK AO2 SLP120 T03110194

2010/08/09 18:53
KGGW 091853Z AUTO VRB03KT 10SM CLR 29/09 A2986 RMK AO2 SLP097 T02940094 TSNO

2010/08/09 18:53
KGLH 091853Z 00000KT 10SM CLR 37/22 A2993 RMK AO2 SLP137 T03670222

2010/08/09 18:53
KGLR 091853Z AUTO 00000KT 7SM CLR 28/22 A2990 RMK AO2 SLP117 T02830222

2010/08/09 18:53
KGMU 091853Z 00000KT 10SM FEW049 33/20 A3004 RMK AO2 SLP159 T03280200

2010/08/09 18:53
KGPT 091853Z 16009KT 10SM FEW037 SCT070 34/26 A2994 RMK AO2 SLP139 T03390256

2010/08/09 18:53
KGRB 091853Z 20008KT 10SM FEW025 BKN038 BKN045 29/23 A2988 RMK AO2 SLP115 T02940233

2010/08/09 18:53
KGRI 091853Z VRB03KT 10SM CLR 32/22 A2991 RMK AO2 SLP109 T03170217

2010/08/09 18:53
KGSH 091853Z AUTO 19005KT 6SM HZ CLR 29/22 A2996 RMK AO2 SLP140 T02940222

2010/08/09 18:53
KGSP 091853Z 20003KT 10SM CLR 33/22 A3002 RMK AO2 SLP152 T03330222

2010/08/09 18:53
KGTF 091853Z 13004KT 10SM -RA FEW075 SCT110 24/07 A2988 RMK AO2 RAB30 SLP092 P0000 T02390072

2010/08/09 18:53
KGUP 091853Z AUTO 06004KT 10SM FEW070 26/09 A3025 RMK AO2 SLP083 T02560089 TSNO

2010/08/09 18:53
KGVL 091853Z AUTO VRB03KT 10SM SCT043 32/21 A3007 RMK AO2 SLP163 T03220211

2010/08/09 18:53
KGWO 091853Z AUTO 11007KT 10SM CLR 37/25 A2994 RMK AO2 SLP134 T03670250

2010/08/09 18:53
KHAO 091853Z AUTO 28006KT 9SM CLR 34/18 A2998 RMK AO2 SLP148 T03440183

2010/08/09 18:53
KHBG 091853Z AUTO 09006KT 10SM FEW036 34/24 A2995 RMK AO2 SLP139 T03390244

2010/08/09 18:53
KHEI 091853Z AUTO 17015G24KT 10SM CLR 33/16 A2989 RMK AO2 SLP094 T03280161

2010/08/09 18:53
KHFD 091853Z 27010G15KT 10SM FEW090 34/15 A2992 RMK AO2 SLP132 T03440150

2010/08/09 18:53
KHGR 091853Z 18005KT 10SM SCT070 33/14 A2998 RMK AO2 SLP155 T03330139

2010/08/09 18:53
KHHR 091853Z 25007KT 10SM CLR 21/13 A2993 RMK AO2 SLP135 T02110133 $

2010/08/09 18:53
KHIB 091853Z AUTO VRB04KT 10SM CLR 30/20 A2993 RMK AO2 SLP131 T03000200

2010/08/09 18:53
KHIO 091853Z 00000KT 10SM OVC028 16/09 A3001 RMK AO2 SLP162 T01610094

2010/08/09 18:53
KHJO 091853Z AUTO 25004KT 10SM CLR 28/13 A2988 RMK AO2 SLP117 T02830133

2010/08/09 18:53
KBIV 091853Z AUTO 20007KT 10SM CLR 29/22 A2994 RMK AO2 SLP133 T02940222

2010/08/09 18:53
KBKE 091853Z AUTO 31004KT 10SM CLR 23/07 A2991 RMK AO2 SLP106 T02330072

2010/08/09 18:53
KBLI 091853Z 19006KT 10SM SCT010 BKN041 OVC100 16/13 A2996 RMK AO2 SLP152 T01560128

2010/08/09 18:53
KBMG 091853Z 23005KT 10SM CLR 33/23 A2997 RMK AO2 SLP139 T03330228

2010/08/09 18:53
KBMQ 091853Z AUTO VRB05KT 10SM CLR 34/18 A2999 RMK AO2 SLP133 T03440183 $

2010/08/09 18:53
KBNA 091853Z 30005KT 10SM SCT055 BKN240 36/22 A2997 RMK AO2 SLP139 T03560217

2010/08/09 18:53
KBOI 091853Z 29007KT 10SM CLR 26/09 A2989 RMK AO2 SLP090 T02610094

2010/08/09 18:53
KBPI 091853Z AUTO 21017G21KT 10SM CLR 23/02 A3016 RMK AO2 SLP114 T02330017 TSNO

2010/08/09 18:53
KBPK 091853Z AUTO 00000KT 9SM CLR 34/24 A2995 RMK AO2 SLP129 T03440244

2010/08/09 18:53
KBPT 091853Z 18004KT 10SM CLR 35/23 A2995 RMK AO2 SLP141 T03500233

2010/08/09 18:53
KBRD 091853Z AUTO 00000KT 10SM CLR 31/17 A2993 RMK AO2 SLP129 T03060167

2010/08/09 18:53
KBRO 091853Z 13015G18KT 10SM SCT039 BKN050 BKN065 36/24 A2989 RMK AO2 SLP121 T03560244

2010/08/09 18:53
KBTL 091853Z 17005KT 10SM BKN065 23/22 A2997 RMK AO2 RAE09 SLP141 P0000 T02330222

2010/08/09 18:53
KPRC 091853Z 23010KT 10SM SCT080 27/06 A3015 RMK AO2 SLP125 T02720061

2010/08/09 18:53
KPSC 091853Z VRB04KT 10SM CLR 26/07 A2981 RMK AO2 SLP092 T02560072

2010/08/09 18:55
KPSO 091855Z AUTO 21005KT 10SM BKN100 22/07 A3030 RMK AO2 LTG DSNT E

2010/08/09 18:53
KPSP 091853Z 08005KT 10SM CLR 36/M01 A2980 RMK AO2 SLP088 T03611011

2010/08/09 18:53
KPSX 091853Z AUTO 20011G18KT 10SM CLR 35/26 A2994 RMK AO2 SLP137 T03500261

2010/08/09 18:53
KPUW 091853Z AUTO VRB03KT 10SM CLR 24/07 A2989 RMK AO2 SLP110 T02440072

2010/08/09 18:53
KRAC 091853Z AUTO VRB04KT 10SM SCT030 29/22 A2992 RMK AO2 SLP126 T02940222

2010/08/09 18:53
KRBG 091853Z AUTO 35005KT 10SM OVC020 18/12 A2999 RMK AO2 SLP152 T01830122

2010/08/09 18:53
KRDD 091853Z 00000KT 10SM CLR 28/12 A2984 RMK AO2 SLP100 T02830122

2010/08/09 18:53
KRHI 091853Z AUTO 32006KT 10SM FEW040 29/19 A2995 RMK AO2 SLP130 T02940189

2010/08/09 18:53
KRKP 091853Z AUTO 14008KT 10SM CLR 34/25 A2993 RMK AO2 SLP136 T03390250

2010/08/09 18:53
KRME 091853Z 22006KT 10SM FEW045 29/19 A2994 RMK AO2 SLP134 T02940194

2010/08/09 18:53
KRNT 091853Z 00000KT 9SM OVC018 16/12 A2998 RMK AO2 SLP157 T01610122

2010/08/09 18:53
KRUE 091853Z AUTO 00000KT 10SM FEW060 37/22 A2993 RMK AO2 SLP124 T03720222

2010/08/09 18:53
KRWF 091853Z AUTO 10005KT 10SM CLR 32/21 A2990 RMK AO2 SLP118 T03170206

2010/08/09 18:53
KRXE 091853Z AUTO 24014G21KT 10SM CLR 23/09 A3004 RMK AO2 RAB1755E11 SLP132 P0000 T02280094

2010/08/09 18:53
KSAC 091853Z 22005KT 10SM CLR 23/13 A2988 RMK AO2 SLP119 T02280133

2010/08/09 18:53
KSAF 091853Z VRB04KT 10SM CLR 30/12 A3018 RMK AO2 SLP102 T03000122

2010/08/09 18:53
KSBA 091853Z 19006KT 10SM CLR 18/13 A2994 RMK AO2 SLP138 T01780128

2010/08/09 18:53
KSBM 091853Z AUTO 26009KT 10SM FEW022 SCT027 SCT034 28/23 A2991 RMK AO2 SLP121 T02830228

2010/08/09 18:53
KSDL 091853Z VRB04KT 10SM CLR 36/07 A2991 RMK AO2 SLP097 T03560067

2010/08/09 18:49
KSEE 091849Z VRB06KT 15SM SKC 26/12 A2993

2010/08/09 18:53
KSFF 091853Z 21007KT 10SM FEW070 25/09 A2985 RMK AO2 SLP094 T02500094

2010/08/09 18:53
KSHN 091853Z AUTO 21012KT 10SM FEW017 17/12 A2997 RMK AO2 SLP147 T01720122

2010/08/09 18:53
KSHR 091853Z AUTO 00000KT 10SM CLR 31/08 A2992 RMK AO2 SLP086 T03060078

2010/08/09 18:53
KSIY 091853Z AUTO 00000KT 10SM 26/08 A2992 RMK AO2 SLP118 T02610078 $

2010/08/09 18:53
KSJC 091853Z 06005KT 10SM FEW007 23/11 A2991 RMK AO2 SLP126 T02280111

2010/08/09 18:53
KSLC 091853Z 17011KT 140V200 10SM SCT080TCU SCT120 SCT200 28/04 A3001 RMK AO2 PK WND 20027/1817 RAB29E39 SLP106 VIRGA SW AND DSNT NW-N CB DSNT N AND SW TCU S-NW AND DSNT NE P0000 T02830039

2010/08/09 18:53
KSMF 091853Z VRB03KT 10SM CLR 23/15 A2987 RMK AO2 SLP115 T02280150

2010/08/09 18:53
KSNA 091853Z VRB06KT 8SM FEW018 23/13 A2993 RMK AO2 SLP133 T02280128

2010/08/09 18:53
KSNS 091853Z 32003KT 10SM OVC015 17/12 A2995 RMK AO2 SLP149 T01670117

2010/08/09 18:55
KSPA 091855Z AUTO 32004KT 10SM SCT055 SCT090 33/26 A3002 RMK AO2

2010/08/09 18:53
KSPB 091853Z AUTO 00000KT 10SM OVC023 16/11 A3000 RMK AO2 SLP160 T01610106

2010/08/09 18:53
KSPW 091853Z AUTO 08006KT 10SM OVC017 27/23 A2992 RMK AO2 SLP123 T02670228

2010/08/09 18:53
KSSF 091853Z 10008KT 070V140 10SM FEW050 36/20 A2993 RMK AO2 SLP122 T03560200

2010/08/09 18:53
KSTP 091853Z 00000KT 10SM CLR 33/21 A2991 RMK AO2 SLP120 T03280206

2010/08/09 18:53
KSTS 091853Z 19005KT 10SM BKN011 17/12 A2992 RMK AO2 SLP127 T01670117

2010/08/09 18:53
KTCC 091853Z AUTO 18009G15KT 10SM CLR 33/14 A3001 RMK AO2 SLP090 T03330144 TSNO

2010/08/09 18:53
KTCL 091853Z 11008KT 9SM CLR 35/21 A2997 RMK AO2 SLP146 T03500211

2010/08/09 18:53
KTIW 091853Z VRB03KT 10SM OVC014 17/12 A2999 RMK AO2 SLP153 T01670122

2010/08/09 18:47
KTOA 091847Z 28010KT 7SM SKC 22/14 A2995

2010/08/09 18:53
KTTD 091853Z 32005KT 10SM OVC031 17/09 A3000 RMK AO2 SLP157 T01720094

2010/08/09 18:53
KTVC 091853Z 24008KT 10SM FEW027 SCT050 SCT075 29/22 A2987 RMK AO2 SLP110 T02890217

2010/08/09 18:53
KTVL 091853Z AUTO VRB05KT 10SM CLR 22/08 A3011 RMK AO2 SLP145 T02170078

2010/08/09 18:53
KTVR 091853Z AUTO VRB04KT 10SM CLR 37/23 A2993 RMK AO2 SLP141 T03670228

2010/08/09 18:53
KUAO 091853Z AUTO VRB03KT 10SM OVC026 17/10 A3001 RMK AO2 SLP163 T01670100

2010/08/09 18:53
KUTS 091853Z AUTO VRB05KT 10SM CLR 36/21 A2995 RMK AO2 SLP134 T03560206

2010/08/09 18:53
KVCB 091853Z AUTO VRB03KT 10SM CLR 25/13 A2989 RMK AO2 SLP119 T02500128

2010/08/09 18:53
KVEL 091853Z AUTO 15006KT 10SM CLR 25/08 A3012 RMK AO2 SLP142 T02500078

2010/08/09 18:53
KVGT 091853Z 16008KT 10SM CLR 32/06 A2993 RMK AO2 SLP102 T03170056

2010/08/09 18:53
KVPZ 091853Z AUTO 17006KT 7SM CLR 28/23 A2995 RMK AO2 SLP136 T02830233

2010/08/09 18:53
KVUO 091853Z AUTO 29007KT 10SM OVC031 17/09 A3001 RMK AO2 SLP163 T01670089

2010/08/09 18:53
KWRL 091853Z AUTO 36005KT 10SM CLR 29/07 A2993 RMK AO2 SLP086 T02940067

2010/08/09 18:53
PHJR 091853Z 08008G15KT 10SM OVC050 27/17 A3010 RMK AO2 SLP200 T02720172

2010/08/09 18:50
KAPG 091850Z 19008KT 7SM FEW030 SCT200 33/21 A3000

2010/08/09 18:53
KSGR 091853Z 18005KT 10SM FEW045 34/23 A2994 RMK AO2 SLP145 T03440228

2010/08/09 18:53
KOVE 091853Z AUTO VRB04KT 10SM CLR 26/14 A2989 RMK AO2 SLP122 T02560139 TSNO $

2010/08/09 18:53
KMSY 091853Z 00000KT 10SM FEW040CB SCT060 SCT150 BKN250 34/25 A2995 RMK AO2 SLP145 CB NE-E DSNT N AND SE AND S AND NW MOV SW T03440250

2010/08/09 18:53
KHWO 091853Z 19009KT 10SM SCT025 29/23 A2993 RMK AO2 SLP134 T02890233 $

2010/08/09 18:53
KHZY 091853Z AUTO 19004KT 10SM FEW085 29/19 A3000 RMK AO2 SLP153 T02940194

2010/08/09 18:53
KICT 091853Z 16011G18KT 10SM SCT075 SCT200 SCT250 38/19 A2989 RMK AO2 SLP100 T03830194

2010/08/09 18:53
KIML 091853Z AUTO 10005KT 10SM SCT120 29/17 A3000 RMK AO2 SLP125 T02940172

2010/08/09 18:53
KIPL 091853Z AUTO VRB04KT 10SM CLR 36/07 A2978 RMK AO2 SLP086 T03560067

2010/08/09 18:53
KITR 091853Z AUTO 14010G15KT 10SM FEW090 30/17 A3004 RMK AO2 SLP108 T03000167

2010/08/09 18:53
KIXD 091853Z 18011G17KT 10SM CLR 37/22 A2990 RMK AO2 SLP109 T03670217

2010/08/09 18:53
KJEF 091853Z 13005KT 10SM FEW080 33/26 A2990 RMK AO2 SLP109 T03280256

2010/08/09 18:53
KLAA 091853Z AUTO VRB04KT 10SM CLR 31/17 A2997 RMK AO2 SLP090 T03060167

2010/08/09 18:53
KLAR 091853Z AUTO 14008G15KT 10SM CLR 23/07 A3022 RMK AO2 SLP124 T02280067

2010/08/09 18:53
KLAW 091853Z AUTO 20009G14KT 10SM FEW080 38/17 A2989 RMK AO2 SLP105 T03830167

2010/08/09 18:53
KLBF 091853Z AUTO 08005KT 10SM CLR 29/21 A2996 RMK AO2 SLP113 T02890206

2010/08/09 18:53
KLEE 091853Z 12012G24KT 10SM -RA SCT022 SCT034 28/24 A2992 RMK AO2 RAE02B52 SLP130 P0000 T02780244

2010/08/09 18:53
KLHQ 091853Z AUTO 00000KT 9SM CLR 31/18 A3002 RMK AO2 SLP159 T03060178

2010/08/09 18:53
KLHX 091853Z AUTO 02005KT 10SM CLR 30/17 A3003 RMK AO2 SLP103 T03000167 $

2010/08/09 18:53
KLMT 091853Z 23007KT 10SM FEW050 SCT250 24/06 A2997 RMK AO2 SLP106 T02390061

2010/08/09 18:53
KLNS 091853Z 00000KT 9SM SCT050 31/19 A2999 RMK AO2 SLP152 T03110194

2010/08/09 18:53
KLOZ 091853Z AUTO VRB03KT 10SM FEW040 32/23 A3003 RMK AO2 SLP153 T03220228

2010/08/09 18:53
KLPR 091853Z AUTO 24004KT 9SM FEW045 31/20 A3000 RMK AO2 SLP151 T03110200

2010/08/09 18:50
KLXN 091850Z AUTO 04005KT 10SM BKN120 31/22 A2995 RMK AO2 T03060219

2010/08/09 18:53
KLXT 091853Z AUTO 17011G15KT 10SM CLR 34/25 A2991 RMK AO2 SLP114 T03440250

2010/08/09 18:53
KMAF 091853Z 17009G18KT 5SM HZ FEW055 34/17 A3001 RMK AO2 SLP109 T03390167

2010/08/09 18:53
KMAI 091853Z AUTO 06010KT 9SM CLR 36/20 A2995 RMK AO2 SLP140 T03610200

2010/08/09 18:53
KMBS 091853Z 17010KT 2 1/2SM -RA BR SCT018 BKN030 OVC060 24/23 A2994 RMK AO2 SFC VIS 4 RAB23 SLP134 P0001 T02390228

2010/08/09 18:53
KMCI 091853Z 20014KT 10SM BKN250 36/24 A2988 RMK AO2 SLP101 T03610244

2010/08/09 18:53
KMCK 091853Z AUTO 11011KT 10SM CLR 32/22 A2995 RMK AO2 SLP112 T03220222

2010/08/09 18:50
KPMV 091850Z AUTO 18005KT 10SM SCT020 32/26 A2986 RMK AO2 T03240255

2010/08/09 18:53
KABY 091853Z 09009G18KT 10SM BKN060 35/20 A2998 RMK AO2 SLP150 T03500200

2010/08/09 18:53
KADG 091853Z AUTO VRB04KT 10SM CLR 29/21 A2999 RMK AO2 SLP151 T02890211

2010/08/09 18:50
ENMS 091850Z 34008KT 9999 FEW040TCU 16/13 Q1009 

2010/08/09 18:50
ENSK 091850Z 06005KT 9999 FEW010 SCT015 BKN017 13/09 Q1012

2010/08/09 18:50
ENST 091850Z 04006KT 9999 FEW010 14/11 Q1010

2010/08/09 18:50
ENVD 091850Z 05016KT 9999W2000S VCFG DZ SCT005 BKN010 OVC040 09/08 Q1015

2010/08/09 18:54
KBOS 091854Z 23011G23KT 10SM SCT065 SCT100 33/17 A2991 RMK AO2 SLP128 TCU DSNT N-NE T03280167

2010/08/09 18:53
KBOW 091853Z 12007KT 10SM SCT034 BKN250 32/23 A2990 RMK LAST

2010/08/09 18:55
KBTP 091855Z AUTO 00000KT 10SM CLR 30/17 A3003 RMK AO1 57010

2010/08/09 18:54
KBUY 091854Z AUTO 16005KT 10SM FEW047 32/21 A3002 RMK AO2 SLP159 T03220211

2010/08/09 18:55
KBVX 091855Z AUTO 00000KT 10SM CLR 37/23 A2994 RMK AO1 LTG DSNT SE

2010/08/09 18:54
KBWI 091854Z 20007KT 9SM SCT055 BKN180 BKN250 34/19 A2998 RMK AO2 SLP150 T03390194

2010/08/09 18:55
KCGZ 091855Z AUTO 00000KT 10SM CLR 36/09 A2991 RMK AO1

2010/08/09 18:47
KCHD 091847Z 27005KT 40SM SCT160 35/08 A2988

2010/08/09 18:55
KCIU 091855Z AUTO 15006KT 10SM BKN026 BKN060 26/19 A2990 RMK AO1

2010/08/09 18:55
KCOD 091855Z AUTO 08008KT 10SM FEW120 26/06 A2997 RMK AO1 LTG DSNT SW

2010/08/09 18:55
KCOE 091855Z AUTO 20003KT 10SM CLR 25/12 A2986 RMK AO1

2010/08/09 18:55
KCVN 091855Z 20013KT 10SM CLR 30/15 A3008 RMK AO1

2010/08/09 18:55
KCVO 091855Z AUTO 00000KT 10SM OVC019 17/11 A3002 RMK AO1

2010/08/09 18:55
KCWI 091855Z 27003KT 10SM FEW020 28/24 A2995 RMK AO1

2010/08/09 18:54
KDDH 091854Z AUTO 25007KT 210V280 10SM BKN060 29/18 A2996 RMK AO2 SLP137 T02940183

2010/08/09 18:54
KDEC 091854Z 23006KT 10SM FEW029 34/24 A2993 RMK AO2 SLP127 T03440244

2010/08/09 18:54
KMRY 091854Z 32003KT 10SM OVC009 14/11 A2996 RMK AO2 SLP157 T01440111

2010/08/09 18:55
KMSV 091855Z AUTO 26006KT 10SM CLR 30/14 A3003 RMK AO1

2010/08/09 18:55
KMTW 091855Z 26006KT 10SM FEW028 28/22 A2989 RMK AO1

2010/08/09 18:54
KMVL 091854Z AUTO VRB04KT 10SM BKN055 BKN070 27/19 A2993 RMK AO2 SLP133 T02720189

2010/08/09 18:55
KMVN 091855Z AUTO 22008KT 10SM CLR 37/24 A2992 RMK AO1

2010/08/09 18:55
KOCH 091855Z AUTO 28004KT 10SM CLR 36/21 A2994 RMK AO1

2010/08/09 18:54
KOFP 091854Z AUTO 19008KT 10SM SCT065 34/18 A3002 RMK AO2 SLP162 T03440178

2010/08/09 18:55
KOKK 091855Z AUTO 18003KT 9SM FEW120 32/22 A2996 RMK AO1 57010

2010/08/09 18:54
KOLM 091854Z 16005KT 10SM OVC019 17/12 A2999 RMK AO2 SLP154 T01720122

2010/08/09 18:54
KOLS 091854Z AUTO 19007KT 10SM CLR 31/14 A3007 RMK AO2 SLP108 T03060144

2010/08/09 18:55
KOLU 091855Z AUTO 8SM CLR 32/24 A2989 RMK AO1

2010/08/09 18:55
KOTG 091855Z AUTO 07009KT 10SM FEW019 28/19 A2996 RMK AO1

2010/08/09 18:55
KOTH 091855Z 35017KT 10SM OVC018 16/11 A3006 RMK AO1

2010/08/09 18:45
KOXC 091845Z 22006KT 7SM SCT060 32/16 A2999

2010/08/09 18:54
KPHF 091854Z 14007KT 10SM FEW095 32/19 A3002 RMK AO2 SLP165 T03170194

2010/08/09 18:54
KPHL 091854Z 21009G16KT 10SM FEW060 SCT250 34/17 A2998 RMK AO2 SLP153 T03390172

2010/08/09 18:55
KPIB 091855Z AUTO 09006KT 10SM CLR 33/24 A2998 RMK AO1

2010/08/09 18:54
KPLN 091854Z AUTO 12003KT 7SM SCT019 27/22 A2989 RMK AO2 SLP119 T02670217

2010/08/09 18:54
KPNE 091854Z AUTO 22009G14KT 10SM FEW060 33/19 A2999 RMK AO2 SLP153 T03330189

2010/08/09 18:55
KPQI 091855Z AUTO 20005KT 10SM SCT060 BKN100 23/18 A2982 RMK AO1

2010/08/09 18:55
KPRX 091855Z 18010G16KT 10SM CLR 36/22 A2993 RMK AO1

2010/08/09 18:54
KPSF 091854Z AUTO VRB04KT 10SM SCT060 29/16 A2997 RMK AO2 SLP119 T02940161

2010/08/09 18:55
KPTN 091855Z AUTO 35005KT 10SM SCT040 34/17 A2998 RMK AO1

2010/08/09 18:55
KPTV 091855Z AUTO 29004KT 10SM CLR 27/15 A2989 RMK AO1

2010/08/09 18:54
KPTW 091854Z AUTO 21007KT 8SM CLR 33/19 A3000 RMK AO2 SLP152 T03330194

2010/08/09 18:55
KPVC 091855Z 21015G19KT 10SM SCT120 28/21 A2994 RMK AO1

2010/08/09 18:55
KPWG 091855Z AUTO 18009G17KT 10SM CLR 36/21 A2994 RMK AO1

2010/08/09 18:55
KPWT 091855Z AUTO 18006KT 10SM BKN017 BKN024 OVC038 17/12 A3001 RMK AO1

2010/08/09 18:54
KRBL 091854Z AUTO 16005KT 10SM CLR 28/13 A2986 RMK AO2 SLP107 T02780133

2010/08/09 18:54
KRDG 091854Z 25005KT CLR 34/19 A2997 RMK AO2 SLP151 T03440189 $

2010/08/09 18:55
KRKD 091855Z AUTO 19009KT 10SM CLR 26/20 A2991 RMK AO1

2010/08/09 18:52
KRKR 091852Z AUTO 26004KT 10SM CLR 37/23 A2993 RMK AO2

2010/08/09 18:54
KRKS 091854Z AUTO 21015G21KT 10SM CLR 26/02 A3015 RMK AO2 WSHFT 1816 SLP122 T02560017

2010/08/09 18:54
KRST 091854Z 24004KT 10SM SCT023 SCT030 30/23 A2995 RMK AO2 SLP132 T03000233

2010/08/09 18:55
KRUT 091855Z 21007KT 10SM FEW043 SCT070 BKN090 27/18 A2994 RMK AO1 LTG DSNT NW

2010/08/09 18:53
KCQC 091853Z AUTO 35009KT 10SM OVC110 26/11 A3023 RMK AO2 SLP128 T02610106 TSNO

2010/08/09 18:53
KTCS 091853Z AUTO 00000KT 10SM CLR 29/12 A3011 RMK AO2 SLP109 T02890122 TSNO

2010/08/09 18:53
KTLH 091853Z 07008G16KT 10SM FEW050 35/20 A2995 RMK AO2 SLP139 T03500200

2010/08/09 18:53
KNUI 091853Z AUTO 11008KT 10SM CLR 32/22 A3001 RMK AO2 SLP161 T03170222

2010/08/09 18:51
KSAN 091851Z 27006KT 10SM FEW020 21/14 A2995 RMK AO2 SLP141 T02060139

2010/08/09 18:53
KCTY 091853Z AUTO 08006KT 34/23 A2992 RMK AO2 SLP129 T03390233 PWINO TSNO

2010/08/09 18:53
KDAB 091853Z 09008G14KT 10SM FEW024 SCT110 31/23 A2993 RMK AO2 SLP133 CB DSNT SW-W T03110233

2010/08/09 18:53
KLXV 091853Z AUTO 01009G14KT 10SM SCT060 BKN110 13/08 A3043 RMK AO2 RAB18E39 SLP140 P0000 T01330083 TSNO

2010/08/09 18:53
KSDM 091853Z VRB05KT 10SM CLR 22/13 A2993 RMK AO2 SLP132 T02220128

2010/08/09 18:53
KTYS 091853Z 31004KT 10SM FEW045 34/22 A3000 RMK AO2 SLP146 T03390217

2010/08/09 18:53
KSAV 091853Z 07008KT 040V110 10SM SCT049 34/21 A2997 RMK AO2 SLP148 T03440206

2010/08/09 18:53
KCHA 091853Z 00000KT 10SM FEW050 SCT120 BKN250 35/21 A2999 RMK AO2 SLP145 T03500211

2010/08/09 18:53
KP92 091853Z AUTO VRB04KT 33/26 A2996 RMK AO2 SLP144 T03280261 PWINO TSNO

2010/08/09 18:53
KLAX 091853Z 26009KT 10SM FEW015 19/12 A2994 RMK AO2 SLP138 T01890122 $

2010/08/09 18:53
KBNO 091853Z AUTO 13007KT 10SM CLR 24/06 A2995 RMK AO2 SLP105 T02390061 TSNO

2010/08/09 18:53
KTRI 091853Z 30006KT 10SM SCT045 BKN150 33/18 A3005 RMK AO2 SLP157 T03330178

2010/08/09 18:53
KMGM 091853Z 13007G14KT 10SM CLR 36/20 A2996 RMK AO2 SLP142 T03560200

2010/08/09 18:52
KCZZ 091852Z AUTO VRB04G15KT 27/M04 A2993 RMK AO2 SLP107 T02721039 PWINO TSNO

2010/08/09 18:53
KTUP 091853Z 27004KT 10SM BKN034 BKN050 35/25 A2995 RMK AO2 SLP137 T03500250

2010/08/09 18:53
KBTR 091853Z VRB04KT 10SM SCT040 SCT080 SCT120 35/24 A2993 RMK AO2 SLP132 CB DSNT N-E-SE MOVG SW T03500244

2010/08/09 18:53
KRNM 091853Z 31007KT 10SM CLR 24/11 A2994 RMK AO2 SLP126 T02440111

2010/08/09 18:53
KELY 091853Z AUTO 21008KT 10SM CLR 24/M02 A3013 RMK AO2 SLP105 T02441017

2010/08/09 18:53
KCUT 091853Z AUTO 16008KT 10SM CLR 26/13 A3011 RMK AO2 SLP125 T02560128 TSNO

2010/08/09 18:53
KP68 091853Z AUTO 20013G17KT 26/M03 A3008 RMK AO2 SLP097 T02611033 PWINO TSNO

2010/08/09 18:53
KMCN 091853Z 08010G14KT 040V110 9SM CLR 34/21 A2999 RMK AO2 SLP150 T03440206

2010/08/09 18:53
KFAR 091853Z 21009KT 10SM CLR 32/21 A2988 RMK AO2 SLP115 T03220206

2010/08/09 18:53
KOQT 091853Z AUTO 00000KT 10SM CLR 33/23 A3003 RMK AO2 SLP148 T03330228 TSNO

2010/08/09 18:54
KJAN 091854Z 00000KT 10SM SCT049 36/23 A2994 RMK AO2 SLP133 T03560233

2010/08/09 18:53
KMWT 091853Z AUTO VRB05KT 10SM CLR 35/21 A2995 RMK AO2 SLP126 T03500206 TSNO

2010/08/09 18:54
KBTV 091854Z 00000KT 10SM -RA SCT031CB BKN065 BKN100 26/20 A2989 RMK AO2 RAB08 SLP121 CB VC NW-S MOV E P0012 T02610200

2010/08/09 18:53
KHTL 091853Z AUTO 36005KT 9SM VCTS -RA BKN035 OVC043 24/22 A2993 RMK AO2 TSB31RAB20E30B50 SLP127 P0000 T02440217

2010/08/09 18:53
KJLN 091853Z 19007KT 10SM CLR 35/23 A2994 RMK AO2 SLP125 T03500228 $

2010/08/09 18:53
KLAN 091853Z 19006KT 10SM FEW011 SCT055 OVC120 23/22 A2995 RMK AO2 RAE16 SLP138 P0000 T02330217

2010/08/09 18:53
KLBB 091853Z 21010G16KT 10SM FEW060 SCT180 SCT250 33/17 A3003 RMK AO2 SLP109 CB DSNT W MOV NE T03330172

2010/08/09 18:53
KLWD 091853Z AUTO 19009G15KT 10SM CLR 30/24 A2988 RMK AO2 SLP105 T03000244

2010/08/09 18:53
KAAF 091853Z AUTO 12009G16KT 10SM CLR 33/24 A2994 RMK AO2 SLP138 T03280244

2010/08/09 18:53
KBFF 091853Z AUTO 27005KT 10SM CLR 27/12 A3003 RMK AO2 SLP122 T02670122

2010/08/09 18:53
KCDR 091853Z AUTO 16009G14KT 10SM FEW090 34/12 A2991 RMK AO2 SLP097 T03390117

2010/08/09 18:53
KFNB 091853Z AUTO 17010G14KT 10SM CLR 35/24 A2984 RMK AO2 SLP090 T03500244

2010/08/09 18:53
KFNT 091853Z AUTO 21006G17KT 4SM -RA BR SCT028 BKN075 23/22 A2995 RMK AO2 SLP139 P0008 T02280217 TSNO

2010/08/09 18:53
KGCC 091853Z AUTO 22007G17KT 10SM CLR 31/08 A2995 RMK AO2 SLP090 T03060078

2010/08/09 18:52
KNFW 091852Z 18011G14KT 10SM FEW045 38/19 A2995 RMK AO2 SLP126 T03780189

2010/08/09 18:53
PHNL 091853Z 06014KT 10SM FEW033 SCT042 BKN050 28/17 A3009 RMK AO2 SLP190 T02830172

2010/08/09 18:53
KNIP 091853Z 05013G22KT 3SM RA FEW020 BKN035CB BKN250 28/25 A2996 RMK AO2 RAB46 SLP139 CB OHD MOV SW P0000 T02780250

2010/08/09 18:51
KBYH 091851Z 00000KT 10SM SCT030 BKN250 36/26 A2995

2010/08/09 18:55
KHMN 091855Z AUTO VRB03KT 10SM CLR 30/14 A3006 RMK AO2 SLP095 T02970137 $

2010/08/09 18:55
KHST 091855Z AUTO 19006KT 10SM -DZ FEW080 SCT190 27/24 A2992 RMK AO2 RAE1821DZB1821 SLP134 P0002 T02660243

2010/08/09 18:55
KLRF 091855Z AUTO VRB03KT 10SM CLR 36/23 A2993 RMK AO2 SLP133 T03630234

2010/08/09 18:52
KNHK 091852Z 13010KT 9SM FEW025 SCT250 31/22 A3001 RMK AO2 SLP162 T03110222

2010/08/09 18:52
KNRB 091852Z 10009KT 10SM FEW015 SCT030TCU BKN065 31/23 A2995 RMK AO2 RAE19 SLP142 TCU OHD T2 SET P0000 T03060233

2010/08/09 18:55
KRDR 091855Z AUTO 19013KT 10SM CLR 35/18 A2985 RMK AO2 SLP119 T03460177 TSNO $

2010/08/09 18:53
KDNK 091853Z AUTO 25003KT 10SM CLR 34/22 A2995 RMK AO2 SLP138 T03390217

2010/08/09 18:53
KIAG 091853Z 22013KT 10SM VCTS FEW030 BKN060CB BKN085 OVC130 27/19 A2993 RMK AO2 TSB41 SLP128 OCNL LTGCCCG 10N TS 10N MOV E T02670189

2010/08/09 18:53
KDTS 091853Z AUTO VRB05KT 8SM CLR 33/24 A2995 RMK AO2 SLP141 T03330244

2010/08/09 18:53
KNQX 091853Z 23009KT 10SM FEW010 SCT020CB BKN030 BKN140 28/24 A2992 RMK AO2 RAE51 SLP129 CB OHD N MOV S T1 SET P0001 T02830239 $

2010/08/09 18:52
KNHK 091852Z 13010KT 9SM FEW025 SCT250 31/22 A3001 RMK AO2 SLP162 T03110222

2010/08/09 18:52
KNRB 091852Z 10009KT 10SM FEW015 SCT030TCU BKN065 31/23 A2995 RMK AO2 RAE19 SLP142 TCU OHD T2 SET P0000 T03060233

2010/08/09 18:56
KNSI 091856Z 17005KT 7SM FEW009 BKN0011 16/13 A2995 RMK AO2 SLP138 T01610128 TSNO

2010/08/09 18:55
KRDR 091855Z AUTO 19013KT 10SM CLR 35/18 A2985 RMK AO2 SLP119 T03460177 TSNO $

2010/08/09 18:55
KSUU 091855Z AUTO 25015KT 10SM CLR 21/12 A2989 RMK AO2 SLP123 T02070125 RVRNO $

2010/08/09 18:53
PABI 091853Z 18022G33KT 10SM FEW090 SCT110 SCT180 17/04 A2960 RMK AO2 PK WND 17033/1849 SLP022 BLDU VC N+E T01720044

2010/08/09 18:54
KECG 091854Z 11007KT 10SM CLR 31/21 A3003 RMK AO2 SLP167 T03060211

2010/08/09 18:54
KFZY 091854Z AUTO 24009KT 9SM FEW041 SCT060 31/21 A2992 RMK AO2 SLP127 T03060206

2010/08/09 18:54
KBKB 091854Z AUTO 00000KT 10SM BKN050 34/22 A2993 RMK AO2 SLP159 T03440222

2010/08/09 18:50
KAEG 091850Z 00000KT 10SM SKC 27/10 A3017

2010/08/09 18:53
KAFW 091853Z 17009KT 10SM FEW070 38/21 A2991 RMK AO2 SLP109 T03780211 $

2010/08/09 18:53
KAGC 091853Z VRB03KT 10SM CLR 31/14 A3002 RMK AO2 SLP161 T03110144

2010/08/09 18:53
KAIA 091853Z AUTO 24016KT 10SM FEW095 33/13 A3000 RMK AO2 SLP112 T03280128 $

2010/08/09 18:53
KAKO 091853Z AUTO 15006G15KT 10SM CLR 31/12 A3008 RMK AO2 SLP113 T03060117 TSNO

2010/08/09 18:53
KAMG 091853Z AUTO 08007KT 10SM FEW060 35/21 A2996 RMK AO2 SLP142 T03500206

2010/08/09 18:53
KANB 091853Z AUTO 15008KT 10SM CLR 34/21 A3000 RMK AO2 SLP145 T03440206

2010/08/09 18:53
KAPA 091853Z 00000KT 10SM FEW070 SCT110 26/12 A3013 RMK AO2 SLP129 T02610122

2010/08/09 18:53
KAPF 091853Z 22007KT 5SM -TSRA BR FEW011 BKN044 OVC050 26/24 A2990 RMK AO2 TSB18E50B52RAB07 SLP123 P0037 T02610244

2010/08/09 18:53
KARB 091853Z 31008KT 10SM -RA CLR 25/21 A2998 RMK AO2 RAE13B41 SLP147 P0001 T02500206

2010/08/09 18:53
KASE 091853Z 12007KT 10SM -RA SCT040 BKN080 14/11 A3034 RMK AO2 RAB15 SLP173 P0001 T01390106

2010/08/09 18:53
KBBW 091853Z AUTO 30003KT 10SM CLR 28/21 A2996 RMK AO2 SLP121 T02780206 $

2010/08/09 18:53
KBGM 091853Z AUTO 26008KT 10SM CLR 29/14 A3003 RMK AO2 SLP155 T02890144 TSNO

2010/08/09 18:53
KBKL 091853Z 33005KT 4SM HZ CLR 30/22 A2997 RMK AO2 SLP143 T03000217

2010/08/09 18:53
KBKV 091853Z AUTO 10007KT 10SM TS CLR 29/25 A2991 RMK AO2 LTG DSNT SW-NW TSB06RAB04E32 SLP127 P0002 T02890250

2010/08/09 18:53
KBRL 091853Z AUTO 16006KT 10SM CLR 32/24 A2989 RMK AO2 SLP114 T03170239

2010/08/09 18:53
KBVO 091853Z AUTO 16007KT 10SM CLR 37/22 A2990 RMK AO2 SLP113 T03670222

2010/08/09 18:53
KBYG 091853Z AUTO 13003KT 10SM CLR 28/08 A2998 RMK AO2 SLP085 T02830078

2010/08/09 18:53
KCAG 091853Z AUTO VRB03KT 10SM BKN085 20/12 A3023 RMK AO2 RAE12B39E48 SLP182 P0000 T02000117

2010/08/09 18:53
KCDS 091853Z AUTO 22007G17KT 10SM CLR 36/19 A2995 RMK AO2 SLP108 T03560194

2010/08/09 18:53
KCDW 091853Z VRB06KT 9SM CLR 33/17 A2996 RMK AO2 SLP149 T03330167

2010/08/09 18:53
KCEW 091853Z AUTO 00000KT 10SM BKN046 34/24 A2997 RMK AO2 SLP145 T03390244

2010/08/09 18:53
KCEZ 091853Z AUTO 28009KT 10SM CLR 27/07 A3020 RMK AO2 SLP144 T02670067

2010/08/09 18:53
KCGI 091853Z 00000KT 10SM CLR 35/24 A2992 RMK AO2 SLP126 T03500239

2010/08/09 18:53
KCKB 091853Z VRB05KT 9SM CLR 31/17 A3004 RMK AO2 SLP158 T03060167

2010/08/09 18:53
KCPR 091853Z 20017G22KT 10SM FEW110 28/03 A3005 RMK AO2 SLP105 T02830033

2010/08/09 18:53
KFDR 091853Z AUTO 21013G17KT 10SM 38/17 A2988 RMK AO2 SLP094 T03780167

2010/08/09 18:53
KFDY 091853Z AUTO 32005KT 7SM CLR 31/20 A2998 RMK AO2 SLP142 T03110200

2010/08/09 18:53
KFLD 091853Z AUTO VRB05KT 10SM BKN023 BKN028 BKN035 27/22 A2992 RMK AO2 SLP125 T02720217

2010/08/09 18:53
KFLL 091853Z 19013KT 10SM SCT028 BKN041 BKN049 29/24 A2990 RMK AO2 SLP125 T02940239

2010/08/09 18:53
KFLO 091853Z 10007KT 10SM CLR 33/21 A3001 RMK AO2 SLP158 T03330211

2010/08/09 18:53
KFMY 091853Z 17007KT 10SM BKN035 BKN055 32/23 A2986 RMK AO2 LTG DSNT S SLP112 T03170228

2010/08/09 18:53
KFOE 091853Z 19010KT 10SM CLR 38/22 A2987 RMK AO2 SLP101 T03780217

2010/08/09 18:53
KFOK 091853Z 21009KT 9SM CLR 27/21 A3000 RMK AO2 SLP159 T02720206

2010/08/09 18:53
KFPR 091853Z 12014KT 10SM SCT020 31/23 A2991 RMK AO2 SLP127 T03060233

2010/08/09 18:53
KFRG 091853Z 20013KT 10SM CLR 30/21 A2998 RMK AO2 SLP153 T03000211

2010/08/09 18:53
KFTW 091853Z 20010G14KT 10SM CLR 37/21 A2991 RMK AO2 SLP118 T03670211

2010/08/09 18:53
KFUL 091853Z 00000KT 7SM CLR 23/13 A2992 RMK AO2 SLP129 T02330128

2010/08/09 18:53
KFWN 091853Z AUTO 20009KT 8SM FEW055 32/19 A2997 RMK AO2 SLP144 T03220194

2010/08/09 18:53
KFXE 091853Z 15008KT 10SM SCT028 BKN034 BKN041 30/23 A2990 RMK AO2 RAB17E29 SLP127 P0000 T03000228

2010/08/09 18:53
KGAG 091853Z AUTO 17013G20KT 10SM CLR 36/18 A2992 RMK AO2 SLP093 T03610183

2010/08/09 18:53
KGGG 091853Z 09004KT 10SM CLR 35/22 A2995 RMK AO2 SLP133 T03500222

2010/08/09 18:53
KGIF 091853Z AUTO 08006KT 10SM FEW034 32/23 A2990 RMK AO2 SLP123 T03170228 TSNO

2010/08/09 18:54
KIMT 091854Z AUTO 35009KT 10SM CLR 31/21 A2988 RMK AO2 SLP112 T03110211

2010/08/09 18:54
KIND 091854Z 26007KT 10SM FEW055 BKN140 BKN250 34/20 A2995 RMK AO2 SLP134 T03440200

2010/08/09 18:54
KINT 091854Z 15007KT 10SM SCT049 BKN075 32/21 A3005 RMK AO2 SLP162 T03170206

2010/08/09 18:54
KIPT 091854Z 33006KT 10SM CLR 32/14 A2996 RMK AO2 SLP142 T03220144

2010/08/09 18:54
KISW 091854Z AUTO 31003KT 10SM BKN026 BKN034 29/23 A2993 RMK AO2 SLP128 T02940233 TSNO

2010/08/09 18:55
KIWD 091855Z AUTO 32006KT 10SM CLR 28/21 A2991 RMK AO1

2010/08/09 18:54
KIZG 091854Z AUTO VRB03KT 10SM FEW110 30/16 A2991 RMK AO2 SLP125 T03000161

2010/08/09 18:55
KJHW 091855Z AUTO 22007KT 10SM SCT060 27/18 A3002 RMK AO1 57007

2010/08/09 18:54
KJST 091854Z AUTO 28005KT 10SM FEW075 28/13 A3009 RMK AO2 SLP173 T02780128

2010/08/09 18:56
KJWG 091856Z AUTO 21009KT 10SM SCT075 36/22 A2992 RMK AO2

2010/08/09 18:55
KKLS 091855Z AUTO 30006KT 10SM OVC025 17/11 A3000 RMK AO1

2010/08/09 18:54
KLAF 091854Z 28005KT 10SM CLR 32/24 A2994 RMK AO2 SLP133 T03220244

2010/08/09 18:55
KLBL 091855Z 19014G20KT 10SM CLR 37/15 A2995 RMK AO1

2010/08/09 18:54
KLBT 091854Z AUTO 09005KT 10SM CLR 34/20 A3000 RMK AO2 SLP158 T03440200

2010/08/09 18:55
KLCI 091855Z AUTO 24008KT 10SM SCT065 SCT110 31/16 A2990 RMK AO1

2010/08/09 18:55
KLEW 091855Z 22008KT 10SM FEW050 SCT065 BKN100 30/18 A2993 RMK AO1

2010/08/09 18:55
KLGD 091855Z AUTO 00000KT 10SM CLR 25/07 A2985 RMK AO1

2010/08/09 18:54
KLNK 091854Z VRB05KT 10SM CLR 34/25 A2985 RMK AO2 SLP094 T03440250

2010/08/09 18:55
KLPC 091855Z AUTO 25008KT 10SM CLR 19/13 A2995 RMK AO1 PNO

2010/08/09 18:54
KLWM 091854Z 22012G19KT 10SM BKN065 33/16 A2991 RMK AO2 SLP128 T03330161

2010/08/09 18:54
KLWT 091854Z AUTO 08006KT 10SM CLR 27/09 A2992 RMK AO2 SLP095 T02670089

2010/08/09 18:55
KMBL 091855Z AUTO 27011KT 10SM FEW022 BKN033 27/21 A2991 RMK AO1

2010/08/09 18:54
KMFI 091854Z AUTO 27005KT 10SM CLR 30/22 A2993 RMK AO2 SLP125 T03000222

2010/08/09 18:54
KMGJ 091854Z AUTO 22005KT 10SM CLR 32/17 A2995 RMK AO2 SLP138 T03220172

2010/08/09 18:52
KMHV 091852Z 06004KT 40SM SKC 28/01 A2997

2010/08/09 18:54
KMIV 091854Z AUTO VRB05KT 10SM CLR 32/16 A2999 RMK AO2 SLP152 T03220156

2010/08/09 18:55
KMJX 091855Z AUTO 15008KT 10SM BKN075 32/21 A2996 RMK AO1

2010/08/09 18:54
KMKC 091854Z 18008G17KT 10SM CLR 36/24 A2986 RMK AO2 SLP101 T03610244

2010/08/09 18:55
KMKT 091855Z AUTO 12004KT 10SM FEW027 29/23 A2991 RMK AO1

2010/08/09 18:55
KMML 091855Z AUTO 07008KT 10SM CLR 29/21 A2992 RMK AO1

2010/08/09 18:55
KMNM 091855Z AUTO 16007KT 5SM CLR 28/23 A2987 RMK AO1

2010/08/09 18:54
KMOT 091854Z 00000KT 10SM CLR 29/18 A2984 RMK AO2 SLP096 T02940178

2010/08/09 18:55
KMRF 091855Z AUTO 29004KT 10SM VCTS FEW055 A3011 RMK AO1 LTG DSNT SW TSB47

2010/08/09 18:54
KAAO 091854Z AUTO 20007G16KT 10SM SCT070 37/19 A2989 RMK AO2 SLP102 T03720194

2010/08/09 18:55
KAIZ 091855Z AUTO 31003KT 10SM CLR 35/23 A2993 RMK AO1

2010/08/09 18:54
KAKH 091854Z AUTO 00000KT 10SM CLR 34/20 A3003 RMK AO2 SLP158 T03390200

2010/08/09 18:54
KAKR 091854Z AUTO 21010KT 10SM CLR 31/17 A3001 RMK AO2 SLP153 T03110172

2010/08/09 18:54
KALO 091854Z AUTO 10007KT 10SM CLR 31/23 A2990 RMK AO2 SLP117 T03060233

2010/08/09 18:50
KANE 091850Z 01004KT 12SM SKC 31/23 A2992

2010/08/09 18:54
KAPC 091854Z VRB04KT 10SM OVC013 16/12 A2993 RMK AO2 SLP126 T01610117 $

2010/08/09 18:55
KARG 091855Z AUTO 12006KT 10SM CLR 35/25 A2991 RMK AO1

2010/08/09 18:55
KAUO 091855Z AUTO 07005KT 10SM FEW095 34/20 A2999 RMK AO1

2010/08/09 18:54
KAUW 091854Z AUTO 27008KT 10SM FEW049 SCT060 31/22 A2990 RMK AO2 SLP119 T03110217

2010/08/09 18:54
KAVL 091854Z 36003KT 10SM CLR 31/18 A3010 RMK AO2 SLP162 T03110183

2010/08/09 18:55
KAWO 091855Z AUTO 00000KT 10SM 16/13 A3000 RMK AO1

2010/08/09 18:54
KBFL 091854Z 32008KT 10SM CLR 29/13 A2986 RMK AO2 SLP106 T02890128

2010/08/09 18:55
KBHB 091855Z AUTO 20008KT 10SM FEW033 BKN050 23/21 A2990 RMK AO1

2010/08/09 18:55
KBID 091855Z AUTO 22016KT 10SM CLR 26/23 A2998 RMK AO1

2010/08/09 18:55
KBKX 091855Z AUTO 05014KT 10SM CLR 31/18 A2995 RMK AO1

2010/08/09 18:55
KBLM 091855Z AUTO 17010KT 10SM FEW060 31/18 A3001 RMK AO1

2010/08/09 18:53
KGJT 091853Z 13003KT 10SM SCT090 SCT110 26/11 A3012 RMK AO2 RAB1756E21 SLP132 VCSH E-S P0000 T02560111

2010/08/09 18:53
KGKJ 091853Z AUTO 22007KT 10SM FEW090 29/17 A3003 RMK AO2 SLP157 T02890167

2010/08/09 18:53
KGKY 091853Z 16009KT 10SM SCT060 36/21 A2992 RMK AO2 SLP122 T03560211

2010/08/09 18:53
KGLD 091853Z AUTO 09010G19KT 10SM CLR 32/17 A3000 RMK AO2 SLP107 T03220172

2010/08/09 18:53
KGNV 091853Z 11010KT 10SM FEW040 31/24 A2992 RMK AO2 RAB17E27 SLP129 P0000 T03110244

2010/08/09 18:53
KGOK 091853Z AUTO 17010KT 10SM CLR 37/22 A2989 RMK AO2 SLP108 T03720217

2010/08/09 18:53
KGUY 091853Z AUTO 18011KT 10SM CLR 37/13 A2993 RMK AO2 SLP074 T03720128

2010/08/09 18:53
KGZH 091853Z AUTO 13006KT 10SM CLR 33/24 A2999 RMK AO2 SLP150 T03330244

2010/08/09 18:53
KHBR 091853Z AUTO 18010KT 10SM CLR 38/16 A2991 RMK AO2 SLP102 T03830156

2010/08/09 18:53
KHUF 091853Z 17006KT 10SM CLR 33/22 A2995 RMK AO2 SLP135 T03330222

2010/08/09 18:53
KHVN 091853Z 20008KT 10SM CLR 32/19 A2995 RMK AO2 SLP142 T03170194

2010/08/09 18:53
KCPS 091853Z 13005KT 10SM HZ CLR 34/26 A2990 RMK AO2 SLP120 T03390261

2010/08/09 18:53
KCRE 091853Z 11008KT 10SM CLR 30/26 A3001 RMK AO2 SLP161 T03000256

2010/08/09 18:53
KCRG 091853Z VRB03KT 5SM -RA BR FEW004 BKN018 OVC030 27/26 A2995 RMK AO2 RAB08 SLP142 P0026 T02720256

2010/08/09 18:53
KCRS 091853Z AUTO 16007KT 10SM CLR 36/21 A2993 RMK AO2 SLP129 T03610206

2010/08/09 18:53
KCSM 091853Z 20012G18KT 10SM CLR 38/16 A2993 RMK AO2 SLP104 T03830161

2010/08/09 18:53
KCSV 091853Z AUTO 18004KT 10SM CLR 31/22 A3008 RMK AO2 SLP160 T03060222

2010/08/09 18:53
KCUB 091853Z AUTO 11003KT 10SM SCT055 34/21 A3001 RMK AO2 SLP158 T03390206

2010/08/09 18:53
KCYS 091853Z VRB04KT 10SM BKN100 24/09 A3017 RMK AO2 SLP131 T02390089

2010/08/09 18:53
KDEN 091853Z 12007KT 10SM SCT060 SCT075 BKN140 27/12 A3009 RMK AO2 SLP106 T02720122

2010/08/09 18:53
KDEQ 091853Z AUTO VRB03KT 10SM CLR 36/23 A2992 RMK AO2 SLP123 T03560228

2010/08/09 18:53
KDET 091853Z 31007KT 10SM CLR 28/20 A2997 RMK AO2 RAB37E48 SLP143 P0000 T02780200

2010/08/09 18:53
KDFI 091853Z AUTO 20008KT 8SM FEW055 31/19 A2997 RMK AO2 SLP142 T03110189

2010/08/09 18:53
KDFW 091853Z 14008KT 10SM SCT060 35/21 A2992 RMK AO2 SLP119 T03500206

2010/08/09 18:53
KDGW 091853Z AUTO 14008KT 10SM BKN100 29/06 A3004 RMK AO2 SLP109 T02890061

2010/08/09 18:53
KDHN 091853Z 03008KT 10SM SCT055 33/23 A3001 RMK AO2 SLP156 T03330228

2010/08/09 18:53
KDKK 091853Z AUTO 24008KT 9SM BKN070 28/18 A2997 RMK AO2 SLP143 T02830183

2010/08/09 18:53
KDMO 091853Z AUTO 19007KT 10SM CLR 35/24 A2992 RMK AO2 SLP120 T03500244

2010/08/09 18:53
KDRO 091853Z AUTO 25009G15KT 10SM FEW075 27/07 A3022 RMK AO2 SLP140 T02670072 $

2010/08/09 18:53
KDTN 091853Z VRB03KT 10SM CLR 36/21 A2994 RMK AO2 SLP133 T03560211

2010/08/09 18:53
KDTO 091853Z 15011KT 10SM SCT060 37/22 A2991 RMK AO2 SLP118 T03670217

2010/08/09 18:53
KDTW 091853Z 27009KT 9SM FEW010 SCT040 OVC130 27/20 A2997 RMK AO2 RAB1755E37 SLP144 P0000 T02720200

2010/08/09 18:53
KDXR 091853Z 21008KT 7SM SCT060 32/17 A2997 RMK AO2 SLP144 T03220172

2010/08/09 18:53
KECP 091853Z 06007G14KT 10SM FEW050 34/22 A2994 RMK AO2 SLP148 T03440222

2010/08/09 18:53
KEEO 091853Z AUTO 00000KT 10SM OVC070 19/11 A3023 RMK AO2 SLP170 T01940106 TSNO

2010/08/09 18:53
KEGE 091853Z 24010G15KT 10SM BKN085 21/08 A3025

2010/08/09 18:53
KELD 091853Z AUTO 20004KT 10SM FEW050 36/23 A2994 RMK AO2 SLP132 T03560233

2010/08/09 18:53
KELM 091853Z 24007KT 10SM CLR 31/17 A2996 RMK AO2 SLP138 T03110172

2010/08/09 18:53
KEYW 091853Z 24013G19KT 10SM FEW024 BKN075 28/24 A2991 RMK AO2 RAE07 SLP129 P0000 T02830239

2010/08/09 18:53
KPMP 091853Z 12014G19KT 10SM -RA SCT025 BKN046 28/25 A2991 RMK AO2 RAB31 SLP130 P0000 T02830250

2010/08/09 18:50
KPNA 091850Z AUTO 11006KT 10SM SCT095 SCT120 22/00 A3016 RMK AO2 T02201001

2010/08/09 18:53
KPNC 091853Z AUTO 15007G16KT 10SM CLR 37/22 A2989 RMK AO2 SLP105 T03670217

2010/08/09 18:53
KPNS 091853Z AUTO 15010KT 10SM CLR 33/24 A2996 RMK AO2 SLP146 T03280244 TSNO

2010/08/09 18:49
KDOV 091849Z AUTO 11007KT 10SM FEW150 31/21 A2999 RMK AO2 RAE1756B1827E1849 SLP159

2010/08/09 18:53
KOGB 091853Z AUTO 09005KT 10SM CLR 34/20 A3000 RMK AO2 SLP157 T03390200

2010/08/09 18:53
KOJC 091853Z 20012KT 10SM CLR 36/24 A2989 RMK AO2 SLP105 T03560239

2010/08/09 18:50
KONL 091850Z AUTO 00000KT 10SM CLR 26/21 A2994 RMK AO2 T02610213

2010/08/09 18:53
KOPF 091853Z 20009KT 10SM -RA SCT013 BKN021 27/24 A2992 RMK AO2 RAE10B52 SLP133 P0000 T02670244

2010/08/09 18:53
KORL 091853Z 14006KT 10SM FEW037 32/24 A2990 RMK AO2 RAB36E47 SLP127 P0000 T03170239

2010/08/09 18:53
KOTM 091853Z AUTO 19008KT 10SM CLR 29/23 A2989 RMK AO2 SLP114 T02890228

2010/08/09 18:53
KPBG 091853Z AUTO 11006KT 1 3/4SM RA BR BKN015 BKN049 23/22 A2989 RMK AO2 VIS 3/4V5 TSE01RAB28 SLP119 P0021 T02330217

2010/08/09 18:53
KPBI 091853Z 13015KT 10SM SCT024CB SCT085 BKN250 30/23 A2990 RMK AO2 SLP126 CB SW MOV NW TCU OHD CB DSNT ALQDS T03040230

2010/08/09 18:53
KPEO 091853Z AUTO 20007KT 10SM FEW075 29/18 A2998 RMK AO2 SLP142 T02890178

2010/08/09 18:53
KPGD 091853Z AUTO VRB04KT 10SM FEW090 31/23 A2990 RMK AO2 SLP124 T03110233 TSNO

2010/08/09 18:53
KPHD 091853Z AUTO 22006KT 10SM CLR 30/18 A3003 RMK AO2 SLP162 T03000178

2010/08/09 18:53
KPIE 091853Z 00000KT 10SM -RA BKN028 28/24 A2989 RMK AO2 LTG DSNT N RAB21 SLP122 P0001 T02830239

2010/08/09 18:53
KPMD 091853Z 00000KT 10SM CLR 30/00 A2995 RMK AO2 SLP113 T03000000

2010/08/09 18:50
KTIF 091850Z AUTO 11003KT 10SM CLR 28/19 A2999 RMK AO2 T02840189

2010/08/09 18:53
KTKI 091853Z 15010G15KT 10SM SCT060 36/23 A2992 RMK AO2 SLP124 T03560228

2010/08/09 18:53
KTMB 091853Z 17007KT 10SM -RA BR SCT010 SCT020 SCT048 28/25 A2992 RMK AO2 SLP131 P0000 T02780250

2010/08/09 18:53
KTOI 091853Z 10005KT 10SM CLR 34/22 A2999 RMK AO2 SLP149 T03440222

2010/08/09 18:53
KTOP 091853Z 18010KT 10SM CLR 39/22 A2986 RMK AO2 SLP097 T03890222

2010/08/09 18:53
KTOR 091853Z AUTO 19003KT 10SM -RA FEW110 25/16 A3004 RMK AO2 LTG DSNT NE RAE19B50 SLP123 P0000 T02500156

2010/08/09 18:53
KTPA 091853Z 25005KT 6SM -RA FEW012 BKN028CB OVC250 28/25 A2989 RMK AO2 RAB30 SLP121 VIS W 2 1/2 CB ALQDS MOV SW P0019 T02780250

2010/08/09 18:53
KTRL 091853Z AUTO 17011G17KT 10SM FEW055 36/18 A2993 RMK AO2 SLP128 T03560178

2010/08/09 18:53
KTTN 091853Z 24008KT 8SM FEW060 34/18 A2997 RMK AO2 SLP140 T03390178

2010/08/09 18:53
KTUL 091853Z 16011G14KT 10SM FEW060 37/21 A2990 RMK AO2 SLP113 T03670211

2010/08/09 18:53
KTWF 091853Z 18016G23KT 10SM CLR 28/06 A2993 RMK AO2 PK WND 14029/1829 SLP074 T02830061

2010/08/09 18:53
KTXK 091853Z VRB05KT 10SM CLR 36/23 A2994 RMK AO2 SLP132 T03560228

2010/08/09 18:53
KTYR 091853Z 16005KT 10SM CLR 36/21 A2997 RMK AO2 SLP138 T03560206

2010/08/09 18:53
KUNO 091853Z AUTO 19005KT 10SM CLR 37/21 A2996 RMK AO2 LTG DSNT E SLP128 T03720206

2010/08/09 18:53
KUUU 091853Z AUTO 20009G17KT 10SM CLR 27/21 A2998 RMK AO2 SLP150 T02720211

2010/08/09 18:53
KVIH 091853Z AUTO 00000KT 10SM FEW038 33/24 A2994 RMK AO2 SLP122 T03330244

2010/08/09 18:53
KVLD 091853Z VRB06KT 10SM SCT049 34/22 A2995 RMK AO2 SLP149 T03390217

2010/08/09 18:53
KVPC 091853Z AUTO VRB04KT 10SM CLR 34/21 A3002 RMK AO2 SLP151 T03440206

2010/08/09 18:53
KVRB 091853Z 12014KT 10SM CLR 31/23 A2991 RMK AO2 SLP127 T03060233

2010/08/09 18:47
KWHP 091847Z 14006KT 10SM SKC 27/

2010/08/09 18:53
KYIP 091853Z AUTO 31009KT 10SM -RA FEW100 27/21 A2998 RMK AO2 SLP145 P0000 T02670211 TSNO

2010/08/09 18:53
KZZV 091853Z AUTO VRB06KT 10SM CLR 31/18 A3002 RMK AO2 SLP159 T03110178

2010/08/09 18:53
PASC 091853Z 06022KT 3SM BR OVC003 04/03 A2974 RMK AO2 PK WND 06027/1839 SLP072 T00440033

2010/08/09 18:53
PASI 091853Z 24003KT 10SM BKN007 OVC028 14/12 A2998 RMK AO2 SLP151 T01390117

2010/08/09 18:53
PASO 091853Z AUTO 16007G19KT 10SM FEW036 SCT043 14/11 A2963 RMK AO2 SLP034 T01390106 TSNO

2010/08/09 18:53
PATO 091853Z AUTO 12015G32KT 2 1/2SM -RA BR OVC023 12/11 A2973 RMK AO2 PK WND 11039/1833 SLP067 P0003 T01170106 TSNO

2010/08/09 18:53
PAVL 091853Z AUTO 07017KT 8SM -RA CLR 16/09 A2945 RMK AO2 SLP974 P0000 T01610094 TSNO

2010/08/09 18:53
PAWD 091853Z AUTO A2971 RMK AO2 SLP062 PWINO FZRANO TSNO $

2010/08/09 18:54
PGUM 091854Z 17003KT 10SM CLR 25/24 A2991 RMK AO2 SLP120 T02500239

2010/08/09 18:54
PGSN 091854Z 11005KT 6SM RA BR SCT016 BKN040 BKN110 25/24 A2991 RMK AO2 SLP124 P0013 T02500239

2010/08/09 18:53
PKMR 091853Z 07005KT 15SM SCT015 BKN045 BKN110 OVC300 28/24 A2983 RMK SLP102 T02760242

2010/08/09 18:53
PAAQ 091853Z 15015G21KT 10SM BKN090 18/07 A2964 RMK AO2 SLP031 T01830067

2010/08/09 18:53
PABR 091853Z 07020G26KT 5SM -DZ BR OVC003 02/02 A2988 RMK AO2 PK WND 06026/1849 DZB46 SLP118 P0000 T00170017

2010/08/09 18:53
PACV 091853Z 11006KT 10SM FEW012 OVC031 13/11 A2983 RMK AO2 RAE04B43E53 SLP103 P0001 T01330111

2010/08/09 18:53
PADE 091853Z AUTO 08011KT 10SM -RA FEW045 SCT055 13/12 A2939 RMK AO2 SLP951 P0001 T01280117 TSNO

2010/08/09 18:48
PADL 091848Z 17015G23KT 3SM -RA BR SCT005 OVC010 11/09 A2953 RMK SCT V BKN

2010/08/09 18:53
PAEG 091853Z AUTO 13011G18KT 10SM SCT060 BKN095 17/09 A2961 RMK AO2 SLP026 T01720094 TSNO

2010/08/09 18:53
PAEN 091853Z 00000KT 10SM OVC075 16/12 A2963 RMK AO2 SLP033 T01610122

2010/08/09 18:53
PAGK 091853Z 16016G25KT 10SM FEW060 SCT080 SCT110 SCT150 15/07 A2970 RMK AO2 PK WND 16029/1811 SLP055 T01500072

2010/08/09 18:53
PAGY 091853Z AUTO 21016KT 10SM FEW050 OVC065 14/10 A2993 RMK AO2 SLP137 T01440100 TSNO

2010/08/09 18:53
PAIL 091853Z 14006KT 10SM FEW034 BKN049 OVC080 13/09 A2958 RMK AO2 SLP020 T01280094

2010/08/09 18:53
PAKV 091853Z AUTO 00000KT 7SM -RA FEW006 SCT010 OVC021 13/12 A2947 RMK AO2 RAB12 SLP982 P0005 T01280122 TSNO

2010/08/09 18:53
PALH 091853Z 35006KT 10SM OVC065 15/12 A2964 RMK AO2 SLP036 T01500122

2010/08/09 18:53
PAMR 091853Z VRB03KT 10SM BKN070 OVC085 15/11 A2962 RMK AO2 SLP032 T01500106

2010/08/09 18:53
PAPB 091853Z AUTO 22010KT 1/4SM FG VV001 08/08 A2929 RMK AO2 SLP906 T00780078 TSNO

2010/08/09 18:54
PHMK 091854Z 08014G20KT 10SM CLR 29/14 A3009 RMK AO2 PK WND 08028/1843 SLP191 T02890139

2010/08/09 18:54
KSBY 091854Z 17009G16KT 10SM SCT060 33/19 A3001 RMK AO2 SLP164 T03280189

2010/08/09 18:55
KSDY 091855Z AUTO 08006KT 10SM CLR 29/14 A2986 RMK AO1

2010/08/09 18:54
KSET 091854Z AUTO 15006KT 10SM CLR 34/25 A2989 RMK AO2 SLP115 T03390250

2010/08/09 18:55
KSFM 091855Z 24007KT 1 1/2SM SCT002 SCT060 BKN120 32/17 A2991 RMK AO1

2010/08/09 18:55
KSFZ 091855Z 23004KT 10SM FEW050 31/20 A2994 RMK AO1

2010/08/09 18:55
KSGT 091855Z 00000KT CLR 36/23 A2994 RMK AO1

2010/08/09 18:55
KSGU 091855Z AUTO 00000KT 10SM CLR 28/13 A3002 RMK AO1

2010/08/09 18:54
KSJN 091854Z AUTO 31003KT 10SM SCT100 26/10 A3020 RMK AO2 SLP140 T02560100

2010/08/09 18:55
KSKX 091855Z AUTO 20005KT 10SM CLR 26/09 A3023 RMK AO1 LTG DSNT E

2010/08/09 18:55
KSLG 091855Z AUTO 24006KT 10SM FEW055 36/21 A2997 RMK AO1

2010/08/09 18:55
KSMN 091855Z AUTO 23010KT 10SM SCT090 OVC110 21/10 A3001 RMK AO1

2010/08/09 18:55
KSQI 091855Z AUTO 00000KT 10SM CLR 29/23 A2995 RMK AO1

2010/08/09 18:55
KSUE 091855Z AUTO 16003KT 10SM SCT022 SCT038 BKN049 28/23 A2992 RMK AO1

2010/08/09 18:54
KTAD 091854Z AUTO VRB03KT 10SM FEW110 27/13 A3012 RMK AO2 LTG DSNT SE-SW SLP116 T02670133

2010/08/09 18:54
KTQE 091854Z AUTO 33005KT 9SM BKN017 29/26 A2986 RMK AO2 SLP097 T02940256

2010/08/09 18:55
KTVF 091855Z AUTO 22011G16KT 10SM CLR 33/17 A2987 RMK AO1

2010/08/09 18:56
KUCP 091856Z AUTO 00000KT 10SM FEW085 31/18 A3003 RMK AO2 T03110177 SLP173

2010/08/09 18:54
KUIN 091854Z AUTO 18008KT 10SM CLR 31/25 A2990 RMK AO2 SLP116 T03110250

2010/08/09 18:54
KUZA 091854Z AUTO VRB03KT 7SM FEW045 SCT075 33/22 A3003 RMK AO2 SLP154 T03280222

2010/08/09 18:54
KVAY 091854Z AUTO VRB03KT 10SM FEW060 33/17 A2997 RMK AO2 SLP149 T03330172

2010/08/09 18:55
KVBT 091855Z AUTO 19006KT 10SM FEW050 36/22 A2996 RMK AO1

2010/08/09 18:55
KVIS 091855Z AUTO 29003KT 10SM CLR 27/16 A2987 RMK AO1

2010/08/09 18:54
KVSF 091854Z AUTO 27005KT 10SM FEW065 29/17 A2993 RMK AO2 LTG DSNT N SLP132 T02890172

2010/08/09 18:54
KVTA 091854Z AUTO 23003KT 10SM FEW045 30/18 A3001 RMK AO2 SLP156 T03000183

2010/08/09 18:54
KWLD 091854Z AUTO 17010G16KT 10SM CLR 37/22 A2991 RMK AO2 SLP112 T03720217

2010/08/09 18:55
KWVL 091855Z AUTO 24003KT 10SM FEW046 SCT060 SCT065 28/18 A2987 RMK AO1

2010/08/09 18:55
KYKN 091855Z AUTO 00000KT 10SM SCT016 28/23 A2990 RMK AO1

2010/08/09 18:55
KILE 091855Z AUTO 17007G15KT 10SM FEW065 35/21 A2994 RMK AO1

2010/08/09 18:54
KILN 091854Z AUTO 00000KT 10SM SCT050 32/19 A3001 RMK AO2 SLP149 T03170194

2010/08/09 18:53
KPOU 091853Z 21007KT 180V240 10SM CLR 33/14 A2993 RMK AO2 SLP132 T03280144

2010/08/09 18:53
KPTK 091853Z 23008KT 9SM -RA BKN017 OVC130 24/22 A2997 RMK AO2 RAB1757 SLP142 P0002 T02440217

2010/08/09 18:50
KPTT 091850Z AUTO 17011G18KT 10SM CLR 37/15 A2991 RMK AO2

2010/08/09 18:53
KPUB 091853Z 18003KT 10SM CLR 26/15 A3007 RMK AO2 SLP119 T02610150 $

2010/08/09 18:53
KPUC 091853Z AUTO VRB05KT 10SM CLR 24/07 A3017 RMK AO2 SLP151 T02390067

2010/08/09 18:53
KPWA 091853Z 17014G19KT 140V200 10SM CLR 37/21 A2991 RMK AO2 SLP108 T03670206

2010/08/09 18:53
KRAL 091853Z 26005KT 8SM CLR 26/12 A2991 RMK AO2 SLP112 T02560117

2010/08/09 18:53
KRBD 091853Z VRB04G14KT 10SM FEW050 36/22 A2993 RMK AO2 SLP122 T03610217

2010/08/09 18:53
KRSL 091853Z AUTO 17010KT 10SM CLR 38/19 A2986 RMK AO2 SLP086 T03780194

2010/08/09 18:53
KRSW 091853Z AUTO VRB06KT 10SM FEW035 32/23 A2986 RMK AO2 RAB12E21 SLP110 P0000 T03220233 TSNO

2010/08/09 18:53
KRVS 091853Z 17009G15KT 10SM FEW065 38/21 A2990 RMK AO2 SLP125 T03780206

2010/08/09 18:53
KRWI 091853Z AUTO 11005KT 10SM CLR 32/20 A3002 RMK AO2 SLP164 T03220200

2010/08/09 18:53
KRWL 091853Z AUTO 20011G21KT 10SM SCT070 BKN085 20/05 A3022 RMK AO2 RAB00E45 SLP153 T02000050 PNO $

2010/08/09 18:53
KSEG 091853Z AUTO VRB04KT 9SM CLR 32/18 A2998 RMK AO2 SLP149 T03170178

2010/08/09 18:49
KSEZ 091849Z AUTO 21006KT 10SM BKN090 OVC120 27/09 A3015 RMK AO2 T02650086

2010/08/09 18:53
KSLN 091853Z 17011KT 10SM CLR 39/19 A2984 RMK AO2 SLP086 T03940194

2010/08/09 18:53
KSMQ 091853Z AUTO VRB05KT 10SM CLR 33/19 A2994 RMK AO2 SLP137 T03330194 $

2010/08/09 18:53
KSNY 091853Z AUTO 20006KT 10SM CLR 33/11 A3005 RMK AO2 SLP114 T03330106

2010/08/09 18:53
KSPG 091853Z 00000KT 10SM FEW060 31/24 A2987 RMK AO2 SLP116 T03060244

2010/08/09 18:53
KSRQ 091853Z VRB04KT 10SM SCT026 31/23 A2987 RMK AO2 SLP115 T03110233

2010/08/09 18:53
KSSI 091853Z AUTO 06013KT 10SM CLR 32/25 A2997 RMK AO2 SLP147 T03170250

2010/08/09 18:53
KSTJ 091853Z 19012G17KT 10SM CLR 33/24 A2985 RMK AO2 SLP096 T03330244

2010/08/09 18:53
KSWO 091853Z 16013G17KT 10SM CLR 39/20 A2989 RMK AO2 SLP104 T03890200

2010/08/09 18:50
KSZT 091850Z AUTO 14006KT 10SM CLR 24/16 A2985 RMK AO2

2010/08/09 18:53
KTDZ 091853Z AUTO 28004KT 7SM CLR 30/20 A2997 RMK AO2 SLP144 T03000200

2010/08/09 18:50
KTEX 091850Z AUTO 00000KT 10SM BKN100 18/09 A3041 RMK AO2 LTG DSNT SE

2010/08/09 18:53
KTHV 091853Z AUTO 00000KT 10SM CLR 33/19 A2999 RMK AO2 SLP153 T03330194

2010/08/09 18:53
KMCO 091853Z 15009KT 10SM SCT033TCU BKN060 BKN190 32/23 A2990 RMK AO2 SLP122 TCU SW-NW T03220233

2010/08/09 18:53
KMCW 091853Z AUTO 15005KT 10SM FEW026 28/23 A2995 RMK AO2 SLP127 T02830233

2010/08/09 18:53
KMFE 091853Z 09007KT 10SM SCT040 34/24 A2988 RMK AO2 SLP117 T03440239

2010/08/09 18:53
KMHE 091853Z AUTO 14006KT 10SM CLR 30/24 A2990 RMK AO2 SLP117 T03000239 TSNO

2010/08/09 18:53
KMIA 091853Z 16007KT 10SM FEW013 SCT075 BKN150 27/24 A2992 RMK AO2 RAE14 SLP133 P0000 T02720239

2010/08/09 18:53
KMKO 091853Z AUTO VRB05KT 10SM SCT060 37/21 A2993 RMK AO2 SLP126 T03670211

2010/08/09 18:53
KMLB 091853Z 11010KT 10SM SCT015CB 31/24 A2991 RMK AO2 SLP127 T03110239

2010/08/09 18:53
KMLC 091853Z AUTO VRB05G19KT 10SM FEW065 36/19 A2993 RMK AO2 SLP123 T03610194

2010/08/09 18:50
KMLE 091850Z AUTO 18003KT 10SM CLR 32/23 A2985 RMK AO2 T03240233

2010/08/09 18:49
KMMH 091849Z AUTO 12009G19KT 10SM CLR 22/M03 A3017 RMK AO1

2010/08/09 18:53
KMTH 091853Z AUTO 21007KT 10SM BKN065 29/23 A2991 RMK AO2 SLP129 T02890233

2010/08/09 18:53
KMTJ 091853Z AUTO 29008KT 10SM SCT085 26/11 A3020 RMK AO2 SLP143 T02560106

2010/08/09 18:53
KMTO 091853Z AUTO 18006KT 10SM FEW050 33/24 A2993 RMK AO2 SLP128 T03330244 $

2010/08/09 18:53
KMWL 091853Z AUTO 16011G16KT 120V220 10SM FEW060 37/20 A2991 RMK AO2 SLP113 T03720200

2010/08/09 18:53
KMYF 091853Z 26008KT 220V280 10SM CLR 22/14 A2993 RMK AO2 SLP133 T02220139

2010/08/09 18:53
KODO 091853Z AUTO 17010KT 10SM CLR 32/17 A3002 RMK AO2 SLP115 T03220172

2010/08/09 18:50
KOGA 091850Z AUTO 12006KT 10SM CLR 30/19 A2999 RMK AO2 T03000187

2010/08/09 18:54
KBUF 091854Z 23008KT 9SM SCT060 SCT110 BKN130 OVC180 27/18 A2994 RMK AO2 RAE04 SLP135 P0000 T02670183

2010/08/09 18:54
KCOS 091854Z AUTO 10004KT 10SM CLR 23/13 A3019 RMK AO2 SLP139 T02330128 TSNO

2010/08/09 18:54
KCRW 091854Z 28004KT 8SM FEW050 32/18 A3003 RMK AO2 SLP158 T03170183

2010/08/09 18:54
KDSM 091854Z 16004KT 10SM FEW024 SCT250 31/24 A2987 RMK AO2 SLP105 T03060244

2010/08/09 18:54
KORH 091854Z 25011G17KT 10SM CLR 31/16 A2998 RMK AO2 SLP145 T03060161

2010/08/09 18:54
KPIA 091854Z VRB04KT 10SM CLR 31/23 A2992 RMK AO2 SLP125 T03060228

2010/08/09 18:54
KROC 091854Z 22007KT 9SM BKN070 OVC130 27/21 A2994 RMK AO2 SLP136 T02720206

2010/08/09 18:55
KDVL 091855Z AUTO 21013KT 10SM CLR 33/19 A2985 RMK AO1

2010/08/09 18:55
KEAR 091855Z AUTO 10006KT 10SM CLR 30/23 A2995 RMK AO1

2010/08/09 18:55
KGPZ 091855Z AUTO 27005KT 10SM CLR 29/21 A2993 RMK AO1

2010/08/09 18:50
LIEA 091850Z VRB02KT CAVOK 23/18 Q1016

2010/08/09 18:45
LIEE 091845Z 18001KT 9999 SCT050 26/21 Q1015 NOSIG

2010/08/09 18:50
LIEO 091850Z 02003KT CAVOK 26/21 Q1016

2010/08/09 18:50
LIMC 091850Z VRB01KT CAVOK 25/16 Q1015 NOSIG

2010/08/09 18:50
LIME 091850Z 19005KT 9999 FEW040 25/16 Q1015

2010/08/09 18:50
LIMF 091850Z 05005KT 9999 FEW060 24/18 1015

2010/08/09 18:50
LIMJ 091850Z VRB01KT 9999 FEW015 25/20 Q1015

2010/08/09 18:50
LIML 091850Z VRB02KT CAVOK 26/16 Q1014 NOSIG

2010/08/09 18:45
LIRA 091845Z 21004KT 9999 FEW080 SCT200 25/21 Q1015

2010/08/09 18:50
LIRF 091850Z 29005KT 260V320 CAVOK 23/20 Q1015 NOSIG

2010/08/09 18:50
LIRN 091850Z 31004KT CAVOK 24/18 Q1015

2010/08/09 18:45
LIRP 091845Z 26003KT 9999 SCT020 24/21 Q1015 NOSIG

2010/08/09 18:50
LIRQ 091850Z 26006KT 220V280 CAVOK 25/19 Q1015

2010/08/09 18:53
KHLC 091853Z AUTO 09007KT 10SM CLR 36/21 A2989 RMK AO2 SLP091 T03560211

2010/08/09 18:53
KCRQ 091853Z 26007KT 220V290 10SM CLR 21/13 A2993 RMK AO2 SLP132 T02060133

2010/08/09 18:53
KDAL 091853Z 24005KT 10SM BKN060 35/21 A2992 RMK AO2 SLP121 TCU NE SW-OHD T03500211

2010/08/09 18:53
KEMP 091853Z AUTO 19013G17KT 10SM CLR 37/21 A2989 RMK AO2 SLP106 T03720206

2010/08/09 18:53
K40J 091853Z AUTO 04007KT 34/22 A2993 RMK AO2 SLP133 T03390217 PWINO TSNO

2010/08/09 18:53
KPOF 091853Z AUTO VRB05KT 10SM FEW055 34/26 A2991 RMK AO2 SLP122 T03440256

2010/08/09 18:50
KSOW 091850Z AUTO 26006KT 10SM BKN050 24/09 A3028 RMK AO2

2010/08/09 18:53
KMLU 091853Z 15003KT 10SM CLR 37/23 A2994 RMK AO2 SLP138 T03670228

2010/08/09 18:53
PAQT 091853Z AUTO 05017G26KT 2 1/2SM BR OVC004 03/03 A2978 RMK AO2 PK WND 05026/1845 SLP084 T00330028 TSNO

2010/08/09 18:53
PASN 091853Z 24010KT 2 1/2SM BR OVC003 09/09 A2924 RMK AO2 DZE39 SLP903 P0000 T00890089

2010/08/09 18:53
PATK 091853Z VRB05KT 10SM -RA OVC065 12/11 A2966 RMK AO2 RAB07E24B43 SLP047 P0000 T01220111

2010/08/09 18:53
PAYA 091853Z 12006KT 6SM BR FEW011 OVC024 14/12 A2993 RMK AO2 SLP135 BAY TWR WND 120MMKT T01440117

2010/08/09 18:53
PABE 091853Z 17016G22KT 2SM R19R/5500VP6000FT -RA BR SCT004 BKN007 OVC018 10/09 A2936 RMK AO2 PK WND 16026/1818 SLP943 SFC VIS 1V2 P0001 T01000094

2010/08/09 18:53
PABT 091853Z VRB03KT 10SM FEW014 BKN048 OVC080 15/11 A2957 RMK AO2 SLP020 SHRA DSNT NW T01500106

2010/08/09 18:53
PACD 091853Z 00000KT 10SM FEW015 BKN032 BKN065 BKN180 13/09 A2952 RMK AO2 SLP996 T01330089

2010/08/09 18:53
PAFA 091853Z 11005KT 10SM BKN075 BKN100 BKN120 14/11 A2957 RMK AO2 SLP017 T01440106

2010/08/09 18:53
PAHO 091853Z 26010KT 10SM SCT050 BKN200 15/11 A2964 RMK AO2 SLP038 T01500111

2010/08/09 18:53
PAJN 091853Z 09008KT 10SM FEW014 BKN034 OVC050 14/11 A2999 RMK AO2 SLP155 MTN TPS OBSCD ALQDS T01390111

2010/08/09 18:53
PAMC 091853Z 09004KT 7SM -RA SCT006 BKN015 OVC046 12/12 A2951 RMK AO2 RAB04E19B39 SLP997 P0000 T01220117

2010/08/09 18:53
PANC 091853Z 36006KT 10SM OVC060 13/12 A2963 RMK AO2 SLP033 T01330122

2010/08/09 18:53
PANN 091853Z AUTO 31006KT 10SM FEW110 16/09 A2955 RMK AO2 SLP011 T01610089 TSNO

2010/08/09 18:53
PAOM 091853Z 13010KT 10SM FEW013 SCT019 BKN039 12/09 A2933 RMK AO2 SLP933 T01170089

2010/08/09 18:53
PAOR 091853Z 00000KT 10SM FEW075 SCT095 BKN150 16/10 A2967 RMK AO2 SLP047 ACSL DSNT S W T01560100

2010/08/09 18:53
PAOT 091853Z 10018G24KT 10SM FEW040 BKN070 BKN090 16/11 A2943 RMK AO2 RAB30E49 SLP964 P0000 T01560111

2010/08/09 18:54
PHOG 091854Z 07017G26KT 10SM FEW035 SCT050 27/18 A3010 RMK AO2 PK WND 06026/1849 SLP197 T02720178

2010/08/09 18:51
KSAD 091851Z AUTO VRB03KT 10SM CLR 33/12 A2999 RMK AO2 SLP098 T03280117 TSNO

2010/08/09 18:54
KROC 091854Z 22007KT 9SM BKN070 OVC130 27/21 A2994 RMK AO2 SLP136 T02720206

2010/08/09 18:54
KCAR 091854Z AUTO 21006KT 10SM FEW032 BKN100 23/18 A2984 RMK AO2 SLP104 T02330178

2010/08/09 18:54
KROA 091854Z 13007KT 10SM BKN048 32/21 A3005 RMK AO2 SLP161 T03220206

2010/08/09 18:54
KMTP 091854Z AUTO 21007KT 27/22 A3000 RMK AO2 SLP157 T02720217 PWINO TSNO

2010/08/09 18:54
KGSO 091854Z VRB03KT 10SM SCT049 32/19 A3004 RMK AO2 SLP160 T03220194

2010/08/09 18:54
KACY 091854Z 16013G19KT 10SM CLR 31/20 A3001 RMK AO2 SLP160 T03110200

2010/08/09 18:54
K1V4 091854Z AUTO 27/17 A2990 RMK AO2 SLP116 T02670172 PWINO TSNO

2010/08/09 18:54
KNAK 091854Z AUTO 14010KT 7SM CLR 31/21 A2999 RMK AO2 SLP159 T03060211 TSNO

2010/08/09 18:54
KMQE 091854Z AUTO 24011G19KT 32/17 A2994 RMK AO1 SLP145 T03220167

2010/08/09 18:54
KSUS 091854Z VRB03KT 10SM BKN150 34/25 A2989 RMK AO2 SLP109 T03440250

2010/08/09 18:54
KSYR 091854Z 28011G18KT 10SM SCT050 BKN120 BKN200 31/18 A2993 RMK AO2 SLP128 T03110183

2010/08/09 18:54
KLEX 091854Z 29003KT 10SM FEW060 34/18 A3001 RMK AO2 SLP149 T03440178

2010/08/09 18:54
KLYH 091854Z 18004KT 10SM CLR 32/21 A3005 RMK AO2 SLP164 T03170206

2010/08/09 18:54
KDSV 091854Z AUTO 18005KT 10SM BKN070 29/19 A2997 RMK AO2 SLP150 T02940194

2010/08/09 18:54
KDYL 091854Z AUTO VRB06KT 10SM FEW055 32/18 A2998 RMK AO2 SLP146 T03220183 TSNO

2010/08/09 18:55
KDYR 091855Z AUTO 14003KT 9SM CLR 34/24 A2993 RMK AO1

2010/08/09 18:55
KEEN 091855Z AUTO 25005KT 10SM SCT060 31/18 A2993 RMK AO1

2010/08/09 18:55
KEHR 091855Z AUTO 00000KT 10SM CLR 35/22 A2994 RMK AO1

2010/08/09 18:55
KENV 091855Z AUTO 00000KT 8SM BKN095 OVC120 24/09 A3003 RMK AO1 P0002

2010/08/09 18:55
KESC 091855Z AUTO 14010KT 8SM CLR 27/21 A2987 RMK AO1

2010/08/09 18:54
KEUG 091854Z 32006KT 10SM OVC013 16/12 A3001 RMK AO2 SLP161 T01560117

2010/08/09 18:55
KEUL 091855Z AUTO 00000KT 10SM CLR 26/09 A2989 RMK AO1

2010/08/09 18:54
KEVV 091854Z VRB03KT 10SM SCT060 36/22 A2994 RMK AO2 SLP132 T03610217

2010/08/09 18:55
KEWK 091855Z AUTO 19014G20KT 10SM FEW070 38/19 A2987 RMK AO1

2010/08/09 18:54
KEWN 091854Z 14007KT 10SM SCT075 31/22 A3003 RMK AO2 SLP168 T03110222

2010/08/09 18:55
KFAM 091855Z AUTO 13003KT 10SM CLR 35/25 A2996 RMK AO1

2010/08/09 18:50
KFFZ 091850Z VRB05KT 50SM SCT150 35/07 A2989

2010/08/09 18:54
KFIG 091854Z AUTO VRB04KT 10SM CLR 31/14 A3004 RMK AO2 SLP163 T03060144

2010/08/09 18:55
KFKL 091855Z AUTO 23007KT 10SM OVC100 28/17 A3007 RMK AO1 57003

2010/08/09 18:55
KFLP 091855Z AUTO 00000KT 10SM FEW044 SCT055 36/25 A2995 RMK AO1

2010/08/09 18:55
KFNL 091855Z AUTO 12005KT 10SM CLR 28/12 A3007 RMK AO1 LTG DSNT SW

2010/08/09 18:55
KFOD 091855Z AUTO 14003KT 10SM OVC027 28/24 A2989 RMK AO1

2010/08/09 18:55
KFRM 091855Z 00000KT 10SM CLR 28/23 A2995 RMK AO1

2010/08/09 18:55
KGAD 091855Z AUTO 20007KT 10SM FEW060 36/21 A2999 RMK AO1

2010/08/09 18:55
KGAI 091855Z 15005KT 10SM CLR 32/21 A3002 RMK AO1

2010/08/09 18:55
KGBD 091855Z AUTO 16014G20KT 10SM CLR 38/18 A2989 RMK AO1

2010/08/09 18:54
KGCK 091854Z 19013G20KT 10SM CLR 36/16 A2993 RMK AO2 SLP090 T03610161

2010/08/09 18:54
KGCN 091854Z 25008G19KT 10SM CLR 24/01 A3026 RMK AO2 SLP159 T02390011

2010/08/09 18:55
KGDV 091855Z AUTO 09008KT 10SM CLR 31/11 A2987 RMK AO1

2010/08/09 18:55
KGUC 091855Z AUTO 33009KT 10SM BKN095 20/04 A3030 RMK AO1

2010/08/09 18:55
KGXY 091855Z AUTO 11004KT 10SM CLR 28/14 A3008 RMK AO1

2010/08/09 18:55
KHDN 091855Z 16008KT 10SM OVC080 18/07 A3026 RMK AO1

2010/08/09 18:55
KHEF 091855Z AUTO 18010KT 10SM 33/22 A2999 RMK AO1

2010/08/09 18:55
KHEZ 091855Z AUTO 33003KT 10SM FEW042 SCT055 34/24 A2995 RMK AO1 LTG DSNT E

2010/08/09 18:55
KHNB 091855Z AUTO 23005KT 10SM BKN050 35/21 A2995 RMK AO1

2010/08/09 18:54
KHWD 091854Z 26007KT 10SM FEW016 19/12 A2992 RMK AO2 SLP142 T01890122

2010/08/09 18:55
KHYI 091855Z AUTO 18006KT 10SM SCT050 35/22 A2994 RMK AO1

2010/08/09 18:55
KHYS 091855Z AUTO 17005KT 10SM CLR 38/18 A2988 RMK AO1

2010/08/09 18:51
KSGR 091851Z 18007KT 10SM FEW045 34/22 A2994 RMK AO2

2010/08/09 18:49
YSDU 091849Z AUTO 08009KT 9999NDV // BKN014 BKN026 OVC054 11/10 Q1015

2010/08/09 18:54
KNFG 091854Z COR 24009KT FEW017 22/13 A2992 RMK AO2 SLP132 T02220133 

2010/08/09 18:54
KFWA 091854Z 22005KT 9SM FEW055 BKN140 30/22 A2998 RMK AO2 SLP145 T03000217 

2010/08/09 18:54
KRIC 091854Z 18008G14KT 10SM SCT049 BKN250 33/19 A3001 RMK AO2 SLP164 T03280194 

2010/08/09 18:50
EDDF 091850Z 15004KT 9999 FEW048 SCT300 22/12 Q1016 NOSIG

2010/08/09 18:50
EDDH 091850Z 22002KT CAVOK 17/15 Q1015 NOSIG

2010/08/09 18:50
EDDK 091850Z 05003KT CAVOK 19/15 Q1016 NOSIG

2010/08/09 18:50
EDDL 091850Z 17004KT 9999 FEW040 BKN280 20/13 Q1015 NOSIG

2010/08/09 18:50
EDDM 091850Z 04007KT CAVOK 19/14 Q1017 NOSIG

2010/08/09 18:50
EDDN 091850Z VRB01KT CAVOK 18/15 Q1017 NOSIG

2010/08/09 18:50
EDDS 091850Z 36004KT CAVOK 20/11 Q1017 NOSIG

2010/08/09 18:50
EDDW 091850Z 18005KT 9999 FEW025 SCT080 BKN250 18/13 Q1016 NOSIG

2010/08/09 18:50
EDFE 091850Z 10003KT CAVOK 17/14 Q1016

2010/08/09 18:50
EDFM 091850Z 06004KT CAVOK 21/12 Q1016

2010/08/09 18:50
EDHL 091850Z 21004KT CAVOK 17/17 Q1016

2010/08/09 18:50
EDJA 091850Z 07003KT CAVOK 17/13 Q1017

2010/08/09 18:54
KCOU 091854Z 18005KT 10SM FEW080 32/27 A2992 RMK AO2 SLP122 T03220267 

2010/08/09 18:54
K12N 091854Z AUTO 21006KT 31/18 A2999 RMK AO2 SLP146 T03110183 PWINO TSNO 

2010/08/09 18:50
EDLN 091850Z VRB01KT CAVOK 18/12 Q1015

2010/08/09 18:50
EDLP 091850Z 08001KT CAVOK 17/12 Q1016

2010/08/09 18:50
EDLW 091850Z 22004KT CAVOK 18/13 Q1016

2010/08/09 18:50
EDMA 091850Z 04003KT 9999 FEW040 17/14 Q1017

2010/08/09 18:50
EDQM 091850Z 00000KT CAVOK 14/12 Q1018

2010/08/09 18:50
EDVE 091850Z 29002KT CAVOK 19/13 Q1016

2010/08/09 18:54
KRSP 091854Z AUTO VRB03KT 7SM BKN060 31/14 A3007 RMK AO2 SLP978 T03060144 $ 

2010/08/09 18:54
KDMH 091854Z AUTO 33/22 A2999 RMK AO2 SLP154 T03280217 PWINO TSNO 

2010/08/09 18:54
KAVP 091854Z 24007KT 10SM CLR 32/13 A2998 RMK AO2 SLP139 T03220128 $ 

2010/08/09 18:50
EDNY 091850Z 00000KT CAVOK 19/14 Q1016

2010/08/09 18:50
EDVK 091850Z 03003KT CAVOK 17/11 Q1017

2010/08/09 18:50
EDXW 091850Z AUTO 22005KT 9999NDV NCD 16/10 Q1015

2010/08/09 18:50
EKAH 091850Z AUTO 28007KT 9999NDV BKN043/// 17/10 Q1014

2010/08/09 18:50
EKBI 091850Z 26004KT 9999 FEW040 BKN200 16/11 Q1015

2010/08/09 18:50
EKCH 091850Z 30005KT 9999 FEW045 BKN210 18/10 Q1014 NOSIG

2010/08/09 18:50
EKEB 091850Z AUTO 23005KT 9999NDV BKN061/// 16/11 Q1015

2010/08/09 18:50
EKKA 091850Z 25006KT 9999 FEW022 BKN035 16/12 Q1014

2010/08/09 18:50
EKRK 091850Z AUTO 30006KT 9999NDV FEW043/// 16/11 Q1014

2010/08/09 18:50
EKRN 091850Z AUTO 24005KT 9999NDV NCD 18/15 Q1015

2010/08/09 18:51
EKSB 091851Z 27005KT CAVOK 17/09 Q1015

2010/08/09 18:50
EKSP 091850Z 25005KT 9999 FEW036 SCT250 15/11 Q1015

2010/08/09 18:50
EKVD 091850Z AUTO 26008KT //// ///////// 16/11 Q1015

2010/08/09 18:54
EKVG 091854Z 13009KT 9999 FEW013 BKN020 12/10 Q1009 RMK/RWY 13-31 CLOSED DUE WIP NOTAM E0050/10 WIND 850FT 13013KT

2010/08/09 18:50
EKYT 091850Z 26010KT 9999 SCT034 16/11 Q1013

2010/08/09 18:50
LOWG 091850Z 17002KT 9999 FEW040 20/15 Q1018 NOSIG

2010/08/09 18:50
LOWI 091850Z VRB02KT 9999 FEW045 19/14 Q1017 NOSIG

2010/08/09 18:50
LOWK 091850Z 11004KT 070V140 9999 FEW045 SCT050 21/14 Q1017 NOSIG

2010/08/09 18:50
LOWL 091850Z 00000KT CAVOK 21/12 Q1017 NOSIG

2010/08/09 18:50
LOWS 091850Z 17005KT 9999 FEW070 19/13 Q1017 NOSIG

2010/08/09 18:50
LOWW 091850Z VRB04KT 9999 FEW060 22/13 Q1017 NOSIG

2010/08/09 18:50
EETN 091850Z 18007KT 9999 FEW020 SCT049 BKN068 20/16 Q1012 NOSIG

2010/08/09 18:50
EFHF 091850Z AUTO 20009KT 170V240 CAVOK 20/17 Q1011

2010/08/09 18:50
EFHK 091850Z 18008KT 9999 FEW020 BKN070 20/16 Q1011 NOSIG

2010/08/09 18:50
EFJY 091850Z AUTO 15003KT CAVOK 19/17 Q1010

2010/08/09 18:50
EFKK 091850Z 35003KT 8000 BKN003 OVC025 18/17 Q1008

2010/08/09 18:50
EFKU 091850Z AUTO 21008KT 9999NDV BKN047 20/17 Q1010

2010/08/09 18:50
EFMA 091850Z AUTO 19007KT 160V220 9999 BKN007 18/17 Q1007

2010/08/09 18:50
EFOU 091850Z 25003KT 9999 BKN011 18/18 Q1008

2010/08/09 18:50
EFPO 091850Z AUTO 14004KT 9999 FEW015 BKN055 19/17 Q1008

2010/08/09 18:50
EFRO 091850Z AUTO 03011KT 9999NDV SCT008 BKN010 13/12 Q1009

2010/08/09 18:50
EFTP 091850Z 15008KT 100V210 6000 FEW005 FEW015CB BKN025 18/17 Q1010 RESHRA

2010/08/09 18:50
EFTU 091850Z AUTO 21006KT 160V250 9999 SCT008 BKN017 OVC053 18/17 Q1008 RESHRA

2010/08/09 18:50
EFVA 091850Z 17001KT 7000 -RA SCT006 BKN013 OVC023 19/18 Q1008

2010/08/09 18:50
ENBO 091850Z 01007KT 330V050 9999 FEW012 14/10 Q1011 NOSIG

2010/08/09 18:50
ENBR 091850Z 10004KT 9999 FEW020 BKN030 14/11 Q1011 NOSIG

2010/08/09 18:50
ENCN 091850Z 24008KT 200V280 CAVOK 17/12 Q1010

2010/08/09 18:50
ENHD 091850Z 21007KT 9999 FEW020 14/09 Q1012

2010/08/09 18:50
ENKR 091850Z 05008KT 9999 -RA OVC006 10/09 Q1014

2010/08/09 18:50
ENSB 091850Z 24013KT 9999 FEW012 BKN030 08/03 Q1002

2010/08/09 18:50
ENTC 091850Z 02015KT 9999 FEW018 BKN026 11/07 Q1013 NOSIG

2010/08/09 18:50
ENVA 091850Z 25008KT CAVOK 18/15 Q1008 NOSIG

2010/08/09 18:50
ENZV 091850Z 15001KT 9999 FEW020 SCT045 15/09 Q1012 NOSIG

2010/08/09 18:50
EVRA 091850Z 19003KT 9000 NSC 19/16 Q1014 NOSIG

2010/08/09 18:50
EYVI 091850Z 14003KT 4000 BR MIFG NSC 17/16 Q1017 NOSIG

2010/08/09 18:50
LXGB 091850Z 07008KT CAVOK 25/22 Q1014

2010/08/09 18:48
MMGM 091848Z 23014KT 10SM FEW020 35/22 A2980 RMK 8/100 HZY

2010/08/09 18:49
MMHO 091849Z 00000KT 10SM SKC 36/20 A2981 RMK HZY

2010/08/09 18:45
MMMZ 091845Z 18004KT 15SM SCT090 OVC220 29/23 A2981 RMK 8/077 DSNT CU 1QUAD

2010/08/09 18:48
MMTJ 091848Z 34005KT 6SM SKC 22/13 A2995 RMK HZY ST W ISOL CI

2010/08/09 18:55
EHEH 091855Z AUTO 19001KT 9999NDV BKN260 19/13 Q1015 BLU BLU NOSIG

2010/08/09 18:50
ENAL 091850Z 02004KT 360V060 9999 FEW015 BKN030 15/13 Q1010

2010/08/09 18:50
ENAN 091850Z 02018KT 9999 FEW012 BKN025 10/08 Q1013 NOSIG

2010/08/09 18:50
ENAT 091850Z 30007KT 9999 FEW030 BKN048 13/10 Q1014

2010/08/09 18:50
ENBL 091850Z 29004KT 1000 FG VV005 13/12 Q1010

2010/08/09 18:50
ENBN 091850Z 33004KT 9999 BKN008 13/11 Q1010

2010/08/09 18:50
ENDU 091850Z 35006KT 310V030 9999 FEW025 SCT040 15/09 Q1012

2010/08/09 18:50
ENEK 091850Z 21019KT 9999 SCT015 16/13 Q1010 W16/S3

2010/08/09 18:50
ENEV 091850Z 35008KT 9999 FEW025 12/09 Q1012

2010/08/09 18:50
ENFL 091850Z 25004KT 9999 VCSH FEW010 SCT015 BKN030 15/13 Q1011

2010/08/09 18:50
ENGC 091850Z 22006KT 160V240 9999 SCT017 BKN035 13/11 Q1010

2010/08/09 18:50
ENHF 091850Z 05007KT 9999 FEW016 SCT022 BKN033 10/07 Q1015

2010/08/09 18:50
ENHV 091850Z 04003KT 9999 BKN016 10/06 Q1015

2010/08/09 18:50
ENKB 091850Z 33005KT 280V360 9999 BKN010 14/12 Q1010

2010/08/09 18:50
ENLK 091850Z 02011KT 9999 FEW020 11/08 Q1012

2010/08/09 19:00
OYRN 091900Z 01007KT 270V040 CAVOK 29/20 Q1003

2010/08/09 18:50
ENML 091850Z 31008KT 9999 FEW015 SCT030 BKN050 19/14 Q1010

2010/08/09 18:50
ENMS 091850Z 34008KT 9999 FEW040TCU 16/13 Q1009

2010/08/09 18:50
ENNA 091850Z 35009KT 9999 SCT014 BKN018 10/07 Q1015

2010/08/09 18:50
ENNK 091850Z 24007KT 9999 ST060 15/12 Q1011

2010/08/09 18:50
ENNM 091850Z 35007KT CAVOK 14/11 Q1010

2010/08/09 18:50
ENNO 091850Z 07006KT 030V110 9999 FEW040 SCT090 22/15 Q1007

2010/08/09 18:50
ENOA 091850Z 16008KT 9999 SCT030 15/10 Q1010

2010/08/09 18:50
ENOL 091850Z 35004KT 9999 FEW015 15/12 Q1009 NOSIG

2010/08/09 18:50
ENOV 091850Z VRB03KT 9999 FEW012 BKN024 16/13 Q1010

2010/08/09 18:50
ENRA 091850Z 10003KT 9999 FEW040TCU 18/13 Q1009

2010/08/09 18:50
ENRO 091850Z AUTO 33002KT 9999NDV SCT066/// OVC088/// 14/13 Q1009

2010/08/09 18:50
ENSH 091850Z 02014KT 9999 FEW020 13/09 Q1011

2010/08/09 18:50
ENSK 091850Z 06005KT 9999 FEW010 SCT015 BKN017 13/09 Q1012

2010/08/09 18:50
ENST 091850Z 04006KT 9999 FEW010 14/11 Q1010

2010/08/09 18:50
ENTO 091850Z 20006KT 9999 FEW025TCU 19/16 Q1008

2010/08/09 18:50
ENVD 091850Z 05016KT 9999W2000S VCFG DZ SCT005 BKN010 OVC040 09/08 Q1015

2010/08/09 18:50
LSGG 091850Z 30003KT 250V360 9999 FEW060 25/11 Q1016 NOSIG

2010/08/09 18:50
LSZA 091850Z 15004KT 9999 FEW050 24/18 Q1015 NOSIG

2010/08/09 18:50
LSZB 091850Z 31006KT 9999 SCT055 22/14 Q1016 NOSIG

2010/08/09 18:50
LSZG 091850Z 10004KT 9999 FEW050 22/13 Q1016 NOSIG

2010/08/09 18:50
LSZH 091850Z 28003KT CAVOK 21/14 Q1016 NOSIG

2010/08/09 18:50
LSZR 091850Z 16002KT CAVOK 19/15 Q1016 NOSIG RMK P

2010/08/09 18:50
ESDF 091850Z AUTO 24005KT 9999NDV OVC036/// 17/12 Q1013

2010/08/09 18:50
ESGG 091850Z 25008KT 9999 BKN017 15/12 Q1012

2010/08/09 18:50
ESGJ 091850Z 23011KT 9999 FEW012 SCT017 BKN025 16/14 Q1011

2010/08/09 18:50
ESGP 091850Z 26009KT 9999 OVC035 16/12 Q1012

2010/08/09 18:50
ESKN 091850Z 24012KT 9999 SCT011 BKN016 18/16 Q1008 REDZ

2010/08/09 18:50
ESMK 091850Z AUTO 28004KT 9999NDV NCD 17/12 Q1014

2010/08/09 18:50
ESMS 091850Z 30004KT 9999 FEW043 16/12 Q1014

2010/08/09 18:50
ESMX 091850Z 23007KT 9999 FEW013 SCT016 OVC034 15/14 Q1013

2010/08/09 18:50
ESNN 091850Z VRB04KT 9999 BKN008 OVC013 17/16 Q1007

2010/08/09 18:50
ESNO 091850Z 08005KT 040V100 9000 -RA BKN005 16/15 Q1008 REDZ

2010/08/09 18:50
ESNQ 091850Z AUTO 03005KT 9999NDV BKN034/// 14/10 Q1012

2010/08/09 18:50
ESNS 091850Z 06003KT 9999 BKN015 16/15 Q1009

2010/08/09 18:50
ESNU 091850Z 03006KT 9999 FEW008 BKN009 OVC016 17/15 Q1008

2010/08/09 18:50
ESOK 091850Z AUTO 21003KT 9999NDV FEW033/// 18/17 Q1008

2010/08/09 18:50
ESOW 091850Z 00000KT 9999 BKN016 18/17 Q1007

2010/08/09 18:50
ESPA 091850Z 01007KT 340V040 9999 BKN019 OVC072 16/14 Q1009

2010/08/09 18:50
ESSA 091850Z 22007KT 9999 FEW030 19/17 Q1007 NOSIG

2010/08/09 18:50
ESSB 091850Z 18004KT CAVOK 18/16 Q1007

2010/08/09 18:50
ESSD 091850Z 28003KT 9999 FEW010 SCT020 BKN040 17/16 Q1007 REDZ

2010/08/09 18:50
ESSP 091850Z AUTO 24010KT 9999NDV BKN015/// 18/16 Q1008

2010/08/09 18:50
ESSV 091850Z 23014KT 9999 BKN020 18/15 Q1010

2010/08/09 18:50
EGLL 091850Z 22013KT 9999 SCT028 21/14 Q1013 NOSIG

2010/08/09 18:50
EGAA 091850Z 23008KT 9999 FEW032 15/11 Q1008

2010/08/09 18:50
EGBB 091850Z 20008KT 9999 FEW030 SCT035 19/15 Q1011

2010/08/09 18:50
EGCC 091850Z 24006KT 220V280 9999 FEW035 18/12 Q1010

2010/08/09 18:50
EGFF 091850Z 26009KT 9999 FEW020 SCT024 BKN037 18/17 Q1012

2010/08/09 18:50
EGGD 091850Z 23005KT 4500 -RADZ BR SCT001 SCT002 BKN003 17/17 Q1013

2010/08/09 18:50
EGGP 091850Z 28007KT 9999 SCT035 18/14 Q1009

2010/08/09 18:50
EGGW 091850Z 23007KT 9999 FEW040 18/15 Q1013

2010/08/09 18:50
EGHH 091850Z 23012KT 9999 OVC008 18/16 Q1014

2010/08/09 18:50
EGHI 091850Z 22008KT 170V260 9999 BKN012 17/14 Q1014

2010/08/09 18:50
EGJB 091850Z 24013KT 9999 BKN003 17/16 Q1016

2010/08/09 18:50
EGJJ 091850Z 25007KT 200V290 9999 BKN007 17/17 Q1016 TEMPO BKN005

2010/08/09 18:50
EGKK 091850Z 22009KT 9999 BKN020 19/14 Q1014

2010/08/09 18:50
EGLF 091850Z 22012KT 9999 SCT020 SCT042 18/14 Q1013

2010/08/09 18:50
EGLL 091850Z 22013KT 9999 SCT028 21/14 Q1013

2010/08/09 18:50
EGMC 091850Z 21013KT CAVOK 21/13 Q1013

2010/08/09 18:50
EGNM 091850Z 26008KT 220V280 9999 FEW020 16/12 Q1009

2010/08/09 18:50
EGNS 091850Z 22007KT 9999 FEW022 16/13 Q1008 NOSIG

2010/08/09 18:50
EGNT 091850Z 26011KT 9999 FEW030 17/10 Q1008

2010/08/09 18:50
EGNV 091850Z 23011KT 9999 FEW030 19/13 Q1008

2010/08/09 18:50
EGNX 091850Z 20014KT 9999 SCT025 20/14 Q1010

2010/08/09 18:50
EGPB 091850Z 13009KT 9999 FEW009 15/13 Q1007

2010/08/09 18:50
EGPD 091850Z VRB03KT 9000 -SHRA SCT047 14/13 Q1005 TEMPO SHRA

2010/08/09 18:50
EGPF 091850Z 25006KT 9999 FEW035 15/10 Q1007

2010/08/09 18:50
EGPH 091850Z 23010KT 9999 FEW025 16/10 Q1007

2010/08/09 18:50
EGPK 091850Z 23006KT 9999 FEW020 SCT035 14/11 Q1008

2010/08/09 18:50
EGSH 091850Z 22007KT CAVOK 23/09 Q1011 BECMG BKN045

2010/08/09 18:50
EGTE 091850Z 20011KT 9999 SCT012 20/17 Q1013

2010/08/09 18:50
EGAC 091850Z 23009KT 9999 FEW030 16/10 Q1008

2010/08/09 18:50
EGDL 091850Z 19006KT 6000 -RADZ FEW007 BKN010 17/16 Q1013 TEMPO 9999 NSW BKN007

2010/08/09 18:50
EGGP 091850Z 28007KT 9999 SCT035 18/14 Q1009

2010/08/09 18:50
EGGW 091850Z 23007KT 9999 FEW040 18/15 Q1013

2010/08/09 18:50
EGLC 091850Z 24012KT 9999 FEW030 21/13 Q1013

2010/08/09 18:50
EGNT 091850Z 26011KT 9999 FEW030 17/10 Q1008

2010/08/09 18:50
EGPF 091850Z 25006KT 9999 FEW035 15/10 Q1007

2010/08/09 18:50
EGSS 091850Z 23012KT 9999 SCT042 21/13 Q1012

2010/08/09 18:48
K4O4 091848Z AUTO 19004KT 10SM CLR 35/22 A2995 RMK AO2

2010/08/09 18:55
KBAD 091855Z AUTO 16006KT 10SM CLR 36/20 A2994 RMK AO2 SLP139 T03620205

2010/08/09 18:53
KBAF 091853Z VRB03KT 10SM BKN070 BKN080 33/16 A2993 RMK AO2 SLP131 T03330156

2010/08/09 18:53
KBUR 091853Z 18006KT 10SM CLR 24/13 A2992 RMK AO2 SLP119 T02390128

2010/08/09 18:55
KCEF 091855Z AUTO 22008KT 10SM BKN070 33/17 A2993 RMK AO2 SLP134 T03310166 PWINO $

2010/08/09 18:55
KDAA 091855Z AUTO 18008KT 150V210 10SM CLR 34/20 A2999 RMK AO2 SLP158 T03390201

2010/08/09 18:53
KDTS 091853Z AUTO VRB05KT 8SM CLR 33/24 A2995 RMK AO2 SLP141 T03330244

2010/08/09 18:55
KGRF 091855Z 24005KT 10SM BKN016 OVC030 17/12 A2998 RMK AO2A CIG 014V020 SLP154 T01660119

2010/08/09 18:55
KGSB 091855Z AUTO VRB04KT 10SM SCT044 33/18 A3001 RMK AO2 SLP163

2010/08/09 18:55
KIAB 091855Z AUTO 12010KT 100V160 10SM CLR 38/20 A2990 RMK AO2 SLP106 T03800196 $

2010/08/09 18:55
KMGE 091855Z 13004KT 7SM BKN055 33/21 A3003 RMK AO2A SLP157 T03330210 $

2010/08/09 18:55
KOFF 091855Z AUTO 19006KT 10SM FEW027 32/25 A2985 RMK AO2 SLP091 T03220248 $

2010/08/09 18:55
KSUU 091855Z AUTO 25015KT 10SM CLR 21/12 A2989 RMK AO2 SLP123 T02070125 RVRNO $

2010/08/09 18:53
KTOI 091853Z 10005KT 10SM CLR 34/22 A2999 RMK AO2 SLP149 T03440222

2010/08/09 18:55
KVPS 091855Z 17008KT 10SM SCT045 SCT085 33/25 A2996 RMK AO2A SLP146 T03320254 $

2010/08/09 18:53
PHJR 091853Z 08008G15KT 10SM OVC050 27/17 A3010 RMK AO2 SLP200 T02720172

2010/08/09 18:53
TIST 091853Z 08004KT 10SM -RA FEW080 29/ A2995 RMK AO2 SLP144 P0001 T0289 $

2010/08/09 19:00
TUPJ 091900Z 12009KT 9999 SCT018CB BKN220 29/24 A2996

2010/08/09 18:55
KBAD 091855Z AUTO 16006KT 10SM CLR 36/20 A2994 RMK AO2 SLP139 T03620205

2010/08/09 18:53
KBRO 091853Z 13015G18KT 10SM SCT039 BKN050 BKN065 36/24 A2989 RMK AO2 SLP121 T03560244

2010/08/09 18:53
KFLL 091853Z 19013KT 10SM SCT028 BKN041 BKN049 29/24 A2990 RMK AO2 SLP125 T02940239

2010/08/09 18:55
KGSB 091855Z AUTO VRB04KT 10SM SCT044 33/18 A3001 RMK AO2 SLP163

2010/08/09 18:55
KHST 091855Z AUTO 19006KT 10SM -DZ FEW080 SCT190 27/24 A2992 RMK AO2 RAE1821DZB1821 SLP134 P0002 T02660243

2010/08/09 18:51
KJFK 091851Z 18012KT 5SM HZ FEW050 SCT140 BKN250 29/22 A2999 RMK AO2 SLP154 T02940217

2010/08/09 18:53
KMCO 091853Z 15009KT 10SM SCT033TCU BKN060 BKN190 32/23 A2990 RMK AO2 SLP122 TCU SW-NW T03220233

2010/08/09 18:52
KNHK 091852Z 13010KT 9SM FEW025 SCT250 31/22 A3001 RMK AO2 SLP162 T03110222

2010/08/09 18:52
KNRB 091852Z 10009KT 10SM FEW015 SCT030TCU BKN065 31/23 A2995 RMK AO2 RAE19 SLP142 TCU OHD T2 SET P0000 T03060233

2010/08/09 18:55
KOFF 091855Z AUTO 19006KT 10SM FEW027 32/25 A2985 RMK AO2 SLP091 T03220248 $

2010/08/09 18:53
KPBI 091853Z 13015KT 10SM SCT024CB SCT085 BKN250 30/23 A2990 RMK AO2 SLP126 CB SW MOV NW TCU OHD CB DSNT ALQDS T03040230

2010/08/09 18:55
KVPS 091855Z 17008KT 10SM SCT045 SCT085 33/25 A2996 RMK AO2A SLP146 T03320254 $

2010/08/09 19:00
SPIM 091900Z 18007KT 6000 FEW013 BKN018 18/13 Q1016 NOSIG RMK BIRD HAZARD RWY 15 PP000

2010/08/09 18:53
TIST 091853Z 08004KT 10SM -RA FEW080 29/ A2995 RMK AO2 SLP144 P0001 T0289 $

2010/08/09 18:53
TISX 091853Z 10011KT 10SM SCT023 BKN100 29/25 A2995 RMK AO2 RAE52 SLP141 P0001 T02940250 $

2010/08/09 18:50
EFJO 091850Z AUTO 20006KT CAVOK 23/16 Q1011

2010/08/09 18:50
EFLP 091850Z 19003KT CAVOK 21/15 Q1013

2010/08/09 18:50
EFMI 091850Z AUTO 21004KT 170V260 CAVOK 21/14 Q1011

2010/08/09 18:50
EFSA 091850Z AUTO 18007KT 140V230 CAVOK 22/15 Q1012

2010/08/09 18:50
EFUT 091850Z AUTO 19005KT 150V230 CAVOK 20/15 Q1012

2010/08/09 18:50
EFVR 091850Z AUTO 22004KT 170V280 CAVOK 22/15 Q1011

2010/08/09 18:50
EFHA 091850Z AUTO 15003KT 9999 FEW038 19/15 Q1010

2010/08/09 18:50
EFHF 091850Z AUTO 20009KT 170V240 CAVOK 20/17 Q1011

2010/08/09 18:50
EFKA 091850Z AUTO 18003KT 8000 -SHRA BKN075 OVC105 18/18 Q1008

2010/08/09 18:50
EFKK 091850Z 35003KT 8000 BKN003 OVC025 18/17 Q1008

2010/08/09 18:50
EFMA 091850Z AUTO 19007KT 160V220 9999 BKN007 18/17 Q1007

2010/08/09 18:50
EFPO 091850Z AUTO 14004KT 9999 FEW015 BKN055 19/17 Q1008

2010/08/09 18:50
EFSI 091850Z AUTO 15003KT 6000 SCT080 18/17 Q1009

2010/08/09 19:00
RPLC 091900Z 00000KT 9999 FEW036 SCT100 OVC270 25/23 Q1009 A2981 RMK NOSIG

2010/08/09 18:50
EBAW 091850Z 13004KT CAVOK 20/14 Q1015 NOSIG

2010/08/09 18:50
EBBR 091850Z 13003KT CAVOK 20/12 Q1015 NOSIG

2010/08/09 18:50
EBCI 091850Z 24004KT CAVOK 21/11 Q1016 NOSIG

2010/08/09 18:50
EBLG 091850Z 03003KT CAVOK 19/11 Q1016 NOSIG

2010/08/09 18:50
EBOS 091850Z 26008KT CAVOK 18/14 Q1015 NOSIG

2010/08/09 18:50
ELLX 091850Z VRB02KT CAVOK 20/11 Q1017 NOSIG

2010/08/09 18:55
HLLT 091855Z HLLT 06007KT CAVOK 25/18 Q1015

2010/08/09 18:50
LIBD 091850Z VRB01KT CAVOK 24/17 Q1014

2010/08/09 18:45
LIBR 091845Z 32013KT CAVOK 25/21 Q1014 NOSIG

2010/08/09 18:50
LICC 091850Z VRB02KT CAVOK 27/20 Q1013

2010/08/09 18:50
LICJ 091850Z 05008KT CAVOK 26/19 Q1016

2010/08/09 18:50
LIPB 091850Z 17009KT 9999 FEW100 25/14 Q1014

2010/08/09 18:50
LIPE 091850Z 12008KT CAVOK 25/18 Q1014

2010/08/09 18:45
LIPH 091845Z 16002KT 9999 FEW080 25/19 Q1014

2010/08/09 18:50
LIPK 091850Z VRB02KT CAVOK 25/14 Q1014

2010/08/09 18:50
LIPQ 091850Z VRB02KT CAVOK 24/19 Q1014

2010/08/09 18:45
LIPR 091845Z 11003KT CAVOK 26/21 Q1014

2010/08/09 18:45
LIPX 091845Z 00000KT CAVOK 28/19 Q1014

2010/08/09 18:50
LIPZ 091850Z VRB03KT CAVOK 25/18 Q1014

2010/08/09 18:50
LOWW 091850Z VRB04KT 9999 FEW060 22/13 Q1017 NOSIG

2010/08/09 18:50
LOWL 091850Z 00000KT CAVOK 21/12 Q1017 NOSIG

2010/08/09 18:50
LOWS 091850Z 17005KT 9999 FEW070 19/13 Q1017 NOSIG

2010/08/09 18:50
LOWI 091850Z VRB02KT 9999 FEW045 19/14 Q1017 NOSIG

2010/08/09 18:50
LOWG 091850Z 17002KT 9999 FEW040 20/15 Q1018 NOSIG

2010/08/09 18:50
LOWK 091850Z 11004KT 070V140 9999 FEW045 SCT050 21/14 Q1017 NOSIG

2010/08/09 18:55
HLLT 091855Z HLLT 06007KT CAVOK 25/18 Q1015

2010/08/09 19:00
GVNP 091900Z 09007KT 9999 FEW018 BKN030 26/21 Q1013 NOSIG

2010/08/09 18:55
HLLT 091855Z HLLT 06007KT CAVOK 25/18 Q1015

2010/08/09 18:50
LIEA 091850Z VRB02KT CAVOK 23/18 Q1016

2010/08/09 18:45
LIEE 091845Z 18001KT 9999 SCT050 26/21 Q1015 NOSIG

2010/08/09 18:50
LIEO 091850Z 02003KT CAVOK 26/21 Q1016

2010/08/09 18:50
LIMC 091850Z VRB01KT CAVOK 25/16 Q1015 NOSIG

2010/08/09 18:50
LIME 091850Z 19005KT 9999 FEW040 25/16 Q1015

2010/08/09 18:50
LIMF 091850Z 05005KT 9999 FEW060 24/18 1015

2010/08/09 18:50
LIMJ 091850Z VRB01KT 9999 FEW015 25/20 Q1015

2010/08/09 18:50
LIML 091850Z VRB02KT CAVOK 26/16 Q1014 NOSIG

2010/08/09 18:45
LIRA 091845Z 21004KT 9999 FEW080 SCT200 25/21 Q1015

2010/08/09 18:50
LIRF 091850Z 29005KT 260V320 CAVOK 23/20 Q1015 NOSIG

2010/08/09 18:50
LIRN 091850Z 31004KT CAVOK 24/18 Q1015

2010/08/09 18:45
LIRP 091845Z 26003KT 9999 SCT020 24/21 Q1015 NOSIG

2010/08/09 18:50
LIRQ 091850Z 26006KT 220V280 CAVOK 25/19 Q1015

2010/08/09 18:59
OPKC 091859Z 27006KT 6000 SCT020 BKN100 27/25 Q.1001 NOSIG

2010/08/09 18:50
EGCN 091850Z 27007KT 9999 SCT041 20/15 Q1010

2010/08/09 18:50
EGDL 091850Z 19006KT 6000 -RADZ FEW007 BKN010 17/16 Q1013 TEMPO 9999 NSW BKN007

2010/08/09 18:50
EGWU 091850Z 23011KT 9999 FEW026 BKN060 20/14 Q1013 BECMG SCT024

2010/08/09 18:50
EGNS 091850Z 22007KT 9999 FEW022 16/13 Q1008 NOSIG

2010/08/09 18:53
OPSK 091853Z 00000KT 2000 HZ SCT040 SCT100 29/27 Q1000 RH 89

2010/08/09 18:54
KNKT 091854Z 14005KT 10SM FEW015 SCT080 29/23 A3003 RMK AO2 SLP164 T02940233 

2010/08/09 18:50
EDFH 091850Z 23002KT CAVOK 18/09 Q1017

2010/08/09 18:50
EDTL 091850Z 03003KT CAVOK 21/13 Q1016

2010/08/09 18:50
EDVK 091850Z 03003KT CAVOK 17/11 Q1017

2010/08/09 18:55
EGUL 091855Z AUTO 25006KT 9999 BKN050 BKN060 22/12 A2986 RMK AO2 SLP113 T02200122

2010/08/09 18:50
ENAL 091850Z 02004KT 360V060 9999 FEW015 BKN030 15/13 Q1010

2010/08/09 18:50
ENAT 091850Z 30007KT 9999 FEW030 BKN048 13/10 Q1014

2010/08/09 18:50
ENBL 091850Z 29004KT 1000 FG VV005 13/12 Q1010

2010/08/09 18:50
ENBN 091850Z 33004KT 9999 BKN008 13/11 Q1010

2010/08/09 18:50
ENCN 091850Z 24008KT 200V280 CAVOK 17/12 Q1010

2010/08/09 18:50
ENEV 091850Z 35008KT 9999 FEW025 12/09 Q1012

2010/08/09 18:50
ENFL 091850Z 25004KT 9999 VCSH FEW010 SCT015 BKN030 15/13 Q1011

2010/08/09 18:50
ENHD 091850Z 21007KT 9999 FEW020 14/09 Q1012

2010/08/09 18:50
ENHF 091850Z 05007KT 9999 FEW016 SCT022 BKN033 10/07 Q1015

2010/08/09 18:50
ENHV 091850Z 04003KT 9999 BKN016 10/06 Q1015

2010/08/09 18:50
ENKB 091850Z 33005KT 280V360 9999 BKN010 14/12 Q1010

2010/08/09 18:50
ENKR 091850Z 05008KT 9999 -RA OVC006 10/09 Q1014

2010/08/09 18:50
ENLK 091850Z 02011KT 9999 FEW020 11/08 Q1012

2010/08/09 18:50
ENML 091850Z 31008KT 9999 FEW015 SCT030 BKN050 19/14 Q1010

2010/08/09 18:50
ENNA 091850Z 35009KT 9999 SCT014 BKN018 10/07 Q1015

2010/08/09 18:50
ENOA 091850Z 16008KT 9999 SCT030 15/10 Q1010

2010/08/09 18:50
ENOV 091850Z VRB03KT 9999 FEW012 BKN024 16/13 Q1010

2010/08/09 18:50
ENRO 091850Z AUTO 33002KT 9999NDV SCT066/// OVC088/// 14/13 Q1009

2010/08/09 18:50
ENSB 091850Z 24013KT 9999 FEW012 BKN030 08/03 Q1002

2010/08/09 18:50
ENSH 091850Z 02014KT 9999 FEW020 13/09 Q1011

2010/08/09 18:50
ENSS 091850Z 05011KT 9999 BKN006 08/07 Q1015

2010/08/09 18:50
ENTC 091850Z 02015KT 9999 FEW018 BKN026 11/07 Q1013 NOSIG

2010/08/09 18:50
ENTO 091850Z 20006KT 9999 FEW025TCU 19/16 Q1008

2010/08/09 19:00
GVAC 091900Z 06009KT 9999 SCT013 27/19 Q1012 NOSIG

2010/08/09 18:50
LXGB 091850Z 07008KT CAVOK 25/22 Q1014

2010/08/09 18:50
KAPG 091850Z 19008KT 7SM FEW030 SCT200 33/21 A3000

2010/08/09 18:55
KBAD 091855Z AUTO 16006KT 10SM CLR 36/20 A2994 RMK AO2 SLP139 T03620205

2010/08/09 18:55
KBKF 091855Z 13007KT 70SM FEW080 BKN180 28/12 A3011 RMK SLP128

2010/08/09 18:55
KBLV 091855Z AUTO 20006KT 10SM CLR 35/26 A2991 RMK AO2 SLP124 T03490256

2010/08/09 18:51
KBYH 091851Z 00000KT 10SM SCT030 BKN250 36/26 A2995

2010/08/09 18:55
KCBM 091855Z AUTO VRB03KT 10SM CLR 35/24 A2995 RMK AO2 SLP141 T03450239 $

2010/08/09 18:55
KCEF 091855Z AUTO 22008KT 10SM BKN070 33/17 A2993 RMK AO2 SLP134 T03310166 PWINO $

2010/08/09 18:55
KDAA 091855Z AUTO 18008KT 150V210 10SM CLR 34/20 A2999 RMK AO2 SLP158 T03390201

2010/08/09 18:55
KFSI 091855Z AUTO 20007KT 10SM CLR 38/17 A2989 RMK AO2 SLP094 T03780174

2010/08/09 18:55
KGRF 091855Z 24005KT 10SM BKN016 OVC030 17/12 A2998 RMK AO2A CIG 014V020 SLP154 T01660119

2010/08/09 18:55
KGSB 091855Z AUTO VRB04KT 10SM SCT044 33/18 A3001 RMK AO2 SLP163

2010/08/09 18:55
KHFF 091855Z AUTO VRB03KT 10SM CLR 34/21 A3003 RMK AO2 SLP166 T03380213 $

2010/08/09 18:55
KHMN 091855Z AUTO VRB03KT 10SM CLR 30/14 A3006 RMK AO2 SLP095 T02970137 $

2010/08/09 18:55
KHST 091855Z AUTO 19006KT 10SM -DZ FEW080 SCT190 27/24 A2992 RMK AO2 RAE1821DZB1821 SLP134 P0002 T02660243

2010/08/09 18:55
KIAB 091855Z AUTO 12010KT 100V160 10SM CLR 38/20 A2990 RMK AO2 SLP106 T03800196 $

2010/08/09 18:55
KLRF 091855Z AUTO VRB03KT 10SM CLR 36/23 A2993 RMK AO2 SLP133 T03630234

2010/08/09 18:55
KMGE 091855Z 13004KT 7SM BKN055 33/21 A3003 RMK AO2A SLP157 T03330210 $

2010/08/09 18:54
KWAL 091854Z 17008KT 10SM FEW030 SCT100 SCT250 29/22 A3004 RMK AO2 SLP169 T02890217 

2010/08/09 18:50
HLLM 091850Z 05007KT 7000 SKC 26/19 Q1016

2010/08/09 19:00
SBSL 091900Z 34010KT 9999 SCT020 30/24 Q1011

2010/08/09 19:00
SPIM 091900Z 18007KT 6000 FEW013 BKN018 18/13 Q1016 NOSIG RMK BIRD HAZARD RWY 15 PP000

2010/08/09 18:55
KQA4 091855Z AUTO 36012G21KT 7000 HZ CLR 30/M02 A2978 RMK AO2 SLP982 T03011022

2010/08/09 18:55
KQAJ 091855Z 35003KT 9999 FEW170 38/04 A2963 RMK SLP015 WND DATA ESTMD ALSTG/SLP ESTMD

2010/08/09 18:55
KQAQ 091855Z 30003KT 8000 HZ CLR 38/06 A2956 RMK SLP005 PA +456 DA +3141

2010/08/09 18:55
KQCJ 091855Z AUTO 34002KT 8SM FEW050 BKN090 BKN120 16/14 A3017 RMK AO2 SLP116 P0006 T01570136

2010/08/09 18:55
KQGX 091855Z 04004KT 9999 CLR 35/23 A2947 RMK AO2A SLP979 T03510225 $

2010/08/09 18:55
KQHY 091855Z AUTO VRB04KT 12SM CLR 32/25 A2999 RMK AO2 LTG DSNT SW SLP155 T03190247

2010/08/09 18:55
KQLD 091855Z AUTO 36001KT 9999 FEW095 BKN110 BKN130 16/13 A3022 RMK AO2 SLP095 T01560126

2010/08/09 18:55
KQRH 091855Z AUTO 00000KT 9999 FEW120 BKN200 34/22 A2964 RMK AO2 SLP035

2010/08/09 18:55
KQTI 091855Z AUTO 31004KT 9999 CLR 31/02 A2965 RMK AO2 SLP012 T03140021

2010/08/09 18:55
KQTO 091855Z 29004KT 9999 CLR 34/06 A2953 RMK SLP999

2010/08/09 18:55
KBKF 091855Z 13007KT 70SM FEW080 BKN180 28/12 A3011 RMK SLP128

2010/08/09 18:55
KCBM 091855Z AUTO VRB03KT 10SM CLR 35/24 A2995 RMK AO2 SLP141 T03450239 $

2010/08/09 18:55
KDYS 091855Z AUTO 17007KT 10SM SCT060 35/18 A2996 RMK AO2 SLP116 T03520176 $

2010/08/09 18:55
KFSI 091855Z AUTO 20007KT 10SM CLR 38/17 A2989 RMK AO2 SLP094 T03780174

2010/08/09 18:55
KGUS 091855Z 18006KT 10SM FEW120 SCT190 31/24 A2995 RMK AO2A SLP137 T03090236

2010/08/09 18:55
KLSF 091855Z AUTO 00000KT 10SM FEW080 SCT100 35/21 A2997 RMK AO2 CLDS LWR RWY15 SLP147 T03480214 PNO $

2010/08/09 18:55
KMTC 091855Z 26015G19KT 5SM -RA HZ SCT045 BKN090 OVC150 27/21 A2995 RMK CB 39W MOV NE SLP146

2010/08/09 18:55
KMUI 091855Z AUTO 25009KT 10SM FEW060 33/17 A2999 RMK AO2 SLP154 T03260173 $

2010/08/09 18:55
KRND 091855Z AUTO 14008KT 10SM FEW170 SCT200 34/21 A2995 RMK AO2 SLP131 T03390211

2010/08/09 18:55
KSZL 091855Z 18008KT 10SM BKN180 35/26 A2991 RMK AO2A SLP117 T03540258 PNO $

2010/08/09 18:55
KWRI 091855Z AUTO 21006KT 10SM CLR 34/18 A2996 RMK AO2 SLP144 T03400183 $

2010/08/09 18:53
PABI 091853Z 18022G33KT 10SM FEW090 SCT110 SCT180 17/04 A2960 RMK AO2 PK WND 17033/1849 SLP022 BLDU VC N+E T01720044

2010/08/09 18:53
PASC 091853Z 06022KT 3SM BR OVC003 04/03 A2974 RMK AO2 PK WND 06027/1839 SLP072 T00440033

2010/08/09 18:55
PGUA 091855Z AUTO 25003KT 10SM OVC160 24/24 A2991 RMK AO2 SLP110 T02420242 VISNO RWY24L $

2010/08/09 18:55
PHSF 091855Z VRB04KT 7SM FEW200 23/M04 A3031 RMK SLPNO

2010/08/09 18:53
TISX 091853Z 10011KT 10SM SCT023 BKN100 29/25 A2995 RMK AO2 RAE52 SLP141 P0001 T02940250 $

2010/08/09 18:53
KRTN 091853Z AUTO 17008KT 10SM CLR 30/11 A3014 RMK AO2 SLP100 T03000106 TSNO 

2010/08/09 18:56
YMAV 091856Z AUTO 30004KT 7000NDV // NCD 03/03 Q1017

2010/08/09 18:56
YMAV 091856Z AUTO 30004KT 7000NDV // NCD 03/03 Q1017

2010/08/09 18:55
KDRA 091855Z AUTO 08006KT 10SM FEW070 31/01 A2997 RMK AO2 SLP103 T03060011 TSNO 

2010/08/09 18:50
EBAW 091850Z 13004KT CAVOK 20/14 Q1015 NOSIG

2010/08/09 18:50
EBBR 091850Z 13003KT CAVOK 20/12 Q1015 NOSIG

2010/08/09 18:50
EBCI 091850Z 24004KT CAVOK 21/11 Q1016 NOSIG

2010/08/09 18:50
EBLG 091850Z 03003KT CAVOK 19/11 Q1016 NOSIG

2010/08/09 18:50
EBOS 091850Z 26008KT CAVOK 18/14 Q1015 NOSIG

2010/08/09 18:50
EDFH 091850Z 23002KT CAVOK 18/09 Q1017

2010/08/09 18:50
EDHL 091850Z 21004KT CAVOK 17/17 Q1016

2010/08/09 18:50
EDLN 091850Z VRB01KT CAVOK 18/12 Q1015

2010/08/09 18:50
EDLP 091850Z 08001KT CAVOK 17/12 Q1016

2010/08/09 18:50
EDLW 091850Z 22004KT CAVOK 18/13 Q1016

2010/08/09 18:50
EDMA 091850Z 04003KT 9999 FEW040 17/14 Q1017

2010/08/09 18:50
EDNY 091850Z 00000KT CAVOK 19/14 Q1016

2010/08/09 18:50
EDQM 091850Z 00000KT CAVOK 14/12 Q1018

2010/08/09 18:50
EDSB 091850Z VRB01KT CAVOK 21/15 Q1016

2010/08/09 18:50
EDTL 091850Z 03003KT CAVOK 21/13 Q1016

2010/08/09 18:50
EDVE 091850Z 29002KT CAVOK 19/13 Q1016

2010/08/09 18:50
EDVK 091850Z 03003KT CAVOK 17/11 Q1017

2010/08/09 18:50
EDXW 091850Z AUTO 22005KT 9999NDV NCD 16/10 Q1015

2010/08/09 18:50
EGJJ 091850Z 25007KT 200V290 9999 BKN007 17/17 Q1016 TEMPO BKN005

2010/08/09 18:55
EHEH 091855Z AUTO 19001KT 9999NDV BKN260 19/13 Q1015 BLU BLU NOSIG

2010/08/09 18:51
EKSB 091851Z 27005KT CAVOK 17/09 Q1015

2010/08/09 18:54
EKVG 091854Z 13009KT 9999 FEW013 BKN020 12/10 Q1009 RMK/RWY 13-31 CLOSED DUE WIP NOTAM E0050/10 WIND 850FT 13013KT

2010/08/09 18:50
ELLX 091850Z VRB02KT CAVOK 20/11 Q1017 NOSIG

2010/08/09 18:55
ETAD 091855Z AUTO 20003KT 9999 BKN080 19/10 A3003 RMK AO2 SLP163 T01950101 $

2010/08/09 18:55
ETEB 091855Z AUTO 06003KT 9999 CLR 19/13 A3006 RMK AO2 SLP168 T01870126

2010/08/09 18:50
ETNG 091850Z 21003KT CAVOK 20/12 Q1016

2010/08/09 18:50
EBAW 091850Z 13004KT CAVOK 20/14 Q1015 NOSIG

2010/08/09 18:50
EBBR 091850Z 13003KT CAVOK 20/12 Q1015 NOSIG

2010/08/09 18:50
EBCI 091850Z 24004KT CAVOK 21/11 Q1016 NOSIG

2010/08/09 18:50
EBLG 091850Z 03003KT CAVOK 19/11 Q1016 NOSIG

2010/08/09 18:50
EBOS 091850Z 26008KT CAVOK 18/14 Q1015 NOSIG

2010/08/09 18:50
EDVE 091850Z 29002KT CAVOK 19/13 Q1016

2010/08/09 18:50
ELLX 091850Z VRB02KT CAVOK 20/11 Q1017 NOSIG

2010/08/09 18:50
ENEK 091850Z 21019KT 9999 SCT015 16/13 Q1010 W16/S3

2010/08/09 18:50
ENGC 091850Z 22006KT 160V240 9999 SCT017 BKN035 13/11 Q1010

2010/08/09 18:50
ENHE 091850Z 05021KT 9999 BKN015 11/08 Q1012

2010/08/09 18:50
ENNK 091850Z 24007KT 9999 ST060 15/12 Q1011

2010/08/09 18:50
ENNM 091850Z 35007KT CAVOK 14/11 Q1010

2010/08/09 18:50
ENNO 091850Z 07006KT 030V110 9999 FEW040 SCT090 22/15 Q1007

2010/08/09 18:50
ENRA 091850Z 10003KT 9999 FEW040TCU 18/13 Q1009

2010/08/09 18:55
ETEB 091855Z AUTO 06003KT 9999 CLR 19/13 A3006 RMK AO2 SLP168 T01870126

2010/08/09 18:50
LIBD 091850Z VRB01KT CAVOK 24/17 Q1014

2010/08/09 18:45
LIBR 091845Z 32013KT CAVOK 25/21 Q1014 NOSIG

2010/08/09 18:50
LICC 091850Z VRB02KT CAVOK 27/20 Q1013

2010/08/09 18:50
LICJ 091850Z 05008KT CAVOK 26/19 Q1016

2010/08/09 18:50
LIPB 091850Z 17009KT 9999 FEW100 25/14 Q1014

2010/08/09 18:50
LIPE 091850Z 12008KT CAVOK 25/18 Q1014

2010/08/09 18:45
LIPH 091845Z 16002KT 9999 FEW080 25/19 Q1014

2010/08/09 18:50
LIPK 091850Z VRB02KT CAVOK 25/14 Q1014

2010/08/09 18:50
LIPQ 091850Z VRB02KT CAVOK 24/19 Q1014

2010/08/09 18:45
LIPR 091845Z 11003KT CAVOK 26/21 Q1014

2010/08/09 18:45
LIPX 091845Z 00000KT CAVOK 28/19 Q1014

2010/08/09 18:50
LIPZ 091850Z VRB03KT CAVOK 25/18 Q1014

2010/08/09 18:45
LIRA 091845Z 21004KT 9999 FEW080 SCT200 25/21 Q1015

2010/08/09 18:45
LIRP 091845Z 26003KT 9999 SCT020 24/21 Q1015 NOSIG

2010/08/09 18:50
EGYP 091850Z 28019KT 9999 FEW014CB 04/02 Q0994 BLU TEMPO 3000 SHGS BKN014CB YLO1

2010/08/09 18:53
KRQE 091853Z AUTO VRB03KT 10SM BKN080 BKN100 24/06 A3027 RMK AO2 SLP133 T02390056 TSNO 

2010/08/09 18:55
K2W6 091855Z AUTO 00000KT 10SM CLR 31/18 A3002 RMK AO1

2010/08/09 18:55
K2G4 091855Z AUTO 20006KT 10SM CLR 28/11 A3013 RMK AO1

2010/08/09 18:53
KCGE 091853Z AUTO 17007KT 10SM OVC075 31/22 A3002 RMK AO1

2010/08/09 18:55
KCBE 091855Z AUTO 00000KT 10SM CLR 33/16 A3002 RMK AO1

2010/08/09 18:54
KRFD 091854Z 31010KT 10SM FEW030 SCT150 BKN250 30/22 A2993 RMK AO2 SLP128 T03000222 

2010/08/09 18:55
EGUN 091855Z AUTO 25007KT 9999 BKN050 OVC095 22/13 A2987 RMK AO2 SLP103 T02230127

2010/08/09 18:50
ENAN 091850Z 02018KT 9999 FEW012 BKN025 10/08 Q1013 NOSIG

2010/08/09 18:50
ENBO 091850Z 01007KT 330V050 9999 FEW012 14/10 Q1011 NOSIG

2010/08/09 18:50
ENBR 091850Z 10004KT 9999 FEW020 BKN030 14/11 Q1011 NOSIG

2010/08/09 18:50
ENDU 091850Z 35006KT 310V030 9999 FEW025 SCT040 15/09 Q1012

2010/08/09 18:50
ENMS 091850Z 34008KT 9999 FEW040TCU 16/13 Q1009

2010/08/09 18:50
ENOL 091850Z 35004KT 9999 FEW015 15/12 Q1009 NOSIG

2010/08/09 18:50
ENSK 091850Z 06005KT 9999 FEW010 SCT015 BKN017 13/09 Q1012

2010/08/09 18:50
ENST 091850Z 04006KT 9999 FEW010 14/11 Q1010

2010/08/09 18:50
ENVA 091850Z 25008KT CAVOK 18/15 Q1008 NOSIG

2010/08/09 18:50
ENVD 091850Z 05016KT 9999W2000S VCFG DZ SCT005 BKN010 OVC040 09/08 Q1015

2010/08/09 18:50
ENZV 091850Z 15001KT 9999 FEW020 SCT045 15/09 Q1012 NOSIG

2010/08/09 18:55
ETAD 091855Z AUTO 20003KT 9999 BKN080 19/10 A3003 RMK AO2 SLP163 T01950101 $

2010/08/09 18:55
ETAR 091855Z AUTO 00000KT 9999 OVC080 18/16 A3002 RMK AO2 DZB1759E1802 SLP162 P0000 T01790159 $

2010/08/09 19:00
LEJR 091900Z 25003KT 240V310 CAVOK 32/14 Q1013

2010/08/09 18:50
LIEA 091850Z VRB02KT CAVOK 23/18 Q1016

2010/08/09 18:45
LIEE 091845Z 18001KT 9999 SCT050 26/21 Q1015 NOSIG

2010/08/09 18:50
LIEO 091850Z 02003KT CAVOK 26/21 Q1016

2010/08/09 18:50
LIMC 091850Z VRB01KT CAVOK 25/16 Q1015 NOSIG

2010/08/09 18:50
LIME 091850Z 19005KT 9999 FEW040 25/16 Q1015

2010/08/09 18:50
LIMF 091850Z 05005KT 9999 FEW060 24/18 1015

2010/08/09 18:50
LIMJ 091850Z VRB01KT 9999 FEW015 25/20 Q1015

2010/08/09 18:50
LIML 091850Z VRB02KT CAVOK 26/16 Q1014 NOSIG

2010/08/09 18:50
LIRF 091850Z 29005KT 260V320 CAVOK 23/20 Q1015 NOSIG

2010/08/09 18:50
LIRN 091850Z 31004KT CAVOK 24/18 Q1015

2010/08/09 18:50
LIRQ 091850Z 26006KT 220V280 CAVOK 25/19 Q1015

2010/08/09 18:55
KADW 091855Z AUTO 19007KT 10SM FEW055 33/21 A3000 RMK AO2 SLP158 T03300206 $

2010/08/09 18:55
KDOV 091855Z AUTO 12011KT 10SM FEW150 31/21 A2999 RMK AO2 RAE1756B1827E1849 SLP157 P0000 T03080208

2010/08/09 18:55
KDYS 091855Z AUTO 17007KT 10SM SCT060 35/18 A2996 RMK AO2 SLP116 T03520176 $

2010/08/09 18:55
KEDW 091855Z 00000KT 80SM CLR 29/01 A2992 RMK AO2A SLP091 T02870015

2010/08/09 18:55
KFAF 091855Z AUTO 18008KT 10SM CLR 31/23 A3001 RMK AO2 SLP164 T03110231 $

2010/08/09 18:55
KFCS 091855Z AUTO 09005KT 10SM SCT140 OVC180 24/15 A3016 RMK AO2 SLP136 T02350150

2010/08/09 18:55
KFHU 091855Z 00000KT 50SM SCT050 28/17 A3013 RMK SLP129

2010/08/09 18:55
KGBN 091855Z VRB03KT 12SM FEW140 39/03 A2986 RMK SLP085

2010/08/09 18:55
KGUS 091855Z 18006KT 10SM FEW120 SCT190 31/24 A2995 RMK AO2A SLP137 T03090236

2010/08/09 18:55
KLHW 091855Z AUTO 06008KT 10SM FEW055 34/21 A2996 RMK AO2 LTG DSNT SE SLP145 T03410212

2010/08/09 18:55
KLSF 091855Z AUTO 00000KT 10SM FEW080 SCT100 35/21 A2997 RMK AO2 CLDS LWR RWY15 SLP147 T03480214 PNO $

2010/08/09 18:55
KLTS 091855Z AUTO 19013G17KT 10SM CLR 38/18 A2990 RMK AO2 SLP103 T03810176 $

2010/08/09 18:55
KMTC 091855Z 26015G19KT 5SM -RA HZ SCT045 BKN090 OVC150 27/21 A2995 RMK CB 39W MOV NE SLP146

2010/08/09 18:55
KMUI 091855Z AUTO 25009KT 10SM FEW060 33/17 A2999 RMK AO2 SLP154 T03260173 $

2010/08/09 18:55
KMUO 091855Z AUTO 26007KT 10SM -RA BKN110 25/10 A2990 RMK AO2 RAB1845DZB1819E1832 SLP097 P0000 T02490098

2010/08/09 18:52
KNFW 091852Z 18011G14KT 10SM FEW045 38/19 A2995 RMK AO2 SLP126 T03780189

2010/08/09 18:55
ETAD 091855Z AUTO 20003KT 9999 BKN080 19/10 A3003 RMK AO2 SLP163 T01950101 $

2010/08/09 18:55
KDOV 091855Z AUTO 12011KT 10SM FEW150 31/21 A2999 RMK AO2 RAE1756B1827E1849 SLP157 P0000 T03080208

2010/08/09 18:55
KEDW 091855Z 00000KT 80SM CLR 29/01 A2992 RMK AO2A SLP091 T02870015

2010/08/09 18:55
KFAF 091855Z AUTO 18008KT 10SM CLR 31/23 A3001 RMK AO2 SLP164 T03110231 $

2010/08/09 18:55
KFCS 091855Z AUTO 09005KT 10SM SCT140 OVC180 24/15 A3016 RMK AO2 SLP136 T02350150

2010/08/09 18:55
KFHU 091855Z 00000KT 50SM SCT050 28/17 A3013 RMK SLP129

2010/08/09 18:55
KGBN 091855Z VRB03KT 12SM FEW140 39/03 A2986 RMK SLP085

2010/08/09 18:55
KLHW 091855Z AUTO 06008KT 10SM FEW055 34/21 A2996 RMK AO2 LTG DSNT SE SLP145 T03410212

2010/08/09 18:52
KNFW 091852Z 18011G14KT 10SM FEW045 38/19 A2995 RMK AO2 SLP126 T03780189

2010/08/09 18:53
KNIP 091853Z 05013G22KT 3SM RA FEW020 BKN035CB BKN250 28/25 A2996 RMK AO2 RAB46 SLP139 CB OHD MOV SW P0000 T02780250

2010/08/09 18:55
KOZR 091855Z AUTO 05007KT 10SM SCT048 SCT065 SCT210 33/23 A2998 RMK AO2 SLP147 T03350232 $

2010/08/09 18:55
KSLI 091855Z 17006KT 10SM CLR 21/15 A2993 RMK AO2A SLP137 T02090146

2010/08/09 18:55
KSSC 091855Z 07004KT 10SM CLR 34/21 A3000 RMK AO2A SLP159 T03370213 $

2010/08/09 18:55
KTIK 091855Z 16010G15KT 090V180 10SM CLR 36/21 A2993 RMK AO2A SLP117 T03590208

2010/08/09 18:55
NSTU 091855Z 09014KT 12SM SCT017 BKN040 27/25 A2999 RMK SLP156 T02740246

2010/08/09 18:55
RODN 091855Z 15016G30KT 9999 BKN017 BKN023 BKN029 OVC065 28/26 A2973 RMK AO2A PK WND 17030/1847 CIG 015V022 BKN029 V OVC SLP066 T02790256

2010/08/09 18:55
ETAR 091855Z AUTO 00000KT 9999 OVC080 18/16 A3002 RMK AO2 DZB1759E1802 SLP162 P0000 T01790159 $

2010/08/09 18:55
KADW 091855Z AUTO 19007KT 10SM FEW055 33/21 A3000 RMK AO2 SLP158 T03300206 $

2010/08/09 18:55
KBAB 091855Z AUTO 00000KT 10SM CLR 25/14 A2987 RMK AO2 SLP115 T02450138 $

2010/08/09 18:55
KFBG 091855Z 08003KT 7SM FEW030 SCT050 SCT150 35/20 A3001 RMK AO2A SLP160 WND DATA ESTMD ALSTG/SLP ESTMD

2010/08/09 18:55
KGTB 091855Z AUTO 24012KT 10SM CLR 28/20 A2992 RMK AO2 SLP132 T02790204

2010/08/09 18:55
KLTS 091855Z AUTO 19013G17KT 10SM CLR 38/18 A2990 RMK AO2 SLP103 T03810176 $

2010/08/09 18:55
KMUO 091855Z AUTO 26007KT 10SM -RA BKN110 25/10 A2990 RMK AO2 RAB1845DZB1819E1832 SLP097 P0000 T02490098

2010/08/09 18:53
KNQX 091853Z 23009KT 10SM FEW010 SCT020CB BKN030 BKN140 28/24 A2992 RMK AO2 RAE51 SLP129 CB OHD N MOV S T1 SET P0001 T02830239 $

2010/08/09 18:55
KPOB 091855Z AUTO 08004KT 10SM BKN055 33/24 A3001 RMK AO2 SLP161 T03290237 $

2010/08/09 18:55
KVOK 091855Z VRB04KT 10SM SCT032 30/24 A2992 RMK AO2A SLP124

2010/08/09 18:55
KXMR 091855Z AUTO 13007KT 10SM FEW016 30/24 A2992 RMK AO2 SLP132 T03030242

2010/08/09 19:00
MHLC 091900Z 35006KT 9999 SCT024TCU BKN200 31/26 Q1011 A2987 NOSIG

2010/08/09 19:00
MHLM 091900Z 36008KT 9999 SCT030 BKN250 34/26 Q1011 A2986 NOSIG

2010/08/09 19:00
MHRO 091900Z 09012KT 9999 FEW026TCU BKN250 31/25 Q1012 A2988 NOSIG

2010/08/09 19:00
MHTG 091900Z 01011KT 8000 SHRA BKN030CB 26/21 Q1017 A3003 NOSIG

2010/08/09 18:55
PAEI 091855Z AUTO 00000KT 10SM OVC070 15/10 A2958 RMK AO2 SLP018 T01520101 $

2010/08/09 18:55
KDMW 091855Z AUTO 18006KT 10SM SCT050 34/20 A3002 RMK AO2

2010/08/09 18:56
KFDK 091856Z AUTO 21006KT 10SM SCT075 36/18 A3000 RMK AO2 LTG DSNT SW

2010/08/09 18:57
KFME 091857Z AUTO 18005KT 10SM SCT055 SCT075 SCT085 31/20 A3001 RMK AO1

2010/08/09 18:55
KCGS 091855Z AUTO 18006KT 10SM SCT055 SCT065 35/18 A2999 RMK AO1

2010/08/09 18:56
KW29 091856Z AUTO 16008KT 129V199 10SM CLR 32/19 A3000 RMK AO1

2010/08/09 19:00
FAVV 091900Z AUTO 22004KT //// // ////// 07/M09 Q1026

2010/08/09 19:00
FAJB 091900Z AUTO 20003KT //// // ////// 07/M10 Q1027

2010/08/09 19:00
FASI 091900Z AUTO 20003KT //// // ////// 07/M10 Q1027

2010/08/09 19:00
FAGC 091900Z AUTO 19013KT //// // ////// 07/M11 Q1027

2010/08/09 19:00
SBBR 091900Z 08009KT CAVOK 30/M06 Q1020 

2010/08/09 18:55
KVBG 091855Z 32008KT 10SM FEW007 SCT012 17/13 A2996 RMK AO2 SLP137 T01720128 VISNO RWY12 $ 

2010/08/09 18:56
KABQ 091856Z 00000KT 10SM FEW070 28/12 A3015 RMK AO2 SLP115 CB DSNT N TCU DSNT NE T02780117 

2010/08/09 18:55
KPOE 091855Z AUTO 17003KT 10SM CLR 34/22 A2996 RMK AO2 SLP144 T03440217 

2010/08/09 18:55
KGTB 091855Z AUTO 24012KT 10SM CLR 28/20 A2992 RMK AO2 SLP132 T02790204

2010/08/09 18:53
KNIP 091853Z 05013G22KT 3SM RA FEW020 BKN035CB BKN250 28/25 A2996 RMK AO2 RAB46 SLP139 CB OHD MOV SW P0000 T02780250

2010/08/09 18:53
KNQX 091853Z 23009KT 10SM FEW010 SCT020CB BKN030 BKN140 28/24 A2992 RMK AO2 RAE51 SLP129 CB OHD N MOV S T1 SET P0001 T02830239 $

2010/08/09 18:55
KOFF 091855Z AUTO 19006KT 10SM FEW027 32/25 A2985 RMK AO2 SLP091 T03220248 $

2010/08/09 18:55
KOZR 091855Z AUTO 05007KT 10SM SCT048 SCT065 SCT210 33/23 A2998 RMK AO2 SLP147 T03350232 $

2010/08/09 18:55
KPOB 091855Z AUTO 08004KT 10SM BKN055 33/24 A3001 RMK AO2 SLP161 T03290237 $

2010/08/09 18:55
KRND 091855Z AUTO 14008KT 10SM FEW170 SCT200 34/21 A2995 RMK AO2 SLP131 T03390211

2010/08/09 18:55
KSLI 091855Z 17006KT 10SM CLR 21/15 A2993 RMK AO2A SLP137 T02090146

2010/08/09 18:55
KSSC 091855Z 07004KT 10SM CLR 34/21 A3000 RMK AO2A SLP159 T03370213 $

2010/08/09 18:55
KSZL 091855Z 18008KT 10SM BKN180 35/26 A2991 RMK AO2A SLP117 T03540258 PNO $

2010/08/09 18:55
KTIK 091855Z 16010G15KT 090V180 10SM CLR 36/21 A2993 RMK AO2A SLP117 T03590208

2010/08/09 18:55
KVOK 091855Z VRB04KT 10SM SCT032 30/24 A2992 RMK AO2A SLP124

2010/08/09 18:55
KVPS 091855Z 17008KT 10SM SCT045 SCT085 33/25 A2996 RMK AO2A SLP146 T03320254 $

2010/08/09 18:55
KWRB 091855Z 09007KT 10SM FEW020 35/23 A2999 RMK SLP150

2010/08/09 18:55
KWRI 091855Z AUTO 21006KT 10SM CLR 34/18 A2996 RMK AO2 SLP144 T03400183 $

2010/08/09 18:55
PHSF 091855Z VRB04KT 7SM FEW200 23/M04 A3031 RMK SLPNO

2010/08/09 18:55
KAEG 091855Z AUTO 31009KT 10SM CLR 27/10 A3017 RMK AO1

2010/08/09 18:55
KAIK 091855Z AUTO 07006KT 10SM CLR 33/25 A3003 RMK AO2 PNO

2010/08/09 18:55
KBBP 091855Z AUTO 05003KT 10SM CLR 33/20 A3001 RMK AO2

2010/08/09 18:55
KBNL 091855Z AUTO 05010KT 10SM CLR 33/19 A2999 RMK AO2

2010/08/09 18:47
KBVI 091847Z 22005KT 10SM SCT200 31/17 A3006

2010/08/09 18:55
KBWD 091855Z AUTO 12007KT 10SM FEW060 35/19 A2996 RMK AO2

2010/08/09 18:55
KCQW 091855Z AUTO 14006KT 5SM HZ CLR 33/22 A3001 RMK AO2

2010/08/09 18:55
KDCM 091855Z AUTO 13005KT 7SM SCT049 SCT055 SCT095 32/27 A3003 RMK AO2 LTG DSNT E AND SE

2010/08/09 18:55
KE80 091855Z AUTO 28007KT 10SM CLR 29/10 A3013 RMK AO2 T02940103

2010/08/09 18:55
KEDC 091855Z AUTO 15009KT 130V210 10SM CLR 34/19 A2995 RMK AO1

2010/08/09 18:55
KFMH 091855Z AUTO 23014G19KT 10SM CLR 28/21 A2998 RMK AO2

2010/08/09 18:54
KGED 091854Z AUTO 14010G16KT 10SM CLR 33/19 A3001 RMK AO2 SLP162 T03280194

2010/08/09 18:55
KHYW 091855Z AUTO 11007KT 080V150 7SM SCT027 BKN032 BKN039 32/28 A3000 RMK AO2 LTG DSNT E AND S

2010/08/09 18:55
KIFP 091855Z AUTO 24005KT 10SM CLR 34/03 A2986 RMK AO2

2010/08/09 18:47
KIWA 091847Z VRB04KT 45SM SCT120 38/12 A2990

2010/08/09 18:55
KLQK 091855Z AUTO 25003KT 10SM SCT045 34/21 A3003 RMK AO2 T03420209 PNO

2010/08/09 18:55
KLRO 091855Z AUTO 11008G17KT 360V010 10SM VCTS SCT022 29/24 A2999 RMK AO2 LTG DSNT SE AND S

2010/08/09 18:55
KLUX 091855Z AUTO 00000KT 10SM BKN050 BKN100 33/25 A3002 RMK AO2

2010/08/09 18:55
KMNI 091855Z AUTO 04007KT 10SM CLR 33/24 A3000 RMK AO2

2010/08/09 18:52
KNRB 091852Z 10009KT 10SM FEW015 SCT030TCU BKN065 31/23 A2995 RMK AO2 RAE19 SLP142 TCU OHD T2 SET P0000 T03060233

2010/08/09 18:55
KRBW 091855Z AUTO 06007KT 10SM CLR 33/21 A3000 RMK AO2 LTG DSNT S

2010/08/09 18:55
KSPL 091855Z AUTO 10009KT CLR 33/27 A2991 RMK AO2 PWINO PNO

2010/08/09 18:55
KTME 091855Z AUTO 15004KT 10SM FEW044 34/24 A2996 RMK AO2

2010/08/09 18:55
KTSP 091855Z AUTO RMK AO2 PWINO PNO FZRANO TSNO

2010/08/09 18:55
KUTA 091855Z AUTO 00000KT 10SM SCT045 SCT050 SCT100 35/23 A2994 RMK AO2 LTG DSNT NE

2010/08/09 18:55
KX40 091855Z AUTO 07007KT 7SM BKN100 33/25 A2990 RMK AO2 LTG DSNT NE E AND SW T03290250

2010/08/09 18:54
PAHN 091854Z AUTO 10007KT 10SM OVC014 14/11 A2997 RMK AO2 SLP150 T01390111 TSNO

2010/08/09 18:54
PAKN 091854Z 19009KT 10SM OVC025 12/09 A2954 RMK AO2 SLP002 T01220094

2010/08/09 18:50
PASP 091850Z 00000KT 20SM FEW040 SCT060 13/10 A2965 RMK EST PASS OPEN NO SPECI

2010/08/09 18:53
KLND 091853Z AUTO 00000KT 10SM FEW120 27/07 A3002 RMK AO2 SLP089 T02720067

2010/08/09 18:53
KLXV 091853Z AUTO 01009G14KT 10SM SCT060 BKN110 13/08 A3043 RMK AO2 RAB18E39 SLP140 P0000 T01330083 TSNO

2010/08/09 18:55
KMGG 091855Z AUTO 00000KT 10SM CLR 31/23 A2993 RMK AO2 T03120230

2010/08/09 18:55
KMKG 091855Z 22009G17KT 10SM BKN012 OVC017 27/23 A2993 RMK AO2 SLP132 T02670228

2010/08/09 18:49
KMOX 091849Z AUTO 13004KT 10SM CLR 32/19 A2990 RMK AO2

2010/08/09 18:53
KMSN 091853Z VRB04KT 10SM BKN025 28/22 A2992 RMK AO2 SLP125 T02830217

2010/08/09 18:53
KMWM 091853Z AUTO 09004KT 10SM SCT027 29/22 A2992 RMK AO2

2010/08/09 18:53
KMWT 091853Z AUTO VRB05KT 10SM CLR 35/21 A2995 RMK AO2 SLP126 T03500206 TSNO

2010/08/09 18:53
KOVE 091853Z AUTO VRB04KT 10SM CLR 26/14 A2989 RMK AO2 SLP122 T02560139 TSNO $

2010/08/09 18:53
KPNM 091853Z AUTO 00000KT 10SM CLR 32/20 A2992 RMK AO2

2010/08/09 18:53
KPQN 091853Z AUTO 10007KT 075V175 10SM SCT027 31/23 A2994 RMK AO2

2010/08/09 18:53
KPWC 091853Z AUTO 00000KT 10SM CLR 30/19 A2995 RMK AO2

2010/08/09 18:55
KRNO 091855Z 30003KT 10SM FEW080 26/04 A3000 RMK AO2 SLP106 T02610044

2010/08/09 18:54
KROA 091854Z 13007KT 10SM BKN048 32/21 A3005 RMK AO2 SLP161 T03220206

2010/08/09 18:53
KSAV 091853Z 07008KT 040V110 10SM SCT049 34/21 A2997 RMK AO2 SLP148 T03440206

2010/08/09 18:55
KSCK 091855Z 31005KT 10SM CLR 24/13 A2988 RMK AO2 SLP117 T02390133

2010/08/09 18:53
KSGR 091853Z 18005KT 10SM FEW045 34/23 A2994 RMK AO2 SLP145 T03440228

2010/08/09 18:53
KTLH 091853Z 07008G16KT 10SM FEW050 35/20 A2995 RMK AO2 SLP139 T03500200

2010/08/09 18:53
KTRI 091853Z 30006KT 10SM SCT045 BKN150 33/18 A3005 RMK AO2 SLP157 T03330178

2010/08/09 18:53
KTWM 091853Z AUTO 18006KT 10SM CLR 28/22 A2989 RMK AO2

2010/08/09 18:55
KCGC 091855Z AUTO VRB06KT 10SM FEW090 32/24 A2989 RMK

2010/08/09 18:55
KPBG 091855Z AUTO 10006KT 3SM -RA BR BKN015 BKN049 23/22 A2988 RMK AO2 P0000

2010/08/09 18:53
KTYS 091853Z 31004KT 10SM FEW045 34/22 A3000 RMK AO2 SLP146 T03390217

2010/08/09 18:55
KULM 091855Z AUTO 08004KT 10SM CLR 29/23 A2991 RMK AO2

2010/08/09 19:00
KVTP 091900Z AUTO 10004KT 10SM TS SCT014 BKN038 OVC060 15/10 A3046 RMK AO2 LTG DSNT N THRU S

2010/08/09 18:50
KWYS 091850Z AUTO 20014KT 10SM FEW044 19/08 A3012 RMK AO2

2010/08/09 18:53
KLAX 091853Z 26009KT 10SM FEW015 19/12 A2994 RMK AO2 SLP138 T01890122 $

2010/08/09 18:53
K4BM 091853Z AUTO 19004KT 10SM 15/09 A3056 RMK AO2 LTG DSNT NE

2010/08/09 18:52
K5SM 091852Z AUTO 00000KT 10SM 13/10 A3053 RMK AO2 LTG DSNT SE

2010/08/09 18:54
K7BM 091854Z AUTO 11003KT 10SM BKN055 BKN065 OVC110 19/10 A3043 RMK AO2 LTG DSNT NE AND SE

2010/08/09 18:52
KABI 091852Z VRB04KT 10SM FEW060 34/19 A2997 RMK AO2 SLP117 T03440189

2010/08/09 18:53
KAIT 091853Z AUTO 31003KT 10SM CLR 31/20 A2992 RMK AO2

2010/08/09 18:48
KASG 091848Z 22010KT 10SM BKN060 BKN250 33/21 A2998

2010/08/09 18:53
KBBB 091853Z AUTO 12005KT 10SM CLR 32/19 A2996 RMK AO2

2010/08/09 18:58
KBDU 091858Z AUTO 00000KT 10SM CLR 30/09 A3009 RMK AO2 LTG DSNT S THRU NW

2010/08/09 18:56
KBMI 091856Z 17007KT 7SM FEW110 32/25 A2994 RMK AO2 T03160250 SLP123 $

2010/08/09 18:56
KBOK 091856Z AUTO 00000KT 7SM BKN003 13/12 A2996 RMK AO2 T01330116 SLP147

2010/08/09 18:53
KBTR 091853Z VRB04KT 10SM SCT040 SCT080 SCT120 35/24 A2993 RMK AO2 SLP132 CB DSNT N-E-SE MOVG SW T03500244

2010/08/09 18:54
KBTV 091854Z 00000KT 10SM -RA SCT031CB BKN065 BKN100 26/20 A2989 RMK AO2 RAB08 SLP121 CB VC NW-S MOV E P0012 T02610200

2010/08/09 18:57
KCCU 091857Z AUTO 26018G21KT 10SM -RA SCT028 SCT037 BKN055 12/06 A3057 RMK AO2 LTG DSNT NE THRU S

2010/08/09 18:53
KCHA 091853Z 00000KT 10SM FEW050 SCT120 BKN250 35/21 A2999 RMK AO2 SLP145 T03500211

2010/08/09 18:55
KCMA 091855Z 22009KT 10SM CLR 20/13 A2993 RMK AO2 SLP143 T02000133

2010/08/09 18:55
KCNK 091855Z AUTO 21009KT 10SM CLR 37/22 A2986 RMK AO2 SLP089 T03670217

2010/08/09 19:02
KCPW 091902Z AUTO 21004G14KT 10SM VCTS BKN014 BKN028 OVC038 12/07 A3057 RMK AO2 LTG DSNT E SE AND NW

2010/08/09 18:50
KCWF 091850Z 03007KT 10SM SCT07 SCT100 34/23 A2996

2010/08/09 18:53
KDAB 091853Z 09008G14KT 10SM FEW024 SCT110 31/23 A2993 RMK AO2 SLP133 CB DSNT SW-W T03110233

2010/08/09 18:55
KDLH 091855Z 27005KT 10SM FEW030 30/18 A2993 RMK AO2 SLP130 T03000183

2010/08/09 18:55
KEAT 091855Z AUTO VRB05KT 10SM CLR 25/09 A2980 RMK AO2 SLP082 T02500094

2010/08/09 18:53
KFFM 091853Z AUTO 00000KT 10SM CLR 29/18 A2990 RMK AO2

2010/08/09 18:54
KFGN 091854Z AUTO 16006KT 10SM CLR 24/21 A2988 RMK AO2

2010/08/09 18:54
KFWS 091854Z 17009KT 20SM BKN050 36/21 A2994

2010/08/09 18:52
KGDB 091852Z AUTO 04007KT 10SM CLR 31/20 A2992 RMK AO2 T03080199

2010/08/09 18:53
KGHW 091853Z AUTO 00000KT 10SM CLR 32/14 A2997 RMK AO2

2010/08/09 18:55
KGPI 091855Z 11003KT 10SM CLR 24/08 A2987 RMK AO2 SLP100 T02440083

2010/08/09 18:54
KGSO 091854Z VRB03KT 10SM SCT049 32/19 A3004 RMK AO2 SLP160 T03220194

2010/08/09 18:54
KIND 091854Z COR 26007KT 10SM FEW055 SCT140 SCT250 34/20 A2995 RMK AO2 SLP134 T03440200

2010/08/09 18:55
KIRK 091855Z AUTO 15008KT 10SM CLR 29/24 A2990 RMK AO2 SLP117 T02940244

2010/08/09 18:55
KLIC 091855Z AUTO 15004KT 10SM CLR 25/14 A3013 RMK AO2 SLP128 T02500144

2010/08/09 18:55
KLLJ 091855Z AUTO 26008G20KT 10SM -RA SCT050 BKN070 BKN090 16/11 A3004 RMK AO2 LTG DSNT E-S TSB04E20 SLPNO P0014 T01560111

2010/08/09 18:50
ENAN 091850Z 02018KT 9999 FEW012 BKN025 10/08 Q1013 NOSIG

2010/08/09 18:50
ENBR 091850Z 10004KT 9999 FEW020 BKN030 14/11 Q1011 NOSIG 

2010/08/09 18:50
ENBO 091850Z 01007KT 330V050 9999 FEW012 14/10 Q1011 NOSIG

2010/08/09 18:50
ENDU 091850Z 35006KT 310V030 9999 FEW025 SCT040 15/09 Q1012

2010/08/09 18:50
ENOL 091850Z 35004KT 9999 FEW015 15/12 Q1009 NOSIG

2010/08/09 18:50
ENVA 091850Z 25008KT CAVOK 18/15 Q1008 NOSIG 

2010/08/09 18:50
ENZV 091850Z 15001KT 9999 FEW020 SCT045 15/09 Q1012 NOSIG

2010/08/09 18:50
EFJO 091850Z AUTO 20006KT CAVOK 23/16 Q1011

2010/08/09 18:50
EFLP 091850Z 19003KT CAVOK 21/15 Q1013

2010/08/09 18:50
EFMI 091850Z AUTO 21004KT 170V260 CAVOK 21/14 Q1011

2010/08/09 18:50
EFSA 091850Z AUTO 18007KT 140V230 CAVOK 22/15 Q1012

2010/08/09 18:50
EFUT 091850Z AUTO 19005KT 150V230 CAVOK 20/15 Q1012

2010/08/09 18:50
EFVR 091850Z AUTO 22004KT 170V280 CAVOK 22/15 Q1011

2010/08/09 18:50
LGAD 091850Z 00000KT CAVOK 25/21 Q1011

2010/08/09 18:50
LGAV 091850Z 06004KT CAVOK 28/18 Q1010 NOSIG

2010/08/09 18:50
LGIR 091850Z 30011KT 9999 FEW020 28/25 Q1008 NOSIG

2010/08/09 18:50
LGKO 091850Z 33008KT CAVOK 27/21 Q1006

2010/08/09 18:50
LGKR 091850Z 22004KT CAVOK 27/17 Q1009 NOSIG

2010/08/09 18:50
LGLM 091850Z VRB03KT CAVOK 27/20 Q1008

2010/08/09 18:50
LGTS 091850Z 36008KT CAVOK 31/15 Q1010 NOSIG

2010/08/09 19:00
SVMC 091900Z 16011KT 9999 -TS FEW010 CB BKN013 31/23 Q1010

2010/08/09 19:00
SVJC 091900Z 28012KT 9999 SCT040 33/23 Q1009

2010/08/09 19:00
SVSA 091900Z 17015KT 9999 SCT020 32/19 Q1012

2010/08/09 19:00
SVCR 091900Z 14015KT 9999 BKN030 33/24 Q1008

2010/08/09 19:00
SVVG 091900Z 00000KT 9999 SCT020 32/XX Q1011

2010/08/09 19:00
SVSZ 091900Z 00000KT 9999 BKN020 XX/XX Q1010

2010/08/09 19:00
SVMD 091900Z 18012KT 9999 FEW030 SCT100 28/19 Q1022

2010/08/09 19:00
SVLF 091900Z 00000KT 9999 BKN040 XX/XX Q1010

2010/08/09 18:50
LCRA 091850Z 27009KT CAVOK 28/24 Q1005 NOSIG

2010/08/09 18:53
MMEP 091853Z 00000KT 12SM SCT030 BKN250 29/16 A3005 RMK 8/108

2010/08/09 18:47
MMGL 091847Z 06005KT 7SM BKN020TCU 26/18 A3009 RMK 8/200

2010/08/09 18:45
MMPN 091845Z 18008KT 15SM SCT025TCU BKN100 BKN290 24/18 A3009 RMK 8/231 HZY

2010/08/09 18:46
MMSP 091846Z 06006KT 12SM SCT020 26/14 A3020 RMK 8/100

2010/08/09 18:46
MMZO 091846Z 12010KT 15SM FEW025 BKN250 30/25 A2980 RMK 8/104 HZY

2010/08/09 18:50
LGAL 091850Z 03008KT CAVOK 30/19 Q1009

2010/08/09 18:50
LGKV 091850Z 00000KT 9999 FEW030 27/22 Q1009

2010/08/09 18:50
LGMT 091850Z /////KT CAVOK 31/24 Q1008

2010/08/09 18:50
LGPZ 091850Z 22008KT 9999 FEW015 26/22 Q1011 NOSIG

2010/08/09 18:50
LGRX 091850Z 00000KT CAVOK 26/21 Q1009 NOSIG

2010/08/09 18:50
LGSR 091850Z 33015KT CAVOK 27/21 Q1007 NOSIG

2010/08/09 18:50
LGZA 091850Z VRB02KT CAVOK 28/23 Q1009

2010/08/09 18:50
LXGB 091850Z 07008KT CAVOK 25/22 Q1014

2010/08/09 19:00
FAVV 091900Z AUTO 22004KT //// // ////// 07/M09 Q1026

2010/08/09 19:00
FAJB 091900Z AUTO 20003KT //// // ////// 07/M10 Q1027

2010/08/09 19:00
FASI 091900Z AUTO 20003KT //// // ////// 07/M10 Q1027

2010/08/09 19:00
FAGC 091900Z AUTO 19013KT //// // ////// 07/M11 Q1027

2010/08/09 19:00
SBBR 091900Z 08009KT CAVOK 30/M06 Q1020 

2010/08/09 18:50
EGKB 091850Z 22010KT 9999 FEW025 18/13 Q1014 

2010/08/09 19:00
MWCR 091900Z 10006KT 9999 SCT018 SCT200 31/26 Q1013 NOSIG

2010/08/09 19:00
MWCB 091900Z 08003KT 9999 FEW016 BKN250 32/25 Q1013

2010/08/09 18:50
BGCO 091850Z 34025KT 9999 FEW210 10/M01 Q1011

2010/08/09 18:50
LGKF 091850Z 33009KT 9999 FEW020 27/16 Q1009

2010/08/09 18:50
LGMK 091850Z 36017G27KT CAVOK 26/19 Q1007

2010/08/09 18:50
LGRP 091850Z 24012KT 9999 FEW018 28/25 Q1004 NOSIG

2010/08/09 18:50
LGSA 091850Z 31006KT 9999 FEW020 26/23 Q1009

2010/08/09 19:00
LEMO 091900Z 36009KT 320V030 CAVOK 37/16 Q1012 NOSIG

2010/08/09 19:00
SBSJ 091900Z 22011KT 9999 SCT020 18/13 Q1022

2010/08/09 18:50
EFET 091850Z AUTO 05006KT 9999 OVC024 12/09 Q1013

2010/08/09 18:50
EFIV 091850Z AUTO 01010KT 9999 -RA FEW009 OVC012 11/10 Q1012

2010/08/09 18:50
EFKE 091850Z AUTO 36010KT 9999 OVC011 15/13 Q1008

2010/08/09 18:50
EFKI 091850Z AUTO 29001KT //// FEW046 SCT074 BKN117 21/19 Q1008

2010/08/09 18:50
EFKS 091850Z AUTO 24003KT 9999 -RA SCT014 BKN048 BKN086 19/17 Q1007

2010/08/09 18:50
EFKT 091850Z AUTO 01005KT 330V090 9999 OVC016 13/10 Q1011

2010/08/09 18:56
YMAV 091856Z AUTO 30004KT 7000NDV // NCD 03/03 Q1017

2010/08/09 18:48
PADL 091848Z 17015G23KT 3SM -RA BR SCT005 OVC010 11/09 A2953

2010/08/09 18:55
KAAT 091855Z AUTO VRB03KT 10SM CLR 26/05 A2998 RMK AO2 SLP103 T02610050 TSNO 

2010/08/09 18:55
KPHP 091855Z AUTO 16008G17KT 10SM CLR 33/17 A2990 RMK AO2 SLP101 T03280172 TSNO 

2010/08/09 18:55
KMBG 091855Z AUTO 16013KT 10SM CLR 33/18 A2987 RMK AO2 SLP100 T03280183 TSNO 

2010/08/09 18:55
KHON 091855Z AUTO 13008KT 10SM CLR 32/22 A2989 RMK AO2 SLP110 T03220222 TSNO 

2010/08/09 18:55
KAST 091855Z AUTO 30005KT 10SM OVC008 15/13 A3002 RMK AO2 RAB18E27 CIG 006V012 SLP166 P0000 T01500128 

2010/08/09 18:55
KINL 091855Z AUTO 00000KT 10SM FEW095 29/21 A2990 RMK AO2 SLP123 T02890206 

2010/08/09 18:56
KJAX 091856Z 09014G21KT 9SM -RA FEW024 BKN035 BKN200 29/25 A2995 RMK AO2 RAB55 SLP142 P0000 T02890250 

2010/08/09 18:50
EGDL 091850Z 19006KT 6000 -RADZ FEW007 BKN010 17/16 Q1013 GRN TEMPO 9999 NSW BKN007 GRN

2010/08/09 18:50
EGDM 091850Z 22012KT 9999 -DZ OVC004 17/15 Q1013 YLO2

2010/08/09 18:50
EGOV 091850Z 24005KT 9999 FEW018 SCT060 16/14 Q1009 BLU NOSIG

2010/08/09 18:50
EGQK 091850Z 06003KT 9999 FEW010 SCT045 14/12 Q1005 BLU NOSIG

2010/08/09 18:50
EGQL 091850Z 25009KT 9999 FEW022 15/11 Q1005 BLU NOSIG

2010/08/09 18:50
EGQS 091850Z 08002KT 9999 FEW006 FEW023CB SCT130 15/12 Q1005 BLU NOSIG

2010/08/09 18:50
EGUB 091850Z 21010KT 9999 SCT020 BKN035 BKN090 19/14 Q1012 WHT TEMPO FEW020 BKN035 BLU

2010/08/09 18:50
EGVN 091850Z 21005KT 9999 BKN019 BKN044 18/16 Q1012 WHT TEMPO 6000 -RADZ WHT

2010/08/09 18:50
EGVO 091850Z 21012KT 9999 FEW012 BKN017 18/14 Q1014 WHT BECMG BKN008 GRN

2010/08/09 18:50
EGWU 091850Z 23011KT 9999 FEW026 BKN060 20/14 Q1013 BLU BECMG SCT024 WHT

2010/08/09 18:50
EGXC 091850Z 22013KT 9999 FEW040 BKN100 21/13 Q1010 BLU NOSIG

2010/08/09 18:50
EGXD 091850Z 26008KT 9999 FEW026 18/13 Q1009 BLU NOSIG

2010/08/09 18:50
EGXE 091850Z 25011KT 9999 FEW020 17/13 Q1008 BLU NOSIG

2010/08/09 18:50
EGXW 091850Z 24015KT 9999 FEW035 BKN090 21/13 Q1010 BLU NOSIG

2010/08/09 18:50
EGYM 091850Z 23010KT CAVOK 22/12 Q1011 BLU NOSIG

2010/08/09 18:55
KANJ 091855Z AUTO 12003KT 10SM SCT029 BKN050 BKN065 27/18 A2989 RMK AO2 SLP115 T02670183 

2010/08/09 18:56
KSHV 091856Z 15005KT 10SM BKN060 36/21 A2993 RMK AO2 SLP132 T03560211 

2010/08/09 18:56
KCHS 091856Z 09007KT 10SM FEW010 BKN032 OVC060 30/25 A2998 RMK AO2 RAB35E55 SLP153 TCU S P0014 T03000250 

2010/08/09 19:00
MHLC 091900Z 35006KT 9999 SCT024TCU BKN200 31/26 Q1011 A2987 NOSIG

2010/08/09 18:48
MMGM 091848Z 23014KT 10SM FEW020 35/22 A2980 RMK 8/100 HZY

2010/08/09 18:49
MMHO 091849Z 00000KT 10SM SKC 36/20 A2981 RMK HZY

2010/08/09 18:45
MMMZ 091845Z 18004KT 15SM SCT090 OVC220 29/23 A2981 RMK 8/077 DSNT CU 1QUAD

2010/08/09 18:48
MMTJ 091848Z 34005KT 6SM SKC 22/13 A2995 RMK HZY ST W ISOL CI

2010/08/09 18:55
NSTU 091855Z 09014KT 12SM SCT017 BKN040 27/25 A2999 RMK SLP156 T02740246

2010/08/09 18:55
PAEI 091855Z AUTO 00000KT 10SM OVC070 15/10 A2958 RMK AO2 SLP018 T01520101 $

2010/08/09 18:55
PATC 091855Z 02012KT 10SM OVC065 13/11 A2934 RMK SLPNO BWC LOW

2010/08/09 18:55
PGUA 091855Z AUTO 25003KT 10SM OVC160 24/24 A2991 RMK AO2 SLP110 T02420242 VISNO RWY24L $

2010/08/09 18:55
PHHI 091855Z AUTO 10007KT 10SM OVC036 24/18 A3012 RMK AO2 SLP189 T02400179 $

2010/08/09 18:53
PHJR 091853Z 08008G15KT 10SM OVC050 27/17 A3010 RMK AO2 SLP200 T02720172

2010/08/09 18:51
PTRO 091851Z 00000KT 14SM BKN015CB OVC280 25/23 A2986 RMK CB VC ALQDS

2010/08/09 18:55
RKSO 091855Z 09004KT 9999 SCT110 25/25 A2976 RMK AO2A SLP077 T0251 $

2010/08/09 18:55
RODN 091855Z 15016G30KT 9999 BKN017 BKN023 BKN029 OVC065 28/26 A2973 RMK AO2A PK WND 17030/1847 CIG 015V022 BKN029 V OVC SLP066 T02790256

2010/08/09 18:50
LGAD 091850Z 00000KT CAVOK 25/21 Q1011

2010/08/09 18:50
LGAV 091850Z 06004KT CAVOK 28/18 Q1010 NOSIG

2010/08/09 18:50
LGIR 091850Z 30011KT 9999 FEW020 28/25 Q1008 NOSIG

2010/08/09 18:50
LGKO 091850Z 33008KT CAVOK 27/21 Q1006

2010/08/09 18:50
LGKR 091850Z 22004KT CAVOK 27/17 Q1009 NOSIG

2010/08/09 18:50
LGLM 091850Z VRB03KT CAVOK 27/20 Q1008

2010/08/09 18:50
LGTS 091850Z 36008KT CAVOK 31/15 Q1010 NOSIG

2010/08/09 18:55
EHDL 091855Z AUTO 18002KT 9999NDV BKN070 17/14 Q1015 BLU

2010/08/09 18:55
EHEH 091855Z AUTO 19001KT 9999NDV BKN260 19/13 Q1015 BLU BLU NOSIG

2010/08/09 18:55
EHGR 091855Z AUTO 18002KT 9999NDV BKN260 19/12 Q1015 BLU

2010/08/09 18:55
EHLW 091855Z AUTO 19002KT 9999NDV OVC250 18/13 Q1015 BLU

2010/08/09 18:55
EHVK 091855Z AUTO 15001KT 9999NDV FEW230 19/13 Q1015 BLU

2010/08/09 18:55
EHVL 091855Z AUTO 18008KT 9999NDV FEW110 18/13 Q1014 BLU

2010/08/09 18:55
EHWO 091855Z AUTO 11003KT 9999NDV SCT075 BKN080 20/12 Q1014 BLU

2010/08/09 18:50
LGAL 091850Z 03008KT CAVOK 30/19 Q1009

2010/08/09 18:50
LGKV 091850Z 00000KT 9999 FEW030 27/22 Q1009

2010/08/09 18:50
LGMT 091850Z /////KT CAVOK 31/24 Q1008

2010/08/09 18:50
LGPZ 091850Z 22008KT 9999 FEW015 26/22 Q1011 NOSIG

2010/08/09 18:50
LGRX 091850Z 00000KT CAVOK 26/21 Q1009 NOSIG

2010/08/09 18:50
LGSR 091850Z 33015KT CAVOK 27/21 Q1007 NOSIG

2010/08/09 18:50
LGZA 091850Z VRB02KT CAVOK 28/23 Q1009

2010/08/09 18:45
KMWS 091845Z 24004G05KT 25/02

2010/08/09 18:56
KSDF 091856Z 15004KT 9SM FEW055 SCT200 BKN250 35/21 A2995 RMK AO2 SLP135 T03500206 

2010/08/09 18:50
LGRP 091850Z 24012KT 9999 FEW018 28/25 Q1004 NOSIG

2010/08/09 18:50
LGSA 091850Z 31006KT 9999 FEW020 26/23 Q1009

2010/08/09 18:50
LGKF 091850Z 33009KT 9999 FEW020 27/16 Q1009

2010/08/09 18:50
LGMK 091850Z 36017G27KT CAVOK 26/19 Q1007

2010/08/09 18:55
KNBG 091855Z 12014G23KT 2SM +TSRA BR FEW026CB BKN033 BKN050 OVC250 26/23 A2998 RMK AO2 PK WND 11027/1841 TSB19RAB39 SLP151 CNS LTGICCCCG NE-SW TS NE-SW MOV SW T1 SET P0012 T02560228 $ 

2010/08/09 18:55
BGTL 091855Z AUTO 25004KT 9999 CLR 05/03 A2987 RMK AO2 SLP120 T00530026

2010/08/09 18:55
ETOU 091855Z AUTO 00000KT 9999 CLR 20/12 A3002 RMK AO2 SLP163 T01950124

2010/08/09 18:55
KAFF 091855Z 27008KT 10SM -TSRA FEW017 SCT085 BKN120 BKN190 21/16 A3021 RMK AO2A TSB1843 SLP134 P0000 T02080160

2010/08/09 18:55
KDLF 091855Z AUTO 12011G18KT 10SM FEW170 34/21 A2992 RMK AO2 CLDS LWR RWY31 SLP114 T03440206

2010/08/09 18:55
KEND 091855Z 16014G18KT 10SM SCT060 38/19 A2989 RMK AO2A SLP104 T03790188

2010/08/09 18:55
KFMH 091855Z AUTO 23014G19KT 10SM CLR 28/21 A2998 RMK AO2

2010/08/09 18:55
KFRI 091855Z AUTO 19013KT 10SM CLR 40/19 A2984 RMK AO2 SLP079 T03960194

2010/08/09 18:55
KMCF 091855Z AUTO 19003KT 10SM SCT028 SCT036 BKN090 30/26 A2989 RMK AO2 CIG 028 RWY22 SLP123 T02990257

2010/08/09 18:55
KRIV 091855Z VRB03KT 10SM CLR 28/10 A2992 RMK AO2A SLP128 T02800098 $

2010/08/09 18:55
KSKA 091855Z AUTO 23008KT 10SM FEW150 23/09 A2987 RMK AO2 SLP102 T02340089

2010/08/09 18:55
KSKF 091855Z 11011G17KT 10SM FEW030 34/24 A2994 RMK AO2A SLP127 T03450236 $

2010/08/09 18:55
KTTS 091855Z 10006KT 10SM SCT022 SCT090 31/25 A2992 RMK CB DSNT SW MDT CU ALQDS SLP132 3CU /3/ 1AC /4/

2010/08/09 18:55
KVAD 091855Z AUTO 07010G15KT 10SM CLR 34/23 A2995 RMK AO2 SLP141 T03360225 $

2010/08/09 18:55
KWRB 091855Z 09007KT 10SM FEW020 35/23 A2999 RMK SLP150

2010/08/09 18:55
MHSC 091855Z AUTO 32008KT 9999 FEW075 SCT140 BKN170 BKN200 31/21 A2994 RMK AO2 SLP096 T03070209 $

2010/08/09 18:55
PHHI 091855Z AUTO 10007KT 10SM OVC036 24/18 A3012 RMK AO2 SLP189 T02400179 $

2010/08/09 18:56
KNJK 091856Z VRB03KT 10SM CLR 36/06 A2979 RMK AO2 SLP101 T03560056 

2010/08/09 18:54
KACY 091854Z 16013G19KT 10SM CLR 31/20 A3001 RMK AO2 SLP160 T03110200

2010/08/09 18:55
KADW 091855Z AUTO 19007KT 10SM FEW055 33/21 A3000 RMK AO2 SLP158 T03300206 $

2010/08/09 18:54
KBOS 091854Z 23011G23KT 10SM SCT065 SCT100 33/17 A2991 RMK AO2 SLP128 TCU DSNT N-NE T03280167

2010/08/09 18:53
KDAB 091853Z 09008G14KT 10SM FEW024 SCT110 31/23 A2993 RMK AO2 SLP133 CB DSNT SW-W T03110233

2010/08/09 18:55
KDOV 091855Z AUTO 12011KT 10SM FEW150 31/21 A2999 RMK AO2 RAE1756B1827E1849 SLP157 P0000 T03080208

2010/08/09 18:55
KMCF 091855Z AUTO 19003KT 10SM SCT028 SCT036 BKN090 30/26 A2989 RMK AO2 CIG 028 RWY22 SLP123 T02990257

2010/08/09 18:53
KNIP 091853Z 05013G22KT 3SM RA FEW020 BKN035CB BKN250 28/25 A2996 RMK AO2 RAB46 SLP139 CB OHD MOV SW P0000 T02780250

2010/08/09 18:53
KNQX 091853Z 23009KT 10SM FEW010 SCT020CB BKN030 BKN140 28/24 A2992 RMK AO2 RAE51 SLP129 CB OHD N MOV S T1 SET P0001 T02830239 $

2010/08/09 18:54
KPHL 091854Z 21009G16KT 10SM FEW060 SCT250 34/17 A2998 RMK AO2 SLP153 T03390172

2010/08/09 18:55
KPOB 091855Z AUTO 08004KT 10SM BKN055 33/24 A3001 RMK AO2 SLP161 T03290237 $

2010/08/09 18:53
KSAV 091853Z 07008KT 040V110 10SM SCT049 34/21 A2997 RMK AO2 SLP148 T03440206

2010/08/09 18:55
KSSC 091855Z 07004KT 10SM CLR 34/21 A3000 RMK AO2A SLP159 T03370213 $

2010/08/09 18:54
KSYR 091854Z 28011G18KT 10SM SCT050 BKN120 BKN200 31/18 A2993 RMK AO2 SLP128 T03110183

2010/08/09 18:55
KVAD 091855Z AUTO 07010G15KT 10SM CLR 34/23 A2995 RMK AO2 SLP141 T03360225 $

2010/08/09 18:55
KWRI 091855Z AUTO 21006KT 10SM CLR 34/18 A2996 RMK AO2 SLP144 T03400183 $

2010/08/09 18:48
PADL 091848Z 17015G23KT 3SM -RA BR SCT005 OVC010 11/09 A2953

2010/08/09 18:56
TJSJ 091856Z VRB04KT 10SM -RA FEW017 SCT030 BKN065 28/25 A2995 RMK AO2 TSB29E55RAB03 SLP140 TS DSIPTD P0012 T02830250 

2010/08/09 18:50
EGKB 091850Z 22010KT 9999 FEW025 18/13 Q1014

2010/08/09 18:55
EHAM 091855Z 14006KT CAVOK 19/13 Q1014 NOSIG

2010/08/09 18:55
EHBK 091855Z AUTO 25003KT 210V290 9999NDV NCD 19/11 Q1016 NOSIG

2010/08/09 18:55
EHGG 091855Z AUTO 28002KT 9999NDV BKN039 19/13 Q1015 NOSIG

2010/08/09 18:55
EHRD 091855Z 16004KT CAVOK 20/11 Q1014 NOSIG

2010/08/09 18:56
ETIC 091856Z AUTO 00000KT 9999 CLR 16/16 A3004 RMK AO2 SLP168 T01630159

2010/08/09 18:55
ETOU 091855Z AUTO 00000KT 9999 CLR 20/12 A3002 RMK AO2 SLP163 T01950124

2010/08/09 19:00
LEMO 091900Z 36009KT 320V030 CAVOK 37/16 Q1012 NOSIG

2010/08/09 18:50
LGAD 091850Z 00000KT CAVOK 25/21 Q1011

2010/08/09 18:50
LGAL 091850Z 03008KT CAVOK 30/19 Q1009

2010/08/09 18:50
LGIR 091850Z 30011KT 9999 FEW020 28/25 Q1008 NOSIG

2010/08/09 18:50
LGKF 091850Z 33009KT 9999 FEW020 27/16 Q1009

2010/08/09 18:50
LGKO 091850Z 33008KT CAVOK 27/21 Q1006

2010/08/09 18:50
LGKR 091850Z 22004KT CAVOK 27/17 Q1009 NOSIG

2010/08/09 18:50
LGKV 091850Z 00000KT 9999 FEW030 27/22 Q1009

2010/08/09 18:50
LGLM 091850Z VRB03KT CAVOK 27/20 Q1008

2010/08/09 18:50
LGMK 091850Z 36017G27KT CAVOK 26/19 Q1007

2010/08/09 18:50
LGMT 091850Z /////KT CAVOK 31/24 Q1008

2010/08/09 18:50
LGPZ 091850Z 22008KT 9999 FEW015 26/22 Q1011 NOSIG

2010/08/09 18:50
LGRP 091850Z 24012KT 9999 FEW018 28/25 Q1004 NOSIG

2010/08/09 18:50
LGRX 091850Z 00000KT CAVOK 26/21 Q1009 NOSIG

2010/08/09 18:50
LGSA 091850Z 31006KT 9999 FEW020 26/23 Q1009

2010/08/09 18:50
LGSR 091850Z 33015KT CAVOK 27/21 Q1007 NOSIG

2010/08/09 18:50
LGTS 091850Z 36008KT CAVOK 31/15 Q1010 NOSIG

2010/08/09 18:50
LGZA 091850Z VRB02KT CAVOK 28/23 Q1009

2010/08/09 18:55
LIYW 091855Z AUTO 00000KT 9999 CLR 24/19 A2998 RMK AO2 SLP149 T02420193

2010/08/09 18:56
KCAE 091856Z 13007KT 10SM SCT050 SCT070 33/22 A3000 RMK AO2 SLP153 T03330217 

2010/08/09 18:55
KCAO 091855Z AUTO 15011G18KT 10SM CLR 33/13 A3007 RMK AO2 SLP101 T03280133 TSNO 

2010/08/09 18:56
KGNR 091856Z AUTO VRB03KT 23/17 A2992 RMK AO1 SLP128 T02280172 

2010/08/09 18:56
KP53 091856Z AUTO 36005KT 27/22 A2988 RMK AO2 SLP115 T02670222 PWINO TSNO 

2010/08/09 18:50
EGDL 091850Z 19006KT 6000 -RADZ FEW007 BKN010 17/16 Q1013 GRN TEMPO 9999 NSW BKN007 GRN

2010/08/09 18:50
EGDM 091850Z 22012KT 9999 -DZ OVC004 17/15 Q1013 YLO2

2010/08/09 18:50
EGKB 091850Z 22010KT 9999 FEW025 18/13 Q1014

2010/08/09 18:50
EGNS 091850Z 22007KT 9999 FEW022 16/13 Q1008 NOSIG

2010/08/09 18:50
EGQK 091850Z 06003KT 9999 FEW010 SCT045 14/12 Q1005 BLU NOSIG

2010/08/09 18:50
EGQL 091850Z 25009KT 9999 FEW022 15/11 Q1005 BLU NOSIG

2010/08/09 18:50
EGQS 091850Z 08002KT 9999 FEW006 FEW023CB SCT130 15/12 Q1005 BLU NOSIG

2010/08/09 18:50
EGUB 091850Z 21010KT 9999 SCT020 BKN035 BKN090 19/14 Q1012 WHT TEMPO FEW020 BKN035 BLU

2010/08/09 18:55
EGUL 091855Z AUTO 25006KT 9999 BKN050 BKN060 22/12 A2986 RMK AO2 SLP113 T02200122

2010/08/09 18:55
EGUN 091855Z AUTO 25007KT 9999 BKN050 OVC095 22/13 A2987 RMK AO2 SLP103 T02230127

2010/08/09 18:50
EGVN 091850Z 21005KT 9999 BKN019 BKN044 18/16 Q1012 WHT TEMPO 6000 -RADZ WHT

2010/08/09 18:50
EGVO 091850Z 21012KT 9999 FEW012 BKN017 18/14 Q1014 WHT BECMG BKN008 GRN

2010/08/09 18:50
EGWU 091850Z 23011KT 9999 FEW026 BKN060 20/14 Q1013 BLU BECMG SCT024 WHT

2010/08/09 18:50
EGXC 091850Z 22013KT 9999 FEW040 BKN100 21/13 Q1010 BLU NOSIG

2010/08/09 18:50
EGXE 091850Z 25011KT 9999 FEW020 17/13 Q1008 BLU NOSIG

2010/08/09 18:50
EGXW 091850Z 24015KT 9999 FEW035 BKN090 21/13 Q1010 BLU NOSIG

2010/08/09 18:50
EGYM 091850Z 23010KT CAVOK 22/12 Q1011 BLU NOSIG

2010/08/09 18:56
KNGP 091856Z 15009KT 10SM FEW025 SCT040TCU SCT250 32/26 A2992 RMK AO2 SLP132 TCU DSNT SE T03170261 VISNO 

2010/08/09 18:56
KNLC 091856Z 04006KT 10SM CLR 28/14 A2987 RMK AO2 SLP114 RH/42 T02780139 

2010/08/09 18:56
KNBT 091856Z AUTO 18006KT 10SM CLR 29/24 A3002 RMK AO2 SLP171 T02890244 TSNO 

2010/08/09 18:56
PHBK 091856Z AUTO 30003KT 10SM BKN055 27/18 A3010 RMK AO2 SLP196 T02720178 TSNO $ 

2010/08/09 18:56
KNQI 091856Z 15010G15KT 10SM BKN039 BKN060 38/24 A2990 RMK AO2 SLP122 T03780244 

2010/08/09 18:56
KNYG 091856Z AUTO 17007KT 9SM SCT060 BKN200 32/22 A3000 RMK AO2 SLP158 T03220222 $ 

2010/08/09 18:56
KAQV 091856Z AUTO VRB03KT 10SM CLR 36/22 A2994 RMK AO2 SLP134 T03610217 

2010/08/09 18:56
KNUQ 091856Z 35008KT 10SM CLR 20/13 A2992 RMK AO2 SLP134 T02000128 

2010/08/09 18:55
PALU 091855Z AUTO 06017KT 5SM 08/08 A2960 RMK AO1 T00780078

2010/08/09 18:55
PAIM 091855Z AUTO 05006KT 10SM BKN018 BKN025 OVC030 13/10 A2952 RMK AO1 T01280101

2010/08/09 18:55
PATL 091855Z AUTO 11004KT 10SM OVC010 11/11 A2951 RMK AO1 T01110106

2010/08/09 18:55
PAEH 091855Z AUTO 16018G33KT 1 1/2SM OVC004 09/07 RMK AO1 938 T00890073

2010/08/09 18:55
PASV 091855Z AUTO 19014KT 10SM SCT017 BKN027 OVC041 10/09 A2954 RMK AO1 T01000089

2010/08/09 18:56
PAAK 091856Z AUTO 27021G27KT 3SM OVC005 09/07 A2968 RMK AO1 PNO

2010/08/09 18:56
PABL 091856Z AUTO 10009KT 10SM SCT030 BKN038 OVC095 13/11 A2942 RMK AO1 PNO

2010/08/09 18:56
PABV 091856Z AUTO 00000KT 10SM BKN080 OVC090 13/09 A2962 RMK AO1 PNO

2010/08/09 18:56
PACM 091856Z AUTO 14013G18KT 1 3/4SM -RA BR SCT014 BKN019 OVC110 11/09 A2924 RMK AO2 TSNO T01050088 P0000 SLP898 $

2010/08/09 18:56
PADK 091856Z 31011KT 10SM BKN022 BKN034 OVC040 11/08 A2974 RMK AO1 PNO

2010/08/09 18:56
PAEM 091856Z AUTO 13011G18KT 8SM SCT008 BKN017 OVC026 11/08 A2926 RMK AO1 PNO

2010/08/09 18:56
PAFE 091856Z AUTO 00000KT 10SM BKN031 OVC041 14/11 A3003 RMK AO1 PNO

2010/08/09 18:50
PAFK 091850Z 15009KT 20SM SCT030 BKN060 OVC090 15/07 A2954 RMK EST PASS MGNL NOSPECI

2010/08/09 18:56
PAFM 091856Z AUTO 04003KT 10SM BKN050 OVC060 12/10 A2951 RMK AO1 PNO

2010/08/09 18:56
PAGL 091856Z AUTO 15016KT 10SM FEW029 OVC065 13/08 A2941 RMK AO1 PNO

2010/08/09 18:56
PAGM 091856Z AUTO 06014KT 1/2SM OVC003 08/07 A2926 RMK AO1

2010/08/09 18:56
PAGS 091856Z AUTO 11005KT 10SM OVC036 14/12 A2997 RMK AO1 PNO

2010/08/09 18:56
PAHP 091856Z AUTO 11016G20KT 10SM FEW008 BKN017 OVC060 10/07 A2919 RMK AO1 PNO TSNO

2010/08/09 18:56
PAII 091856Z AUTO 18007KT 10SM BKN010 OVC016 12/10 A2961 RMK AO1 PNO

2010/08/09 18:56
PAIN 091856Z AUTO 13006KT 10SM OVC048 13/08 A2961 RMK AO1 PNO

2010/08/09 18:56
PAJC 091856Z AUTO 26009KT 10SM BKN006 OVC018 13/07 A2958 RMK AO1 PNO

2010/08/09 18:56
PAKK 091856Z AUTO 21005KT 3SM BKN003 OVC008 12/11 A2937 RMK AO1 PNO

2010/08/09 18:56
PAKP 091856Z AUTO 03007KT 10SM BKN005 BKN070 OVC100 08/07 A2958 RMK AO1

2010/08/09 18:56
PAMD 091856Z AUTO 14008KT 3/4SM OVC005 13/11 A2979 RMK AO1 PNO

2010/08/09 18:56
PAMH 091856Z RMK AO1 PNO

2010/08/09 18:56
PAMY 091856Z 17009KT 10SM BKN060 OVC070 09/08 A2917 RMK AO1

2010/08/09 18:56
PANI 091856Z AUTO 12006KT 10SM BKN055 OVC070 12/10 A2941 RMK AO1 PNO

2010/08/09 18:56
PANV 091856Z AUTO 11006KT 10SM BKN003 OVC015 11/09 A2940 RMK AO1 PNO

2010/08/09 18:56
PAOU 091856Z AUTO 00000KT 9SM OVC050 12/09 A2954 RMK AO2 PWINO TSNO T01220088 SLP008 $

2010/08/09 18:56
PAPG 091856Z 03003KT 10SM FEW014 BKN039 BKN046 13/11 A3000 RMK AO1 WEA

2010/08/09 18:56
PAPH 091856Z AUTO 07003KT 10SM OVC037 13/09 A2956 RMK AO1 PNO

2010/08/09 18:56
PAPN 091856Z AUTO 00000KT 10SM BKN022 OVC029 12/09 A2958 RMK AO2 PWINO TSNO T01160094 BKN V SCT SLP018

2010/08/09 18:56
PARC 091856Z AUTO 05009KT 10SM CLR 12/05 A2964 RMK AO1 PNO

2010/08/09 18:56
PASA 091856Z AUTO 07010KT 1 1/4SM OVC003 10/08 A2927 RMK AO1 PNO

2010/08/09 18:56
PASD 091856Z 19017G27KT 5SM BKN014 OVC019 11/09 A2963 RMK AO1 WEA

2010/08/09 18:56
PASH 091856Z AUTO 09015KT 10SM FEW022 15/11 A2939 RMK AO1 PNO

2010/08/09 18:56
PASK 091856Z AUTO 09013KT 10SM OVC036 14/11 A2945 RMK AO1 PNO

2010/08/09 18:56
PASL 091856Z AUTO 15008KT 10SM BKN012 OVC029 12/10 A2951 RMK AO1 PNO

2010/08/09 18:56
PASM 091856Z AUTO 15012G18KT 10SM BKN008 OVC015 10/08 A2931 RMK AO1 PNO

2010/08/09 18:56
PASX 091856Z AUTO 15006KT 10SM OVC080 17/11 A2962 RMK AO1 PNO

2010/08/09 18:56
PATG 091856Z AUTO 18021KT 3SM OVC005 10/09 A2945 RMK AO1 PNO

2010/08/09 18:56
PAUN 091856Z AUTO 10004KT 9SM SCT044 OVC050 12/09 A2939 RMK AO1 PNO

2010/08/09 18:55
PAUO 091855Z 36004KT 5SM BR BKN005 OVC008 12/12 A2966 RMK NOSPECI

2010/08/09 18:56
PAVD 091856Z 00000KT 1SM BKN005 OVC020 12/09 A2982 RMK AO1 1847Z WEA

2010/08/09 18:56
PAWG 091856Z 33003KT 10SM FEW005 BKN040 OVC060 13/11 A3001 RMK AO1 WEA

2010/08/09 18:56
PAWN 091856Z AUTO 03007KT 10SM BKN110 16/09 A2948 RMK AO1 PNO

2010/08/09 18:56
PAWS 091856Z AUTO 00000KT 10SM OVC070 14/11 A2963 RMK AO1 PNO

2010/08/09 18:56
PAZK 091856Z AUTO 00000KT 10SM SCT020 12/06 A2970 RMK AO1 PNO

2010/08/09 18:55
KO22 091855Z AUTO 21005KT 10SM CLR 28/10 A2995 RMK AO1

2010/08/09 18:55
KOCF 091855Z 02007KT 10SM BKN080 30/26 A2991

2010/08/09 18:56
KOFK 091856Z AUTO VRB05KT 10SM CLR 29/22 A2992 RMK AO2 SLP116 T02890222

2010/08/09 18:55
KOZR 091855Z AUTO 05007KT 10SM SCT048 SCT065 SCT210 33/23 A2998 RMK AO2 SLP147 T03350232 $

2010/08/09 18:55
KPVF 091855Z AUTO 22007KT 10SM CLR 26/09 A2997 RMK AO1

2010/08/09 18:55
KRCE 091855Z AUTO 17010G19KT 10SM FEW060 37/21 A2993 RMK AO2

2010/08/09 18:56
KRDM 091856Z VRB03KT 10SM CLR 24/07 A2992 RMK AO2 SLP110 T02440067

2010/08/09 18:45
KSCH 091845Z 27008G16KT 10SM SCT060 33/16 A2993

2010/08/09 18:56
KSFO 091856Z 03007KT 10SM FEW010 19/12 A2993 RMK AO2 SLP133 T01890122

2010/08/09 18:56
KSLE 091856Z 00000KT 10SM BKN025 18/09 A3000 RMK AO2 SLP157 T01780094

2010/08/09 18:55
KSMS 091855Z AUTO 08005KT 10SM FEW045 32/23 A3002 RMK AO2

2010/08/09 18:56
KSRC 091856Z AUTO VRB05KT 10SM CLR 38/23 A2992 RMK AO2 TSNO T03830233 SLP134

2010/08/09 18:55
KSSC 091855Z 07004KT 10SM CLR 34/21 A3000 RMK AO2A SLP159 T03370213 $

2010/08/09 18:56
KUKI 091856Z AUTO 12004KT 10SM CLR 24/13 A2987 RMK AO2 SLP110 T02390133

2010/08/09 18:55
KWRB 091855Z 09007KT 10SM FEW020 35/23 A2999 RMK SLP150

2010/08/09 18:55
KXFL 091855Z 11013KT 10SM FEW023 32/24 A2994

2010/08/09 18:56
PAAK 091856Z AUTO 27021G27KT 3SM OVC005 09/07 A2968 RMK AO1 PNO

2010/08/09 18:56
PACM 091856Z AUTO 14013G18KT 1 3/4SM -RA BR SCT014 BKN019 OVC110 11/09 A2924 RMK AO2 TSNO T01050088 P0000 SLP898 $

2010/08/09 18:56
PAHP 091856Z AUTO 11016G20KT 10SM FEW008 BKN017 OVC060 10/07 A2919 RMK AO1 PNO TSNO

2010/08/09 18:55
K0A9 091855Z AUTO 00000KT 10SM FEW060 31/19 A3007 RMK

2010/08/09 18:56
K1M4 091856Z AUTO 22005KT 10SM FEW100 29/24 A3003 RMK AO2 T02940238 LTG DSNT SW AND NW TSB00E15B17E56RAE03 P0000 PRESFR SLP163

2010/08/09 18:56
KAND 091856Z AUTO 03005KT 10SM BKN050 34/21 A3001 RMK AO2 SLP150 T03390206

2010/08/09 18:50
KAPG 091850Z 19008KT 7SM FEW030 SCT200 33/21 A3000

2010/08/09 18:55
KARW 091855Z AUTO 09014G19KT 10SM SCT027 BKN045 OVC055 32/23 A2998 RMK AO2 LTG DSNT E AND S

2010/08/09 18:55
KBDN 091855Z AUTO 35003KT 10SM CLR 23/05 A2996 RMK AO2

2010/08/09 18:55
KBKN 091855Z AUTO 16009G18KT 10SM 39/20 A2987 RMK AO2

2010/08/09 18:56
KCEC 091856Z AUTO 28007KT 10SM OVC008 14/11 A2996 RMK AO2 SLP147 T01390111

2010/08/09 18:55
KCEF 091855Z AUTO 22008KT 10SM BKN070 33/17 A2993 RMK AO2 SLP134 T03310166 PWINO $

2010/08/09 18:50
KCWA 091850Z 30004KT 10SM SCT034 29/22 A2993

2010/08/09 18:56
KDIK 091856Z AUTO 12008G17KT 10SM CLR 32/16 A2986 RMK AO2 SLP091 T03220156

2010/08/09 18:56
KDUG 091856Z AUTO 00000KT 10SM CLR 30/16 A3009 RMK AO2 SLP117 T03000161

2010/08/09 18:56
KDUJ 091856Z AUTO VRB04KT 10SM CLR 29/15 A3005 RMK AO2 SLP163 T02940150

2010/08/09 18:55
KEIK 091855Z AUTO 00000KT 10SM CLR 28/10 A3008 RMK AO2 LTG DSNT SE THRU W

2010/08/09 18:56
KEKO 091856Z AUTO 17006KT 10SM FEW100 27/02 A3001 RMK AO2 SLP101 T02720022

2010/08/09 18:55
KEOE 091855Z AUTO 00000KT 10SM BKN050 OVC065 33/21 A3003 RMK AO2

2010/08/09 18:55
KFAF 091855Z AUTO 18008KT 10SM CLR 31/23 A3001 RMK AO2 SLP164 T03110231 $

2010/08/09 18:56
KGRD 091856Z AUTO 10005KT 10SM CLR 33/20 A3003 RMK AO2 SLP160 T03330200

2010/08/09 18:55
KGTB 091855Z AUTO 24012KT 10SM CLR 28/20 A2992 RMK AO2 SLP132 T02790204

2010/08/09 18:55
KGUS 091855Z 18006KT 10SM FEW120 SCT190 31/24 A2995 RMK AO2A SLP137 T03090236

2010/08/09 18:55
KHFF 091855Z AUTO VRB03KT 10SM CLR 34/21 A3003 RMK AO2 SLP166 T03380213 $

2010/08/09 18:55
KHVS 091855Z AUTO 10004KT 10SM CLR 33/21 A3002 RMK AO2

2010/08/09 18:55
KISO 091855Z 12005KT 7SM FEW040 33/19 A3003

2010/08/09 18:56
KJMS 091856Z AUTO 20009KT 10SM CLR 33/19 A2989 RMK AO2 SLP111 T03280189

2010/08/09 18:55
KLRF 091855Z AUTO VRB03KT 10SM CLR 36/23 A2993 RMK AO2 SLP133 T03630234

2010/08/09 18:56
KM19 091856Z AUTO 00000KT 10SM CLR A2993 RMK AO2 LTG DSNT SW AND W SLPNO $

2010/08/09 18:55
KMAO 091855Z AUTO 09006KT 10SM CLR 32/21 A3000 RMK AO2

2010/08/09 18:50
KMER 091850Z 24003KT 10SM SKC 28/12 A2988

2010/08/09 18:55
KMKS 091855Z AUTO 06007KT 10SM BKN043 BKN055 34/22 A2998 RMK AO2 TSNO

2010/08/09 18:56
KMOB 091856Z 13012G17KT 10SM SCT039 BKN200 34/23 A2997 RMK AO2 SLP146 T03440233

2010/08/09 18:56
KMQY 091856Z 18005KT 10SM FEW038 38/23 A2997 RMK AO2 T03770233 SLP138 $

2010/08/09 18:56
KMRH 091856Z AUTO 20007KT 10SM FEW017 29/24 A3002 RMK AO2 SLP167 T02940244 TSNO

2010/08/09 18:55
KNQA 091855Z COR 00000KT 10SM SCT045 BKN250 38/27 A2994 RMK

2010/08/09 18:53
KNQX 091853Z 23009KT 10SM FEW010 SCT020CB BKN030 BKN140 28/24 A2992 RMK AO2 RAE51 SLP129 CB OHD N MOV S T1 SET P0001 T02830239 $

2010/08/09 18:54
KONZ 091854Z AUTO 28007KT 10SM CLR 29/22 A2996 RMK AO2

2010/08/09 18:54
KTEW 091854Z AUTO 17005KT 10SM SCT017 SCT027 SCT075 22/21 A2996 RMK AO2

2010/08/09 18:50
KCVH 091850Z AUTO 27008KT 10SM CLR 19/12 A2994 RMK AO1

2010/08/09 18:56
KDVP 091856Z AUTO 06008KT 10SM SCT028 30/20 A2995 RMK AO2 T02970204

2010/08/09 18:54
KDYT 091854Z AUTO 06003KT 1 1/2SM BR OVC001 22/21 A2991 RMK AO2 VIS 1/2V3

2010/08/09 18:59
KFSO 091859Z AUTO 00000KT 10SM OVC095 26/20 A2990 RMK AO2

2010/08/09 18:54
KFBL 091854Z AUTO 22004KT 10SM SCT032 31/23 A2993 RMK AO2

2010/08/09 18:58
KLYV 091858Z AUTO 08008KT 10SM SCT020 29/22 A2992 RMK AO2

2010/08/09 18:56
KEFK 091856Z AUTO 26004KT 10SM SCT037 BKN043 OVC060 24/17 A2993 RMK AO2

2010/08/09 18:54
KRRT 091854Z AUTO 06005KT 10SM CLR 28/22 A2989 RMK AO2 TSNO

2010/08/09 18:55
KTOB 091855Z AUTO 26003KT 10SM SCT026 SCT032 29/24 A2994 RMK AO2

2010/08/09 18:54
KLXL 091854Z AUTO 00000KT 10SM CLR 31/16 A2992 RMK AO2

2010/08/09 18:52
KEVM 091852Z AUTO 28005KT 10SM CLR 30/20 A2991 RMK AO1

2010/08/09 18:53
KELO 091853Z AUTO 29006KT 10SM SCT090 28/18 A2992 RMK AO2

2010/08/09 18:55
KROX 091855Z AUTO 13003KT 10SM CLR 31/22 A2987 RMK AO2

2010/08/09 18:54
KSYN 091854Z AUTO 00000KT 10SM CLR 31/21 A2991 RMK AO2 T03130213

2010/08/09 18:56
KVVV 091856Z AUTO 00000KT 10SM CLR 30/19 A2992 RMK AO2

2010/08/09 19:01
KFKA 091901Z AUTO 29005KT 10SM CLR 30/24 A2995 RMK AO2 T03000238

2010/08/09 18:55
KROS 091855Z AUTO 00000KT 10SM CLR 30/22 A2993 RMK AO2 T02990215

2010/08/09 18:52
KHCD 091852Z AUTO 00000KT 10SM CLR 31/20 A2992 RMK AO2 T03050201

2010/08/09 18:53
KSGS 091853Z AUTO 08005KT 10SM CLR 32/20 A2991 RMK AO2 T03220201

2010/08/09 18:52
KMJQ 091852Z AUTO 09004KT 10SM BKN018 27/23 A2994 RMK AO2

2010/08/09 18:54
KHCO 091854Z AUTO 17006KT 10SM CLR 33/19 A2986 RMK AO2

2010/08/09 18:54
KLVN 091854Z AUTO 09004KT 10SM CLR 31/21 A2992 RMK AO2

2010/08/09 18:53
KPEX 091853Z AUTO 04004KT 10SM CLR 31/19 A2994 RMK AO2 T03050193

2010/08/09 18:55
KJMR 091855Z AUTO 00000KT 10SM CLR 30/21 A2994 RMK AO2

2010/08/09 18:55
KJKJ 091855Z AUTO 20006KT 10SM CLR 32/23 A2989 RMK AO2

2010/08/09 18:54
KMVE 091854Z AUTO 11005KT 10SM CLR 31/23 A2990 RMK AO2

2010/08/09 18:53
KTKC 091853Z AUTO 08008KT 10SM SCT026 30/21 A2992 RMK AO2 T02960214

2010/08/09 18:54
KGYL 091854Z AUTO 06003KT 10SM CLR 31/22 A2992 RMK AO2 T03100216

2010/08/09 18:54
KDXX 091854Z AUTO 00000KT 10SM CLR 31/21 A2991 RMK AO2

2010/08/09 18:51
KHZX 091851Z AUTO 24003KT 10SM CLR 31/20 A2994 RMK AO2

2010/08/09 18:52
KCDD 091852Z AUTO 00000KT 10SM CLR 30/24 A2993 RMK AO2

2010/08/09 18:54
KSAZ 091854Z AUTO 00000KT 10SM CLR 31/17 A2994 RMK AO2

2010/08/09 18:51
KONA 091851Z AUTO 33003KT 10SM CLR 31/23 A2990 RMK AO2

2010/08/09 18:53
KFOZ 091853Z AUTO 22003KT 10SM CLR 31/20 A2993 RMK AO2

2010/08/09 18:53
KAQP 091853Z AUTO 07003KT 10SM CLR 30/22 A2991 RMK AO2

2010/08/09 18:54
KETH 091854Z AUTO 00000KT 10SM CLR 31/18 A2995 RMK AO2

2010/08/09 18:54
KOVL 091854Z AUTO 05003KT 10SM CLR 31/20 A2991 RMK AO2 T03060202

2010/08/09 18:53
KLJF 091853Z AUTO 05005KT 10SM CLR 31/21 A2992 RMK AO2

2010/08/09 18:56
KXVG 091856Z AUTO 21005KT 10SM CLR 30/20 A2992 RMK AO2

2010/08/09 18:54
KORB 091854Z AUTO 00000KT 10SM CLR 29/19 A2990 RMK AO2

2010/08/09 18:50
KMZH 091850Z AUTO 31005KT 10SM CLR 30/20 A2991 RMK AO2

2010/08/09 18:53
KBFW 091853Z AUTO 18008KT 10SM CLR 31/21 A2988 RMK AO2

2010/08/09 18:49
KVWU 091849Z AUTO 27006KT 10SM CLR 30/22 A2990 RMK AO2

2010/08/09 18:50
KAEL 091850Z AUTO 00000KT 10SM SCT029 SCT043 29/22 A2992 RMK AO2

2010/08/09 18:54
KOWA 091854Z AUTO 00000KT 10SM CLR 29/22 A2992 RMK AO2

2010/08/09 18:53
K29G 091853Z AUTO 20004KT 10SM CLR 30/17 A3002 RMK AO2 T02950168 PWINO

2010/08/09 18:53
KMRT 091853Z AUTO 24004KT 10SM SCT046 31/20 A3004 RMK AO2 T03060200

2010/08/09 18:54
KIKW 091854Z AUTO 18006KT 5SM -DZ SCT019 BKN050 OVC060 25/21 A2992 RMK AO2 T02490214

2010/08/09 18:47
KPAO 091847Z 35010KT 30SM FEW015 A2992

2010/08/09 18:56
KSBP 091856Z 28008KT 9SM FEW012 21/12 A2993 RMK AO2 SLP133 T02060122 $

2010/08/09 18:56
KSGH 091856Z 00000KT 5SM HZ CLR 32/22 A3002 RMK AO2 T03160222 RAB22E31 P0000 SLP157 $

2010/08/09 18:49
PANW 091849Z AUTO 18009KT 1 1/4SM BR BKN003 OVC008 10/09 A2956 RMK AO2 PWINO TSNO CIG 001V006 $

2010/08/09 18:58
KSGJ 091858Z 09008KT 10SM FEW014 31/26 A2995 RMK AO2 SLP141 T03060256

2010/08/09 18:55
KSME 091855Z AUTO 10003KT 10SM 34/24 A3000 RMK AO2

2010/08/09 18:56
KTPH 091856Z AUTO 16010G17KT 10SM CLR 26/M08 A3008 RMK AO2 SLP108 T02611078

2010/08/09 18:53
KUNI 091853Z AUTO 23003KT 10SM CLR 34/12 A3001 RMK AO2

2010/08/09 18:56
KWJF 091856Z 00000KT 10SM CLR 30/01 A2994 RMK AO2 SLP118 T03000006

2010/08/09 18:55
KY51 091855Z AUTO 28005KT 10SM SCT020 28/23 A2995 RMK AO1 T02800230

2010/08/09 18:55
PGUA 091855Z AUTO 25003KT 10SM OVC160 24/24 A2991 RMK AO2 SLP110 T02420242 VISNO RWY24L $

2010/08/09 18:56
TJSJ 091856Z VRB04KT 10SM -RA FEW017 SCT030 BKN065 28/25 A2995 RMK AO2 TSB29E55RAB03 SLP140 TS DSIPTD P0012 T02830250

2010/08/09 18:56
KSDF 091856Z 15004KT 9SM FEW055 SCT200 BKN250 35/21 A2995 RMK AO2 SLP135 T03500206

2010/08/09 18:53
K04W 091853Z AUTO 29003KT 10SM CLR 31/22 A2992 RMK AO2 T03110223

2010/08/09 18:55
K21D 091855Z AUTO 00000KT 10SM CLR 31/22 A2992 RMK AO2

2010/08/09 18:56
KART 091856Z AUTO 24009KT 8SM BKN080 27/20 A2991 RMK AO2 SLP124 T02720200

2010/08/09 18:56
KBED 091856Z 27008KT 9SM CLR 34/17 A2990 RMK AO2 SLP134 T03390167

2010/08/09 18:54
KBJI 091854Z AUTO 20006KT 10SM CLR 32/17 A2991 RMK AO2

2010/08/09 18:56
KBJJ 091856Z AUTO 25005KT 10SM CLR 29/19 A3002 RMK AO2 SLP158 T02940189

2010/08/09 18:56
KBZN 091856Z 31005KT 10SM SCT100 BKN110 23/11 A2998 RMK AO2 SLP117 T02330106

2010/08/09 18:53
KC29 091853Z AUTO 28005KT 10SM SCT026 29/22 A2993 RMK AO2 T02940216

2010/08/09 18:55
KCNW 091855Z 18009KT 10SM SCT049 37/20 A2993

2010/08/09 18:56
KCTB 091856Z AUTO 21009G17KT 10SM FEW075 26/07 A2989 RMK AO2 SLP095 T02560067 PWINO

2010/08/09 18:56
KCXY 091856Z VRB03KT 9SM FEW060 32/17 A2998 RMK AO2 SLP150 T03220172

2010/08/09 18:53
KD39 091853Z AUTO 00000KT 10SM CLR 32/18 A2994 RMK AO2 T03230178

2010/08/09 18:53
KDAL 091853Z COR 24005KT 10SM BKN060TCU 35/21 A2992 RMK AO2 SLP121 TCU NE-OHD-SW T03500211

2010/08/09 18:56
KDAY 091856Z VRB05KT 10SM FEW050 BKN130 BKN190 32/18 A3001 RMK AO2 SLP152 T03170183

2010/08/09 18:55
KDVK 091855Z AUTO 12003KT 10SM CLR 34/21 A3000 RMK AO1

2010/08/09 18:56
KEAU 091856Z 02004KT 10SM CLR 31/23 A2991 RMK AO2 SLP119 T03110233

2010/08/09 18:56
KEED 091856Z AUTO VRB03KT 10SM CLR 36/01 A2986 RMK AO2 SLP076 T03610011 TSNO

2010/08/09 18:56
KELZ 091856Z AUTO VRB03KT 10SM SCT080 27/17 A3006 RMK AO2 SLP166 T02720172

2010/08/09 18:56
KHND 091856Z 06005KT 10SM CLR 33/08 A2997 RMK AO2 T03270077 SLP096

2010/08/09 18:56
KHPN 091856Z 16011KT 8SM SCT060 32/19 A2997 RMK AO2 SLP140 T03170189

2010/08/09 18:56
KHWV 091856Z AUTO 20010KT 8SM CLR 28/22 A3000 RMK AO2 SLP157 T02830222

2010/08/09 18:56
KHYA 091856Z 22013KT 10SM CLR 28/21 A2997 RMK AO2 SLP148 T02830211

2010/08/09 18:56
KIGX 091856Z AUTO VRB03KT 9SM BKN055 OVC070 32/19 A3003 RMK AO2 SLP162 T03170189 $

2010/08/09 18:56
KINW 091856Z AUTO 09004KT 10SM CLR 28/11 A3014 RMK AO2 SLP131 T02780106

2010/08/09 18:56
KISP 091856Z 20009G17KT 10SM FEW055 SCT100 BKN250 29/19 A2997 RMK AO2 SLP149 T02890189

2010/08/09 18:56
KITH 091856Z 25007KT 10SM FEW050 SCT090 29/18 A3000 RMK AO2 T02940177 SLP150

2010/08/09 18:56
KJXN 091856Z 13005KT 8SM -RA SCT023 BKN050 OVC070 22/21 A2998 RMK AO2 SLP146 P0007 T02220211

2010/08/09 18:56
KLAS 091856Z 13005KT 10SM CLR 33/06 A2991 RMK AO2 SLP099 T03280061

2010/08/09 18:56
KLNR 091856Z AUTO 00000KT 10SM FEW026 30/22 A2992 RMK AO2 SLP120 T03000222

2010/08/09 18:56
KLRD 091856Z 14010G15KT 100V170 10SM CLR 37/20 A2992 RMK AO2 T03720200 SLP118

2010/08/09 18:56
KMDT 091856Z 00000KT 8SM FEW050 BKN250 33/20 A2997 RMK AO2 SLP148 T03280200

2010/08/09 18:50
KOLV 091850Z 07008KT 4SM TSRA BKN008 OVC011 26/26 A2999

2010/08/09 18:56
KOWB 091856Z 22005KT 10SM CLR 38/23 A2994 RMK AO2 T03830233 SLP134

2010/08/09 18:53
PTKK 091853Z VRB04KT 15SM FEW014 BKN120 OVC280 26/24 A2984 RMK SLP106 T02580243 

2010/08/09 19:00
SBPV 091900Z 18006KT CAVOK 36/13 Q1010

2010/08/09 18:54
KFWA 091854Z 22005KT 9SM FEW055 BKN140 30/22 A2998 RMK AO2 SLP145 T03000217

2010/08/09 18:54
KAVP 091854Z 24007KT 10SM CLR 32/13 A2998 RMK AO2 SLP139 T03220128 $

2010/08/09 18:54
KRIC 091854Z 18008G14KT 10SM SCT049 BKN250 33/19 A3001 RMK AO2 SLP164 T03280194

2010/08/09 18:54
KDMH 091854Z AUTO 33/22 A2999 RMK AO2 SLP154 T03280217 PWINO TSNO

2010/08/09 18:54
KCOU 091854Z 18005KT 10SM FEW080 32/27 A2992 RMK AO2 SLP122 T03220267

2010/08/09 18:54
K12N 091854Z AUTO 21006KT 31/18 A2999 RMK AO2 SLP146 T03110183 PWINO TSNO

2010/08/09 18:54
KWAL 091854Z 17008KT 10SM FEW030 SCT100 SCT250 29/22 A3004 RMK AO2 SLP169 T02890217

2010/08/09 18:53
KRTN 091853Z AUTO 17008KT 10SM CLR 30/11 A3014 RMK AO2 SLP100 T03000106 TSNO

2010/08/09 18:55
KDRA 091855Z AUTO 08006KT 10SM FEW070 31/01 A2997 RMK AO2 SLP103 T03060011 TSNO

2010/08/09 18:53
KRQE 091853Z AUTO VRB03KT 10SM BKN080 BKN100 24/06 A3027 RMK AO2 SLP133 T02390056 TSNO

2010/08/09 18:55
K2W6 091855Z AUTO 00000KT 10SM CLR 31/18 A3002 RMK AO1

2010/08/09 18:55
K2G4 091855Z AUTO 20006KT 10SM CLR 28/11 A3013 RMK AO1

2010/08/09 18:53
KCGE 091853Z AUTO 17007KT 10SM OVC075 31/22 A3002 RMK AO1

2010/08/09 18:55
KCBE 091855Z AUTO 00000KT 10SM CLR 33/16 A3002 RMK AO1

2010/08/09 18:54
KRFD 091854Z 31010KT 10SM FEW030 SCT150 BKN250 30/22 A2993 RMK AO2 SLP128 T03000222

2010/08/09 18:56
KFDK 091856Z AUTO 21006KT 10SM SCT075 36/18 A3000 RMK AO2 LTG DSNT SW

2010/08/09 18:55
KDMW 091855Z AUTO 18006KT 10SM SCT050 34/20 A3002 RMK AO2

2010/08/09 18:57
KFME 091857Z AUTO 18005KT 10SM SCT055 SCT075 SCT085 31/20 A3001 RMK AO1

2010/08/09 18:55
KCGS 091855Z AUTO 18006KT 10SM SCT055 SCT065 35/18 A2999 RMK AO1

2010/08/09 18:56
KW29 091856Z AUTO 16008KT 129V199 10SM CLR 32/19 A3000 RMK AO1

2010/08/09 18:55
KVBG 091855Z 32008KT 10SM FEW007 SCT012 17/13 A2996 RMK AO2 SLP137 T01720128 VISNO RWY12 $

2010/08/09 18:55
KPOE 091855Z AUTO 17003KT 10SM CLR 34/22 A2996 RMK AO2 SLP144 T03440217

2010/08/09 18:56
KABQ 091856Z 00000KT 10SM FEW070 28/12 A3015 RMK AO2 SLP115 CB DSNT N TCU DSNT NE T02780117

2010/08/09 18:55
KHON 091855Z AUTO 13008KT 10SM CLR 32/22 A2989 RMK AO2 SLP110 T03220222 TSNO

2010/08/09 18:55
KAAT 091855Z AUTO VRB03KT 10SM CLR 26/05 A2998 RMK AO2 SLP103 T02610050 TSNO

2010/08/09 18:55
KPHP 091855Z AUTO 16008G17KT 10SM CLR 33/17 A2990 RMK AO2 SLP101 T03280172 TSNO

2010/08/09 18:55
KMBG 091855Z AUTO 16013KT 10SM CLR 33/18 A2987 RMK AO2 SLP100 T03280183 TSNO

2010/08/09 18:55
KAST 091855Z AUTO 30005KT 10SM OVC008 15/13 A3002 RMK AO2 RAB18E27 CIG 006V012 SLP166 P0000 T01500128

2010/08/09 18:56
KJAX 091856Z 09014G21KT 9SM -RA FEW024 BKN035 BKN200 29/25 A2995 RMK AO2 RAB55 SLP142 P0000 T02890250

2010/08/09 18:55
KINL 091855Z AUTO 00000KT 10SM FEW095 29/21 A2990 RMK AO2 SLP123 T02890206

2010/08/09 18:55
KANJ 091855Z AUTO 12003KT 10SM SCT029 BKN050 BKN065 27/18 A2989 RMK AO2 SLP115 T02670183

2010/08/09 18:56
KSHV 091856Z 15005KT 10SM BKN060 36/21 A2993 RMK AO2 SLP132 T03560211

2010/08/09 18:56
KCHS 091856Z 09007KT 10SM FEW010 BKN032 OVC060 30/25 A2998 RMK AO2 RAB35E55 SLP153 TCU S P0014 T03000250

2010/08/09 18:56
KSDF 091856Z 15004KT 9SM FEW055 SCT200 BKN250 35/21 A2995 RMK AO2 SLP135 T03500206

2010/08/09 18:56
TJSJ 091856Z VRB04KT 10SM -RA FEW017 SCT030 BKN065 28/25 A2995 RMK AO2 TSB29E55RAB03 SLP140 TS DSIPTD P0012 T02830250

2010/08/09 18:54
KONZ 091854Z AUTO 28007KT 10SM CLR 29/22 A2996 RMK AO2

2010/08/09 18:54
KTEW 091854Z AUTO 17005KT 10SM SCT017 SCT027 SCT075 22/21 A2996 RMK AO2

2010/08/09 18:50
KCVH 091850Z AUTO 27008KT 10SM CLR 19/12 A2994 RMK AO1

2010/08/09 18:56
KDVP 091856Z AUTO 06008KT 10SM SCT028 30/20 A2995 RMK AO2 T02970204

2010/08/09 18:54
KDYT 091854Z AUTO 06003KT 1 1/2SM BR OVC001 22/21 A2991 RMK AO2 VIS 1/2V3

2010/08/09 18:59
KFSO 091859Z AUTO 00000KT 10SM OVC095 26/20 A2990 RMK AO2

2010/08/09 18:54
KFBL 091854Z AUTO 22004KT 10SM SCT032 31/23 A2993 RMK AO2

2010/08/09 18:58
KLYV 091858Z AUTO 08008KT 10SM SCT020 29/22 A2992 RMK AO2

2010/08/09 18:56
KEFK 091856Z AUTO 26004KT 10SM SCT037 BKN043 OVC060 24/17 A2993 RMK AO2

2010/08/09 18:54
KRRT 091854Z AUTO 06005KT 10SM CLR 28/22 A2989 RMK AO2 TSNO

2010/08/09 18:55
KTOB 091855Z AUTO 26003KT 10SM SCT026 SCT032 29/24 A2994 RMK AO2

2010/08/09 18:54
KLXL 091854Z AUTO 00000KT 10SM CLR 31/16 A2992 RMK AO2

2010/08/09 18:52
KEVM 091852Z AUTO 28005KT 10SM CLR 30/20 A2991 RMK AO1

2010/08/09 18:53
KELO 091853Z AUTO 29006KT 10SM SCT090 28/18 A2992 RMK AO2

2010/08/09 18:55
KROX 091855Z AUTO 13003KT 10SM CLR 31/22 A2987 RMK AO2

2010/08/09 18:54
KSYN 091854Z AUTO 00000KT 10SM CLR 31/21 A2991 RMK AO2 T03130213

2010/08/09 18:56
KVVV 091856Z AUTO 00000KT 10SM CLR 30/19 A2992 RMK AO2

2010/08/09 18:55
KROS 091855Z AUTO 00000KT 10SM CLR 30/22 A2993 RMK AO2 T02990215

2010/08/09 18:52
KHCD 091852Z AUTO 00000KT 10SM CLR 31/20 A2992 RMK AO2 T03050201

2010/08/09 18:53
KSGS 091853Z AUTO 08005KT 10SM CLR 32/20 A2991 RMK AO2 T03220201

2010/08/09 18:52
KMJQ 091852Z AUTO 09004KT 10SM BKN018 27/23 A2994 RMK AO2

2010/08/09 18:54
KHCO 091854Z AUTO 17006KT 10SM CLR 33/19 A2986 RMK AO2

2010/08/09 18:54
KLVN 091854Z AUTO 09004KT 10SM CLR 31/21 A2992 RMK AO2

2010/08/09 18:53
KPEX 091853Z AUTO 04004KT 10SM CLR 31/19 A2994 RMK AO2 T03050193

2010/08/09 18:55
KJMR 091855Z AUTO 00000KT 10SM CLR 30/21 A2994 RMK AO2

2010/08/09 18:55
KJKJ 091855Z AUTO 20006KT 10SM CLR 32/23 A2989 RMK AO2

2010/08/09 18:54
KMVE 091854Z AUTO 11005KT 10SM CLR 31/23 A2990 RMK AO2

2010/08/09 18:53
KTKC 091853Z AUTO 08008KT 10SM SCT026 30/21 A2992 RMK AO2 T02960214

2010/08/09 18:54
KGYL 091854Z AUTO 06003KT 10SM CLR 31/22 A2992 RMK AO2 T03100216

2010/08/09 18:54
KDXX 091854Z AUTO 00000KT 10SM CLR 31/21 A2991 RMK AO2

2010/08/09 18:51
KHZX 091851Z AUTO 24003KT 10SM CLR 31/20 A2994 RMK AO2

2010/08/09 18:52
KCDD 091852Z AUTO 00000KT 10SM CLR 30/24 A2993 RMK AO2

2010/08/09 18:54
KSAZ 091854Z AUTO 00000KT 10SM CLR 31/17 A2994 RMK AO2

2010/08/09 18:51
KONA 091851Z AUTO 33003KT 10SM CLR 31/23 A2990 RMK AO2

2010/08/09 18:53
KFOZ 091853Z AUTO 22003KT 10SM CLR 31/20 A2993 RMK AO2

2010/08/09 18:53
KAQP 091853Z AUTO 07003KT 10SM CLR 30/22 A2991 RMK AO2

2010/08/09 18:54
KETH 091854Z AUTO 00000KT 10SM CLR 31/18 A2995 RMK AO2

2010/08/09 18:54
KOVL 091854Z AUTO 05003KT 10SM CLR 31/20 A2991 RMK AO2 T03060202

2010/08/09 18:53
KLJF 091853Z AUTO 05005KT 10SM CLR 31/21 A2992 RMK AO2

2010/08/09 18:56
KXVG 091856Z AUTO 21005KT 10SM CLR 30/20 A2992 RMK AO2

2010/08/09 18:54
KORB 091854Z AUTO 00000KT 10SM CLR 29/19 A2990 RMK AO2

2010/08/09 18:50
KMZH 091850Z AUTO 31005KT 10SM CLR 30/20 A2991 RMK AO2

2010/08/09 18:53
KBFW 091853Z AUTO 18008KT 10SM CLR 31/21 A2988 RMK AO2

2010/08/09 18:49
KVWU 091849Z AUTO 27006KT 10SM CLR 30/22 A2990 RMK AO2

2010/08/09 18:50
KAEL 091850Z AUTO 00000KT 10SM SCT029 SCT043 29/22 A2992 RMK AO2

2010/08/09 18:54
KOWA 091854Z AUTO 00000KT 10SM CLR 29/22 A2992 RMK AO2

2010/08/09 18:53
K29G 091853Z AUTO 20004KT 10SM CLR 30/17 A3002 RMK AO2 T02950168 PWINO

2010/08/09 18:53
KMRT 091853Z AUTO 24004KT 10SM SCT046 31/20 A3004 RMK AO2 T03060200

2010/08/09 18:54
KIKW 091854Z AUTO 18006KT 5SM -DZ SCT019 BKN050 OVC060 25/21 A2992 RMK AO2 T02490214

2010/08/09 18:56
KCAE 091856Z 13007KT 10SM SCT050 SCT070 33/22 A3000 RMK AO2 SLP153 T03330217

2010/08/09 18:55
KCAO 091855Z AUTO 15011G18KT 10SM CLR 33/13 A3007 RMK AO2 SLP101 T03280133 TSNO

2010/08/09 18:56
KGNR 091856Z AUTO VRB03KT 23/17 A2992 RMK AO1 SLP128 T02280172

2010/08/09 18:56
KP53 091856Z AUTO 36005KT 27/22 A2988 RMK AO2 SLP115 T02670222 PWINO TSNO

2010/08/09 18:56
KNBT 091856Z AUTO 18006KT 10SM CLR 29/24 A3002 RMK AO2 SLP171 T02890244 TSNO

2010/08/09 18:56
KNGP 091856Z 15009KT 10SM FEW025 SCT040TCU SCT250 32/26 A2992 RMK AO2 SLP132 TCU DSNT SE T03170261 VISNO

2010/08/09 18:56
KAQV 091856Z AUTO VRB03KT 10SM CLR 36/22 A2994 RMK AO2 SLP134 T03610217

2010/08/09 18:56
KNUQ 091856Z 35008KT 10SM CLR 20/13 A2992 RMK AO2 SLP134 T02000128

2010/08/09 18:55
PALU 091855Z AUTO 06017KT 5SM 08/08 A2960 RMK AO1 T00780078

2010/08/09 18:55
PAIM 091855Z AUTO 05006KT 10SM BKN018 BKN025 OVC030 13/10 A2952 RMK AO1 T01280101

2010/08/09 18:55
PATL 091855Z AUTO 11004KT 10SM OVC010 11/11 A2951 RMK AO1 T01110106

2010/08/09 18:55
PAEH 091855Z AUTO 16018G33KT 1 1/2SM OVC004 09/07 RMK AO1 938 T00890073

2010/08/09 18:55
PASV 091855Z AUTO 19014KT 10SM SCT017 BKN027 OVC041 10/09 A2954 RMK AO1 T01000089

2010/08/09 19:01
KFKA 091901Z AUTO 29005KT 10SM CLR 30/24 A2995 RMK AO2 T03000238

2010/08/09 18:53
KBRO 091853Z 13015G18KT 10SM SCT039 BKN050 BKN065 36/24 A2989 RMK AO2 SLP121 T03560244

2010/08/09 18:53
KFLL 091853Z 19013KT 10SM SCT028 BKN041 BKN049 29/24 A2990 RMK AO2 SLP125 T02940239

2010/08/09 18:51
KJFK 091851Z 18012KT 5SM HZ FEW050 SCT140 BKN250 29/22 A2999 RMK AO2 SLP154 T02940217

2010/08/09 18:53
KMCO 091853Z 15009KT 10SM SCT033TCU BKN060 BKN190 32/23 A2990 RMK AO2 SLP122 TCU SW-NW T03220233

2010/08/09 18:53
KPBI 091853Z 13015KT 10SM SCT024CB SCT085 BKN250 30/23 A2990 RMK AO2 SLP126 CB SW MOV NW TCU OHD CB DSNT ALQDS T03040230

2010/08/09 18:53
TIST 091853Z 08004KT 10SM -RA FEW080 29/ A2995 RMK AO2 SLP144 P0001 T0289 $

2010/08/09 18:53
TISX 091853Z 10011KT 10SM SCT023 BKN100 29/25 A2995 RMK AO2 RAE52 SLP141 P0001 T02940250 $

2010/08/09 18:53
KBAF 091853Z VRB03KT 10SM BKN070 BKN080 33/16 A2993 RMK AO2 SLP131 T03330156

2010/08/09 18:53
KBUR 091853Z 18006KT 10SM CLR 24/13 A2992 RMK AO2 SLP119 T02390128

2010/08/09 18:53
KTOI 091853Z 10005KT 10SM CLR 34/22 A2999 RMK AO2 SLP149 T03440222

2010/08/09 18:53
PHJR 091853Z 08008G15KT 10SM OVC050 27/17 A3010 RMK AO2 SLP200 T02720172

2010/08/09 18:53
TIST 091853Z 08004KT 10SM -RA FEW080 29/ A2995 RMK AO2 SLP144 P0001 T0289 $

2010/08/09 18:55
KAEG 091855Z AUTO 31009KT 10SM CLR 27/10 A3017 RMK AO1

2010/08/09 18:55
KAIK 091855Z AUTO 07006KT 10SM CLR 33/25 A3003 RMK AO2 PNO

2010/08/09 18:55
KBBP 091855Z AUTO 05003KT 10SM CLR 33/20 A3001 RMK AO2

2010/08/09 18:55
KBNL 091855Z AUTO 05010KT 10SM CLR 33/19 A2999 RMK AO2

2010/08/09 18:47
KBVI 091847Z 22005KT 10SM SCT200 31/17 A3006

2010/08/09 18:55
KBWD 091855Z AUTO 12007KT 10SM FEW060 35/19 A2996 RMK AO2

2010/08/09 18:55
KCQW 091855Z AUTO 14006KT 5SM HZ CLR 33/22 A3001 RMK AO2

2010/08/09 18:55
KDCM 091855Z AUTO 13005KT 7SM SCT049 SCT055 SCT095 32/27 A3003 RMK AO2 LTG DSNT E AND SE

2010/08/09 18:55
KE80 091855Z AUTO 28007KT 10SM CLR 29/10 A3013 RMK AO2 T02940103

2010/08/09 18:55
KEDC 091855Z AUTO 15009KT 130V210 10SM CLR 34/19 A2995 RMK AO1

2010/08/09 18:55
KFMH 091855Z AUTO 23014G19KT 10SM CLR 28/21 A2998 RMK AO2

2010/08/09 18:54
KGED 091854Z AUTO 14010G16KT 10SM CLR 33/19 A3001 RMK AO2 SLP162 T03280194

2010/08/09 18:55
KHYW 091855Z AUTO 11007KT 080V150 7SM SCT027 BKN032 BKN039 32/28 A3000 RMK AO2 LTG DSNT E AND S

2010/08/09 18:55
KIFP 091855Z AUTO 24005KT 10SM CLR 34/03 A2986 RMK AO2

2010/08/09 18:47
KIWA 091847Z VRB04KT 45SM SCT120 38/12 A2990

2010/08/09 18:55
KLQK 091855Z AUTO 25003KT 10SM SCT045 34/21 A3003 RMK AO2 T03420209 PNO

2010/08/09 18:55
KLRO 091855Z AUTO 11008G17KT 360V010 10SM VCTS SCT022 29/24 A2999 RMK AO2 LTG DSNT SE AND S

2010/08/09 18:55
KLUX 091855Z AUTO 00000KT 10SM BKN050 BKN100 33/25 A3002 RMK AO2

2010/08/09 18:55
KMNI 091855Z AUTO 04007KT 10SM CLR 33/24 A3000 RMK AO2

2010/08/09 18:55
KRBW 091855Z AUTO 06007KT 10SM CLR 33/21 A3000 RMK AO2 LTG DSNT S

2010/08/09 18:55
KSPL 091855Z AUTO 10009KT CLR 33/27 A2991 RMK AO2 PWINO PNO

2010/08/09 18:55
KTME 091855Z AUTO 15004KT 10SM FEW044 34/24 A2996 RMK AO2

2010/08/09 18:55
KTSP 091855Z AUTO RMK AO2 PWINO PNO FZRANO TSNO

2010/08/09 18:55
KUTA 091855Z AUTO 00000KT 10SM SCT045 SCT050 SCT100 35/23 A2994 RMK AO2 LTG DSNT NE

2010/08/09 18:55
KX40 091855Z AUTO 07007KT 7SM BKN100 33/25 A2990 RMK AO2 LTG DSNT NE E AND SW T03290250

2010/08/09 18:50
KAPG 091850Z 19008KT 7SM FEW030 SCT200 33/21 A3000

2010/08/09 18:55
KHFF 091855Z AUTO VRB03KT 10SM CLR 34/21 A3003 RMK AO2 SLP166 T03380213 $

2010/08/09 18:53
PASC 091853Z 06022KT 3SM BR OVC003 04/03 A2974 RMK AO2 PK WND 06027/1839 SLP072 T00440033

2010/08/09 18:53
TISX 091853Z 10011KT 10SM SCT023 BKN100 29/25 A2995 RMK AO2 RAE52 SLP141 P0001 T02940250 $

2010/08/09 18:53
KRTN 091853Z AUTO 17008KT 10SM CLR 30/11 A3014 RMK AO2 SLP100 T03000106 TSNO

2010/08/09 18:54
PAHN 091854Z AUTO 10007KT 10SM OVC014 14/11 A2997 RMK AO2 SLP150 T01390111 TSNO

2010/08/09 18:54
PAKN 091854Z 19009KT 10SM OVC025 12/09 A2954 RMK AO2 SLP002 T01220094

2010/08/09 18:50
PASP 091850Z 00000KT 20SM FEW040 SCT060 13/10 A2965 RMK EST PASS OPEN NO SPECI

2010/08/09 18:55
K2W6 091855Z AUTO 00000KT 10SM CLR 31/18 A3002 RMK AO1

2010/08/09 18:55
K2G4 091855Z AUTO 20006KT 10SM CLR 28/11 A3013 RMK AO1

2010/08/09 18:54
KNFG 091854Z COR 24009KT FEW017 22/13 A2992 RMK AO2 SLP132 T02220133

2010/08/09 18:54
KRSP 091854Z AUTO VRB03KT 7SM BKN060 31/14 A3007 RMK AO2 SLP978 T03060144 $

2010/08/09 18:55
KBAD 091855Z AUTO 16006KT 10SM CLR 36/20 A2994 RMK AO2 SLP139 T03620205

2010/08/09 18:55
KGSB 091855Z AUTO VRB04KT 10SM SCT044 33/18 A3001 RMK AO2 SLP163

2010/08/09 18:55
KHST 091855Z AUTO 19006KT 10SM -DZ FEW080 SCT190 27/24 A2992 RMK AO2 RAE1821DZB1821 SLP134 P0002 T02660243

2010/08/09 18:52
KNHK 091852Z 13010KT 9SM FEW025 SCT250 31/22 A3001 RMK AO2 SLP162 T03110222

2010/08/09 18:52
KNRB 091852Z 10009KT 10SM FEW015 SCT030TCU BKN065 31/23 A2995 RMK AO2 RAE19 SLP142 TCU OHD T2 SET P0000 T03060233

2010/08/09 18:55
KOFF 091855Z AUTO 19006KT 10SM FEW027 32/25 A2985 RMK AO2 SLP091 T03220248 $

2010/08/09 18:55
KVPS 091855Z 17008KT 10SM SCT045 SCT085 33/25 A2996 RMK AO2A SLP146 T03320254 $

2010/08/09 18:55
KBAD 091855Z AUTO 16006KT 10SM CLR 36/20 A2994 RMK AO2 SLP139 T03620205

2010/08/09 18:55
KCEF 091855Z AUTO 22008KT 10SM BKN070 33/17 A2993 RMK AO2 SLP134 T03310166 PWINO $

2010/08/09 18:55
KDAA 091855Z AUTO 18008KT 150V210 10SM CLR 34/20 A2999 RMK AO2 SLP158 T03390201

2010/08/09 18:53
KDTS 091853Z AUTO VRB05KT 8SM CLR 33/24 A2995 RMK AO2 SLP141 T03330244

2010/08/09 18:55
KGRF 091855Z 24005KT 10SM BKN016 OVC030 17/12 A2998 RMK AO2A CIG 014V020 SLP154 T01660119

2010/08/09 18:55
KGSB 091855Z AUTO VRB04KT 10SM SCT044 33/18 A3001 RMK AO2 SLP163

2010/08/09 18:55
KIAB 091855Z AUTO 12010KT 100V160 10SM CLR 38/20 A2990 RMK AO2 SLP106 T03800196 $

2010/08/09 18:55
KMGE 091855Z 13004KT 7SM BKN055 33/21 A3003 RMK AO2A SLP157 T03330210 $

2010/08/09 18:55
KOFF 091855Z AUTO 19006KT 10SM FEW027 32/25 A2985 RMK AO2 SLP091 T03220248 $

2010/08/09 18:55
KSUU 091855Z AUTO 25015KT 10SM CLR 21/12 A2989 RMK AO2 SLP123 T02070125 RVRNO $

2010/08/09 18:55
KVPS 091855Z 17008KT 10SM SCT045 SCT085 33/25 A2996 RMK AO2A SLP146 T03320254 $

2010/08/09 18:54
KNKT 091854Z 14005KT 10SM FEW015 SCT080 29/23 A3003 RMK AO2 SLP164 T02940233

2010/08/09 18:52
KNRB 091852Z 10009KT 10SM FEW015 SCT030TCU BKN065 31/23 A2995 RMK AO2 RAE19 SLP142 TCU OHD T2 SET P0000 T03060233

2010/08/09 18:55
KBAD 091855Z AUTO 16006KT 10SM CLR 36/20 A2994 RMK AO2 SLP139 T03620205

2010/08/09 18:55
KBKF 091855Z 13007KT 70SM FEW080 BKN180 28/12 A3011 RMK SLP128

2010/08/09 18:55
KBLV 091855Z AUTO 20006KT 10SM CLR 35/26 A2991 RMK AO2 SLP124 T03490256

2010/08/09 18:51
KBYH 091851Z 00000KT 10SM SCT030 BKN250 36/26 A2995

2010/08/09 18:55
KCBM 091855Z AUTO VRB03KT 10SM CLR 35/24 A2995 RMK AO2 SLP141 T03450239 $

2010/08/09 18:55
KCEF 091855Z AUTO 22008KT 10SM BKN070 33/17 A2993 RMK AO2 SLP134 T03310166 PWINO $

2010/08/09 18:55
KDAA 091855Z AUTO 18008KT 150V210 10SM CLR 34/20 A2999 RMK AO2 SLP158 T03390201

2010/08/09 18:55
KFSI 091855Z AUTO 20007KT 10SM CLR 38/17 A2989 RMK AO2 SLP094 T03780174

2010/08/09 18:55
KGRF 091855Z 24005KT 10SM BKN016 OVC030 17/12 A2998 RMK AO2A CIG 014V020 SLP154 T01660119

2010/08/09 18:55
KGSB 091855Z AUTO VRB04KT 10SM SCT044 33/18 A3001 RMK AO2 SLP163

2010/08/09 18:55
KHMN 091855Z AUTO VRB03KT 10SM CLR 30/14 A3006 RMK AO2 SLP095 T02970137 $

2010/08/09 18:55
KHST 091855Z AUTO 19006KT 10SM -DZ FEW080 SCT190 27/24 A2992 RMK AO2 RAE1821DZB1821 SLP134 P0002 T02660243

2010/08/09 18:55
KIAB 091855Z AUTO 12010KT 100V160 10SM CLR 38/20 A2990 RMK AO2 SLP106 T03800196 $

2010/08/09 18:55
KLRF 091855Z AUTO VRB03KT 10SM CLR 36/23 A2993 RMK AO2 SLP133 T03630234

2010/08/09 18:55
KMGE 091855Z 13004KT 7SM BKN055 33/21 A3003 RMK AO2A SLP157 T03330210 $

2010/08/09 18:55
KBKF 091855Z 13007KT 70SM FEW080 BKN180 28/12 A3011 RMK SLP128

2010/08/09 18:55
KCBM 091855Z AUTO VRB03KT 10SM CLR 35/24 A2995 RMK AO2 SLP141 T03450239 $

2010/08/09 18:55
KDYS 091855Z AUTO 17007KT 10SM SCT060 35/18 A2996 RMK AO2 SLP116 T03520176 $

2010/08/09 18:55
KFSI 091855Z AUTO 20007KT 10SM CLR 38/17 A2989 RMK AO2 SLP094 T03780174

2010/08/09 18:55
KGUS 091855Z 18006KT 10SM FEW120 SCT190 31/24 A2995 RMK AO2A SLP137 T03090236

2010/08/09 18:55
KLSF 091855Z AUTO 00000KT 10SM FEW080 SCT100 35/21 A2997 RMK AO2 CLDS LWR RWY15 SLP147 T03480214 PNO $

2010/08/09 18:55
KMTC 091855Z 26015G19KT 5SM -RA HZ SCT045 BKN090 OVC150 27/21 A2995 RMK CB 39W MOV NE SLP146

2010/08/09 18:55
KMUI 091855Z AUTO 25009KT 10SM FEW060 33/17 A2999 RMK AO2 SLP154 T03260173 $

2010/08/09 18:55
KRND 091855Z AUTO 14008KT 10SM FEW170 SCT200 34/21 A2995 RMK AO2 SLP131 T03390211

2010/08/09 18:55
KSZL 091855Z 18008KT 10SM BKN180 35/26 A2991 RMK AO2A SLP117 T03540258 PNO $

2010/08/09 18:55
KWRI 091855Z AUTO 21006KT 10SM CLR 34/18 A2996 RMK AO2 SLP144 T03400183 $

2010/08/09 18:53
PABI 091853Z 18022G33KT 10SM FEW090 SCT110 SCT180 17/04 A2960 RMK AO2 PK WND 17033/1849 SLP022 BLDU VC N+E T01720044

2010/08/09 18:55
PGUA 091855Z AUTO 25003KT 10SM OVC160 24/24 A2991 RMK AO2 SLP110 T02420242 VISNO RWY24L $

2010/08/09 18:55
PHSF 091855Z VRB04KT 7SM FEW200 23/M04 A3031 RMK SLPNO

2010/08/09 18:55
KDOV 091855Z AUTO 12011KT 10SM FEW150 31/21 A2999 RMK AO2 RAE1756B1827E1849 SLP157 P0000 T03080208

2010/08/09 18:55
KEDW 091855Z 00000KT 80SM CLR 29/01 A2992 RMK AO2A SLP091 T02870015

2010/08/09 18:55
KFAF 091855Z AUTO 18008KT 10SM CLR 31/23 A3001 RMK AO2 SLP164 T03110231 $

2010/08/09 18:55
KFCS 091855Z AUTO 09005KT 10SM SCT140 OVC180 24/15 A3016 RMK AO2 SLP136 T02350150

2010/08/09 18:55
KFHU 091855Z 00000KT 50SM SCT050 28/17 A3013 RMK SLP129

2010/08/09 18:55
KGBN 091855Z VRB03KT 12SM FEW140 39/03 A2986 RMK SLP085

2010/08/09 18:55
KLHW 091855Z AUTO 06008KT 10SM FEW055 34/21 A2996 RMK AO2 LTG DSNT SE SLP145 T03410212

2010/08/09 18:52
KNFW 091852Z 18011G14KT 10SM FEW045 38/19 A2995 RMK AO2 SLP126 T03780189

2010/08/09 18:53
KNIP 091853Z 05013G22KT 3SM RA FEW020 BKN035CB BKN250 28/25 A2996 RMK AO2 RAB46 SLP139 CB OHD MOV SW P0000 T02780250

2010/08/09 18:55
KOZR 091855Z AUTO 05007KT 10SM SCT048 SCT065 SCT210 33/23 A2998 RMK AO2 SLP147 T03350232 $

2010/08/09 18:55
KSLI 091855Z 17006KT 10SM CLR 21/15 A2993 RMK AO2A SLP137 T02090146

2010/08/09 18:55
KSSC 091855Z 07004KT 10SM CLR 34/21 A3000 RMK AO2A SLP159 T03370213 $

2010/08/09 18:55
KTIK 091855Z 16010G15KT 090V180 10SM CLR 36/21 A2993 RMK AO2A SLP117 T03590208

2010/08/09 18:55
KADW 091855Z AUTO 19007KT 10SM FEW055 33/21 A3000 RMK AO2 SLP158 T03300206 $

2010/08/09 18:55
KBAB 091855Z AUTO 00000KT 10SM CLR 25/14 A2987 RMK AO2 SLP115 T02450138 $

2010/08/09 18:55
KFBG 091855Z 08003KT 7SM FEW030 SCT050 SCT150 35/20 A3001 RMK AO2A SLP160 WND DATA ESTMD ALSTG/SLP ESTMD

2010/08/09 18:55
KGTB 091855Z AUTO 24012KT 10SM CLR 28/20 A2992 RMK AO2 SLP132 T02790204

2010/08/09 18:55
KLTS 091855Z AUTO 19013G17KT 10SM CLR 38/18 A2990 RMK AO2 SLP103 T03810176 $

2010/08/09 18:55
KMUO 091855Z AUTO 26007KT 10SM -RA BKN110 25/10 A2990 RMK AO2 RAB1845DZB1819E1832 SLP097 P0000 T02490098

2010/08/09 18:53
KNQX 091853Z 23009KT 10SM FEW010 SCT020CB BKN030 BKN140 28/24 A2992 RMK AO2 RAE51 SLP129 CB OHD N MOV S T1 SET P0001 T02830239 $

2010/08/09 18:55
KPOB 091855Z AUTO 08004KT 10SM BKN055 33/24 A3001 RMK AO2 SLP161 T03290237 $

2010/08/09 18:55
KVOK 091855Z VRB04KT 10SM SCT032 30/24 A2992 RMK AO2A SLP124

2010/08/09 18:55
KXMR 091855Z AUTO 13007KT 10SM FEW016 30/24 A2992 RMK AO2 SLP132 T03030242

2010/08/09 18:55
PAEI 091855Z AUTO 00000KT 10SM OVC070 15/10 A2958 RMK AO2 SLP018 T01520101 $

2010/08/09 18:55
KADW 091855Z AUTO 19007KT 10SM FEW055 33/21 A3000 RMK AO2 SLP158 T03300206 $

2010/08/09 18:55
KDOV 091855Z AUTO 12011KT 10SM FEW150 31/21 A2999 RMK AO2 RAE1756B1827E1849 SLP157 P0000 T03080208

2010/08/09 18:55
KDYS 091855Z AUTO 17007KT 10SM SCT060 35/18 A2996 RMK AO2 SLP116 T03520176 $

2010/08/09 18:55
KEDW 091855Z 00000KT 80SM CLR 29/01 A2992 RMK AO2A SLP091 T02870015

2010/08/09 18:55
KFAF 091855Z AUTO 18008KT 10SM CLR 31/23 A3001 RMK AO2 SLP164 T03110231 $

2010/08/09 18:55
KFCS 091855Z AUTO 09005KT 10SM SCT140 OVC180 24/15 A3016 RMK AO2 SLP136 T02350150

2010/08/09 18:55
KFHU 091855Z 00000KT 50SM SCT050 28/17 A3013 RMK SLP129

2010/08/09 18:55
KGBN 091855Z VRB03KT 12SM FEW140 39/03 A2986 RMK SLP085

2010/08/09 18:54
KFWA 091854Z 22005KT 9SM FEW055 BKN140 30/22 A2998 RMK AO2 SLP145 T03000217

2010/08/09 18:54
KAVP 091854Z 24007KT 10SM CLR 32/13 A2998 RMK AO2 SLP139 T03220128 $

2010/08/09 18:54
KRIC 091854Z 18008G14KT 10SM SCT049 BKN250 33/19 A3001 RMK AO2 SLP164 T03280194

2010/08/09 18:54
KDMH 091854Z AUTO 33/22 A2999 RMK AO2 SLP154 T03280217 PWINO TSNO

2010/08/09 18:54
KCOU 091854Z 18005KT 10SM FEW080 32/27 A2992 RMK AO2 SLP122 T03220267

2010/08/09 18:54
K12N 091854Z AUTO 21006KT 31/18 A2999 RMK AO2 SLP146 T03110183 PWINO TSNO

2010/08/09 18:54
KWAL 091854Z 17008KT 10SM FEW030 SCT100 SCT250 29/22 A3004 RMK AO2 SLP169 T02890217

2010/08/09 18:55
KDRA 091855Z AUTO 08006KT 10SM FEW070 31/01 A2997 RMK AO2 SLP103 T03060011 TSNO

2010/08/09 18:53
KRQE 091853Z AUTO VRB03KT 10SM BKN080 BKN100 24/06 A3027 RMK AO2 SLP133 T02390056 TSNO

2010/08/09 18:55
KCBE 091855Z AUTO 00000KT 10SM CLR 33/16 A3002 RMK AO1

2010/08/09 18:54
KRFD 091854Z 31010KT 10SM FEW030 SCT150 BKN250 30/22 A2993 RMK AO2 SLP128 T03000222

2010/08/09 18:53
KLND 091853Z AUTO 00000KT 10SM FEW120 27/07 A3002 RMK AO2 SLP089 T02720067

2010/08/09 18:53
KLXV 091853Z AUTO 01009G14KT 10SM SCT060 BKN110 13/08 A3043 RMK AO2 RAB18E39 SLP140 P0000 T01330083 TSNO

2010/08/09 18:55
KMKG 091855Z 22009G17KT 10SM BKN012 OVC017 27/23 A2993 RMK AO2 SLP132 T02670228

2010/08/09 18:53
KMSN 091853Z VRB04KT 10SM BKN025 28/22 A2992 RMK AO2 SLP125 T02830217

2010/08/09 18:53
KMWT 091853Z AUTO VRB05KT 10SM CLR 35/21 A2995 RMK AO2 SLP126 T03500206 TSNO

2010/08/09 18:55
KRNO 091855Z 30003KT 10SM FEW080 26/04 A3000 RMK AO2 SLP106 T02610044

2010/08/09 18:54
KROA 091854Z 13007KT 10SM BKN048 32/21 A3005 RMK AO2 SLP161 T03220206

2010/08/09 18:53
KSAV 091853Z 07008KT 040V110 10SM SCT049 34/21 A2997 RMK AO2 SLP148 T03440206

2010/08/09 18:55
KSCK 091855Z 31005KT 10SM CLR 24/13 A2988 RMK AO2 SLP117 T02390133

2010/08/09 18:53
KTLH 091853Z 07008G16KT 10SM FEW050 35/20 A2995 RMK AO2 SLP139 T03500200

2010/08/09 18:53
KTRI 091853Z 30006KT 10SM SCT045 BKN150 33/18 A3005 RMK AO2 SLP157 T03330178

2010/08/09 18:53
KTYS 091853Z 31004KT 10SM FEW045 34/22 A3000 RMK AO2 SLP146 T03390217

2010/08/09 18:53
KLAX 091853Z 26009KT 10SM FEW015 19/12 A2994 RMK AO2 SLP138 T01890122 $

2010/08/09 18:53
K4BM 091853Z AUTO 19004KT 10SM 15/09 A3056 RMK AO2 LTG DSNT NE

2010/08/09 18:52
KABI 091852Z VRB04KT 10SM FEW060 34/19 A2997 RMK AO2 SLP117 T03440189

2010/08/09 18:53
KBTR 091853Z VRB04KT 10SM SCT040 SCT080 SCT120 35/24 A2993 RMK AO2 SLP132 CB DSNT N-E-SE MOVG SW T03500244

2010/08/09 18:54
KBTV 091854Z 00000KT 10SM -RA SCT031CB BKN065 BKN100 26/20 A2989 RMK AO2 RAB08 SLP121 CB VC NW-S MOV E P0012 T02610200

2010/08/09 18:53
KCHA 091853Z 00000KT 10SM FEW050 SCT120 BKN250 35/21 A2999 RMK AO2 SLP145 T03500211

2010/08/09 18:55
KCNK 091855Z AUTO 21009KT 10SM CLR 37/22 A2986 RMK AO2 SLP089 T03670217

2010/08/09 18:53
KDAB 091853Z 09008G14KT 10SM FEW024 SCT110 31/23 A2993 RMK AO2 SLP133 CB DSNT SW-W T03110233

2010/08/09 18:55
KDLH 091855Z 27005KT 10SM FEW030 30/18 A2993 RMK AO2 SLP130 T03000183

2010/08/09 18:55
KGPI 091855Z 11003KT 10SM CLR 24/08 A2987 RMK AO2 SLP100 T02440083

2010/08/09 18:54
KGSO 091854Z VRB03KT 10SM SCT049 32/19 A3004 RMK AO2 SLP160 T03220194

2010/08/09 18:55
KIRK 091855Z AUTO 15008KT 10SM CLR 29/24 A2990 RMK AO2 SLP117 T02940244

2010/08/09 18:55
KLIC 091855Z AUTO 15004KT 10SM CLR 25/14 A3013 RMK AO2 SLP128 T02500144

2010/08/09 18:56
KABQ 091856Z 00000KT 10SM FEW070 28/12 A3015 RMK AO2 SLP115 CB DSNT N TCU DSNT NE T02780117

2010/08/09 18:55
KHON 091855Z AUTO 13008KT 10SM CLR 32/22 A2989 RMK AO2 SLP110 T03220222 TSNO

2010/08/09 18:55
KAAT 091855Z AUTO VRB03KT 10SM CLR 26/05 A2998 RMK AO2 SLP103 T02610050 TSNO

2010/08/09 18:55
KPHP 091855Z AUTO 16008G17KT 10SM CLR 33/17 A2990 RMK AO2 SLP101 T03280172 TSNO

2010/08/09 18:55
KMBG 091855Z AUTO 16013KT 10SM CLR 33/18 A2987 RMK AO2 SLP100 T03280183 TSNO

2010/08/09 18:55
KAST 091855Z AUTO 30005KT 10SM OVC008 15/13 A3002 RMK AO2 RAB18E27 CIG 006V012 SLP166 P0000 T01500128

2010/08/09 18:56
PAKK 091856Z AUTO 21005KT 3SM BKN003 OVC008 12/11 A2937 RMK AO1 PNO

2010/08/09 18:56
PAKP 091856Z AUTO 03007KT 10SM BKN005 BKN070 OVC100 08/07 A2958 RMK AO1

2010/08/09 18:56
PAMD 091856Z AUTO 14008KT 3/4SM OVC005 13/11 A2979 RMK AO1 PNO

2010/08/09 18:56
PAMH 091856Z RMK AO1 PNO

2010/08/09 18:56
PAMY 091856Z 17009KT 10SM BKN060 OVC070 09/08 A2917 RMK AO1

2010/08/09 18:56
PANI 091856Z AUTO 12006KT 10SM BKN055 OVC070 12/10 A2941 RMK AO1 PNO

2010/08/09 18:56
PANV 091856Z AUTO 11006KT 10SM BKN003 OVC015 11/09 A2940 RMK AO1 PNO

2010/08/09 18:56
PAOU 091856Z AUTO 00000KT 9SM OVC050 12/09 A2954 RMK AO2 PWINO TSNO T01220088 SLP008 $

2010/08/09 18:56
PAPG 091856Z 03003KT 10SM FEW014 BKN039 BKN046 13/11 A3000 RMK AO1 WEA

2010/08/09 18:56
PAPH 091856Z AUTO 07003KT 10SM OVC037 13/09 A2956 RMK AO1 PNO

2010/08/09 18:56
PARC 091856Z AUTO 05009KT 10SM CLR 12/05 A2964 RMK AO1 PNO

2010/08/09 18:56
PASA 091856Z AUTO 07010KT 1 1/4SM OVC003 10/08 A2927 RMK AO1 PNO

2010/08/09 18:56
PASD 091856Z 19017G27KT 5SM BKN014 OVC019 11/09 A2963 RMK AO1 WEA

2010/08/09 18:56
PASH 091856Z AUTO 09015KT 10SM FEW022 15/11 A2939 RMK AO1 PNO

2010/08/09 18:56
PASK 091856Z AUTO 09013KT 10SM OVC036 14/11 A2945 RMK AO1 PNO

2010/08/09 18:56
PASL 091856Z AUTO 15008KT 10SM BKN012 OVC029 12/10 A2951 RMK AO1 PNO

2010/08/09 18:56
PASM 091856Z AUTO 15012G18KT 10SM BKN008 OVC015 10/08 A2931 RMK AO1 PNO

2010/08/09 18:56
PASX 091856Z AUTO 15006KT 10SM OVC080 17/11 A2962 RMK AO1 PNO

2010/08/09 18:56
PATG 091856Z AUTO 18021KT 3SM OVC005 10/09 A2945 RMK AO1 PNO

2010/08/09 18:56
PAUN 091856Z AUTO 10004KT 9SM SCT044 OVC050 12/09 A2939 RMK AO1 PNO

2010/08/09 18:55
PAUO 091855Z 36004KT 5SM BR BKN005 OVC008 12/12 A2966 RMK NOSPECI

2010/08/09 18:56
PAVD 091856Z 00000KT 1SM BKN005 OVC020 12/09 A2982 RMK AO1 1847Z WEA

2010/08/09 18:56
PAWG 091856Z 33003KT 10SM FEW005 BKN040 OVC060 13/11 A3001 RMK AO1 WEA

2010/08/09 18:56
PAWN 091856Z AUTO 03007KT 10SM BKN110 16/09 A2948 RMK AO1 PNO

2010/08/09 18:56
PAWS 091856Z AUTO 00000KT 10SM OVC070 14/11 A2963 RMK AO1 PNO

2010/08/09 18:56
PAZK 091856Z AUTO 00000KT 10SM SCT020 12/06 A2970 RMK AO1 PNO

2010/08/09 18:55
KFMH 091855Z AUTO 23014G19KT 10SM CLR 28/21 A2998 RMK AO2

2010/08/09 18:55
KTTS 091855Z 10006KT 10SM SCT022 SCT090 31/25 A2992 RMK CB DSNT SW MDT CU ALQDS SLP132 3CU /3/ 1AC /4/

2010/08/09 18:54
KBOS 091854Z 23011G23KT 10SM SCT065 SCT100 33/17 A2991 RMK AO2 SLP128 TCU DSNT N-NE T03280167

2010/08/09 18:54
KPHL 091854Z 21009G16KT 10SM FEW060 SCT250 34/17 A2998 RMK AO2 SLP153 T03390172

2010/08/09 18:55
KO22 091855Z AUTO 21005KT 10SM CLR 28/10 A2995 RMK AO1

2010/08/09 18:55
KOCF 091855Z 02007KT 10SM BKN080 30/26 A2991

2010/08/09 18:55
KPVF 091855Z AUTO 22007KT 10SM CLR 26/09 A2997 RMK AO1

2010/08/09 18:55
KRCE 091855Z AUTO 17010G19KT 10SM FEW060 37/21 A2993 RMK AO2

2010/08/09 18:56
KRDM 091856Z VRB03KT 10SM CLR 24/07 A2992 RMK AO2 SLP110 T02440067

2010/08/09 18:45
KSCH 091845Z 27008G16KT 10SM SCT060 33/16 A2993

2010/08/09 18:56
KSLE 091856Z 00000KT 10SM BKN025 18/09 A3000 RMK AO2 SLP157 T01780094

2010/08/09 18:56
KSRC 091856Z AUTO VRB05KT 10SM CLR 38/23 A2992 RMK AO2 TSNO T03830233 SLP134

2010/08/09 18:56
KUKI 091856Z AUTO 12004KT 10SM CLR 24/13 A2987 RMK AO2 SLP110 T02390133

2010/08/09 18:55
KXFL 091855Z 11013KT 10SM FEW023 32/24 A2994

2010/08/09 18:56
PAAK 091856Z AUTO 27021G27KT 3SM OVC005 09/07 A2968 RMK AO1 PNO

2010/08/09 18:56
PACM 091856Z AUTO 14013G18KT 1 3/4SM -RA BR SCT014 BKN019 OVC110 11/09 A2924 RMK AO2 TSNO T01050088 P0000 SLP898 $

2010/08/09 18:56
PAHP 091856Z AUTO 11016G20KT 10SM FEW008 BKN017 OVC060 10/07 A2919 RMK AO1 PNO TSNO

2010/08/09 18:55
K0A9 091855Z AUTO 00000KT 10SM FEW060 31/19 A3007 RMK

2010/08/09 18:56
K1M4 091856Z AUTO 22005KT 10SM FEW100 29/24 A3003 RMK AO2 T02940238 LTG DSNT SW AND NW TSB00E15B17E56RAE03 P0000 PRESFR SLP163

2010/08/09 18:56
KAND 091856Z AUTO 03005KT 10SM BKN050 34/21 A3001 RMK AO2 SLP150 T03390206

2010/08/09 18:50
KAPG 091850Z 19008KT 7SM FEW030 SCT200 33/21 A3000

2010/08/09 18:53
PTKK 091853Z VRB04KT 15SM FEW014 BKN120 OVC280 26/24 A2984 RMK SLP106 T02580243

2010/08/09 18:56
KJAX 091856Z 09014G21KT 9SM -RA FEW024 BKN035 BKN200 29/25 A2995 RMK AO2 RAB55 SLP142 P0000 T02890250

2010/08/09 18:55
KINL 091855Z AUTO 00000KT 10SM FEW095 29/21 A2990 RMK AO2 SLP123 T02890206

2010/08/09 18:55
KANJ 091855Z AUTO 12003KT 10SM SCT029 BKN050 BKN065 27/18 A2989 RMK AO2 SLP115 T02670183

2010/08/09 18:56
KSHV 091856Z 15005KT 10SM BKN060 36/21 A2993 RMK AO2 SLP132 T03560211

2010/08/09 18:56
KCHS 091856Z 09007KT 10SM FEW010 BKN032 OVC060 30/25 A2998 RMK AO2 RAB35E55 SLP153 TCU S P0014 T03000250

2010/08/09 18:56
PADK 091856Z 31011KT 10SM BKN022 BKN034 OVC040 11/08 A2974 RMK AO1 PNO

2010/08/09 18:54
KACY 091854Z 16013G19KT 10SM CLR 31/20 A3001 RMK AO2 SLP160 T03110200

2010/08/09 18:53
KDAB 091853Z 09008G14KT 10SM FEW024 SCT110 31/23 A2993 RMK AO2 SLP133 CB DSNT SW-W T03110233

2010/08/09 18:53
KSAV 091853Z 07008KT 040V110 10SM SCT049 34/21 A2997 RMK AO2 SLP148 T03440206

2010/08/09 18:54
KSYR 091854Z 28011G18KT 10SM SCT050 BKN120 BKN200 31/18 A2993 RMK AO2 SLP128 T03110183

2010/08/09 18:56
TJSJ 091856Z VRB04KT 10SM -RA FEW017 SCT030 BKN065 28/25 A2995 RMK AO2 TSB29E55RAB03 SLP140 TS DSIPTD P0012 T02830250

2010/08/09 18:56
KOFK 091856Z AUTO VRB05KT 10SM CLR 29/22 A2992 RMK AO2 SLP116 T02890222

2010/08/09 18:56
KSFO 091856Z 03007KT 10SM FEW010 19/12 A2993 RMK AO2 SLP133 T01890122

2010/08/09 18:55
KSMS 091855Z AUTO 08005KT 10SM FEW045 32/23 A3002 RMK AO2

2010/08/09 18:56
KMOB 091856Z 13012G17KT 10SM SCT039 BKN200 34/23 A2997 RMK AO2 SLP146 T03440233

2010/08/09 18:56
KCAE 091856Z 13007KT 10SM SCT050 SCT070 33/22 A3000 RMK AO2 SLP153 T03330217

2010/08/09 18:55
KCAO 091855Z AUTO 15011G18KT 10SM CLR 33/13 A3007 RMK AO2 SLP101 T03280133 TSNO

2010/08/09 18:56
KGNR 091856Z AUTO VRB03KT 23/17 A2992 RMK AO1 SLP128 T02280172

2010/08/09 18:56
KP53 091856Z AUTO 36005KT 27/22 A2988 RMK AO2 SLP115 T02670222 PWINO TSNO

2010/08/09 18:56
TJSJ 091856Z VRB04KT 10SM -RA FEW017 SCT030 BKN065 28/25 A2995 RMK AO2 TSB29E55RAB03 SLP140 TS DSIPTD P0012 T02830250

2010/08/09 18:56
KBZN 091856Z 31005KT 10SM SCT100 BKN110 23/11 A2998 RMK AO2 SLP117 T02330106

2010/08/09 18:53
KDAL 091853Z COR 24005KT 10SM BKN060TCU 35/21 A2992 RMK AO2 SLP121 TCU NE-OHD-SW T03500211

2010/08/09 18:55
KDVK 091855Z AUTO 12003KT 10SM CLR 34/21 A3000 RMK AO1

2010/08/09 18:56
KINW 091856Z AUTO 09004KT 10SM CLR 28/11 A3014 RMK AO2 SLP131 T02780106

2010/08/09 18:56
KFDK 091856Z AUTO 21006KT 10SM SCT075 36/18 A3000 RMK AO2 LTG DSNT SW

2010/08/09 18:55
KCGS 091855Z AUTO 18006KT 10SM SCT055 SCT065 35/18 A2999 RMK AO1

2010/08/09 18:56
KW29 091856Z AUTO 16008KT 129V199 10SM CLR 32/19 A3000 RMK AO1

2010/08/09 18:55
KMGG 091855Z AUTO 00000KT 10SM CLR 31/23 A2993 RMK AO2 T03120230

2010/08/09 18:49
KMOX 091849Z AUTO 13004KT 10SM CLR 32/19 A2990 RMK AO2

2010/08/09 18:53
KMWM 091853Z AUTO 09004KT 10SM SCT027 29/22 A2992 RMK AO2

2010/08/09 18:53
KOVE 091853Z AUTO VRB04KT 10SM CLR 26/14 A2989 RMK AO2 SLP122 T02560139 TSNO $

2010/08/09 18:53
KPNM 091853Z AUTO 00000KT 10SM CLR 32/20 A2992 RMK AO2

2010/08/09 18:53
KPQN 091853Z AUTO 10007KT 075V175 10SM SCT027 31/23 A2994 RMK AO2

2010/08/09 18:53
KPWC 091853Z AUTO 00000KT 10SM CLR 30/19 A2995 RMK AO2

2010/08/09 18:53
KSGR 091853Z 18005KT 10SM FEW045 34/23 A2994 RMK AO2 SLP145 T03440228

2010/08/09 18:53
KTWM 091853Z AUTO 18006KT 10SM CLR 28/22 A2989 RMK AO2

2010/08/09 18:55
KULM 091855Z AUTO 08004KT 10SM CLR 29/23 A2991 RMK AO2

2010/08/09 18:50
KWYS 091850Z AUTO 20014KT 10SM FEW044 19/08 A3012 RMK AO2

2010/08/09 18:52
K5SM 091852Z AUTO 00000KT 10SM 13/10 A3053 RMK AO2 LTG DSNT SE

2010/08/09 18:54
K7BM 091854Z AUTO 11003KT 10SM BKN055 BKN065 OVC110 19/10 A3043 RMK AO2 LTG DSNT NE AND SE

2010/08/09 18:53
KAIT 091853Z AUTO 31003KT 10SM CLR 31/20 A2992 RMK AO2

2010/08/09 18:48
KASG 091848Z 22010KT 10SM BKN060 BKN250 33/21 A2998

2010/08/09 18:53
KBBB 091853Z AUTO 12005KT 10SM CLR 32/19 A2996 RMK AO2

2010/08/09 18:58
KBDU 091858Z AUTO 00000KT 10SM CLR 30/09 A3009 RMK AO2 LTG DSNT S THRU NW

2010/08/09 18:56
KBMI 091856Z 17007KT 7SM FEW110 32/25 A2994 RMK AO2 T03160250 SLP123 $

2010/08/09 18:56
KBOK 091856Z AUTO 00000KT 7SM BKN003 13/12 A2996 RMK AO2 T01330116 SLP147

2010/08/09 18:57
KCCU 091857Z AUTO 26018G21KT 10SM -RA SCT028 SCT037 BKN055 12/06 A3057 RMK AO2 LTG DSNT NE THRU S

2010/08/09 18:55
KCMA 091855Z 22009KT 10SM CLR 20/13 A2993 RMK AO2 SLP143 T02000133

2010/08/09 18:50
KCWF 091850Z 03007KT 10SM SCT07 SCT100 34/23 A2996

2010/08/09 18:55
KEAT 091855Z AUTO VRB05KT 10SM CLR 25/09 A2980 RMK AO2 SLP082 T02500094

2010/08/09 18:53
KFFM 091853Z AUTO 00000KT 10SM CLR 29/18 A2990 RMK AO2

2010/08/09 18:54
KFGN 091854Z AUTO 16006KT 10SM CLR 24/21 A2988 RMK AO2

2010/08/09 18:54
KFWS 091854Z 17009KT 20SM BKN050 36/21 A2994

2010/08/09 18:52
KGDB 091852Z AUTO 04007KT 10SM CLR 31/20 A2992 RMK AO2 T03080199

2010/08/09 18:53
KGHW 091853Z AUTO 00000KT 10SM CLR 32/14 A2997 RMK AO2

2010/08/09 18:54
KIND 091854Z COR 26007KT 10SM FEW055 SCT140 SCT250 34/20 A2995 RMK AO2 SLP134 T03440200

2010/08/09 18:55
KLLJ 091855Z AUTO 26008G20KT 10SM -RA SCT050 BKN070 BKN090 16/11 A3004 RMK AO2 LTG DSNT E-S TSB04E20 SLPNO P0014 T01560111

2010/08/09 18:56
KSDF 091856Z 15004KT 9SM FEW055 SCT200 BKN250 35/21 A2995 RMK AO2 SLP135 T03500206

2010/08/09 18:56
PAAK 091856Z AUTO 27021G27KT 3SM OVC005 09/07 A2968 RMK AO1 PNO

2010/08/09 18:56
PABL 091856Z AUTO 10009KT 10SM SCT030 BKN038 OVC095 13/11 A2942 RMK AO1 PNO

2010/08/09 18:56
PABV 091856Z AUTO 00000KT 10SM BKN080 OVC090 13/09 A2962 RMK AO1 PNO

2010/08/09 18:56
PACM 091856Z AUTO 14013G18KT 1 3/4SM -RA BR SCT014 BKN019 OVC110 11/09 A2924 RMK AO2 TSNO T01050088 P0000 SLP898 $

2010/08/09 18:56
PAEM 091856Z AUTO 13011G18KT 8SM SCT008 BKN017 OVC026 11/08 A2926 RMK AO1 PNO

2010/08/09 18:56
PAFE 091856Z AUTO 00000KT 10SM BKN031 OVC041 14/11 A3003 RMK AO1 PNO

2010/08/09 18:50
PAFK 091850Z 15009KT 20SM SCT030 BKN060 OVC090 15/07 A2954 RMK EST PASS MGNL NOSPECI

2010/08/09 18:56
PAFM 091856Z AUTO 04003KT 10SM BKN050 OVC060 12/10 A2951 RMK AO1 PNO

2010/08/09 18:56
PAGL 091856Z AUTO 15016KT 10SM FEW029 OVC065 13/08 A2941 RMK AO1 PNO

2010/08/09 18:56
PAGM 091856Z AUTO 06014KT 1/2SM OVC003 08/07 A2926 RMK AO1

2010/08/09 18:56
PAGS 091856Z AUTO 11005KT 10SM OVC036 14/12 A2997 RMK AO1 PNO

2010/08/09 18:56
PAHP 091856Z AUTO 11016G20KT 10SM FEW008 BKN017 OVC060 10/07 A2919 RMK AO1 PNO TSNO

2010/08/09 18:56
PAII 091856Z AUTO 18007KT 10SM BKN010 OVC016 12/10 A2961 RMK AO1 PNO

2010/08/09 18:56
PAIN 091856Z AUTO 13006KT 10SM OVC048 13/08 A2961 RMK AO1 PNO

2010/08/09 18:56
PAJC 091856Z AUTO 26009KT 10SM BKN006 OVC018 13/07 A2958 RMK AO1 PNO

2010/08/09 18:55
KGUS 091855Z 18006KT 10SM FEW120 SCT190 31/24 A2995 RMK AO2A SLP137 T03090236

2010/08/09 18:55
KLHW 091855Z AUTO 06008KT 10SM FEW055 34/21 A2996 RMK AO2 LTG DSNT SE SLP145 T03410212

2010/08/09 18:55
KLSF 091855Z AUTO 00000KT 10SM FEW080 SCT100 35/21 A2997 RMK AO2 CLDS LWR RWY15 SLP147 T03480214 PNO $

2010/08/09 18:55
KLTS 091855Z AUTO 19013G17KT 10SM CLR 38/18 A2990 RMK AO2 SLP103 T03810176 $

2010/08/09 18:55
KMTC 091855Z 26015G19KT 5SM -RA HZ SCT045 BKN090 OVC150 27/21 A2995 RMK CB 39W MOV NE SLP146

2010/08/09 18:55
KMUI 091855Z AUTO 25009KT 10SM FEW060 33/17 A2999 RMK AO2 SLP154 T03260173 $

2010/08/09 18:55
KMUO 091855Z AUTO 26007KT 10SM -RA BKN110 25/10 A2990 RMK AO2 RAB1845DZB1819E1832 SLP097 P0000 T02490098

2010/08/09 18:52
KNFW 091852Z 18011G14KT 10SM FEW045 38/19 A2995 RMK AO2 SLP126 T03780189

2010/08/09 18:55
KVBG 091855Z 32008KT 10SM FEW007 SCT012 17/13 A2996 RMK AO2 SLP137 T01720128 VISNO RWY12 $

2010/08/09 18:55
KPOE 091855Z AUTO 17003KT 10SM CLR 34/22 A2996 RMK AO2 SLP144 T03440217

2010/08/09 18:55
KGTB 091855Z AUTO 24012KT 10SM CLR 28/20 A2992 RMK AO2 SLP132 T02790204

2010/08/09 18:53
KNIP 091853Z 05013G22KT 3SM RA FEW020 BKN035CB BKN250 28/25 A2996 RMK AO2 RAB46 SLP139 CB OHD MOV SW P0000 T02780250

2010/08/09 18:53
KNQX 091853Z 23009KT 10SM FEW010 SCT020CB BKN030 BKN140 28/24 A2992 RMK AO2 RAE51 SLP129 CB OHD N MOV S T1 SET P0001 T02830239 $

2010/08/09 18:55
KOFF 091855Z AUTO 19006KT 10SM FEW027 32/25 A2985 RMK AO2 SLP091 T03220248 $

2010/08/09 18:55
KOZR 091855Z AUTO 05007KT 10SM SCT048 SCT065 SCT210 33/23 A2998 RMK AO2 SLP147 T03350232 $

2010/08/09 18:55
KPOB 091855Z AUTO 08004KT 10SM BKN055 33/24 A3001 RMK AO2 SLP161 T03290237 $

2010/08/09 18:55
KRND 091855Z AUTO 14008KT 10SM FEW170 SCT200 34/21 A2995 RMK AO2 SLP131 T03390211

2010/08/09 18:55
KSLI 091855Z 17006KT 10SM CLR 21/15 A2993 RMK AO2A SLP137 T02090146

2010/08/09 18:55
KSSC 091855Z 07004KT 10SM CLR 34/21 A3000 RMK AO2A SLP159 T03370213 $

2010/08/09 18:55
KSZL 091855Z 18008KT 10SM BKN180 35/26 A2991 RMK AO2A SLP117 T03540258 PNO $

2010/08/09 18:55
KTIK 091855Z 16010G15KT 090V180 10SM CLR 36/21 A2993 RMK AO2A SLP117 T03590208

2010/08/09 18:55
KVOK 091855Z VRB04KT 10SM SCT032 30/24 A2992 RMK AO2A SLP124

2010/08/09 18:55
KVPS 091855Z 17008KT 10SM SCT045 SCT085 33/25 A2996 RMK AO2A SLP146 T03320254 $

2010/08/09 18:55
KWRB 091855Z 09007KT 10SM FEW020 35/23 A2999 RMK SLP150

2010/08/09 18:55
KWRI 091855Z AUTO 21006KT 10SM CLR 34/18 A2996 RMK AO2 SLP144 T03400183 $

2010/08/09 18:55
PHSF 091855Z VRB04KT 7SM FEW200 23/M04 A3031 RMK SLPNO

2010/08/09 18:55
KNKX 091855Z 26007KT 10SM FEW018 23/13 A2993 RMK AO2 SLP130 T02330128

2010/08/09 18:56
KNJK 091856Z VRB03KT 10SM CLR 36/06 A2979 RMK AO2 SLP101 T03560056

2010/08/09 18:55
KAFF 091855Z 27008KT 10SM -TSRA FEW017 SCT085 BKN120 BKN190 21/16 A3021 RMK AO2A TSB1843 SLP134 P0000 T02080160

2010/08/09 18:55
KDLF 091855Z AUTO 12011G18KT 10SM FEW170 34/21 A2992 RMK AO2 CLDS LWR RWY31 SLP114 T03440206

2010/08/09 18:55
KEND 091855Z 16014G18KT 10SM SCT060 38/19 A2989 RMK AO2A SLP104 T03790188

2010/08/09 18:55
KFRI 091855Z AUTO 19013KT 10SM CLR 40/19 A2984 RMK AO2 SLP079 T03960194

2010/08/09 18:55
KMCF 091855Z AUTO 19003KT 10SM SCT028 SCT036 BKN090 30/26 A2989 RMK AO2 CIG 028 RWY22 SLP123 T02990257

2010/08/09 18:55
KRIV 091855Z VRB03KT 10SM CLR 28/10 A2992 RMK AO2A SLP128 T02800098 $

2010/08/09 18:55
KSKA 091855Z AUTO 23008KT 10SM FEW150 23/09 A2987 RMK AO2 SLP102 T02340089

2010/08/09 18:55
KSKF 091855Z 11011G17KT 10SM FEW030 34/24 A2994 RMK AO2A SLP127 T03450236 $

2010/08/09 18:55
KVAD 091855Z AUTO 07010G15KT 10SM CLR 34/23 A2995 RMK AO2 SLP141 T03360225 $

2010/08/09 18:55
KWRB 091855Z 09007KT 10SM FEW020 35/23 A2999 RMK SLP150

2010/08/09 18:55
MHSC 091855Z AUTO 32008KT 9999 FEW075 SCT140 BKN170 BKN200 31/21 A2994 RMK AO2 SLP096 T03070209 $

2010/08/09 18:55
PHHI 091855Z AUTO 10007KT 10SM OVC036 24/18 A3012 RMK AO2 SLP189 T02400179 $

2010/08/09 18:52
KNZY 091852Z 26008KT 10SM FEW019 23/13 A2993 RMK AO2 SLP134 T02330128 $

2010/08/09 19:00
KVTP 091900Z AUTO 10004KT 10SM TS SCT014 BKN038 OVC060 15/10 A3046 RMK AO2 LTG DSNT N THRU S

2010/08/09 19:02
KCPW 091902Z AUTO 21004G14KT 10SM VCTS BKN014 BKN028 OVC038 12/07 A3057 RMK AO2 LTG DSNT E SE AND NW

2010/08/09 18:55
KCGC 091855Z AUTO VRB06KT 10SM FEW090 32/24 A2989 RMK

2010/08/09 18:55
KPBG 091855Z AUTO 10006KT 3SM -RA BR BKN015 BKN049 23/22 A2988 RMK AO2 P0000

2010/08/09 18:49
PANW 091849Z AUTO 18009KT 1 1/4SM BR BKN003 OVC008 10/09 A2956 RMK AO2 PWINO TSNO CIG 001V006 $

2010/08/09 18:55
KNBG 091855Z 12014G23KT 2SM +TSRA BR FEW026CB BKN033 BKN050 OVC250 26/23 A2998 RMK AO2 PK WND 11027/1841 TSB19RAB39 SLP151 CNS LTGICCCCG NE-SW TS NE-SW MOV SW T1 SET P0012 T02560228 $

2010/08/09 18:55
KADW 091855Z AUTO 19007KT 10SM FEW055 33/21 A3000 RMK AO2 SLP158 T03300206 $

2010/08/09 18:55
KDOV 091855Z AUTO 12011KT 10SM FEW150 31/21 A2999 RMK AO2 RAE1756B1827E1849 SLP157 P0000 T03080208

2010/08/09 18:55
KMCF 091855Z AUTO 19003KT 10SM SCT028 SCT036 BKN090 30/26 A2989 RMK AO2 CIG 028 RWY22 SLP123 T02990257

2010/08/09 18:53
KNIP 091853Z 05013G22KT 3SM RA FEW020 BKN035CB BKN250 28/25 A2996 RMK AO2 RAB46 SLP139 CB OHD MOV SW P0000 T02780250

2010/08/09 18:53
KNQX 091853Z 23009KT 10SM FEW010 SCT020CB BKN030 BKN140 28/24 A2992 RMK AO2 RAE51 SLP129 CB OHD N MOV S T1 SET P0001 T02830239 $

2010/08/09 18:55
KPOB 091855Z AUTO 08004KT 10SM BKN055 33/24 A3001 RMK AO2 SLP161 T03290237 $

2010/08/09 18:55
KSSC 091855Z 07004KT 10SM CLR 34/21 A3000 RMK AO2A SLP159 T03370213 $

2010/08/09 18:55
KVAD 091855Z AUTO 07010G15KT 10SM CLR 34/23 A2995 RMK AO2 SLP141 T03360225 $

2010/08/09 18:55
KWRI 091855Z AUTO 21006KT 10SM CLR 34/18 A2996 RMK AO2 SLP144 T03400183 $

2010/08/09 18:55
KOZR 091855Z AUTO 05007KT 10SM SCT048 SCT065 SCT210 33/23 A2998 RMK AO2 SLP147 T03350232 $

2010/08/09 18:55
KSSC 091855Z 07004KT 10SM CLR 34/21 A3000 RMK AO2A SLP159 T03370213 $

2010/08/09 18:55
KWRB 091855Z 09007KT 10SM FEW020 35/23 A2999 RMK SLP150

2010/08/09 18:55
KCEF 091855Z AUTO 22008KT 10SM BKN070 33/17 A2993 RMK AO2 SLP134 T03310166 PWINO $

2010/08/09 18:55
KFAF 091855Z AUTO 18008KT 10SM CLR 31/23 A3001 RMK AO2 SLP164 T03110231 $

2010/08/09 18:55
KGTB 091855Z AUTO 24012KT 10SM CLR 28/20 A2992 RMK AO2 SLP132 T02790204

2010/08/09 18:55
KGUS 091855Z 18006KT 10SM FEW120 SCT190 31/24 A2995 RMK AO2A SLP137 T03090236

2010/08/09 18:55
KLRF 091855Z AUTO VRB03KT 10SM CLR 36/23 A2993 RMK AO2 SLP133 T03630234

2010/08/09 18:53
KNQX 091853Z 23009KT 10SM FEW010 SCT020CB BKN030 BKN140 28/24 A2992 RMK AO2 RAE51 SLP129 CB OHD N MOV S T1 SET P0001 T02830239 $

2010/08/09 18:55
PGUA 091855Z AUTO 25003KT 10SM OVC160 24/24 A2991 RMK AO2 SLP110 T02420242 VISNO RWY24L $

2010/08/09 18:55
PHSF 091855Z VRB04KT 7SM FEW200 23/M04 A3031 RMK SLPNO

2010/08/09 18:56
PMDY 091856Z AUTO 08012KT 10SM CLR 27/22 A3024 RMK AO2 TSNO T02720216 SLP549

2010/08/09 18:56
KNQI 091856Z 15010G15KT 10SM BKN039 BKN060 38/24 A2990 RMK AO2 SLP122 T03780244

2010/08/09 18:56
KNBT 091856Z AUTO 18006KT 10SM CLR 29/24 A3002 RMK AO2 SLP171 T02890244 TSNO

2010/08/09 18:56
KNGP 091856Z 15009KT 10SM FEW025 SCT040TCU SCT250 32/26 A2992 RMK AO2 SLP132 TCU DSNT SE T03170261 VISNO

2010/08/09 18:56
KNID 091856Z 12007KT 10SM CLR 32/M01 A2992 RMK AO2 SLP110 T03171006 $

2010/08/09 18:56
PHBK 091856Z AUTO 30003KT 10SM BKN055 27/18 A3010 RMK AO2 SLP196 T02720178 TSNO $

2010/08/09 18:56
KNDZ 091856Z AUTO 13006KT 10SM FEW043 BKN055 36/22 A2996 RMK AO2 SLP130 T03560217 PWINO $

2010/08/09 18:56
KAQV 091856Z AUTO VRB03KT 10SM CLR 36/22 A2994 RMK AO2 SLP134 T03610217

2010/08/09 18:56
KNYG 091856Z AUTO 17007KT 9SM SCT060 BKN200 32/22 A3000 RMK AO2 SLP158 T03220222 $

2010/08/09 18:56
KNUQ 091856Z 35008KT 10SM CLR 20/13 A2992 RMK AO2 SLP134 T02000128

2010/08/09 18:56
KNLC 091856Z 04006KT 10SM CLR 28/14 A2987 RMK AO2 SLP114 RH/42 T02780139

2010/08/09 18:56
KPRN 091856Z AUTO 11006KT 10SM CLR 36/22 A2998 RMK AO2 SLP144 T03560217 $

2010/08/09 18:56
K79J 091856Z 12009KT 10SM CLR 36/21 A2996 RMK AO2 SLP139 T03560206 PNO $

2010/08/09 18:55
PALU 091855Z AUTO 06017KT 5SM 08/08 A2960 RMK AO1 T00780078

2010/08/09 18:55
PAIM 091855Z AUTO 05006KT 10SM BKN018 BKN025 OVC030 13/10 A2952 RMK AO1 T01280101

2010/08/09 18:55
PATL 091855Z AUTO 11004KT 10SM OVC010 11/11 A2951 RMK AO1 T01110106

2010/08/09 18:55
PAEH 091855Z AUTO 16018G33KT 1 1/2SM OVC004 09/07 RMK AO1 938 T00890073

2010/08/09 18:55
PASV 091855Z AUTO 19014KT 10SM SCT017 BKN027 OVC041 10/09 A2954 RMK AO1 T01000089

2010/08/09 18:55
KARW 091855Z AUTO 09014G19KT 10SM SCT027 BKN045 OVC055 32/23 A2998 RMK AO2 LTG DSNT E AND S

2010/08/09 18:55
KBDN 091855Z AUTO 35003KT 10SM CLR 23/05 A2996 RMK AO2

2010/08/09 18:55
KBKN 091855Z AUTO 16009G18KT 10SM 39/20 A2987 RMK AO2

2010/08/09 18:56
KCEC 091856Z AUTO 28007KT 10SM OVC008 14/11 A2996 RMK AO2 SLP147 T01390111

2010/08/09 18:50
KCWA 091850Z 30004KT 10SM SCT034 29/22 A2993

2010/08/09 18:56
KDIK 091856Z AUTO 12008G17KT 10SM CLR 32/16 A2986 RMK AO2 SLP091 T03220156

2010/08/09 18:56
KDUG 091856Z AUTO 00000KT 10SM CLR 30/16 A3009 RMK AO2 SLP117 T03000161

2010/08/09 18:56
KDUJ 091856Z AUTO VRB04KT 10SM CLR 29/15 A3005 RMK AO2 SLP163 T02940150

2010/08/09 18:55
KEIK 091855Z AUTO 00000KT 10SM CLR 28/10 A3008 RMK AO2 LTG DSNT SE THRU W

2010/08/09 18:56
KEKO 091856Z AUTO 17006KT 10SM FEW100 27/02 A3001 RMK AO2 SLP101 T02720022

2010/08/09 18:55
KEOE 091855Z AUTO 00000KT 10SM BKN050 OVC065 33/21 A3003 RMK AO2

2010/08/09 18:56
KGRD 091856Z AUTO 10005KT 10SM CLR 33/20 A3003 RMK AO2 SLP160 T03330200

2010/08/09 18:55
KHFF 091855Z AUTO VRB03KT 10SM CLR 34/21 A3003 RMK AO2 SLP166 T03380213 $

2010/08/09 18:55
KHVS 091855Z AUTO 10004KT 10SM CLR 33/21 A3002 RMK AO2

2010/08/09 18:55
KISO 091855Z 12005KT 7SM FEW040 33/19 A3003

2010/08/09 18:56
KJMS 091856Z AUTO 20009KT 10SM CLR 33/19 A2989 RMK AO2 SLP111 T03280189

2010/08/09 18:56
KM19 091856Z AUTO 00000KT 10SM CLR A2993 RMK AO2 LTG DSNT SW AND W SLPNO $

2010/08/09 18:55
KMAO 091855Z AUTO 09006KT 10SM CLR 32/21 A3000 RMK AO2

2010/08/09 18:50
KMER 091850Z 24003KT 10SM SKC 28/12 A2988

2010/08/09 18:55
KMKS 091855Z AUTO 06007KT 10SM BKN043 BKN055 34/22 A2998 RMK AO2 TSNO

2010/08/09 18:56
KMQY 091856Z 18005KT 10SM FEW038 38/23 A2997 RMK AO2 T03770233 SLP138 $

2010/08/09 18:56
KMRH 091856Z AUTO 20007KT 10SM FEW017 29/24 A3002 RMK AO2 SLP167 T02940244 TSNO

2010/08/09 18:55
KNQA 091855Z COR 00000KT 10SM SCT045 BKN250 38/27 A2994 RMK

2010/08/09 18:47
KPAO 091847Z 35010KT 30SM FEW015 A2992

2010/08/09 18:56
KSBP 091856Z 28008KT 9SM FEW012 21/12 A2993 RMK AO2 SLP133 T02060122 $

2010/08/09 18:56
KSGH 091856Z 00000KT 5SM HZ CLR 32/22 A3002 RMK AO2 T03160222 RAB22E31 P0000 SLP157 $

2010/08/09 18:58
KSGJ 091858Z 09008KT 10SM FEW014 31/26 A2995 RMK AO2 SLP141 T03060256

2010/08/09 18:55
KSME 091855Z AUTO 10003KT 10SM 34/24 A3000 RMK AO2

2010/08/09 18:56
KTPH 091856Z AUTO 16010G17KT 10SM CLR 26/M08 A3008 RMK AO2 SLP108 T02611078

2010/08/09 18:53
KUNI 091853Z AUTO 23003KT 10SM CLR 34/12 A3001 RMK AO2

2010/08/09 18:56
KWJF 091856Z 00000KT 10SM CLR 30/01 A2994 RMK AO2 SLP118 T03000006

2010/08/09 18:55
KY51 091855Z AUTO 28005KT 10SM SCT020 28/23 A2995 RMK AO1 T02800230

2010/08/09 18:56
KSDF 091856Z 15004KT 9SM FEW055 SCT200 BKN250 35/21 A2995 RMK AO2 SLP135 T03500206

2010/08/09 18:53
K04W 091853Z AUTO 29003KT 10SM CLR 31/22 A2992 RMK AO2 T03110223

2010/08/09 18:55
K21D 091855Z AUTO 00000KT 10SM CLR 31/22 A2992 RMK AO2

2010/08/09 18:56
KART 091856Z AUTO 24009KT 8SM BKN080 27/20 A2991 RMK AO2 SLP124 T02720200

2010/08/09 18:56
KBED 091856Z 27008KT 9SM CLR 34/17 A2990 RMK AO2 SLP134 T03390167

2010/08/09 18:54
KBJI 091854Z AUTO 20006KT 10SM CLR 32/17 A2991 RMK AO2

2010/08/09 18:56
KBJJ 091856Z AUTO 25005KT 10SM CLR 29/19 A3002 RMK AO2 SLP158 T02940189

2010/08/09 18:53
KC29 091853Z AUTO 28005KT 10SM SCT026 29/22 A2993 RMK AO2 T02940216

2010/08/09 18:55
KCNW 091855Z 18009KT 10SM SCT049 37/20 A2993

2010/08/09 18:56
KCTB 091856Z AUTO 21009G17KT 10SM FEW075 26/07 A2989 RMK AO2 SLP095 T02560067 PWINO

2010/08/09 18:56
KCXY 091856Z VRB03KT 9SM FEW060 32/17 A2998 RMK AO2 SLP150 T03220172

2010/08/09 18:53
KD39 091853Z AUTO 00000KT 10SM CLR 32/18 A2994 RMK AO2 T03230178

2010/08/09 18:56
KDAY 091856Z VRB05KT 10SM FEW050 BKN130 BKN190 32/18 A3001 RMK AO2 SLP152 T03170183

2010/08/09 18:56
KEAU 091856Z 02004KT 10SM CLR 31/23 A2991 RMK AO2 SLP119 T03110233

2010/08/09 18:56
KEED 091856Z AUTO VRB03KT 10SM CLR 36/01 A2986 RMK AO2 SLP076 T03610011 TSNO

2010/08/09 18:56
KELZ 091856Z AUTO VRB03KT 10SM SCT080 27/17 A3006 RMK AO2 SLP166 T02720172

2010/08/09 18:56
KHND 091856Z 06005KT 10SM CLR 33/08 A2997 RMK AO2 T03270077 SLP096

2010/08/09 18:56
KHPN 091856Z 16011KT 8SM SCT060 32/19 A2997 RMK AO2 SLP140 T03170189

2010/08/09 18:56
KHWV 091856Z AUTO 20010KT 8SM CLR 28/22 A3000 RMK AO2 SLP157 T02830222

2010/08/09 18:56
KHYA 091856Z 22013KT 10SM CLR 28/21 A2997 RMK AO2 SLP148 T02830211

2010/08/09 18:56
KIGX 091856Z AUTO VRB03KT 9SM BKN055 OVC070 32/19 A3003 RMK AO2 SLP162 T03170189 $

2010/08/09 18:56
KISP 091856Z 20009G17KT 10SM FEW055 SCT100 BKN250 29/19 A2997 RMK AO2 SLP149 T02890189

2010/08/09 18:56
KITH 091856Z 25007KT 10SM FEW050 SCT090 29/18 A3000 RMK AO2 T02940177 SLP150

2010/08/09 18:56
KJXN 091856Z 13005KT 8SM -RA SCT023 BKN050 OVC070 22/21 A2998 RMK AO2 SLP146 P0007 T02220211

2010/08/09 18:56
KLAS 091856Z 13005KT 10SM CLR 33/06 A2991 RMK AO2 SLP099 T03280061

2010/08/09 18:56
KLNR 091856Z AUTO 00000KT 10SM FEW026 30/22 A2992 RMK AO2 SLP120 T03000222

2010/08/09 18:56
KLRD 091856Z 14010G15KT 100V170 10SM CLR 37/20 A2992 RMK AO2 T03720200 SLP118

2010/08/09 18:56
KMDT 091856Z 00000KT 8SM FEW050 BKN250 33/20 A2997 RMK AO2 SLP148 T03280200

2010/08/09 18:50
KOLV 091850Z 07008KT 4SM TSRA BKN008 OVC011 26/26 A2999

2010/08/09 18:56
KOWB 091856Z 22005KT 10SM CLR 38/23 A2994 RMK AO2 T03830233 SLP134

2010/08/09 18:56
KNSE 091856Z 11006KT 9SM SCT040TCU SCT150 35/24 A2996 RMK AO2 SLP130 TCU W T03500239 $

2010/08/09 18:59
OPKC 091859Z 27006KT 6000 SCT020 BKN100 27/25 Q.1001 NOSIG

2010/08/09 18:53
OPSK 091853Z 00000KT 2000 HZ SCT040 SCT100 29/27 Q1000 RH 89

2010/08/09 18:50
EBAW 091850Z 13004KT CAVOK 20/14 Q1015 NOSIG

2010/08/09 18:50
EBBR 091850Z 13003KT CAVOK 20/12 Q1015 NOSIG

2010/08/09 18:50
EBCI 091850Z 24004KT CAVOK 21/11 Q1016 NOSIG

2010/08/09 18:50
EBLG 091850Z 03003KT CAVOK 19/11 Q1016 NOSIG

2010/08/09 18:50
EBOS 091850Z 26008KT CAVOK 18/14 Q1015 NOSIG

2010/08/09 18:50
ELLX 091850Z VRB02KT CAVOK 20/11 Q1017 NOSIG

2010/08/09 18:50
EFIV 091850Z AUTO 01010KT 9999 -RA FEW009 OVC012 11/10 Q1012

2010/08/09 18:50
EFKE 091850Z AUTO 36010KT 9999 OVC011 15/13 Q1008

2010/08/09 18:50
LGAD 091850Z 00000KT CAVOK 25/21 Q1011

2010/08/09 18:50
LGAL 091850Z 03008KT CAVOK 30/19 Q1009

2010/08/09 18:50
LGAV 091850Z 06004KT CAVOK 28/18 Q1010 NOSIG

2010/08/09 18:50
LGIR 091850Z 30011KT 9999 FEW020 28/25 Q1008 NOSIG

2010/08/09 18:50
LGKF 091850Z 33009KT 9999 FEW020 27/16 Q1009

2010/08/09 18:50
LGKO 091850Z 33008KT CAVOK 27/21 Q1006

2010/08/09 18:50
LGKR 091850Z 22004KT CAVOK 27/17 Q1009 NOSIG

2010/08/09 18:50
LGKV 091850Z 00000KT 9999 FEW030 27/22 Q1009

2010/08/09 18:50
LGLM 091850Z VRB03KT CAVOK 27/20 Q1008

2010/08/09 18:50
LGMT 091850Z /////KT CAVOK 31/24 Q1008

2010/08/09 18:50
LGRP 091850Z 24012KT 9999 FEW018 28/25 Q1004 NOSIG

2010/08/09 18:50
LGSA 091850Z 31006KT 9999 FEW020 26/23 Q1009

2010/08/09 18:50
LGSR 091850Z 33015KT CAVOK 27/21 Q1007 NOSIG

2010/08/09 18:50
LGTS 091850Z 36008KT CAVOK 31/15 Q1010 NOSIG

2010/08/09 18:50
LGMK 091850Z 36017G27KT CAVOK 26/19 Q1007

2010/08/09 18:50
LGPZ 091850Z 22008KT 9999 FEW015 26/22 Q1011 NOSIG

2010/08/09 18:50
LGRX 091850Z 00000KT CAVOK 26/21 Q1009 NOSIG

2010/08/09 18:50
LGZA 091850Z VRB02KT CAVOK 28/23 Q1009

2010/08/09 18:50
LIBD 091850Z VRB01KT CAVOK 24/17 Q1014

2010/08/09 18:50
LICC 091850Z VRB02KT CAVOK 27/20 Q1013

2010/08/09 18:50
LICJ 091850Z 05008KT CAVOK 26/19 Q1016

2010/08/09 18:50
LIEA 091850Z VRB02KT CAVOK 23/18 Q1016

2010/08/09 18:50
LIEO 091850Z 02003KT CAVOK 26/21 Q1016

2010/08/09 18:50
LIMC 091850Z VRB01KT CAVOK 25/16 Q1015 NOSIG

2010/08/09 18:50
LIME 091850Z 19005KT 9999 FEW040 25/16 Q1015

2010/08/09 18:50
LIMF 091850Z 05005KT 9999 FEW060 24/18 1015

2010/08/09 18:50
LIMJ 091850Z VRB01KT 9999 FEW015 25/20 Q1015

2010/08/09 18:50
LIML 091850Z VRB02KT CAVOK 26/16 Q1014 NOSIG

2010/08/09 18:45
LIBR 091845Z 32013KT CAVOK 25/21 Q1014 NOSIG

2010/08/09 18:45
LIEE 091845Z 18001KT 9999 SCT050 26/21 Q1015 NOSIG

2010/08/09 18:45
LIPX 091845Z 00000KT CAVOK 28/19 Q1014

2010/08/09 18:45
LIPH 091845Z 16002KT 9999 FEW080 25/19 Q1014

2010/08/09 18:45
LIPR 091845Z 11003KT CAVOK 26/21 Q1014

2010/08/09 18:45
LIPX 091845Z 00000KT CAVOK 28/19 Q1014

2010/08/09 18:45
LIRA 091845Z 21004KT 9999 FEW080 SCT200 25/21 Q1015

2010/08/09 18:45
LIRP 091845Z 26003KT 9999 SCT020 24/21 Q1015 NOSIG

2010/08/09 18:50
LIPB 091850Z 17009KT 9999 FEW100 25/14 Q1014

2010/08/09 18:50
LIPE 091850Z 12008KT CAVOK 25/18 Q1014

2010/08/09 18:50
LIPK 091850Z VRB02KT CAVOK 25/14 Q1014

2010/08/09 18:50
LIPQ 091850Z VRB02KT CAVOK 24/19 Q1014

2010/08/09 18:50
LIPZ 091850Z VRB03KT CAVOK 25/18 Q1014

2010/08/09 18:50
LIRF 091850Z 29005KT 260V320 CAVOK 23/20 Q1015 NOSIG

2010/08/09 18:50
LIRQ 091850Z 26006KT 220V280 CAVOK 25/19 Q1015

2010/08/09 18:50
LIMC 091850Z VRB01KT CAVOK 25/16 Q1015 NOSIG

2010/08/09 18:50
LCRA 091850Z 27009KT CAVOK 28/24 Q1005 NOSIG

2010/08/09 18:55
EHAM 091855Z 14006KT CAVOK 19/13 Q1014 NOSIG

2010/08/09 18:55
EHBK 091855Z AUTO 25003KT 210V290 9999NDV NCD 19/11 Q1016 NOSIG

2010/08/09 18:55
EHDL 091855Z AUTO 18002KT 9999NDV BKN070 17/14 Q1015 BLU

2010/08/09 18:55
EHGG 091855Z AUTO 28002KT 9999NDV BKN039 19/13 Q1015 NOSIG

2010/08/09 18:55
EHGR 091855Z AUTO 18002KT 9999NDV BKN260 19/12 Q1015 BLU

2010/08/09 18:55
EHLW 091855Z AUTO 19002KT 9999NDV OVC250 18/13 Q1015 BLU

2010/08/09 18:55
EHRD 091855Z 16004KT CAVOK 20/11 Q1014 NOSIG

2010/08/09 18:55
EHVK 091855Z AUTO 15001KT 9999NDV FEW230 19/13 Q1015 BLU

2010/08/09 18:55
EHVL 091855Z AUTO 18008KT 9999NDV FEW110 18/13 Q1014 BLU

2010/08/09 18:55
EHWO 091855Z AUTO 11003KT 9999NDV SCT075 BKN080 20/12 Q1014 BLU

2010/08/09 18:50
EGKB 091850Z 22010KT 9999 FEW025 18/13 Q1014

2010/08/09 18:50
EGCC 091850Z 24006KT 220V280 9999 FEW035 18/12 Q1010 NOSIG

2010/08/09 18:50
EGDL 091850Z 19006KT 6000 -RADZ FEW007 BKN010 17/16 Q1013 GRN TEMPO 9999 NSW BKN007 GRN

2010/08/09 18:50
EGDM 091850Z 22012KT 9999 -DZ OVC004 17/15 Q1013 YLO2

2010/08/09 18:50
EGOV 091850Z 24005KT 9999 FEW018 SCT060 16/14 Q1009 BLU NOSIG

2010/08/09 18:50
EGQK 091850Z 06003KT 9999 FEW010 SCT045 14/12 Q1005 BLU NOSIG

2010/08/09 18:50
EGQL 091850Z 25009KT 9999 FEW022 15/11 Q1005 BLU NOSIG

2010/08/09 18:50
EGQS 091850Z 08002KT 9999 FEW006 FEW023CB SCT130 15/12 Q1005 BLU NOSIG

2010/08/09 18:56
KNCA 091856Z 16008KT 4SM HZ SCT025 BKN060 31/M05 A3002 RMK AO2 RAB00E32 SLP166 P0023 T03101050 $ 

2010/08/09 18:56
K9L2 091856Z AUTO VRB03KT 10SM CLR 29/00 A2993 RMK AO2 SLP113 T02890000 $ 

2010/08/09 18:56
KNFE 091856Z AUTO 13005KT 3SM HZ CLR 31/21 A3003 RMK AO2 SLP171 T03110206 $ 

2010/08/09 18:56
KP28 091856Z AUTO 18008G18KT 38/18 A2988 RMK AO2 SLP094 T03780178 PWINO TSNO 

2010/08/09 18:56
KINS 091856Z 08008KT 10SM CLR 30/04 A2996 RMK AO2 SLP097 T03000044 $ 

2010/08/09 18:56
KFSD 091856Z 09006KT 10SM SCT025 29/23 A2991 RMK AO2 SLP119 BKN ABV 120 T02890233 

2010/08/09 18:56
KNTU 091856Z 11008KT 10SM FEW035 SCT200 29/22 A3003 RMK AO2 SLP171 T02890222 $ 

2010/08/09 18:56
KCDJ 091856Z AUTO 20008G16KT 34/26 A2987 RMK AO2 SLP096 T03440256 PWINO TSNO 

2010/08/09 18:54
KNFG 091854Z COR 24009KT 7SM CLR 22/13 A2992 RMK AO2 SLP132 T02220133 

2010/08/09 18:56
KGNA 091856Z AUTO 26005KT 19/17 A2988 RMK AO2 SLP113 T01890167 PWINO TSNO 

2010/08/09 18:56
K8D3 091856Z AUTO 16006KT 30/20 A2991 RMK AO2 SLP108 T03000200 PWINO TSNO 

2010/08/09 18:56
K2WX 091856Z AUTO 15020G24KT 33/15 A2981 RMK AO1 SLP065 T03330150 

2010/08/09 18:56
KABH 091856Z AUTO 00000KT 10SM FEW110 24/13 A3017 RMK AO2 SLP136 T02390133 $ 

2010/08/09 18:53
CZUM 091853Z AUTO 26011G16KT 9SM -RA OVC018 OVC077 14/12 A2964

2010/08/09 18:56
CYKF 091856Z AUTO 22007KT 7SM BKN023 25/21 A2995 RMK SLP138 DENSITY ALT 2400FT LTNG DIST SW

2010/08/09 18:55
CYFC 091855Z AUTO 19010G15KT 9SM BKN009 BKN017 OVC045 22/20 A2987 RMK SLP115 DENSITY ALT 900FT RVR MISG

2010/08/09 18:52
CYXU 091852Z 31004KT 5SM -SHRA FEW032 BKN050 OVC140 26/ RMK SF2SC4AC2

2010/08/09 18:56
KFLG 091856Z 22011G17KT 10SM FEW065 SCT100 22/09 A3030 RMK AO2 SLP167 T02170089 

2010/08/09 18:50
EGKB 091850Z 22010KT 9999 FEW025 18/13 Q1014 

2010/08/09 18:50
LSMA 091850Z AUTO 14002KT 9999NDV FEW068 SCT080 20/16 Q1016 RMK BLU

2010/08/09 18:50
LSME 091850Z AUTO 36003KT 330V050 9999NDV FEW062 22/14 Q1016 RMK BLU

2010/08/09 18:50
LSMM 091850Z AUTO 10007KT 9999NDV SCT060 BKN068 20/16 Q1017 RMK WHT

2010/08/09 18:50
LSMP 091850Z AUTO VRB01KT 9999NDV FEW060 22/15 Q1016 RMK BLU

2010/08/09 18:50
EFET 091850Z AUTO 05006KT 9999 OVC024 12/09 Q1013

2010/08/09 18:50
EFIV 091850Z AUTO 01010KT 9999 -RA FEW009 OVC012 11/10 Q1012

2010/08/09 18:50
EFKE 091850Z AUTO 36010KT 9999 OVC011 15/13 Q1008

2010/08/09 18:50
EFKI 091850Z AUTO 29001KT //// FEW046 SCT074 BKN117 21/19 Q1008

2010/08/09 18:50
EFKS 091850Z AUTO 24003KT 9999 -RA SCT014 BKN048 BKN086 19/17 Q1007

2010/08/09 18:50
EFKT 091850Z AUTO 01005KT 330V090 9999 OVC016 13/10 Q1011

2010/08/09 18:50
HLLM 091850Z 05007KT 7000 SKC 26/19 Q1016 

2010/08/09 18:50
LGRP 091850Z 24012KT 9999 FEW018 28/25 Q1004 NOSIG

2010/08/09 18:50
LGSA 091850Z 31006KT 9999 FEW020 26/23 Q1009

2010/08/09 18:50
LGKF 091850Z 33009KT 9999 FEW020 27/16 Q1009

2010/08/09 18:50
LGMK 091850Z 36017G27KT CAVOK 26/19 Q1007

2010/08/09 18:56
YMAV 091856Z AUTO 30004KT 7000NDV // NCD 03/03 Q1017

2010/08/09 18:55
HLLT 091855Z HLLT 06007KT CAVOK 25/18 Q1015

2010/08/09 18:50
LGAL 091850Z 03008KT CAVOK 30/19 Q1009

2010/08/09 18:50
LGKV 091850Z 00000KT 9999 FEW030 27/22 Q1009

2010/08/09 18:50
LGMT 091850Z /////KT CAVOK 31/24 Q1008

2010/08/09 18:50
LGPZ 091850Z 22008KT 9999 FEW015 26/22 Q1011 NOSIG

2010/08/09 18:50
LGRX 091850Z 00000KT CAVOK 26/21 Q1009 NOSIG

2010/08/09 18:50
LGSR 091850Z 33015KT CAVOK 27/21 Q1007 NOSIG

2010/08/09 18:50
LGZA 091850Z VRB02KT CAVOK 28/23 Q1009

2010/08/09 18:50
EGVN 091850Z 21005KT 9999 BKN019 BKN044 18/16 Q1012 TEMPO 6000 -RADZ

2010/08/09 18:50
LGAD 091850Z 00000KT CAVOK 25/21 Q1011

2010/08/09 18:50
LGAV 091850Z 06004KT CAVOK 28/18 Q1010 NOSIG

2010/08/09 18:50
LGIR 091850Z 30011KT 9999 FEW020 28/25 Q1008 NOSIG

2010/08/09 18:50
LGKO 091850Z 33008KT CAVOK 27/21 Q1006

2010/08/09 18:50
LGKR 091850Z 22004KT CAVOK 27/17 Q1009 NOSIG

2010/08/09 18:50
LGLM 091850Z VRB03KT CAVOK 27/20 Q1008

2010/08/09 18:50
LGTS 091850Z 36008KT CAVOK 31/15 Q1010 NOSIG

2010/08/09 18:55
EHAM 091855Z 14006KT CAVOK 19/13 Q1014 NOSIG

2010/08/09 18:55
EHBK 091855Z AUTO 25003KT 210V290 9999NDV NCD 19/11 Q1016 NOSIG

2010/08/09 18:55
EHGG 091855Z AUTO 28002KT 9999NDV BKN039 19/13 Q1015 NOSIG

2010/08/09 18:55
EHRD 091855Z 16004KT CAVOK 20/11 Q1014 NOSIG

2010/08/09 18:54
KAKQ 091854Z AUTO VRB03KT 10SM FEW060 33/18 A3001 RMK AO2 SLP159 T03330183 TSNO 

2010/08/09 18:56
KNXP 091856Z 13012G17KT CLR 33/M01 A2997 RMK AO2 SLP109 T03331006 $ 

2010/08/09 18:56
KGFA 091856Z AUTO 00000KT 10SM CLR 26/08 A2987 RMK AO2 SLP113 T02560078 

2010/08/09 18:50
BGCO 091850Z 34025KT 9999 FEW210 10/M01 Q1011

2010/08/09 18:50
EFKI 091850Z AUTO 29001KT //// FEW046 SCT074 BKN117 21/19 Q1008

2010/08/09 18:55
KFFO 091855Z 00000KT 10SM FEW130 SCT190 32/20 A2999 RMK AO2A SLP151

2010/08/09 18:55
KLUF 091855Z 29005KT 10SM FEW120 36/05 A2987 RMK AO2A SLP083 T03630052 $

2010/08/09 18:55
KMIB 091855Z AUTO 24006KT 10SM CLR 32/16 A2984 RMK AO2 SLP097 T03150165

2010/08/09 18:55
KMXF 091855Z VRB05KT 10SM SCT060 37/22 A2996 RMK AO2A SLP143 T03670218

2010/08/09 18:52
KNZY 091852Z 26008KT 10SM FEW019 23/13 A2993 RMK AO2 SLP134 T02330128 $

2010/08/09 18:55
KPAM 091855Z AUTO VRB06KT 10SM FEW055 34/23 A2994 RMK AO2 SLP140 T03410232 $

2010/08/09 18:55
KPSM 091855Z 24009KT 10SM SCT060 SCT130 33/17 A2989 RMK AO2A SLP122 T03330172

2010/08/09 18:55
KTBN 091855Z VRB04KT 10SM FEW060 36/21 A2995 RMK AO2A SLP114 T03610213 $

2010/08/09 18:55
KTCM 091855Z AUTO 26006KT 10SM OVC017 17/12 A2999 RMK AO2 SLP156 T01690121

2010/08/09 19:00
LEMO 091900Z 36009KT 320V030 CAVOK 37/16 Q1012 NOSIG

2010/08/09 19:00
MWCR 091900Z 10006KT 9999 SCT018 SCT200 31/26 Q1013 NOSIG

2010/08/09 18:55
PAED 091855Z AUTO 34006KT 10SM OVC070 14/11 A2962 RMK AO2 SLP032 P0001 T01390110

2010/08/09 18:57
PAFB 091857Z 08004KT 13SM SCT075 BKN100 BKN120 14/11 A2959 RMK SLP018

2010/08/09 18:58
ROTM 091858Z 18014G28KT 9999 BKN010 OVC040 28/26 A2974 RMK PK WND 16028/46 SLP055 WND WRNG XWND ADV T02780256

2010/08/09 19:00
SVJC 091900Z 28012KT 9999 SCT040 33/23 Q1009

2010/08/09 18:56
KALK 091856Z AUTO 09007KT 10SM CLR 27/16 A3014 RMK AO2 SLP112 T02720156 $ 

2010/08/09 18:56
KNPA 091856Z 13009KT 9SM FEW035 SCT160 SCT280 33/26 A2996 RMK AO2 SLP147 T03280256 

2010/08/09 19:00
OYSY 091900Z 22004KT 9999 FEW040 BKN080 35/13 Q1005

2010/08/09 19:00
LWSK 091900Z 01012KT CAVOK 25/15 Q1015 NOSIG

2010/08/09 18:56
KMHS 091856Z AUTO 14004KT 10SM CLR 25/06 A2996 RMK AO2 SLP128 T02500056 TSNO 

2010/08/09 18:50
BGBW 091850Z AUTO 06003KT 9999NDV -RA BKN014/// OVC017/// 11/10 Q1008

2010/08/09 18:50
BGCO 091850Z 34025KT 9999 FEW210 10/M01 Q1011

2010/08/09 18:50
BGJN 091850Z 18009KT 9999 SCT100 BKN150 13/03 Q1008

2010/08/09 18:50
BGSF 091850Z 07006KT 030V130 9999 SCT045 BKN110 16/08 Q1008

2010/08/09 18:55
BGTL 091855Z AUTO 25004KT 9999 CLR 05/03 A2987 RMK AO2 SLP120 T00530026

2010/08/09 18:50
EGDL 091850Z 19006KT 6000 -RADZ FEW007 BKN010 17/16 Q1013 GRN TEMPO 9999 NSW BKN007 GRN

2010/08/09 18:50
EGDM 091850Z 22012KT 9999 -DZ OVC004 17/15 Q1013 YLO2

2010/08/09 18:50
EGOV 091850Z 24005KT 9999 FEW018 SCT060 16/14 Q1009 BLU NOSIG

2010/08/09 18:50
EGQK 091850Z 06003KT 9999 FEW010 SCT045 14/12 Q1005 BLU NOSIG

2010/08/09 18:50
EGQL 091850Z 25009KT 9999 FEW022 15/11 Q1005 BLU NOSIG

2010/08/09 18:50
EGQS 091850Z 08002KT 9999 FEW006 FEW023CB SCT130 15/12 Q1005 BLU NOSIG

2010/08/09 18:50
EGUB 091850Z 21010KT 9999 SCT020 BKN035 BKN090 19/14 Q1012 WHT TEMPO FEW020 BKN035 BLU

2010/08/09 18:50
EGVN 091850Z 21005KT 9999 BKN019 BKN044 18/16 Q1012 WHT TEMPO 6000 -RADZ WHT

2010/08/09 18:50
EGVO 091850Z 21012KT 9999 FEW012 BKN017 18/14 Q1014 WHT BECMG BKN008 GRN

2010/08/09 18:50
EGWU 091850Z 23011KT 9999 FEW026 BKN060 20/14 Q1013 BLU BECMG SCT024 WHT

2010/08/09 18:50
EGXC 091850Z 22013KT 9999 FEW040 BKN100 21/13 Q1010 BLU NOSIG

2010/08/09 18:50
EGXD 091850Z 26008KT 9999 FEW026 18/13 Q1009 BLU NOSIG

2010/08/09 18:50
EGXE 091850Z 25011KT 9999 FEW020 17/13 Q1008 BLU NOSIG

2010/08/09 18:50
EGXW 091850Z 24015KT 9999 FEW035 BKN090 21/13 Q1010 BLU NOSIG

2010/08/09 18:50
EGYM 091850Z 23010KT CAVOK 22/12 Q1011 BLU NOSIG

2010/08/09 18:55
EHDL 091855Z AUTO 18002KT 9999NDV BKN070 17/14 Q1015 BLU

2010/08/09 18:55
EHGR 091855Z AUTO 18002KT 9999NDV BKN260 19/12 Q1015 BLU

2010/08/09 18:55
EHLW 091855Z AUTO 19002KT 9999NDV OVC250 18/13 Q1015 BLU

2010/08/09 18:55
EHVK 091855Z AUTO 15001KT 9999NDV FEW230 19/13 Q1015 BLU

2010/08/09 18:55
EHVL 091855Z AUTO 18008KT 9999NDV FEW110 18/13 Q1014 BLU

2010/08/09 18:55
EHWO 091855Z AUTO 11003KT 9999NDV SCT075 BKN080 20/12 Q1014 BLU

2010/08/09 18:55
ETIK 091855Z AUTO 00000KT 9999 CLR 17/14 A3005 RMK AO2 SLP168 T01740142 $

2010/08/09 19:00
LWSK 091900Z 01012KT CAVOK 25/15 Q1015 NOSIG

2010/08/09 19:00
SGAS 091900Z 17006KT CAVOK 18/09 Q1019

2010/08/09 19:00
SGES 091900Z 21004KT CAVOK 23/14 Q1016

2010/08/09 18:56
KSPD 091856Z AUTO 20005KT 32/16 A3003 RMK AO2 SLP094 T03170156 PWINO TSNO 

2010/08/09 18:56
KD07 091856Z AUTO 16019G23KT 31/18 A2991 RMK AO2 SLP110 T03110178 PWINO TSNO 

2010/08/09 18:55
KQBL 091855Z AUTO VRB03KT 10SM CLR 33/25 A2999 RMK AO2 LTG DSNT SW SLP156 T03320250

2010/08/09 18:55
KQD9 091855Z VRB03KT 9999 FEW030 SCT050 BKN085 BKN180 25/21 A2984 RMK SLP038 WND DATA ESTMD ALSTG/SLP ESTMD

2010/08/09 18:55
KQDD 091855Z AUTO VRB02KT 9999 FEW100 BKN120 BKN150 24/13 A2998 RMK AO2 SLP151

2010/08/09 18:55
KQGV 091855Z 33012KT 9999 FEW120 SCT180 41/03 A2950 RMK SLP978

2010/08/09 18:55
KQMG 091855Z AUTO VRB06KT 10SM FEW170 30/13 A3009 RMK AO2 SLP114 T03040133

2010/08/09 18:55
KQTU 091855Z 32006KT 9999 CLR 38/03 A2960 RMK SLP004

2010/08/09 18:55
KQTZ 091855Z 30007KT 9000 DU HZ CLR 38/05 A2954 RMK SLP996 QNH1000MB WND DATA ESTMD ALSTG/SLP ESTMD

2010/08/09 18:56
KSXT 091856Z AUTO 34006KT 8SM -RA CLR 17/13 A3001 RMK AO2 RAE1759B38 SLP128 P0000 T01720133 TSNO 

2010/08/09 18:53
KGNT 091853Z AUTO 33008KT 26/08 A3024 RMK AO2 SLP149 T02560083 PWINO TSNO 

2010/08/09 18:58
YMAV 091858Z AUTO 31004KT 6000NDV // NCD 03/03 Q1017

2010/08/09 18:54
KSBN 091854Z 19006KT 6SM HZ FEW060 SCT080 27/22 A2997 RMK AO2 RAB04E13 SLP141 P0000 T02670217 

2010/08/09 18:58
YMAV 091858Z AUTO 31004KT 6000NDV // NCD 03/03 Q1017

2010/08/09 18:55
KAFF 091855Z 27008KT 10SM -TSRA FEW017 SCT085 BKN120 BKN190 21/16 A3021 RMK AO2A TSB1843 SLP134 P0000 T02080160

2010/08/09 18:55
KBAB 091855Z AUTO 00000KT 10SM CLR 25/14 A2987 RMK AO2 SLP115 T02450138 $

2010/08/09 18:55
KBIX 091855Z 09007KT 060V150 10SM SCT030 36/24 A2993 RMK AO2A SLP136 WND DATA ESTMD ALSTG/SLP ESTMD

2010/08/09 18:55
KCOF 091855Z 12010KT 10SM CLR 30/23 A2992 RMK AO2A SLP131 T02990227

2010/08/09 18:55
KDLF 091855Z AUTO 12011G18KT 10SM FEW170 34/21 A2992 RMK AO2 CLDS LWR RWY31 SLP114 T03440206

2010/08/09 18:55
KEND 091855Z 16014G18KT 10SM SCT060 38/19 A2989 RMK AO2A SLP104 T03790188

2010/08/09 18:55
KFBG 091855Z 08003KT 7SM FEW030 SCT050 SCT150 35/20 A3001 RMK AO2A SLP160 WND DATA ESTMD ALSTG/SLP ESTMD

2010/08/09 18:55
KFFO 091855Z 00000KT 10SM FEW130 SCT190 32/20 A2999 RMK AO2A SLP151

2010/08/09 18:55
KFMH 091855Z AUTO 23014G19KT 10SM CLR 28/21 A2998 RMK AO2

2010/08/09 18:55
KFRI 091855Z AUTO 19013KT 10SM CLR 40/19 A2984 RMK AO2 SLP079 T03960194

2010/08/09 18:47
KIWA 091847Z VRB04KT 45SM SCT120 38/12 A2990

2010/08/09 18:55
KLSV 091855Z AUTO VRB03KT 10SM CLR 32/05 A2993 RMK AO2 SLP119 T03190051 PWINO

2010/08/09 18:55
KLUF 091855Z 29005KT 10SM FEW120 36/05 A2987 RMK AO2A SLP083 T03630052 $

2010/08/09 18:55
KMCF 091855Z AUTO 19003KT 10SM SCT028 SCT036 BKN090 30/26 A2989 RMK AO2 CIG 028 RWY22 SLP123 T02990257

2010/08/09 18:55
KMIB 091855Z AUTO 24006KT 10SM CLR 32/16 A2984 RMK AO2 SLP097 T03150165

2010/08/09 18:55
KMXF 091855Z VRB05KT 10SM SCT060 37/22 A2996 RMK AO2A SLP143 T03670218

2010/08/09 18:56
PASY 091856Z 32004KT 1 1/4SM BR BKN001 BKN010 OVC022 09/09 A2984 RMK AO2 SLP106 T00940089 PNO $ 

2010/08/09 18:57
CYFC 091857Z AUTO 18009KT 9SM FEW009 BKN013 BKN045 22/20 A2987 RMK SLP114 DENSITY ALT 900FT RVR MISG

2010/08/09 18:56
KNFL 091856Z 26005KT 10SM FEW080 29/04 A2996 RMK AO2 SLP119 T02890044 

2010/08/09 18:56
KWMC 091856Z AUTO 26007G15KT 10SM CLR 28/04 A2997 RMK AO2 SLP095 T02830039 

2010/08/09 18:52
KMLF 091852Z AUTO 20018G24KT 10SM CLR 27/01 A3010 RMK AO2 SLP133 T02670011 TSNO 

2010/08/09 18:56
K79J 091856Z 12009KT 10SM CLR 36/21 A2996 RMK AO2 SLP139 T03560206 PNO $

2010/08/09 18:55
KBIX 091855Z 09007KT 060V150 10SM SCT030 36/24 A2993 RMK AO2A SLP136 WND DATA ESTMD ALSTG/SLP ESTMD

2010/08/09 18:55
KCOF 091855Z 12010KT 10SM CLR 30/23 A2992 RMK AO2A SLP131 T02990227

2010/08/09 18:55
KCVS 091855Z 24012KT 10SM FEW080 SCT150 30/15 A3007 RMK AO2A SLP134 T02960150 $

2010/08/09 18:55
KLSV 091855Z AUTO VRB03KT 10SM CLR 32/05 A2993 RMK AO2 SLP119 T03190051 PWINO

2010/08/09 18:55
KNBG 091855Z 12014G23KT 2SM +TSRA BR FEW026CB BKN033 BKN050 OVC250 26/23 A2998 RMK AO2 PK WND 11027/1841 TSB19RAB39 SLP151 CNS LTGICCCCG NE-SW TS NE-SW MOV SW T1 SET P0012 T02560228 $

2010/08/09 18:56
KNID 091856Z 12007KT 10SM CLR 32/M01 A2992 RMK AO2 SLP110 T03171006 $

2010/08/09 18:56
KNLC 091856Z 04006KT 10SM CLR 28/14 A2987 RMK AO2 SLP114 RH/42 T02780139

2010/08/09 18:56
KNQI 091856Z 15010G15KT 10SM BKN039 BKN060 38/24 A2990 RMK AO2 SLP122 T03780244

2010/08/09 18:56
KNUQ 091856Z 35008KT 10SM CLR 20/13 A2992 RMK AO2 SLP134 T02000128

2010/08/09 18:56
KNYG 091856Z AUTO 17007KT 9SM SCT060 BKN200 32/22 A3000 RMK AO2 SLP158 T03220222 $

2010/08/09 18:56
KSGH 091856Z 00000KT 5SM HZ CLR 32/22 A3002 RMK AO2 T03160222 RAB22E31 P0000 SLP157 $

2010/08/09 18:56
KWJF 091856Z 00000KT 10SM CLR 30/01 A2994 RMK AO2 SLP118 T03000006

2010/08/09 18:56
PHBK 091856Z AUTO 30003KT 10SM BKN055 27/18 A3010 RMK AO2 SLP196 T02720178 TSNO $

2010/08/09 18:56
PMDY 091856Z AUTO 08012KT 10SM CLR 27/22 A3024 RMK AO2 TSNO T02720216 SLP549

2010/08/09 18:56
TJSJ 091856Z VRB04KT 10SM -RA FEW017 SCT030 BKN065 28/25 A2995 RMK AO2 TSB29E55RAB03 SLP140 TS DSIPTD P0012 T02830250

2010/08/09 18:55
NSTU 091855Z 09014KT 12SM SCT017 BKN040 27/25 A2999 RMK SLP156 T02740246

2010/08/09 18:54
PGSN 091854Z 11005KT 6SM RA BR SCT016 BKN040 BKN110 25/24 A2991 RMK AO2 SLP124 P0013 T02500239

2010/08/09 18:55
PGUA 091855Z AUTO 25003KT 10SM OVC160 24/24 A2991 RMK AO2 SLP110 T02420242 VISNO RWY24L $

2010/08/09 18:54
PGUM 091854Z 17003KT 10SM CLR 25/24 A2991 RMK AO2 SLP120 T02500239

2010/08/09 18:56
PHBK 091856Z AUTO 30003KT 10SM BKN055 27/18 A3010 RMK AO2 SLP196 T02720178 TSNO $

2010/08/09 18:55
PHHI 091855Z AUTO 10007KT 10SM OVC036 24/18 A3012 RMK AO2 SLP189 T02400179 $

2010/08/09 18:53
PHJR 091853Z 08008G15KT 10SM OVC050 27/17 A3010 RMK AO2 SLP200 T02720172

2010/08/09 18:53
PHKO 091853Z 00000KT 10SM BKN055 26/18 A3004 RMK AO2 SLP171 T02610178 PNO $

2010/08/09 18:54
PHMK 091854Z 08014G20KT 10SM CLR 29/14 A3009 RMK AO2 PK WND 08028/1843 SLP191 T02890139

2010/08/09 18:53
PHNL 091853Z 06014KT 10SM FEW033 SCT042 BKN050 28/17 A3009 RMK AO2 SLP190 T02830172

2010/08/09 18:54
PHOG 091854Z 07017G26KT 10SM FEW035 SCT050 27/18 A3010 RMK AO2 PK WND 06026/1849 SLP197 T02720178

2010/08/09 18:55
PHSF 091855Z VRB04KT 7SM FEW200 23/M04 A3031 RMK SLPNO

2010/08/09 18:53
PHTO 091853Z 00000KT 10SM SCT040 BKN055 23/18 A3012 RMK AO2 SLP197 T02330178 $

2010/08/09 18:55
RJTY 091855Z AUTO 28003KT 9999 BKN050 OVC060 24/23 A3004 RMK AO2 SLP166 T02440228

2010/08/09 18:55
RODN 091855Z 15016G30KT 9999 BKN017 BKN023 BKN029 OVC065 28/26 A2973 RMK AO2A PK WND 17030/1847 CIG 015V022 BKN029 V OVC SLP066 T02790256

2010/08/09 18:56
KNID 091856Z 12007KT 10SM CLR 32/M01 A2992 RMK AO2 SLP110 T03171006 $

2010/08/09 18:56
KNLC 091856Z 04006KT 10SM CLR 28/14 A2987 RMK AO2 SLP114 RH/42 T02780139

2010/08/09 18:56
KNQI 091856Z 15010G15KT 10SM BKN039 BKN060 38/24 A2990 RMK AO2 SLP122 T03780244

2010/08/09 18:52
KNZY 091852Z 26008KT 10SM FEW019 23/13 A2993 RMK AO2 SLP134 T02330128 $

2010/08/09 18:55
KPAM 091855Z AUTO VRB06KT 10SM FEW055 34/23 A2994 RMK AO2 SLP140 T03410232 $

2010/08/09 18:55
KPSM 091855Z 24009KT 10SM SCT060 SCT130 33/17 A2989 RMK AO2A SLP122 T03330172

2010/08/09 18:55
KRIV 091855Z VRB03KT 10SM CLR 28/10 A2992 RMK AO2A SLP128 T02800098 $

2010/08/09 18:56
KSGH 091856Z 00000KT 5SM HZ CLR 32/22 A3002 RMK AO2 T03160222 RAB22E31 P0000 SLP157 $

2010/08/09 18:55
KSKA 091855Z AUTO 23008KT 10SM FEW150 23/09 A2987 RMK AO2 SLP102 T02340089

2010/08/09 18:55
KSKF 091855Z 11011G17KT 10SM FEW030 34/24 A2994 RMK AO2A SLP127 T03450236 $

2010/08/09 18:55
KTBN 091855Z VRB04KT 10SM FEW060 36/21 A2995 RMK AO2A SLP114 T03610213 $

2010/08/09 18:55
KTCM 091855Z AUTO 26006KT 10SM OVC017 17/12 A2999 RMK AO2 SLP156 T01690121

2010/08/09 18:55
KTTS 091855Z 10006KT 10SM SCT022 SCT090 31/25 A2992 RMK CB DSNT SW MDT CU ALQDS SLP132 3CU /3/ 1AC /4/

2010/08/09 18:55
KVAD 091855Z AUTO 07010G15KT 10SM CLR 34/23 A2995 RMK AO2 SLP141 T03360225 $

2010/08/09 19:00
SBBR 091900Z 08009KT CAVOK 30/M06 Q1020

2010/08/09 19:00
MYNN 091900Z 13009KT 9999 SCT012TCU BKN038 BKN080 30/23 A2996

2010/08/09 18:56
KHLR 091856Z AUTO 13006G14KT 10SM CLR 37/20 A2995 RMK AO2 SLP130 T03670200 $ 

2010/08/09 18:54
KHYX 091854Z AUTO 21009KT 7SM SCT036 SCT050 OVC065 23/21 A2995 RMK AO2

2010/08/09 18:55
KOZW 091855Z AUTO 21005KT 3SM RA SCT006 BKN026 OVC045 23/22 A2997 RMK AO2

2010/08/09 18:55
KRNP 091855Z AUTO 19005KT 10SM -RA BKN060 OVC070 23/21 A2994 RMK AO2

2010/08/09 18:54
KDUH 091854Z AUTO 23003KT 10SM CLR 30/20 A2998 RMK AO2

2010/08/09 18:55
KISQ 091855Z AUTO 15007KT 10SM CLR 26/22 A2989 RMK AO2

2010/08/09 18:55
KJYM 091855Z AUTO 03003KT 10SM -RA SCT070 24/21 A3000 RMK AO2

2010/08/09 19:05
KBAX 091905Z AUTO 23006KT 5SM BR SCT100 24/22 A2992 RMK AO2

2010/08/09 18:55
KIRS 091855Z AUTO 14004KT 10SM CLR 27/21 A2995 RMK AO2

2010/08/09 18:55
KAMN 091855Z AUTO 19010G15KT 10SM SCT018 BKN065 BKN075 28/22 A2991 RMK AO2

2010/08/09 18:55
KACB 091855Z AUTO 25004KT 7SM SCT030 31/22 A2986 RMK AO2

2010/08/09 18:54
KRQB 091854Z AUTO 23006KT 10SM SCT012 SCT017 BKN036 24/22 A2994 RMK AO2

2010/08/09 18:55
KERY 091855Z AUTO 18004KT 10SM CLR 27/22 A2989 RMK AO2

2010/08/09 18:55
KOEB 091855Z AUTO 11004KT 10SM -DZ CLR 24/22 A2997 RMK AO2

2010/08/09 18:56
K4I3 091856Z AUTO 19005KT 10SM CLR 30/18 A3003 RMK AO2

2010/08/09 18:55
KAUM 091855Z AUTO 00000KT 10SM BKN032 BKN045 29/23 A2993 RMK AO2

2010/08/09 18:55
KFFX 091855Z AUTO 27004KT 10SM SCT022 BKN028 OVC035 26/22 A2993 RMK AO2

2010/08/09 18:54
KCNB 091854Z AUTO 05006KT 10SM CLR 31/20 A2992 RMK AO2 T03080197

2010/08/09 18:55
KCKN 091855Z AUTO 24011KT 10SM CLR 33/19 A2987 RMK AO2

2010/08/09 19:03
KCFE 091903Z AUTO 04004KT 10SM CLR 32/21 A2993 RMK AO2 T03170209

2010/08/09 18:57
KCQM 091857Z AUTO 26006KT 10SM CLR 29/19 A2993 RMK AO2

2010/08/09 18:55
KDTL 091855Z AUTO 20007KT 10SM CLR 30/17 A2995 RMK AO2

2010/08/09 18:55
KBDH 091855Z AUTO 07006KT 10SM CLR 31/18 A2993 RMK AO2

2010/08/09 18:55
KCBG 091855Z AUTO 01004KT 10SM CLR 31/24 A2991 RMK AO2

2010/08/09 18:57
KADC 091857Z AUTO 26004KT 10SM CLR 29/18 A2994 RMK AO2

2010/08/09 18:55
KHAF 091855Z AUTO 21007KT 10SM OVC012 14/12 A2996 RMK AO2

2010/08/09 18:55
KCKC 091855Z AUTO 29005KT 10SM CLR 29/14 A2993 RMK AO2

2010/08/09 18:54
KJYG 091854Z AUTO 00000KT 10SM SCT030 30/27 A2992 RMK AO2

2010/08/09 18:56
KCOQ 091856Z AUTO 25004KT 10SM CLR 31/16 A2993 RMK AO2

2010/08/09 18:58
KACQ 091858Z AUTO 24005KT 10SM CLR 28/21 A2994 RMK AO2

2010/08/09 18:55
KRGK 091855Z AUTO 00000KT 10SM CLR 32/23 A2990 RMK AO2

2010/08/09 18:54
KFSE 091854Z AUTO 22009KT 10SM CLR 29/19 A2990 RMK AO2

2010/08/09 18:55
KY70 091855Z AUTO 21009KT 10SM BKN013 BKN046 OVC055 27/22 A2993 RMK AO2 T02710219

2010/08/09 18:50
KUKT 091850Z AUTO 22010G15KT 10SM SCT050 33/19 A3000 RMK AO1

2010/08/09 18:54
KCDA 091854Z AUTO 00000KT 10SM SCT038 BKN043 BKN050 26/17 A2996 RMK AO2

2010/08/09 18:55
KLDM 091855Z AUTO 23011G16KT 10SM SCT011 27/23 A2992 RMK AO2

2010/08/09 18:55
KPHN 091855Z AUTO 20003KT 10SM CLR 25/21 A2995 RMK AO2

2010/08/09 18:55
KRMY 091855Z AUTO 14006KT 10SM -RA SCT005 SCT055 SCT090 23/21 A2996 RMK AO2

2010/08/09 18:55
KOSC 091855Z AUTO 09004KT 10SM SCT012 24/21 A2990 RMK AO2

2010/08/09 18:53
KTTF 091853Z AUTO 28004KT 10SM CLR 29/22 A2995 RMK AO2

2010/08/09 18:55
KMCD 091855Z AUTO 07003KT 10SM CLR 23/19 A2991 RMK AO2

2010/08/09 18:55
KGGE 091855Z AUTO 10008KT 10SM SCT022 SCT048 31/25 A3001 RMK AO2 LTG DSNT S

2010/08/09 18:54
KGYL 091854Z AUTO 06003KT 10SM CLR 31/22 A2992 RMK AO2 T03100216

2010/08/09 18:52
KHCD 091852Z AUTO 00000KT 10SM CLR 31/20 A2992 RMK AO2 T03050201

2010/08/09 18:54
KHCO 091854Z AUTO 17006KT 10SM CLR 33/19 A2986 RMK AO2

2010/08/09 18:51
KHZX 091851Z AUTO 24003KT 10SM CLR 31/20 A2994 RMK AO2

2010/08/09 18:54
KIKW 091854Z AUTO 18006KT 5SM -DZ SCT019 BKN050 OVC060 25/21 A2992 RMK AO2 T02490214

2010/08/09 18:55
KJKJ 091855Z AUTO 20006KT 10SM CLR 32/23 A2989 RMK AO2

2010/08/09 18:55
KJMR 091855Z AUTO 00000KT 10SM CLR 30/21 A2994 RMK AO2

2010/08/09 18:53
KLJF 091853Z AUTO 05005KT 10SM CLR 31/21 A2992 RMK AO2

2010/08/09 18:54
KLVN 091854Z AUTO 09004KT 10SM CLR 31/21 A2992 RMK AO2

2010/08/09 18:54
KLXL 091854Z AUTO 00000KT 10SM CLR 31/16 A2992 RMK AO2

2010/08/09 18:58
KLYV 091858Z AUTO 08008KT 10SM SCT020 29/22 A2992 RMK AO2

2010/08/09 18:56
KM89 091856Z AUTO 21005KT 10SM CLR 38/26 A2993 RMK AO2 T03770255 SLP146 $

2010/08/09 18:52
KMJQ 091852Z AUTO 09004KT 10SM BKN018 27/23 A2994 RMK AO2

2010/08/09 18:56
KABQ 091856Z 00000KT 10SM FEW070 28/12 A3015 RMK AO2 SLP115 CB DSNT N TCU DSNT NE T02780117

2010/08/09 18:54
KRIC 091854Z 18008G14KT 10SM SCT049 BKN250 33/19 A3001 RMK AO2 SLP164 T03280194

2010/08/09 18:56
KJAX 091856Z 09014G21KT 9SM -RA FEW024 BKN035 BKN200 29/25 A2995 RMK AO2 RAB55 SLP142 P0000 T02890250

2010/08/09 18:53
K29G 091853Z AUTO 20004KT 10SM CLR 30/17 A3002 RMK AO2 T02950168 PWINO

2010/08/09 18:55
K2G4 091855Z AUTO 20006KT 10SM CLR 28/11 A3013 RMK AO1

2010/08/09 18:55
K2W6 091855Z AUTO 00000KT 10SM CLR 31/18 A3002 RMK AO1

2010/08/09 18:50
KAEL 091850Z AUTO 00000KT 10SM SCT029 SCT043 29/22 A2992 RMK AO2

2010/08/09 18:56
KAJO 091856Z AUTO 28007KT 10SM CLR 26/14 A2991 RMK AO2 T02550138 SLP123 $

2010/08/09 18:53
KAQP 091853Z AUTO 07003KT 10SM CLR 30/22 A2991 RMK AO2

2010/08/09 18:54
KAVP 091854Z 24007KT 10SM CLR 32/13 A2998 RMK AO2 SLP139 T03220128 $

2010/08/09 18:53
KBFW 091853Z AUTO 18008KT 10SM CLR 31/21 A2988 RMK AO2

2010/08/09 18:56
KCAE 091856Z 13007KT 10SM SCT050 SCT070 33/22 A3000 RMK AO2 SLP153 T03330217

2010/08/09 18:55
KCBE 091855Z AUTO 00000KT 10SM CLR 33/16 A3002 RMK AO1

2010/08/09 18:52
KCDD 091852Z AUTO 00000KT 10SM CLR 30/24 A2993 RMK AO2

2010/08/09 18:53
KCGE 091853Z AUTO 17007KT 10SM OVC075 31/22 A3002 RMK AO1

2010/08/09 18:55
KCGS 091855Z AUTO 18006KT 10SM SCT055 SCT065 35/18 A2999 RMK AO1

2010/08/09 18:56
KCHS 091856Z 09007KT 10SM FEW010 BKN032 OVC060 30/25 A2998 RMK AO2 RAB35E55 SLP153 TCU S P0014 T03000250

2010/08/09 18:55
KCMR 091855Z AUTO 21010G17KT 10SM CLR 23/06 A3028 RMK AO1

2010/08/09 18:50
KCVH 091850Z AUTO 27008KT 10SM CLR 19/12 A2994 RMK AO1

2010/08/09 18:56
KDIJ 091856Z AUTO 23011KT 10SM FEW009 SCT095 23/07 A3011 RMK AO2 T02330066 SLP112 $

2010/08/09 18:56
KFDK 091856Z AUTO 21006KT 10SM SCT075 36/18 A3000 RMK AO2 LTG DSNT SW

2010/08/09 18:55
KDMW 091855Z AUTO 18006KT 10SM SCT050 34/20 A3002 RMK AO2

2010/08/09 18:56
KDVP 091856Z AUTO 06008KT 10SM SCT028 30/20 A2995 RMK AO2 T02970204

2010/08/09 18:54
KDXX 091854Z AUTO 00000KT 10SM CLR 31/21 A2991 RMK AO2

2010/08/09 18:54
KDYT 091854Z AUTO 06003KT 1 1/2SM BR OVC001 22/21 A2991 RMK AO2 VIS 1/2V3

2010/08/09 18:56
KEFK 091856Z AUTO 26004KT 10SM SCT037 BKN043 OVC060 24/17 A2993 RMK AO2

2010/08/09 18:56
KEKQ 091856Z AUTO 00000KT 10SM FEW038 34/24 A3002 RMK AO2 T03380238 SLP159

2010/08/09 18:53
KELO 091853Z AUTO 29006KT 10SM SCT090 28/18 A2992 RMK AO2

2010/08/09 18:54
KETH 091854Z AUTO 00000KT 10SM CLR 31/18 A2995 RMK AO2

2010/08/09 18:52
KEVM 091852Z AUTO 28005KT 10SM CLR 30/20 A2991 RMK AO1

2010/08/09 18:54
KFBL 091854Z AUTO 22004KT 10SM SCT032 31/23 A2993 RMK AO2

2010/08/09 19:01
KFKA 091901Z AUTO 29005KT 10SM CLR 30/24 A2995 RMK AO2 T03000238

2010/08/09 18:57
KFME 091857Z AUTO 18005KT 10SM SCT055 SCT075 SCT085 31/20 A3001 RMK AO1

2010/08/09 18:53
KFOZ 091853Z AUTO 22003KT 10SM CLR 31/20 A2993 RMK AO2

2010/08/09 18:59
KFSO 091859Z AUTO 00000KT 10SM OVC095 26/20 A2990 RMK AO2

2010/08/09 18:54
KFWA 091854Z 22005KT 9SM FEW055 BKN140 30/22 A2998 RMK AO2 SLP145 T03000217

2010/08/09 18:56
KFPK 091856Z AUTO 18005KT 10SM SCT060 OVC095 22/22 A2994 RMK AO2

2010/08/09 18:55
KCVX 091855Z AUTO 29008KT 7SM CLR 28/21 A2990 RMK AO2

2010/08/09 18:54
KMOP 091854Z AUTO 25008KT 7SM SCT024 BKN032 OVC060 25/23 A2992 RMK AO2

2010/08/09 18:54
KFKS 091854Z AUTO 21007KT 10SM BKN025 25/20 A2990 RMK AO2

2010/08/09 18:54
KCAD 091854Z AUTO 24009KT 10SM SCT031 BKN041 BKN055 28/21 A2992 RMK AO2

2010/08/09 18:54
KMGN 091854Z AUTO 00000KT 7SM SCT020 BKN055 29/21 A2987 RMK AO2

2010/08/09 18:55
KSLH 091855Z AUTO 07006KT 10SM BKN018 BKN028 25/22 A2988 RMK AO2

2010/08/09 18:55
KSJX 091855Z AUTO 28006KT 10SM BKN017 BKN024 26/21 A2990 RMK AO2

2010/08/09 18:55
KHAI 091855Z AUTO 14003KT 10SM -RA SCT090 BKN110 25/23 A2996 RMK AO2

2010/08/09 18:56
KLWA 091856Z AUTO 19007KT 10SM SCT110 27/22 A2994 RMK AO2

2010/08/09 18:57
KDRM 091857Z AUTO 14004KT 10SM BKN021 25/20 A2989 RMK AO2

2010/08/09 18:54
KVLL 091854Z AUTO 28005KT 10SM -RA SCT075 27/19 A2999 RMK AO2

2010/08/09 18:54
KGOV 091854Z AUTO 12004KT 5SM HZ BKN017 BKN022 OVC049 26/22 A2991 RMK AO2

2010/08/09 18:54
KPZQ 091854Z AUTO 00000KT 10SM CLR 25/20 A2990 RMK AO2

2010/08/09 18:55
KCFS 091855Z AUTO 21010KT 10SM -DZ OVC090 25/21 A2994 RMK AO2

2010/08/09 18:53
KMRT 091853Z AUTO 24004KT 10SM SCT046 31/20 A3004 RMK AO2 T03060200

2010/08/09 18:54
KMVE 091854Z AUTO 11005KT 10SM CLR 31/23 A2990 RMK AO2

2010/08/09 18:50
KMZH 091850Z AUTO 31005KT 10SM CLR 30/20 A2991 RMK AO2

2010/08/09 18:51
KONA 091851Z AUTO 33003KT 10SM CLR 31/23 A2990 RMK AO2

2010/08/09 18:54
KONZ 091854Z AUTO 28007KT 10SM CLR 29/22 A2996 RMK AO2

2010/08/09 18:54
KORB 091854Z AUTO 00000KT 10SM CLR 29/19 A2990 RMK AO2

2010/08/09 18:54
KOVL 091854Z AUTO 05003KT 10SM CLR 31/20 A2991 RMK AO2 T03060202

2010/08/09 18:54
KOWA 091854Z AUTO 00000KT 10SM CLR 29/22 A2992 RMK AO2

2010/08/09 18:53
KPEX 091853Z AUTO 04004KT 10SM CLR 31/19 A2994 RMK AO2 T03050193

2010/08/09 18:54
KRFD 091854Z 31010KT 10SM FEW030 SCT150 BKN250 30/22 A2993 RMK AO2 SLP128 T03000222

2010/08/09 18:55
KROS 091855Z AUTO 00000KT 10SM CLR 30/22 A2993 RMK AO2 T02990215

2010/08/09 18:55
KROX 091855Z AUTO 13003KT 10SM CLR 31/22 A2987 RMK AO2

2010/08/09 18:54
KRRT 091854Z AUTO 06005KT 10SM CLR 28/22 A2989 RMK AO2 TSNO

2010/08/09 18:54
KSAZ 091854Z AUTO 00000KT 10SM CLR 31/17 A2994 RMK AO2

2010/08/09 18:53
KSGS 091853Z AUTO 08005KT 10SM CLR 32/20 A2991 RMK AO2 T03220201

2010/08/09 18:56
KSHV 091856Z 15005KT 10SM BKN060 36/21 A2993 RMK AO2 SLP132 T03560211

2010/08/09 18:55
KSRR 091855Z AUTO 28016G19KT 10SM VCTS FEW047 BKN060 BKN090 22/13 A3027 RMK AO2 LTG DSNT ALQDS

2010/08/09 18:54
KSYN 091854Z AUTO 00000KT 10SM CLR 31/21 A2991 RMK AO2 T03130213

2010/08/09 18:54
KTEW 091854Z AUTO 17005KT 10SM SCT017 SCT027 SCT075 22/21 A2996 RMK AO2

2010/08/09 18:53
KTKC 091853Z AUTO 08008KT 10SM SCT026 30/21 A2992 RMK AO2 T02960214

2010/08/09 18:55
KTOB 091855Z AUTO 26003KT 10SM SCT026 SCT032 29/24 A2994 RMK AO2

2010/08/09 18:50
KVCV 091850Z 12005KT 10SM SKC 31/M03 A2996

2010/08/09 18:56
KVVV 091856Z AUTO 00000KT 10SM CLR 30/19 A2992 RMK AO2

2010/08/09 18:49
KVWU 091849Z AUTO 27006KT 10SM CLR 30/22 A2990 RMK AO2

2010/08/09 18:56
KW29 091856Z AUTO 16008KT 129V199 10SM CLR 32/19 A3000 RMK AO1

2010/08/09 18:56
KXVG 091856Z AUTO 21005KT 10SM CLR 30/20 A2992 RMK AO2

2010/08/09 18:56
PAGN 091856Z AUTO 00000KT FEW018 BKN022 OVC030 RMK AO2 PWINO TSNO SLPNO $

2010/08/09 18:56
PATQ 091856Z AUTO 08018G24KT 10SM OVC009 02/00 A2979 RMK AO2 TSNO T00160000 PK WND 07026/1841 SLP094 $

2010/08/09 18:56
PAFS 091856Z AUTO 02006KT 10SM OVC055 12/10 A2952 RMK AO2 TSNO T01220100 SLP003 $

2010/08/09 18:56
PAGN 091856Z AUTO 00000KT FEW018 BKN022 OVC030 RMK AO2 PWINO TSNO SLPNO $

2010/08/09 18:56
PAHC 091856Z AUTO 06003KT 10SM FEW007 BKN014 OVC040 12/11 A2940 RMK AO2 TSNO T01220111 BKN V SCT RAE1758B38E53 P0000 SLP960 $

2010/08/09 18:56
PAIG 091856Z AUTO 00000KT 10SM FEW027 OVC043 11/09 A2957 RMK AO2 PWINO TSNO T01110094 SLP018 $

2010/08/09 18:56
PAMO 091856Z AUTO 13019KT 10SM -RA OVC005 10/10 A2930 RMK AO2 TSNO T01000100 CIG 003V009 P0000 SLP921 $

2010/08/09 18:56
PAOO 091856Z AUTO 14017KT 2 1/2SM -RA BR BKN009 OVC014 09/09 A2920 RMK AO2 TSNO T00940094 CIG 006V011 P0000 SLP889 $

2010/08/09 18:56
PAPM 091856Z AUTO 18022KT 1 1/2SM BR BKN009 BKN014 OVC070 09/09 A2939 RMK AO2 TSNO T00940088 CIG 004V010 RAB46E56 P0000 PK WND 18027/1758 SLP953 $

2010/08/09 18:56
PARS 091856Z AUTO 11005KT 10SM OVC034 12/11 A2937 RMK AO2 TSNO T01160105 RAB00E42 P0000 SLP951 $

2010/08/09 18:56
PARY 091856Z AUTO 08008KT 8SM SCT006 BKN012 OVC050 12/11 A2951 RMK AO2 PWINO TSNO T01220105 SLP996

2010/08/09 18:56
PATQ 091856Z AUTO 08018G24KT 10SM OVC009 02/00 A2979 RMK AO2 TSNO T00160000 PK WND 07026/1841 SLP094 $

2010/08/09 18:55
CYFC 091855Z AUTO 19010G15KT 9SM BKN009 BKN017 OVC045 22/20 A2987 RMK SLP115 DENSITY ALT 900FT RVR MISG

2010/08/09 18:52
CYXU 091852Z 31004KT 5SM -SHRA FEW032 BKN050 OVC140 26/ RMK SF2SC4AC2

2010/08/09 18:57
CYFC 091857Z AUTO 18009KT 9SM FEW009 BKN013 BKN045 22/20 A2987 RMK SLP114 DENSITY ALT 900FT RVR MISG

2010/08/09 19:00
SBGR 091900Z 16005KT 7000 FEW014 BKN019 16/12 Q1023

2010/08/09 18:56
CYSN 091856Z 21010KT 10SM -TSRA OVC060 RMK SC8 CB EMBD VIS 3 S

2010/08/09 19:00
UBBB 091900Z 16004KT CAVOK 30/29 Q1009 NOSIG RMK R88CLRD70

2010/08/09 19:00
SVMI 091900Z 36003KT 9999 FEW016 BKN100 31/27 Q1011 NOSIG

2010/08/09 18:58
YMAV 091858Z AUTO 31004KT 6000NDV // NCD 03/03 Q1017

2010/08/09 18:50
LOXZ 091850Z 34003KT 30KM FEW040CU BKN050SC 18/15 Q1018 RMK BKN

2010/08/09 18:55
EHEH 091855Z AUTO 19001KT 9999NDV BKN260 19/13 Q1015 BLU BLU NOSIG

2010/08/09 18:55
EHKD 091855Z AUTO 16005KT 9999NDV NCD 18/13 Q1014 BLU BLU NOSIG

2010/08/09 19:00
LWOH 091900Z 01003KT 9999 FEW050 21/15 Q1016

2010/08/09 19:00
TFFR 091900Z 07004KT 040V100 9999 VCTS FEW015CB SCT026 28/25 Q1013 TEMPO 4000 SHRA

2010/08/09 18:56
KCHS 091856Z COR 09007KT 10SM FEW010 BKN032CB OVC060 30/25 A2998 RMK AO2 RAB35E55 SLP153 CB NW MOV N P0014 T03000250 

2010/08/09 18:57
KNJM 091857Z AUTO 16006KT 10SM SCT015 29/25 A3003 RMK AO2 SLP172 T02890250 

2010/08/09 18:50
VECC 091850Z 20005KT 2800 HZ FEW020 30/26 Q1001 NOSIG

2010/08/09 18:50
VGZR 091850Z 00000 KT 3500 HZ FEW015 SCT100 32/27 Q1001 NOSIG

2010/08/09 18:57
KNXF 091857Z AUTO 26009KT 8SM FEW090 21/13 A2994 RMK AO2 SLP223 T02110133 TSNO 

2010/08/09 18:53
KHEY 091853Z AUTO VRB04KT 10SM CLR 36/21 A2997 RMK AO2 SLP033 T03560211 $ 

2010/08/09 18:56
KLWS 091856Z 28004KT 10SM FEW100 27/09 A2982 RMK AO2 SLP087 T02670089 

2010/08/09 19:00
FLLS 091900Z 14003KT CAVOK 16/09 Q1023

2010/08/09 18:58
CWOB 091858Z AUTO ///// 1/8SM CLR 04/ A2971

2010/08/09 18:55
KFTK 091855Z VRB04KT 10SM BKN060 35/23 A2997 RMK AO2A SLP140 T03480226

2010/08/09 18:55
KHIF 091855Z 18014G24KT 10SM -SHRA BKN075 BKN180 BKN210 25/06 A3005 RMK AO2A CIG 130 RWY32 SLP069 MIDFLD WND 150/05KT T02500056

2010/08/09 18:55
KLFI 091855Z 09010KT 10SM FEW035 FEW250 30/19 A3003 RMK AO2A SLP169 T03040190

2010/08/09 18:55
KMMT 091855Z 09007KT 10SM FEW040 FEW250 33/22 A3001 RMK SLP161

2010/08/09 18:54
KNFG 091854Z COR 24009KT FEW017 22/13 A2992 RMK AO2 SLP132 T02220133

2010/08/09 18:56
KNGP 091856Z 15009KT 10SM FEW025 SCT040TCU SCT250 32/26 A2992 RMK AO2 SLP132 TCU DSNT SE T03170261 VISNO

2010/08/09 18:56
KNJK 091856Z VRB03KT 10SM CLR 36/06 A2979 RMK AO2 SLP101 T03560056

2010/08/09 18:54
KNKT 091854Z 14005KT 10SM FEW015 SCT080 29/23 A3003 RMK AO2 SLP164 T02940233

2010/08/09 18:55
KNKX 091855Z 26007KT 10SM FEW018 23/13 A2993 RMK AO2 SLP130 T02330128

2010/08/09 18:56
KNSE 091856Z 11006KT 9SM SCT040TCU SCT150 35/24 A2996 RMK AO2 SLP130 TCU W T03500239 $

2010/08/09 18:56
KNTD 091856Z 22008KT 5SM HZ BKN012 17/13 A2995 RMK SLP142 LAG PK 16/13/10010 T01720133

2010/08/09 18:55
KNUC 091855Z 23005KT 10SM SCT016 21/13 A2997 RMK SLP144 T02100125

2010/08/09 18:55
KPOE 091855Z AUTO 17003KT 10SM CLR 34/22 A2996 RMK AO2 SLP144 T03440217

2010/08/09 18:55
KRCA 091855Z 19018G23KT 10SM FEW150 BKN200 33/16 A2992 RMK AO2A SLP102 T03290155

2010/08/09 18:55
KVBG 091855Z 32008KT 10SM FEW007 SCT012 17/13 A2996 RMK AO2 SLP137 T01720128 VISNO RWY12 $

2010/08/09 18:56
PASY 091856Z 32004KT 1 1/4SM BR BKN001 BKN010 OVC022 09/09 A2984 RMK AO2 SLP106 T00940089 PNO $

2010/08/09 18:50
TJBQ 091850Z 07005KT 10SM SCT020 BKN040 27/ A2994

2010/08/09 19:00
UBBN 091900Z 13010KT 9999 SCT050CB BKN100 29/09 Q1010 R14R/CLRD60 NOSIG RMK G/O QFE683

2010/08/09 19:00
SBGL 091900Z 24014KT 9999 SCT020 BKN050 23/17 Q1020

2010/08/09 19:00
SBFL 091900Z 14014KT 9999 SCT030 18/09 Q1022

2010/08/09 19:00
SBCG 091900Z 31006KT CAVOK 31/04 Q1016

2010/08/09 18:56
KSMP 091856Z AUTO 25005KT 1/4SM FG VV002 10/09 A2999 RMK AO2 SLP165 T01000094 TSNO $ 

2010/08/09 18:53
MMEP 091853Z 00000KT 12SM SCT030 BKN250 29/16 A3005 RMK 8/108

2010/08/09 18:47
MMGL 091847Z 06005KT 7SM BKN020TCU 26/18 A3009 RMK 8/200

2010/08/09 18:45
MMPN 091845Z 18008KT 15SM SCT025TCU BKN100 BKN290 24/18 A3009 RMK 8/231 HZY

2010/08/09 18:46
MMSP 091846Z 06006KT 12SM SCT020 26/14 A3020 RMK 8/100

2010/08/09 18:46
MMZO 091846Z 12010KT 15SM FEW025 BKN250 30/25 A2980 RMK 8/104 HZY

2010/08/09 19:00
MYNN 091900Z 13009KT 9999 SCT012TCU BKN038 BKN080 30/23 A2996

2010/08/09 18:55
PACZ 091855Z 17007KT 4SM BR -DZ OVC012 09/08 A2920 RMK SLPNO WR// BWC LOW

2010/08/09 18:55
PAED 091855Z AUTO 34006KT 10SM OVC070 14/11 A2962 RMK AO2 SLP032 P0001 T01390110

2010/08/09 18:55
PAEH 091855Z AUTO 16018G33KT 1 1/2SM OVC004 09/07 RMK AO1 938 T00890073

2010/08/09 18:57
PAFB 091857Z 08004KT 13SM SCT075 BKN100 BKN120 14/11 A2959 RMK SLP018

2010/08/09 18:55
PAIM 091855Z AUTO 05006KT 10SM BKN018 BKN025 OVC030 13/10 A2952 RMK AO1 T01280101

2010/08/09 18:55
PALU 091855Z AUTO 06017KT 5SM 08/08 A2960 RMK AO1 T00780078

2010/08/09 18:55
PASV 091855Z AUTO 19014KT 10SM SCT017 BKN027 OVC041 10/09 A2954 RMK AO1 T01000089

2010/08/09 18:56
PASY 091856Z 32004KT 1 1/4SM BR BKN001 BKN010 OVC022 09/09 A2984 RMK AO2 SLP106 T00940089 PNO $

2010/08/09 18:55
PATL 091855Z AUTO 11004KT 10SM OVC010 11/11 A2951 RMK AO1 T01110106

2010/08/09 18:53
PTKK 091853Z VRB04KT 15SM FEW014 BKN120 OVC280 26/24 A2984 RMK SLP106 T02580243

2010/08/09 18:55
RJTY 091855Z AUTO 28003KT 9999 BKN050 OVC060 24/23 A3004 RMK AO2 SLP166 T02440228

2010/08/09 18:53
KLOR 091853Z AUTO 05006KT 10SM FEW055 35/21 A2996 RMK AO2 SLP142 T03500206 TSNO PNO $ 

2010/08/09 18:53
KUIL 091853Z AUTO 17004KT 10SM OVC011 15/12 A2999 RMK AO2 SLP156 T01500117 TSNO $ 

2010/08/09 18:50
KHMS 091850Z 15007KT 15SM FEW250 27/09 A2979 RMK SLP084 T02670092 RSNK 18/22015 

2010/08/09 18:59
CYKF 091859Z AUTO 21008KT 6SM -RA BKN023 24/20 A2996 RMK SLP140 DENSITY ALT 2200FT LTNG DIST SW

2010/08/09 18:50
KQEI 091850Z AUTO 00000KT 6SM BR OVC006 23/21 A2997 RMK A02

2010/08/09 18:50
KQEJ 091850Z AUTO 00000KT 5SM BR BKN002 23/21 A2996 RMK A02

2010/08/09 18:50
KQEQ 091850Z AUTO 01005KT 1SM BR CLR 24/22 A2979 RMK A02

2010/08/09 18:50
KQER 091850Z AUTO 00000KT 3SM BR SCT055 23/21 A2990 RMK A02

2010/08/09 18:50
KQEW 091850Z AUTO 15001KT 7SM FEW024 BKN047 BKN065 BKN095 26/23 A2984 RMK A02

2010/08/09 18:50
KQEX 091850Z AUTO 20003KT 1SM +SHRA OVC025 26/23 A2977 RMK A02

2010/08/09 18:50
KQFB 091850Z AUTO 33001KT 7SM SCT005 BKN015 BKN023 26/24 A2995 RMK A02

2010/08/09 18:50
KQFU 091850Z AUTO 00000KT 3SM BR FEW002 SCT060 24/22 A2989 RMK A02

2010/08/09 18:55
KQAE 091855Z 31002KT 8000 DU HZ CLR 36/09 A2956 RMK SLP006

2010/08/09 18:55
KQBS 091855Z 16007KT 9000 FU OVC200 37/20 A2944 RMK SLP976 WND/ALSTG/SLP/QNH ESTMD QNH997

2010/08/09 18:55
KQDM 091855Z AUTO 26005KT 12SM BKN100 BKN130 OVC150 18/14 A3014 RMK AO2 SLP079 T01760141 PWINO $

2010/08/09 18:55
KQHA 091855Z 28006KT 9999 SCT050 BKN190 34/24 A2988 RMK AO2A SLP116 T03390237

2010/08/09 18:55
KQIR 091855Z 08003KT 9000 HZ FEW150 33/29 A2949 RMK AO2A SLP983 T03340286

2010/08/09 18:55
KQIU 091855Z AUTO 00000KT 7000 FEW007 SCT018 BKN100 18/16 A3011 RMK AO2 SLP102

2010/08/09 18:55
KQSL 091855Z 32007KT 9999 CLR 37/02 A2959 RMK SLP007 Q1002MB

2010/08/09 18:55
KQTX 091855Z 35004KT 9999 CLR 37/M01 A2961 RMK SLP996

2010/08/09 18:54
KAPN 091854Z VRB04KT 10SM FEW020 26/19 A2988 RMK AO2 SLP117 T02610194 

2010/08/09 18:56
K8D3 091856Z AUTO 16006KT 30/20 A2991 RMK AO2 SLP108 T03000200 PWINO TSNO

2010/08/09 18:56
KNFE 091856Z AUTO 13005KT 3SM HZ CLR 31/21 A3003 RMK AO2 SLP171 T03110206 $

2010/08/09 18:56
KFSD 091856Z 09006KT 10SM SCT025 29/23 A2991 RMK AO2 SLP119 BKN ABV 120 T02890233

2010/08/09 18:56
KP28 091856Z AUTO 18008G18KT 38/18 A2988 RMK AO2 SLP094 T03780178 PWINO TSNO

2010/08/09 18:56
KINS 091856Z 08008KT 10SM CLR 30/04 A2996 RMK AO2 SLP097 T03000044 $

2010/08/09 18:56
K9L2 091856Z AUTO VRB03KT 10SM CLR 29/00 A2993 RMK AO2 SLP113 T02890000 $

2010/08/09 18:56
KGNA 091856Z AUTO 26005KT 19/17 A2988 RMK AO2 SLP113 T01890167 PWINO TSNO

2010/08/09 18:56
KNTU 091856Z 11008KT 10SM FEW035 SCT200 29/22 A3003 RMK AO2 SLP171 T02890222 $

2010/08/09 18:56
K2WX 091856Z AUTO 15020G24KT 33/15 A2981 RMK AO1 SLP065 T03330150

2010/08/09 18:56
KCDJ 091856Z AUTO 20008G16KT 34/26 A2987 RMK AO2 SLP096 T03440256 PWINO TSNO

2010/08/09 18:56
KFLG 091856Z 22011G17KT 10SM FEW065 SCT100 22/09 A3030 RMK AO2 SLP167 T02170089

2010/08/09 18:54
KAKQ 091854Z AUTO VRB03KT 10SM FEW060 33/18 A3001 RMK AO2 SLP159 T03330183 TSNO

2010/08/09 18:56
KNXP 091856Z 13012G17KT CLR 33/M01 A2997 RMK AO2 SLP109 T03331006 $

2010/08/09 18:56
KGFA 091856Z AUTO 00000KT 10SM CLR 26/08 A2987 RMK AO2 SLP113 T02560078

2010/08/09 18:56
KALK 091856Z AUTO 09007KT 10SM CLR 27/16 A3014 RMK AO2 SLP112 T02720156 $

2010/08/09 18:56
KMHS 091856Z AUTO 14004KT 10SM CLR 25/06 A2996 RMK AO2 SLP128 T02500056 TSNO

2010/08/09 18:56
KSPD 091856Z AUTO 20005KT 32/16 A3003 RMK AO2 SLP094 T03170156 PWINO TSNO

2010/08/09 18:56
KSXT 091856Z AUTO 34006KT 8SM -RA CLR 17/13 A3001 RMK AO2 RAE1759B38 SLP128 P0000 T01720133 TSNO

2010/08/09 18:56
KD07 091856Z AUTO 16019G23KT 31/18 A2991 RMK AO2 SLP110 T03110178 PWINO TSNO

2010/08/09 18:53
KGNT 091853Z AUTO 33008KT 26/08 A3024 RMK AO2 SLP149 T02560083 PWINO TSNO

2010/08/09 18:56
KFPK 091856Z AUTO 18005KT 10SM SCT060 OVC095 22/22 A2994 RMK AO2

2010/08/09 18:55
KCVX 091855Z AUTO 29008KT 7SM CLR 28/21 A2990 RMK AO2

2010/08/09 18:54
KMOP 091854Z AUTO 25008KT 7SM SCT024 BKN032 OVC060 25/23 A2992 RMK AO2

2010/08/09 18:54
KFKS 091854Z AUTO 21007KT 10SM BKN025 25/20 A2990 RMK AO2

2010/08/09 18:54
KCAD 091854Z AUTO 24009KT 10SM SCT031 BKN041 BKN055 28/21 A2992 RMK AO2

2010/08/09 18:54
KMGN 091854Z AUTO 00000KT 7SM SCT020 BKN055 29/21 A2987 RMK AO2

2010/08/09 18:55
KSLH 091855Z AUTO 07006KT 10SM BKN018 BKN028 25/22 A2988 RMK AO2

2010/08/09 18:55
KSJX 091855Z AUTO 28006KT 10SM BKN017 BKN024 26/21 A2990 RMK AO2

2010/08/09 18:55
KHAI 091855Z AUTO 14003KT 10SM -RA SCT090 BKN110 25/23 A2996 RMK AO2

2010/08/09 18:56
KLWA 091856Z AUTO 19007KT 10SM SCT110 27/22 A2994 RMK AO2

2010/08/09 18:57
KDRM 091857Z AUTO 14004KT 10SM BKN021 25/20 A2989 RMK AO2

2010/08/09 18:54
KVLL 091854Z AUTO 28005KT 10SM -RA SCT075 27/19 A2999 RMK AO2

2010/08/09 18:54
KGOV 091854Z AUTO 12004KT 5SM HZ BKN017 BKN022 OVC049 26/22 A2991 RMK AO2

2010/08/09 18:54
KPZQ 091854Z AUTO 00000KT 10SM CLR 25/20 A2990 RMK AO2

2010/08/09 18:55
KCFS 091855Z AUTO 21010KT 10SM -DZ OVC090 25/21 A2994 RMK AO2

2010/08/09 18:54
KHYX 091854Z AUTO 21009KT 7SM SCT036 SCT050 OVC065 23/21 A2995 RMK AO2

2010/08/09 18:55
KOZW 091855Z AUTO 21005KT 3SM RA SCT006 BKN026 OVC045 23/22 A2997 RMK AO2

2010/08/09 18:55
KRNP 091855Z AUTO 19005KT 10SM -RA BKN060 OVC070 23/21 A2994 RMK AO2

2010/08/09 18:54
KDUH 091854Z AUTO 23003KT 10SM CLR 30/20 A2998 RMK AO2

2010/08/09 18:55
KISQ 091855Z AUTO 15007KT 10SM CLR 26/22 A2989 RMK AO2

2010/08/09 18:55
KJYM 091855Z AUTO 03003KT 10SM -RA SCT070 24/21 A3000 RMK AO2

2010/08/09 19:05
KBAX 091905Z AUTO 23006KT 5SM BR SCT100 24/22 A2992 RMK AO2

2010/08/09 18:55
KIRS 091855Z AUTO 14004KT 10SM CLR 27/21 A2995 RMK AO2

2010/08/09 18:55
KAMN 091855Z AUTO 19010G15KT 10SM SCT018 BKN065 BKN075 28/22 A2991 RMK AO2

2010/08/09 18:55
KACB 091855Z AUTO 25004KT 7SM SCT030 31/22 A2986 RMK AO2

2010/08/09 18:54
KRQB 091854Z AUTO 23006KT 10SM SCT012 SCT017 BKN036 24/22 A2994 RMK AO2

2010/08/09 18:55
KERY 091855Z AUTO 18004KT 10SM CLR 27/22 A2989 RMK AO2

2010/08/09 18:55
KOEB 091855Z AUTO 11004KT 10SM -DZ CLR 24/22 A2997 RMK AO2

2010/08/09 18:56
K4I3 091856Z AUTO 19005KT 10SM CLR 30/18 A3003 RMK AO2

2010/08/09 18:55
KAUM 091855Z AUTO 00000KT 10SM BKN032 BKN045 29/23 A2993 RMK AO2

2010/08/09 18:55
KFFX 091855Z AUTO 27004KT 10SM SCT022 BKN028 OVC035 26/22 A2993 RMK AO2

2010/08/09 18:54
KCNB 091854Z AUTO 05006KT 10SM CLR 31/20 A2992 RMK AO2 T03080197

2010/08/09 18:55
KCKN 091855Z AUTO 24011KT 10SM CLR 33/19 A2987 RMK AO2

2010/08/09 19:03
KCFE 091903Z AUTO 04004KT 10SM CLR 32/21 A2993 RMK AO2 T03170209

2010/08/09 18:57
KCQM 091857Z AUTO 26006KT 10SM CLR 29/19 A2993 RMK AO2

2010/08/09 18:55
KDTL 091855Z AUTO 20007KT 10SM CLR 30/17 A2995 RMK AO2

2010/08/09 18:55
KBDH 091855Z AUTO 07006KT 10SM CLR 31/18 A2993 RMK AO2

2010/08/09 18:55
KCBG 091855Z AUTO 01004KT 10SM CLR 31/24 A2991 RMK AO2

2010/08/09 18:57
KADC 091857Z AUTO 26004KT 10SM CLR 29/18 A2994 RMK AO2

2010/08/09 18:55
KHAF 091855Z AUTO 21007KT 10SM OVC012 14/12 A2996 RMK AO2

2010/08/09 18:55
KCKC 091855Z AUTO 29005KT 10SM CLR 29/14 A2993 RMK AO2

2010/08/09 18:54
KJYG 091854Z AUTO 00000KT 10SM SCT030 30/27 A2992 RMK AO2

2010/08/09 18:56
KCOQ 091856Z AUTO 25004KT 10SM CLR 31/16 A2993 RMK AO2

2010/08/09 18:58
KACQ 091858Z AUTO 24005KT 10SM CLR 28/21 A2994 RMK AO2

2010/08/09 18:55
KRGK 091855Z AUTO 00000KT 10SM CLR 32/23 A2990 RMK AO2

2010/08/09 18:54
KFSE 091854Z AUTO 22009KT 10SM CLR 29/19 A2990 RMK AO2

2010/08/09 18:55
KY70 091855Z AUTO 21009KT 10SM BKN013 BKN046 OVC055 27/22 A2993 RMK AO2 T02710219

2010/08/09 18:50
KUKT 091850Z AUTO 22010G15KT 10SM SCT050 33/19 A3000 RMK AO1

2010/08/09 18:54
KCDA 091854Z AUTO 00000KT 10SM SCT038 BKN043 BKN050 26/17 A2996 RMK AO2

2010/08/09 18:55
KLDM 091855Z AUTO 23011G16KT 10SM SCT011 27/23 A2992 RMK AO2

2010/08/09 18:55
KPHN 091855Z AUTO 20003KT 10SM CLR 25/21 A2995 RMK AO2

2010/08/09 18:55
KRMY 091855Z AUTO 14006KT 10SM -RA SCT005 SCT055 SCT090 23/21 A2996 RMK AO2

2010/08/09 18:55
KOSC 091855Z AUTO 09004KT 10SM SCT012 24/21 A2990 RMK AO2

2010/08/09 18:53
KTTF 091853Z AUTO 28004KT 10SM CLR 29/22 A2995 RMK AO2

2010/08/09 18:55
KMCD 091855Z AUTO 07003KT 10SM CLR 23/19 A2991 RMK AO2

2010/08/09 18:56
KWMC 091856Z AUTO 26007G15KT 10SM CLR 28/04 A2997 RMK AO2 SLP095 T02830039

2010/08/09 18:56
KCHS 091856Z COR 09007KT 10SM FEW010 BKN032CB OVC060 30/25 A2998 RMK AO2 RAB35E55 SLP153 CB NW MOV N P0014 T03000250

2010/08/09 18:56
KLWS 091856Z 28004KT 10SM FEW100 27/09 A2982 RMK AO2 SLP087 T02670089

2010/08/09 18:50
KHMS 091850Z 15007KT 15SM FEW250 27/09 A2979 RMK SLP084 T02670092 RSNK 18/22015

2010/08/09 18:54
KSBN 091854Z 19006KT 6SM HZ FEW060 SCT080 27/22 A2997 RMK AO2 RAB04E13 SLP141 P0000 T02670217

2010/08/09 18:52
KMLF 091852Z AUTO 20018G24KT 10SM CLR 27/01 A3010 RMK AO2 SLP133 T02670011 TSNO

2010/08/09 18:56
KSMP 091856Z AUTO 25005KT 1/4SM FG VV002 10/09 A2999 RMK AO2 SLP165 T01000094 TSNO $

2010/08/09 18:53
KLOR 091853Z AUTO 05006KT 10SM FEW055 35/21 A2996 RMK AO2 SLP142 T03500206 TSNO PNO $

2010/08/09 18:53
KUIL 091853Z AUTO 17004KT 10SM OVC011 15/12 A2999 RMK AO2 SLP156 T01500117 TSNO $

2010/08/09 18:54
KAPN 091854Z VRB04KT 10SM FEW020 26/19 A2988 RMK AO2 SLP117 T02610194

2010/08/09 18:57
PAKW 091857Z AUTO 27003KT 10SM -RA FEW009 OVC014 14/12 A3000 RMK AO2 P0000 TSNO

2010/08/09 18:56
K14Y 091856Z AUTO 00000KT 10SM CLR 31/18 A2995 RMK AO2 T03060178

2010/08/09 18:55
K1A6 091855Z AUTO 17005KT 10SM CLR 34/26 A3003 RMK AO2

2010/08/09 18:55
K46D 091855Z AUTO 20015G19KT 10SM CLR 34/18 A2989 RMK AO2

2010/08/09 18:55
KAIG 091855Z AUTO 30005KT 10SM CLR 31/20 A2991 RMK AO2

2010/08/09 18:51
KARV 091851Z AUTO 33007KT 10SM SCT046 SCT055 29/19 A2995 RMK AO2 T02930186

2010/08/09 18:55
KBBF 091855Z AUTO 16006KT 10SM CLR 31/27 A2993 RMK A01

2010/08/09 18:55
KBQX 091855Z AUTO 11004KT 10SM FEW025 SCT034 BKN048 32/26 A2995 RMK A01

2010/08/09 18:55
KBUU 091855Z AUTO 30007KT 10SM BKN028 28/22 A2992 RMK AO2 T02760221

2010/08/09 18:50
KBWP 091850Z AUTO 20005KT 10SM CLR 32/17 A2991 RMK AO1 T03160172

2010/08/09 18:55
KCLI 091855Z AUTO 26003KT 10SM SCT034 31/22 A2989 RMK AO2

2010/08/09 18:55
KCMB 091855Z AUTO 00000KT 10SM CLR 32/25 A2998 RMK A01

2010/08/09 18:55
KCRH 091855Z AUTO 00000KT 10SM FEW028 31/24 A2999 RMK A01

2010/08/09 18:55
KDLL 091855Z AUTO 32004KT 10SM CLR 29/22 A2992 RMK AO2 T02860220

2010/08/09 19:00
KEDU 091900Z AUTO 00000KT 10SM CLR 23/14 A2988 RMK AO1

2010/08/09 18:55
KEFT 091855Z AUTO 00000KT 10SM CLR 29/22 A2993 RMK AO2 T02850216

2010/08/09 18:51
KEGV 091851Z AUTO 32006KT 10SM SCT041 BKN050 BKN060 30/19 A2993 RMK AO2 T02970188

2010/08/09 18:55
KEHC 091855Z AUTO 00000KT 10SM FEW030 32/24 A2999 RMK A01

2010/08/09 18:55
KEIR 091855Z AUTO 01009KT 10SM CLR 30/25 A2998 RMK A01

2010/08/09 18:55
KEMK 091855Z AUTO 15005KT 10SM CLR 31/25 A2997 RMK A01

2010/08/09 18:54
KEZS 091854Z AUTO 17003KT 10SM SCT031 BKN037 BKN043 31/23 A2988 RMK AO2 T03070231

2010/08/09 18:55
KFTG 091855Z 14011G18KT 40SM SCT060 BKN120 28/12 A3012

2010/08/09 18:55
KGBK 091855Z AUTO VRB03KT 10SM CLR 33/25 A2999 RMK A01

2010/08/09 18:55
KGUL 091855Z AUTO 10SM CLR 32/24 A2997 RMK A01

2010/08/09 18:55
KHFJ 091855Z AUTO 21004KT 10SM CLR 36/24 A2993 RMK AO1

2010/08/09 18:50
KHQI 091850Z AUTO 11004KT 10SM 31/26 A2997 RMK A01

2010/08/09 18:55
KIPN 091855Z AUTO VRB06KT 340V040 10SM CLR 28/25 A2998 RMK A01

2010/08/09 18:55
KLCK 091855Z AUTO 21004KT 10SM CLR 32/18 A3001 RMK AO2 T03160184

2010/08/09 18:55
KMDJ 091855Z AUTO 12005KT 1 3/4SM BR SCT003 SCT027 BKN034 26/24 A3001 RMK A01

2010/08/09 18:55
KMHR 091855Z AUTO 24004KT 10SM CLR 23/12 A2988 RMK AO1

2010/08/09 18:55
KMIU 091855Z AUTO 15008KT 10SM SCT022 SCT027 SCT032 31/26 A2994 RMK A01

2010/08/09 18:55
KMWO 091855Z AUTO 00000KT 10SM SCT065 35/20 A2999 RMK AO2

2010/08/09 18:55
KMZG 091855Z AUTO 00000KT 10SM FEW025 33/26 A2994 RMK A01

2010/08/09 18:52
KPVB 091852Z AUTO 30005KT 10SM SCT019 29/23 A2994 RMK AO1 T02860227

2010/08/09 18:53
KRZN 091853Z AUTO 00000KT 10SM CLR 30/20 A2993 RMK AO2 T02970204

2010/08/09 18:55
KSCF 091855Z AUTO 05005KT 10SM CLR 31/26 A2993 RMK A01

2010/08/09 18:55
KSPR 091855Z AUTO VRB05KT 10SM 30/26 A2997 RMK A01

2010/08/09 18:55
KVAF 091855Z AUTO 15007KT 10SM BKN021 BKN031 BKN036 30/26 A2992 RMK A01

2010/08/09 18:55
KVBS 091855Z AUTO 00000KT 10SM 33/24 A2996 RMK A01

2010/08/09 18:53
KVES 091853Z AUTO 28004KT 10SM CLR 32/20 A3000 RMK AO2 T03160204

2010/08/09 18:55
KY63 091855Z AUTO 00000KT 7SM CLR 31/19 A2992 RMK AO2 T03070186

2010/08/09 18:57
PAGH 091857Z AUTO 11015G22KT 10SM FEW045 OVC060 14/11 A2951 RMK AO2 RAE11 SLP019 P0000 T01440111

2010/08/09 18:57
PAIW 091857Z AUTO 07010KT 10SM OVC060 14/12 A2936 RMK AO2 SLPNO T01390122

2010/08/09 18:56
PAMB 091856Z AUTO 20017G22KT 2 1/2SM BR BKN008 OVC012 11/11 A2948 RMK AO2 PWINO TSNO T01050105 CIG 005V009 SLP985 $

2010/08/09 18:56
PAOH 091856Z AUTO 06004KT 10SM BKN038 OVC044 14/12 A2998 RMK AO2 TSNO T01440116 SLP155 $

2010/08/09 18:57
PAVA 091857Z AUTO 13014KT 10SM -RA BKN009 OVC012 11/09 A2925 RMK AO2 RAB55 CIG 006V010 SLP908 P0000 T01060094

2010/08/09 18:56
PPIZ 091856Z AUTO 07023G30KT 10SM BKN013 03/01 A2969 RMK AO2 TSNO T00330005 PK WND 07031/1812 SLP057 $

2010/08/09 18:55
KBIX 091855Z 09007KT 060V150 10SM SCT030 36/24 A2993 RMK AO2A SLP136 WND DATA ESTMD ALSTG/SLP ESTMD

2010/08/09 18:53
KCMI 091853Z COR 19008KT 10SM SCT030 33/25 A2994 RMK AO2 SLP132 T03330250

2010/08/09 18:53
KDFW 091853Z COR 14008KT 10SM SCT075 35/21 A2992 RMK AO2 SLP119 T03500206

2010/08/09 18:52
KETB 091852Z AUTO 26007KT 10SM SCT027 BKN033 OVC045 28/20 A2992 RMK AO2 T02750203

2010/08/09 18:55
KFBG 091855Z 08003KT 7SM FEW030 SCT050 SCT150 35/20 A3001 RMK AO2A SLP160 WND DATA ESTMD ALSTG/SLP ESTMD

2010/08/09 18:52
KGLW 091852Z AUTO 21005KT 10SM BKN045 BKN050 35/22 A2998 RMK AO2 T03500220

2010/08/09 18:55
KLNL 091855Z AUTO 31004KT 10SM SCT042 SCT050 29/17 A2995 RMK AO2 T02860167

2010/08/09 18:55
KLUF 091855Z 29005KT 10SM FEW120 36/05 A2987 RMK AO2A SLP083 T03630052 $

2010/08/09 18:55
KLUM 091855Z AUTO 00000KT 10SM CLR 30/22 A2992 RMK AO2

2010/08/09 18:55
KMCF 091855Z AUTO 19003KT 10SM SCT028 SCT036 BKN090 30/26 A2989 RMK AO2 CIG 028 RWY22 SLP123 T02990257

2010/08/09 18:55
KMDZ 091855Z AUTO 31003KT 10SM SCT042 31/22 A2993 RMK AO2

2010/08/09 18:58
KMEI 091858Z 11006KT 10SM FEW041 34/23 A2997 RMK AO2 SLP143 T03390228

2010/08/09 18:55
KMRJ 091855Z AUTO 28005KT 10SM SCT021 29/22 A2994 RMK AO2 T02930222

2010/08/09 18:55
KMXF 091855Z VRB05KT 10SM SCT060 37/22 A2996 RMK AO2A SLP143 T03670218

2010/08/09 18:55
KOEO 091855Z AUTO 34004KT 10SM CLR 31/21 A2994 RMK AO2

2010/08/09 18:55
KPAM 091855Z AUTO VRB06KT 10SM FEW055 34/23 A2994 RMK AO2 SLP140 T03410232 $

2010/08/09 18:55
KPBH 091855Z AUTO 00000KT 10SM CLR 31/20 A2995 RMK AO2

2010/08/09 18:55
KPCZ 091855Z AUTO 28006KT 10SM CLR 31/22 A2990 RMK AO2 T03140223

2010/08/09 18:51
KPDC 091851Z AUTO 32004KT 10SM SCT029 BKN035 32/24 A2990 RMK AO2 T03160243

2010/08/09 18:55
KPSM 091855Z 24009KT 10SM SCT060 SCT130 33/17 A2989 RMK AO2A SLP122 T03330172

2010/08/09 18:55
KRCX 091855Z AUTO 30007KT 260V320 10SM SCT043 31/21 A2994 RMK AO2 T03050209

2010/08/09 18:56
KRNH 091856Z AUTO 00000KT 10SM CLR 31/22 A2993 RMK AO2 T03050215

2010/08/09 18:55
KRRL 091855Z AUTO 31005KT 10SM CLR 31/20 A2993 RMK AO2 T03100203

2010/08/09 18:55
KTTS 091855Z 10006KT 10SM SCT022 SCT090 31/25 A2992 RMK CB DSNT SW MDT CU ALQDS SLP132 3CU /3/ 1AC /4/

2010/08/09 18:55
KVAD 091855Z AUTO 07010G15KT 10SM CLR 34/23 A2995 RMK AO2 SLP141 T03360225 $

2010/08/09 18:56
KY50 091856Z AUTO VRB04KT 8SM FEW022 29/23 A2992 RMK AO2 T02940233 SLP121

2010/08/09 18:55
KTOB 091855Z AUTO 26003KT 10SM SCT026 SCT032 29/24 A2994 RMK AO2

2010/08/09 18:50
KVCV 091850Z 12005KT 10SM SKC 31/M03 A2996

2010/08/09 18:56
KVVV 091856Z AUTO 00000KT 10SM CLR 30/19 A2992 RMK AO2

2010/08/09 18:49
KVWU 091849Z AUTO 27006KT 10SM CLR 30/22 A2990 RMK AO2

2010/08/09 18:56
KW29 091856Z AUTO 16008KT 129V199 10SM CLR 32/19 A3000 RMK AO1

2010/08/09 18:56
KXVG 091856Z AUTO 21005KT 10SM CLR 30/20 A2992 RMK AO2

2010/08/09 18:56
PAGN 091856Z AUTO 00000KT FEW018 BKN022 OVC030 RMK AO2 PWINO TSNO SLPNO $

2010/08/09 18:56
PATQ 091856Z AUTO 08018G24KT 10SM OVC009 02/00 A2979 RMK AO2 TSNO T00160000 PK WND 07026/1841 SLP094 $

2010/08/09 18:56
PAFS 091856Z AUTO 02006KT 10SM OVC055 12/10 A2952 RMK AO2 TSNO T01220100 SLP003 $

2010/08/09 18:56
PAGN 091856Z AUTO 00000KT FEW018 BKN022 OVC030 RMK AO2 PWINO TSNO SLPNO $

2010/08/09 18:56
PAHC 091856Z AUTO 06003KT 10SM FEW007 BKN014 OVC040 12/11 A2940 RMK AO2 TSNO T01220111 BKN V SCT RAE1758B38E53 P0000 SLP960 $

2010/08/09 18:56
PAIG 091856Z AUTO 00000KT 10SM FEW027 OVC043 11/09 A2957 RMK AO2 PWINO TSNO T01110094 SLP018 $

2010/08/09 18:56
PAMO 091856Z AUTO 13019KT 10SM -RA OVC005 10/10 A2930 RMK AO2 TSNO T01000100 CIG 003V009 P0000 SLP921 $

2010/08/09 18:56
PAOO 091856Z AUTO 14017KT 2 1/2SM -RA BR BKN009 OVC014 09/09 A2920 RMK AO2 TSNO T00940094 CIG 006V011 P0000 SLP889 $

2010/08/09 18:56
PAPM 091856Z AUTO 18022KT 1 1/2SM BR BKN009 BKN014 OVC070 09/09 A2939 RMK AO2 TSNO T00940088 CIG 004V010 RAB46E56 P0000 PK WND 18027/1758 SLP953 $

2010/08/09 18:56
PARS 091856Z AUTO 11005KT 10SM OVC034 12/11 A2937 RMK AO2 TSNO T01160105 RAB00E42 P0000 SLP951 $

2010/08/09 18:56
PARY 091856Z AUTO 08008KT 8SM SCT006 BKN012 OVC050 12/11 A2951 RMK AO2 PWINO TSNO T01220105 SLP996

2010/08/09 18:56
PATQ 091856Z AUTO 08018G24KT 10SM OVC009 02/00 A2979 RMK AO2 TSNO T00160000 PK WND 07026/1841 SLP094 $

2010/08/09 18:56
KSGH 091856Z 00000KT 5SM HZ CLR 32/22 A3002 RMK AO2 T03160222 RAB22E31 P0000 SLP157 $

2010/08/09 18:56
KWJF 091856Z 00000KT 10SM CLR 30/01 A2994 RMK AO2 SLP118 T03000006

2010/08/09 18:53
PHJR 091853Z 08008G15KT 10SM OVC050 27/17 A3010 RMK AO2 SLP200 T02720172

2010/08/09 18:54
PHMK 091854Z 08014G20KT 10SM CLR 29/14 A3009 RMK AO2 PK WND 08028/1843 SLP191 T02890139

2010/08/09 18:56
KSGH 091856Z 00000KT 5SM HZ CLR 32/22 A3002 RMK AO2 T03160222 RAB22E31 P0000 SLP157 $

2010/08/09 18:55
KTTS 091855Z 10006KT 10SM SCT022 SCT090 31/25 A2992 RMK CB DSNT SW MDT CU ALQDS SLP132 3CU /3/ 1AC /4/

2010/08/09 18:56
K14Y 091856Z AUTO 00000KT 10SM CLR 31/18 A2995 RMK AO2 T03060178

2010/08/09 18:55
K1A6 091855Z AUTO 17005KT 10SM CLR 34/26 A3003 RMK AO2

2010/08/09 18:55
K46D 091855Z AUTO 20015G19KT 10SM CLR 34/18 A2989 RMK AO2

2010/08/09 18:55
KAIG 091855Z AUTO 30005KT 10SM CLR 31/20 A2991 RMK AO2

2010/08/09 18:51
KARV 091851Z AUTO 33007KT 10SM SCT046 SCT055 29/19 A2995 RMK AO2 T02930186

2010/08/09 18:55
KBBF 091855Z AUTO 16006KT 10SM CLR 31/27 A2993 RMK A01

2010/08/09 18:55
KBQX 091855Z AUTO 11004KT 10SM FEW025 SCT034 BKN048 32/26 A2995 RMK A01

2010/08/09 18:55
KBUU 091855Z AUTO 30007KT 10SM BKN028 28/22 A2992 RMK AO2 T02760221

2010/08/09 18:50
KBWP 091850Z AUTO 20005KT 10SM CLR 32/17 A2991 RMK AO1 T03160172

2010/08/09 18:55
KCMB 091855Z AUTO 00000KT 10SM CLR 32/25 A2998 RMK A01

2010/08/09 18:55
KCRH 091855Z AUTO 00000KT 10SM FEW028 31/24 A2999 RMK A01

2010/08/09 18:55
KDLL 091855Z AUTO 32004KT 10SM CLR 29/22 A2992 RMK AO2 T02860220

2010/08/09 18:55
KEFT 091855Z AUTO 00000KT 10SM CLR 29/22 A2993 RMK AO2 T02850216

2010/08/09 18:51
KEGV 091851Z AUTO 32006KT 10SM SCT041 BKN050 BKN060 30/19 A2993 RMK AO2 T02970188

2010/08/09 18:55
KEHC 091855Z AUTO 00000KT 10SM FEW030 32/24 A2999 RMK A01

2010/08/09 18:55
KEIR 091855Z AUTO 01009KT 10SM CLR 30/25 A2998 RMK A01

2010/08/09 18:55
KEMK 091855Z AUTO 15005KT 10SM CLR 31/25 A2997 RMK A01

2010/08/09 18:54
KEZS 091854Z AUTO 17003KT 10SM SCT031 BKN037 BKN043 31/23 A2988 RMK AO2 T03070231

2010/08/09 18:55
KFTG 091855Z 14011G18KT 40SM SCT060 BKN120 28/12 A3012

2010/08/09 18:55
KGUL 091855Z AUTO 10SM CLR 32/24 A2997 RMK A01

2010/08/09 18:55
KHFJ 091855Z AUTO 21004KT 10SM CLR 36/24 A2993 RMK AO1

2010/08/09 18:56
KNFE 091856Z AUTO 13005KT 3SM HZ CLR 31/21 A3003 RMK AO2 SLP171 T03110206 $

2010/08/09 18:56
KGFA 091856Z AUTO 00000KT 10SM CLR 26/08 A2987 RMK AO2 SLP113 T02560078

2010/08/09 18:55
KFMH 091855Z AUTO 23014G19KT 10SM CLR 28/21 A2998 RMK AO2

2010/08/09 18:47
KIWA 091847Z VRB04KT 45SM SCT120 38/12 A2990

2010/08/09 18:55
K2G4 091855Z AUTO 20006KT 10SM CLR 28/11 A3013 RMK AO1

2010/08/09 18:55
K2W6 091855Z AUTO 00000KT 10SM CLR 31/18 A3002 RMK AO1

2010/08/09 18:50
KAEL 091850Z AUTO 00000KT 10SM SCT029 SCT043 29/22 A2992 RMK AO2

2010/08/09 18:56
KAJO 091856Z AUTO 28007KT 10SM CLR 26/14 A2991 RMK AO2 T02550138 SLP123 $

2010/08/09 18:53
KAQP 091853Z AUTO 07003KT 10SM CLR 30/22 A2991 RMK AO2

2010/08/09 18:53
KBFW 091853Z AUTO 18008KT 10SM CLR 31/21 A2988 RMK AO2

2010/08/09 18:52
KCDD 091852Z AUTO 00000KT 10SM CLR 30/24 A2993 RMK AO2

2010/08/09 18:55
KCGS 091855Z AUTO 18006KT 10SM SCT055 SCT065 35/18 A2999 RMK AO1

2010/08/09 18:55
KCMR 091855Z AUTO 21010G17KT 10SM CLR 23/06 A3028 RMK AO1

2010/08/09 18:50
KCVH 091850Z AUTO 27008KT 10SM CLR 19/12 A2994 RMK AO1

2010/08/09 18:56
KDIJ 091856Z AUTO 23011KT 10SM FEW009 SCT095 23/07 A3011 RMK AO2 T02330066 SLP112 $

2010/08/09 18:56
KFDK 091856Z AUTO 21006KT 10SM SCT075 36/18 A3000 RMK AO2 LTG DSNT SW

2010/08/09 18:56
KDVP 091856Z AUTO 06008KT 10SM SCT028 30/20 A2995 RMK AO2 T02970204

2010/08/09 18:54
KDXX 091854Z AUTO 00000KT 10SM CLR 31/21 A2991 RMK AO2

2010/08/09 18:54
KDYT 091854Z AUTO 06003KT 1 1/2SM BR OVC001 22/21 A2991 RMK AO2 VIS 1/2V3

2010/08/09 18:56
KEFK 091856Z AUTO 26004KT 10SM SCT037 BKN043 OVC060 24/17 A2993 RMK AO2

2010/08/09 18:56
KEKQ 091856Z AUTO 00000KT 10SM FEW038 34/24 A3002 RMK AO2 T03380238 SLP159

2010/08/09 18:53
KELO 091853Z AUTO 29006KT 10SM SCT090 28/18 A2992 RMK AO2

2010/08/09 18:54
KETH 091854Z AUTO 00000KT 10SM CLR 31/18 A2995 RMK AO2

2010/08/09 18:52
KEVM 091852Z AUTO 28005KT 10SM CLR 30/20 A2991 RMK AO1

2010/08/09 18:54
KFBL 091854Z AUTO 22004KT 10SM SCT032 31/23 A2993 RMK AO2

2010/08/09 19:01
KFKA 091901Z AUTO 29005KT 10SM CLR 30/24 A2995 RMK AO2 T03000238

2010/08/09 18:53
KFOZ 091853Z AUTO 22003KT 10SM CLR 31/20 A2993 RMK AO2

2010/08/09 18:59
KFSO 091859Z AUTO 00000KT 10SM OVC095 26/20 A2990 RMK AO2

2010/08/09 18:55
KGGE 091855Z AUTO 10008KT 10SM SCT022 SCT048 31/25 A3001 RMK AO2 LTG DSNT S

2010/08/09 18:54
KGYL 091854Z AUTO 06003KT 10SM CLR 31/22 A2992 RMK AO2 T03100216

2010/08/09 18:52
KHCD 091852Z AUTO 00000KT 10SM CLR 31/20 A2992 RMK AO2 T03050201

2010/08/09 18:54
KHCO 091854Z AUTO 17006KT 10SM CLR 33/19 A2986 RMK AO2

2010/08/09 18:51
KHZX 091851Z AUTO 24003KT 10SM CLR 31/20 A2994 RMK AO2

2010/08/09 18:55
KJKJ 091855Z AUTO 20006KT 10SM CLR 32/23 A2989 RMK AO2

2010/08/09 18:55
KJMR 091855Z AUTO 00000KT 10SM CLR 30/21 A2994 RMK AO2

2010/08/09 18:53
KLJF 091853Z AUTO 05005KT 10SM CLR 31/21 A2992 RMK AO2

2010/08/09 18:54
KLVN 091854Z AUTO 09004KT 10SM CLR 31/21 A2992 RMK AO2

2010/08/09 18:54
KLXL 091854Z AUTO 00000KT 10SM CLR 31/16 A2992 RMK AO2

2010/08/09 18:56
KM89 091856Z AUTO 21005KT 10SM CLR 38/26 A2993 RMK AO2 T03770255 SLP146 $

2010/08/09 18:52
KMJQ 091852Z AUTO 09004KT 10SM BKN018 27/23 A2994 RMK AO2

2010/08/09 18:54
KMVE 091854Z AUTO 11005KT 10SM CLR 31/23 A2990 RMK AO2

2010/08/09 18:50
KMZH 091850Z AUTO 31005KT 10SM CLR 30/20 A2991 RMK AO2

2010/08/09 18:51
KONA 091851Z AUTO 33003KT 10SM CLR 31/23 A2990 RMK AO2

2010/08/09 18:54
KONZ 091854Z AUTO 28007KT 10SM CLR 29/22 A2996 RMK AO2

2010/08/09 18:54
KORB 091854Z AUTO 00000KT 10SM CLR 29/19 A2990 RMK AO2

2010/08/09 18:54
KOVL 091854Z AUTO 05003KT 10SM CLR 31/20 A2991 RMK AO2 T03060202

2010/08/09 18:54
KOWA 091854Z AUTO 00000KT 10SM CLR 29/22 A2992 RMK AO2

2010/08/09 18:53
KPEX 091853Z AUTO 04004KT 10SM CLR 31/19 A2994 RMK AO2 T03050193

2010/08/09 18:55
KROX 091855Z AUTO 13003KT 10SM CLR 31/22 A2987 RMK AO2

2010/08/09 18:54
KRRT 091854Z AUTO 06005KT 10SM CLR 28/22 A2989 RMK AO2 TSNO

2010/08/09 18:54
KSAZ 091854Z AUTO 00000KT 10SM CLR 31/17 A2994 RMK AO2

2010/08/09 18:53
KSGS 091853Z AUTO 08005KT 10SM CLR 32/20 A2991 RMK AO2 T03220201

2010/08/09 18:55
KSRR 091855Z AUTO 28016G19KT 10SM VCTS FEW047 BKN060 BKN090 22/13 A3027 RMK AO2 LTG DSNT ALQDS

2010/08/09 18:54
KTEW 091854Z AUTO 17005KT 10SM SCT017 SCT027 SCT075 22/21 A2996 RMK AO2

2010/08/09 18:54
PGSN 091854Z 11005KT 6SM RA BR SCT016 BKN040 BKN110 25/24 A2991 RMK AO2 SLP124 P0013 T02500239

2010/08/09 18:54
PGUM 091854Z 17003KT 10SM CLR 25/24 A2991 RMK AO2 SLP120 T02500239

2010/08/09 18:56
KINS 091856Z 08008KT 10SM CLR 30/04 A2996 RMK AO2 SLP097 T03000044 $

2010/08/09 18:56
KNXX 091856Z 23007KT 10SM SCT045 32/17 A3000 RMK AO2 SLP161 T03220167 $

2010/08/09 18:56
KABH 091856Z AUTO 00000KT 10SM FEW110 24/13 A3017 RMK AO2 SLP136 T02390133 $

2010/08/09 18:56
K9L2 091856Z AUTO VRB03KT 10SM CLR 29/00 A2993 RMK AO2 SLP113 T02890000 $

2010/08/09 18:56
KNTU 091856Z 11008KT 10SM FEW035 SCT200 29/22 A3003 RMK AO2 SLP171 T02890222 $

2010/08/09 18:54
KNFG 091854Z COR 24009KT 7SM CLR 22/13 A2992 RMK AO2 SLP132 T02220133

2010/08/09 18:56
KNCA 091856Z 16008KT 4SM HZ SCT025 BKN060 31/M05 A3002 RMK AO2 RAB00E32 SLP166 P0023 T03101050 $

2010/08/09 18:56
KNXP 091856Z 13012G17KT CLR 33/M01 A2997 RMK AO2 SLP109 T03331006 $

2010/08/09 18:55
KFFO 091855Z 00000KT 10SM FEW130 SCT190 32/20 A2999 RMK AO2A SLP151

2010/08/09 18:55
KLUF 091855Z 29005KT 10SM FEW120 36/05 A2987 RMK AO2A SLP083 T03630052 $

2010/08/09 18:55
KMIB 091855Z AUTO 24006KT 10SM CLR 32/16 A2984 RMK AO2 SLP097 T03150165

2010/08/09 18:55
KMXF 091855Z VRB05KT 10SM SCT060 37/22 A2996 RMK AO2A SLP143 T03670218

2010/08/09 18:52
KNZY 091852Z 26008KT 10SM FEW019 23/13 A2993 RMK AO2 SLP134 T02330128 $

2010/08/09 18:55
KPAM 091855Z AUTO VRB06KT 10SM FEW055 34/23 A2994 RMK AO2 SLP140 T03410232 $

2010/08/09 18:55
KPSM 091855Z 24009KT 10SM SCT060 SCT130 33/17 A2989 RMK AO2A SLP122 T03330172

2010/08/09 18:55
KTBN 091855Z VRB04KT 10SM FEW060 36/21 A2995 RMK AO2A SLP114 T03610213 $

2010/08/09 18:55
KTCM 091855Z AUTO 26006KT 10SM OVC017 17/12 A2999 RMK AO2 SLP156 T01690121

2010/08/09 18:55
PAED 091855Z AUTO 34006KT 10SM OVC070 14/11 A2962 RMK AO2 SLP032 P0001 T01390110

2010/08/09 18:57
PAFB 091857Z 08004KT 13SM SCT075 BKN100 BKN120 14/11 A2959 RMK SLP018

2010/08/09 18:56
KNPA 091856Z 13009KT 9SM FEW035 SCT160 SCT280 33/26 A2996 RMK AO2 SLP147 T03280256

2010/08/09 18:56
KNMM 091856Z 19004KT 10SM SCT040 34/24 A2997 RMK AO2 SLP154 T03390239 $

2010/08/09 18:55
KAFF 091855Z 27008KT 10SM -TSRA FEW017 SCT085 BKN120 BKN190 21/16 A3021 RMK AO2A TSB1843 SLP134 P0000 T02080160

2010/08/09 18:55
KBAB 091855Z AUTO 00000KT 10SM CLR 25/14 A2987 RMK AO2 SLP115 T02450138 $

2010/08/09 18:55
KBIX 091855Z 09007KT 060V150 10SM SCT030 36/24 A2993 RMK AO2A SLP136 WND DATA ESTMD ALSTG/SLP ESTMD

2010/08/09 18:55
KCOF 091855Z 12010KT 10SM CLR 30/23 A2992 RMK AO2A SLP131 T02990227

2010/08/09 18:55
KDLF 091855Z AUTO 12011G18KT 10SM FEW170 34/21 A2992 RMK AO2 CLDS LWR RWY31 SLP114 T03440206

2010/08/09 18:55
KEND 091855Z 16014G18KT 10SM SCT060 38/19 A2989 RMK AO2A SLP104 T03790188

2010/08/09 18:55
KFBG 091855Z 08003KT 7SM FEW030 SCT050 SCT150 35/20 A3001 RMK AO2A SLP160 WND DATA ESTMD ALSTG/SLP ESTMD

2010/08/09 18:55
KFFO 091855Z 00000KT 10SM FEW130 SCT190 32/20 A2999 RMK AO2A SLP151

2010/08/09 18:55
KFRI 091855Z AUTO 19013KT 10SM CLR 40/19 A2984 RMK AO2 SLP079 T03960194

2010/08/09 18:55
KLSV 091855Z AUTO VRB03KT 10SM CLR 32/05 A2993 RMK AO2 SLP119 T03190051 PWINO

2010/08/09 18:55
KLUF 091855Z 29005KT 10SM FEW120 36/05 A2987 RMK AO2A SLP083 T03630052 $

2010/08/09 18:55
KMCF 091855Z AUTO 19003KT 10SM SCT028 SCT036 BKN090 30/26 A2989 RMK AO2 CIG 028 RWY22 SLP123 T02990257

2010/08/09 18:55
KMIB 091855Z AUTO 24006KT 10SM CLR 32/16 A2984 RMK AO2 SLP097 T03150165

2010/08/09 18:55
KMXF 091855Z VRB05KT 10SM SCT060 37/22 A2996 RMK AO2A SLP143 T03670218

2010/08/09 18:56
KNFL 091856Z 26005KT 10SM FEW080 29/04 A2996 RMK AO2 SLP119 T02890044

2010/08/09 18:56
KNBC 091856Z 10011G14KT 7SM FEW030 SCT050 BKN200 32/25 A2998 RMK AO2 SLP152 T03220250 $

2010/08/09 18:53
KMRT 091853Z AUTO 24004KT 10SM SCT046 31/20 A3004 RMK AO2 T03060200

2010/08/09 18:56
K79J 091856Z 12009KT 10SM CLR 36/21 A2996 RMK AO2 SLP139 T03560206 PNO $

2010/08/09 18:55
KBIX 091855Z 09007KT 060V150 10SM SCT030 36/24 A2993 RMK AO2A SLP136 WND DATA ESTMD ALSTG/SLP ESTMD

2010/08/09 18:55
KCOF 091855Z 12010KT 10SM CLR 30/23 A2992 RMK AO2A SLP131 T02990227

2010/08/09 18:55
KCVS 091855Z 24012KT 10SM FEW080 SCT150 30/15 A3007 RMK AO2A SLP134 T02960150 $

2010/08/09 18:57
PAKW 091857Z AUTO 27003KT 10SM -RA FEW009 OVC014 14/12 A3000 RMK AO2 P0000 TSNO

2010/08/09 18:53
KHEY 091853Z AUTO VRB04KT 10SM CLR 36/21 A2997 RMK AO2 SLP033 T03560211 $

2010/08/09 18:53
KLOR 091853Z AUTO 05006KT 10SM FEW055 35/21 A2996 RMK AO2 SLP142 T03500206 TSNO PNO $

2010/08/09 18:54
KSBN 091854Z 19006KT 6SM HZ FEW060 SCT080 27/22 A2997 RMK AO2 RAB04E13 SLP141 P0000 T02670217

2010/08/09 18:52
KMLF 091852Z AUTO 20018G24KT 10SM CLR 27/01 A3010 RMK AO2 SLP133 T02670011 TSNO

2010/08/09 18:56
KSMP 091856Z AUTO 25005KT 1/4SM FG VV002 10/09 A2999 RMK AO2 SLP165 T01000094 TSNO $

2010/08/09 18:53
KUIL 091853Z AUTO 17004KT 10SM OVC011 15/12 A2999 RMK AO2 SLP156 T01500117 TSNO $

2010/08/09 18:54
KAPN 091854Z VRB04KT 10SM FEW020 26/19 A2988 RMK AO2 SLP117 T02610194

2010/08/09 18:50
KHQI 091850Z AUTO 11004KT 10SM 31/26 A2997 RMK A01

2010/08/09 18:55
KIPN 091855Z AUTO VRB06KT 340V040 10SM CLR 28/25 A2998 RMK A01

2010/08/09 18:55
KLCK 091855Z AUTO 21004KT 10SM CLR 32/18 A3001 RMK AO2 T03160184

2010/08/09 18:55
KMDJ 091855Z AUTO 12005KT 1 3/4SM BR SCT003 SCT027 BKN034 26/24 A3001 RMK A01

2010/08/09 18:55
KMIU 091855Z AUTO 15008KT 10SM SCT022 SCT027 SCT032 31/26 A2994 RMK A01

2010/08/09 18:55
KMWO 091855Z AUTO 00000KT 10SM SCT065 35/20 A2999 RMK AO2

2010/08/09 18:55
KMZG 091855Z AUTO 00000KT 10SM FEW025 33/26 A2994 RMK A01

2010/08/09 18:52
KPVB 091852Z AUTO 30005KT 10SM SCT019 29/23 A2994 RMK AO1 T02860227

2010/08/09 18:53
KRZN 091853Z AUTO 00000KT 10SM CLR 30/20 A2993 RMK AO2 T02970204

2010/08/09 18:55
KSPR 091855Z AUTO VRB05KT 10SM 30/26 A2997 RMK A01

2010/08/09 18:55
KVAF 091855Z AUTO 15007KT 10SM BKN021 BKN031 BKN036 30/26 A2992 RMK A01

2010/08/09 18:55
KVBS 091855Z AUTO 00000KT 10SM 33/24 A2996 RMK A01

2010/08/09 18:53
KVES 091853Z AUTO 28004KT 10SM CLR 32/20 A3000 RMK AO2 T03160204

2010/08/09 18:55
KY63 091855Z AUTO 00000KT 7SM CLR 31/19 A2992 RMK AO2 T03070186

2010/08/09 18:56
KNSE 091856Z 11006KT 9SM SCT040TCU SCT150 35/24 A2996 RMK AO2 SLP130 TCU W T03500239 $

2010/08/09 18:55
KNUC 091855Z 23005KT 10SM SCT016 21/13 A2997 RMK SLP144 T02100125

2010/08/09 18:50
TJBQ 091850Z 07005KT 10SM SCT020 BKN040 27/ A2994

2010/08/09 18:57
PAIW 091857Z AUTO 07010KT 10SM OVC060 14/12 A2936 RMK AO2 SLPNO T01390122

2010/08/09 18:56
PAMB 091856Z AUTO 20017G22KT 2 1/2SM BR BKN008 OVC012 11/11 A2948 RMK AO2 PWINO TSNO T01050105 CIG 005V009 SLP985 $

2010/08/09 18:56
PAOH 091856Z AUTO 06004KT 10SM BKN038 OVC044 14/12 A2998 RMK AO2 TSNO T01440116 SLP155 $

2010/08/09 18:56
PPIZ 091856Z AUTO 07023G30KT 10SM BKN013 03/01 A2969 RMK AO2 TSNO T00330005 PK WND 07031/1812 SLP057 $

2010/08/09 18:53
KCMI 091853Z COR 19008KT 10SM SCT030 33/25 A2994 RMK AO2 SLP132 T03330250

2010/08/09 18:53
KDFW 091853Z COR 14008KT 10SM SCT075 35/21 A2992 RMK AO2 SLP119 T03500206

2010/08/09 18:52
KETB 091852Z AUTO 26007KT 10SM SCT027 BKN033 OVC045 28/20 A2992 RMK AO2 T02750203

2010/08/09 18:52
KGLW 091852Z AUTO 21005KT 10SM BKN045 BKN050 35/22 A2998 RMK AO2 T03500220

2010/08/09 18:55
KLNL 091855Z AUTO 31004KT 10SM SCT042 SCT050 29/17 A2995 RMK AO2 T02860167

2010/08/09 18:55
KLUM 091855Z AUTO 00000KT 10SM CLR 30/22 A2992 RMK AO2

2010/08/09 18:55
KMDZ 091855Z AUTO 31003KT 10SM SCT042 31/22 A2993 RMK AO2

2010/08/09 18:58
KMEI 091858Z 11006KT 10SM FEW041 34/23 A2997 RMK AO2 SLP143 T03390228

2010/08/09 18:55
KMRJ 091855Z AUTO 28005KT 10SM SCT021 29/22 A2994 RMK AO2 T02930222

2010/08/09 18:55
KOEO 091855Z AUTO 34004KT 10SM CLR 31/21 A2994 RMK AO2

2010/08/09 18:55
KPBH 091855Z AUTO 00000KT 10SM CLR 31/20 A2995 RMK AO2

2010/08/09 18:55
KPCZ 091855Z AUTO 28006KT 10SM CLR 31/22 A2990 RMK AO2 T03140223

2010/08/09 18:51
KPDC 091851Z AUTO 32004KT 10SM SCT029 BKN035 32/24 A2990 RMK AO2 T03160243

2010/08/09 18:55
KRCX 091855Z AUTO 30007KT 260V320 10SM SCT043 31/21 A2994 RMK AO2 T03050209

2010/08/09 18:56
KRNH 091856Z AUTO 00000KT 10SM CLR 31/22 A2993 RMK AO2 T03050215

2010/08/09 18:55
KRRL 091855Z AUTO 31005KT 10SM CLR 31/20 A2993 RMK AO2 T03100203

2010/08/09 18:55
KTTS 091855Z 10006KT 10SM SCT022 SCT090 31/25 A2992 RMK CB DSNT SW MDT CU ALQDS SLP132 3CU /3/ 1AC /4/

2010/08/09 18:56
KY50 091856Z AUTO VRB04KT 8SM FEW022 29/23 A2992 RMK AO2 T02940233 SLP121

2010/08/09 18:55
KRCA 091855Z 19018G23KT 10SM FEW150 BKN200 33/16 A2992 RMK AO2A SLP102 T03290155

2010/08/09 18:55
KVBG 091855Z 32008KT 10SM FEW007 SCT012 17/13 A2996 RMK AO2 SLP137 T01720128 VISNO RWY12 $

2010/08/09 18:56
PASY 091856Z 32004KT 1 1/4SM BR BKN001 BKN010 OVC022 09/09 A2984 RMK AO2 SLP106 T00940089 PNO $

2010/08/09 18:55
KBIX 091855Z 09007KT 060V150 10SM SCT030 36/24 A2993 RMK AO2A SLP136 WND DATA ESTMD ALSTG/SLP ESTMD

2010/08/09 18:55
KFBG 091855Z 08003KT 7SM FEW030 SCT050 SCT150 35/20 A3001 RMK AO2A SLP160 WND DATA ESTMD ALSTG/SLP ESTMD

2010/08/09 18:55
KLUF 091855Z 29005KT 10SM FEW120 36/05 A2987 RMK AO2A SLP083 T03630052 $

2010/08/09 18:55
KMCF 091855Z AUTO 19003KT 10SM SCT028 SCT036 BKN090 30/26 A2989 RMK AO2 CIG 028 RWY22 SLP123 T02990257

2010/08/09 18:55
KMXF 091855Z VRB05KT 10SM SCT060 37/22 A2996 RMK AO2A SLP143 T03670218

2010/08/09 18:55
KPAM 091855Z AUTO VRB06KT 10SM FEW055 34/23 A2994 RMK AO2 SLP140 T03410232 $

2010/08/09 18:55
KPSM 091855Z 24009KT 10SM SCT060 SCT130 33/17 A2989 RMK AO2A SLP122 T03330172

2010/08/09 18:55
KVAD 091855Z AUTO 07010G15KT 10SM CLR 34/23 A2995 RMK AO2 SLP141 T03360225 $

2010/08/09 18:58
K0J4 091858Z AUTO 07006KT 10SM FEW050 36/22 RMK AO2 SLPNO T03560222 $

2010/08/09 18:55
KLSV 091855Z AUTO VRB03KT 10SM CLR 32/05 A2993 RMK AO2 SLP119 T03190051 PWINO

2010/08/09 18:55
KNBG 091855Z 12014G23KT 2SM +TSRA BR FEW026CB BKN033 BKN050 OVC250 26/23 A2998 RMK AO2 PK WND 11027/1841 TSB19RAB39 SLP151 CNS LTGICCCCG NE-SW TS NE-SW MOV SW T1 SET P0012 T02560228 $

2010/08/09 18:56
KNID 091856Z 12007KT 10SM CLR 32/M01 A2992 RMK AO2 SLP110 T03171006 $

2010/08/09 18:56
KNLC 091856Z 04006KT 10SM CLR 28/14 A2987 RMK AO2 SLP114 RH/42 T02780139

2010/08/09 18:56
KNQI 091856Z 15010G15KT 10SM BKN039 BKN060 38/24 A2990 RMK AO2 SLP122 T03780244

2010/08/09 18:56
KNUQ 091856Z 35008KT 10SM CLR 20/13 A2992 RMK AO2 SLP134 T02000128

2010/08/09 18:56
KNYG 091856Z AUTO 17007KT 9SM SCT060 BKN200 32/22 A3000 RMK AO2 SLP158 T03220222 $

2010/08/09 18:56
PHBK 091856Z AUTO 30003KT 10SM BKN055 27/18 A3010 RMK AO2 SLP196 T02720178 TSNO $

2010/08/09 18:56
PMDY 091856Z AUTO 08012KT 10SM CLR 27/22 A3024 RMK AO2 TSNO T02720216 SLP549

2010/08/09 18:55
PGUA 091855Z AUTO 25003KT 10SM OVC160 24/24 A2991 RMK AO2 SLP110 T02420242 VISNO RWY24L $

2010/08/09 18:56
PHBK 091856Z AUTO 30003KT 10SM BKN055 27/18 A3010 RMK AO2 SLP196 T02720178 TSNO $

2010/08/09 18:55
PHHI 091855Z AUTO 10007KT 10SM OVC036 24/18 A3012 RMK AO2 SLP189 T02400179 $

2010/08/09 18:53
PHNL 091853Z 06014KT 10SM FEW033 SCT042 BKN050 28/17 A3009 RMK AO2 SLP190 T02830172

2010/08/09 18:55
PHSF 091855Z VRB04KT 7SM FEW200 23/M04 A3031 RMK SLPNO

2010/08/09 18:56
KNID 091856Z 12007KT 10SM CLR 32/M01 A2992 RMK AO2 SLP110 T03171006 $

2010/08/09 18:56
KNLC 091856Z 04006KT 10SM CLR 28/14 A2987 RMK AO2 SLP114 RH/42 T02780139

2010/08/09 18:56
KNQI 091856Z 15010G15KT 10SM BKN039 BKN060 38/24 A2990 RMK AO2 SLP122 T03780244

2010/08/09 18:52
KNZY 091852Z 26008KT 10SM FEW019 23/13 A2993 RMK AO2 SLP134 T02330128 $

2010/08/09 18:55
KPAM 091855Z AUTO VRB06KT 10SM FEW055 34/23 A2994 RMK AO2 SLP140 T03410232 $

2010/08/09 18:55
KPSM 091855Z 24009KT 10SM SCT060 SCT130 33/17 A2989 RMK AO2A SLP122 T03330172

2010/08/09 18:55
KRIV 091855Z VRB03KT 10SM CLR 28/10 A2992 RMK AO2A SLP128 T02800098 $

2010/08/09 18:55
KSKA 091855Z AUTO 23008KT 10SM FEW150 23/09 A2987 RMK AO2 SLP102 T02340089

2010/08/09 18:55
KSKF 091855Z 11011G17KT 10SM FEW030 34/24 A2994 RMK AO2A SLP127 T03450236 $

2010/08/09 18:55
KTBN 091855Z VRB04KT 10SM FEW060 36/21 A2995 RMK AO2A SLP114 T03610213 $

2010/08/09 18:55
KTCM 091855Z AUTO 26006KT 10SM OVC017 17/12 A2999 RMK AO2 SLP156 T01690121

2010/08/09 18:55
KVAD 091855Z AUTO 07010G15KT 10SM CLR 34/23 A2995 RMK AO2 SLP141 T03360225 $

2010/08/09 18:56
KHLR 091856Z AUTO 13006G14KT 10SM CLR 37/20 A2995 RMK AO2 SLP130 T03670200 $

2010/08/09 18:55
KGBK 091855Z AUTO VRB03KT 10SM CLR 33/25 A2999 RMK A01

2010/08/09 18:55
KMHR 091855Z AUTO 24004KT 10SM CLR 23/12 A2988 RMK AO1

2010/08/09 18:57
KNJM 091857Z AUTO 16006KT 10SM SCT015 29/25 A3003 RMK AO2 SLP172 T02890250

2010/08/09 18:57
KNXF 091857Z AUTO 26009KT 8SM FEW090 21/13 A2994 RMK AO2 SLP223 T02110133 TSNO

2010/08/09 18:55
KFTK 091855Z VRB04KT 10SM BKN060 35/23 A2997 RMK AO2A SLP140 T03480226

2010/08/09 18:55
KHIF 091855Z 18014G24KT 10SM -SHRA BKN075 BKN180 BKN210 25/06 A3005 RMK AO2A CIG 130 RWY32 SLP069 MIDFLD WND 150/05KT T02500056

2010/08/09 18:55
KLFI 091855Z 09010KT 10SM FEW035 FEW250 30/19 A3003 RMK AO2A SLP169 T03040190

2010/08/09 18:55
KMMT 091855Z 09007KT 10SM FEW040 FEW250 33/22 A3001 RMK SLP161

2010/08/09 18:54
KNFG 091854Z COR 24009KT FEW017 22/13 A2992 RMK AO2 SLP132 T02220133

2010/08/09 18:56
KNGP 091856Z 15009KT 10SM FEW025 SCT040TCU SCT250 32/26 A2992 RMK AO2 SLP132 TCU DSNT SE T03170261 VISNO

2010/08/09 18:56
KNJK 091856Z VRB03KT 10SM CLR 36/06 A2979 RMK AO2 SLP101 T03560056

2010/08/09 18:54
KNKT 091854Z 14005KT 10SM FEW015 SCT080 29/23 A3003 RMK AO2 SLP164 T02940233

2010/08/09 18:55
KNKX 091855Z 26007KT 10SM FEW018 23/13 A2993 RMK AO2 SLP130 T02330128

2010/08/09 18:56
KNTD 091856Z 22008KT 5SM HZ BKN012 17/13 A2995 RMK SLP142 LAG PK 16/13/10010 T01720133

2010/08/09 18:55
KPOE 091855Z AUTO 17003KT 10SM CLR 34/22 A2996 RMK AO2 SLP144 T03440217

2010/08/09 18:56
K8D3 091856Z AUTO 16006KT 30/20 A2991 RMK AO2 SLP108 T03000200 PWINO TSNO

2010/08/09 18:56
KFSD 091856Z 09006KT 10SM SCT025 29/23 A2991 RMK AO2 SLP119 BKN ABV 120 T02890233

2010/08/09 18:56
KP28 091856Z AUTO 18008G18KT 38/18 A2988 RMK AO2 SLP094 T03780178 PWINO TSNO

2010/08/09 18:56
KGNA 091856Z AUTO 26005KT 19/17 A2988 RMK AO2 SLP113 T01890167 PWINO TSNO

2010/08/09 18:56
K2WX 091856Z AUTO 15020G24KT 33/15 A2981 RMK AO1 SLP065 T03330150

2010/08/09 18:56
KCDJ 091856Z AUTO 20008G16KT 34/26 A2987 RMK AO2 SLP096 T03440256 PWINO TSNO

2010/08/09 18:56
KFLG 091856Z 22011G17KT 10SM FEW065 SCT100 22/09 A3030 RMK AO2 SLP167 T02170089

2010/08/09 18:54
KAKQ 091854Z AUTO VRB03KT 10SM FEW060 33/18 A3001 RMK AO2 SLP159 T03330183 TSNO

2010/08/09 18:56
KALK 091856Z AUTO 09007KT 10SM CLR 27/16 A3014 RMK AO2 SLP112 T02720156 $

2010/08/09 18:56
KMHS 091856Z AUTO 14004KT 10SM CLR 25/06 A2996 RMK AO2 SLP128 T02500056 TSNO

2010/08/09 18:56
KSPD 091856Z AUTO 20005KT 32/16 A3003 RMK AO2 SLP094 T03170156 PWINO TSNO

2010/08/09 18:56
KSXT 091856Z AUTO 34006KT 8SM -RA CLR 17/13 A3001 RMK AO2 RAE1759B38 SLP128 P0000 T01720133 TSNO

2010/08/09 18:56
KD07 091856Z AUTO 16019G23KT 31/18 A2991 RMK AO2 SLP110 T03110178 PWINO TSNO

2010/08/09 18:53
KGNT 091853Z AUTO 33008KT 26/08 A3024 RMK AO2 SLP149 T02560083 PWINO TSNO

2010/08/09 18:56
KABQ 091856Z 00000KT 10SM FEW070 28/12 A3015 RMK AO2 SLP115 CB DSNT N TCU DSNT NE T02780117

2010/08/09 18:54
KRIC 091854Z 18008G14KT 10SM SCT049 BKN250 33/19 A3001 RMK AO2 SLP164 T03280194

2010/08/09 18:56
KJAX 091856Z 09014G21KT 9SM -RA FEW024 BKN035 BKN200 29/25 A2995 RMK AO2 RAB55 SLP142 P0000 T02890250

2010/08/09 18:53
K29G 091853Z AUTO 20004KT 10SM CLR 30/17 A3002 RMK AO2 T02950168 PWINO

2010/08/09 18:54
KAVP 091854Z 24007KT 10SM CLR 32/13 A2998 RMK AO2 SLP139 T03220128 $

2010/08/09 18:56
KCAE 091856Z 13007KT 10SM SCT050 SCT070 33/22 A3000 RMK AO2 SLP153 T03330217

2010/08/09 18:55
KCBE 091855Z AUTO 00000KT 10SM CLR 33/16 A3002 RMK AO1

2010/08/09 18:56
KCHS 091856Z 09007KT 10SM FEW010 BKN032 OVC060 30/25 A2998 RMK AO2 RAB35E55 SLP153 TCU S P0014 T03000250

2010/08/09 18:54
KFWA 091854Z 22005KT 9SM FEW055 BKN140 30/22 A2998 RMK AO2 SLP145 T03000217

2010/08/09 18:56
KWMC 091856Z AUTO 26007G15KT 10SM CLR 28/04 A2997 RMK AO2 SLP095 T02830039

2010/08/09 18:54
KIKW 091854Z AUTO 18006KT 5SM -DZ SCT019 BKN050 OVC060 25/21 A2992 RMK AO2 T02490214

2010/08/09 18:58
KLYV 091858Z AUTO 08008KT 10SM SCT020 29/22 A2992 RMK AO2

2010/08/09 18:54
KRFD 091854Z 31010KT 10SM FEW030 SCT150 BKN250 30/22 A2993 RMK AO2 SLP128 T03000222

2010/08/09 18:55
KROS 091855Z AUTO 00000KT 10SM CLR 30/22 A2993 RMK AO2 T02990215

2010/08/09 18:56
KSHV 091856Z 15005KT 10SM BKN060 36/21 A2993 RMK AO2 SLP132 T03560211

2010/08/09 18:54
KSYN 091854Z AUTO 00000KT 10SM CLR 31/21 A2991 RMK AO2 T03130213

2010/08/09 18:53
KTKC 091853Z AUTO 08008KT 10SM SCT026 30/21 A2992 RMK AO2 T02960214

2010/08/09 18:56
TJSJ 091856Z VRB04KT 10SM -RA FEW017 SCT030 BKN065 28/25 A2995 RMK AO2 TSB29E55RAB03 SLP140 TS DSIPTD P0012 T02830250

2010/08/09 18:53
PHKO 091853Z 00000KT 10SM BKN055 26/18 A3004 RMK AO2 SLP171 T02610178 PNO $

2010/08/09 18:54
PHOG 091854Z 07017G26KT 10SM FEW035 SCT050 27/18 A3010 RMK AO2 PK WND 06026/1849 SLP197 T02720178

2010/08/09 18:53
PHTO 091853Z 00000KT 10SM SCT040 BKN055 23/18 A3012 RMK AO2 SLP197 T02330178 $

2010/08/09 18:55
KCLI 091855Z AUTO 26003KT 10SM SCT034 31/22 A2989 RMK AO2

2010/08/09 18:55
KSCF 091855Z AUTO 05005KT 10SM CLR 31/26 A2993 RMK A01

2010/08/09 18:56
KCHS 091856Z COR 09007KT 10SM FEW010 BKN032CB OVC060 30/25 A2998 RMK AO2 RAB35E55 SLP153 CB NW MOV N P0014 T03000250

2010/08/09 18:56
KLWS 091856Z 28004KT 10SM FEW100 27/09 A2982 RMK AO2 SLP087 T02670089

2010/08/09 18:50
KHMS 091850Z 15007KT 15SM FEW250 27/09 A2979 RMK SLP084 T02670092 RSNK 18/22015

2010/08/09 18:51
KP58 091851Z AUTO 07005KT 23/22 A2991 RMK AO2 SLP119 T02330217 PWINO TSNO 

2010/08/09 18:47
MMGL 091847Z 06005KT 7SM BKN020TCU 26/18 A3009 RMK 8/200

2010/08/09 18:46
MMSP 091846Z 06006KT 12SM SCT020 26/14 A3020 RMK 8/100

2010/08/09 18:46
MMZO 091846Z 12010KT 15SM FEW025 BKN250 30/25 A2980 RMK 8/104 HZY

2010/08/09 18:55
EHKD 091855Z AUTO 16005KT 9999NDV NCD 18/13 Q1014 BLU BLU NOSIG

2010/08/09 18:47
MMGL 091847Z 06005KT 7SM BKN020TCU 26/18 A3009 RMK 8/200

2010/08/09 18:45
MMPN 091845Z 18008KT 15SM SCT025TCU BKN100 BKN290 24/18 A3009 RMK 8/231 HZY

2010/08/09 18:45
KSCH 091845Z 27008G16KT 10SM SCT060 33/16 A2993

2010/08/09 18:50
EGPA 091850Z AUTO 15010KT 9999NDV FEW009/// BKN034/// 14/14 Q1005

2010/08/09 18:50
EGPC 091850Z 30011KT 9999 -SHRA SCT008 BKN022 12/12 Q1005

2010/08/09 18:50
EGPL 091850Z AUTO 19007KT 9999NDV FEW030/// SCT040/// 15/10 Q1005

2010/08/09 18:50
EGPM 091850Z AUTO 12013KT 9999NDV SCT015/// 14/12 Q1008

2010/08/09 18:50
EGPO 091850Z 20005KT 9999 FEW026 SCT032 15/11 Q1005

2010/08/09 18:50
EGAE 091850Z 25012KT 9999 SCT030 16/10 Q1007

2010/08/09 18:50
EGNH 091850Z 25003KT 9999 -SHRA SCT018 17/14 Q1009

2010/08/09 18:50
EGNJ 091850Z 21013KT 9999 BKN030 22/14 Q1009

2010/08/09 18:50
EGPE 091850Z 06004KT 9999 FEW020CB 15/12 Q1005

2010/08/09 18:55
EHAK 091855Z AUTO 18017KT 9000NDV FEW005/// SCT007/// 17/15 Q1011

2010/08/09 18:55
EHDV 091855Z AUTO 18018KT 9999NDV NCD 18/15 Q1011

2010/08/09 18:55
EHFD 091855Z AUTO 19020KT 9999NDV NCD 17/15 Q1014

2010/08/09 18:55
EHFZ 091855Z AUTO 19023KT 9999NDV ///////// 18/14 Q1013

2010/08/09 18:55
EHJA 091855Z AUTO 17020KT 9999NDV NCD 17/14 Q1012

2010/08/09 18:55
EHKV 091855Z AUTO 19016KT 9999NDV 17/15 Q1013

2010/08/09 18:55
EHMA 091855Z AUTO 22005KT 9999NDV ///////// 19/13 Q1015

2010/08/09 18:55
EHMG 091855Z AUTO 20015KT 9999NDV NCD 18/15 Q1014

2010/08/09 18:55
EHPG 091855Z AUTO 21015KT 180V280 9999NDV NCD 18/14 Q1013

2010/08/09 18:55
EHQE 091855Z AUTO 17014KT 9999NDV ///////// 18/15 Q1014

2010/08/09 19:00
FLLS 091900Z 14003KT CAVOK 16/09 Q1023

2010/08/09 18:50
EDHL 091850Z 21004KT CAVOK 17/17 Q1016 RMK C

2010/08/09 18:50
EDLN 091850Z VRB01KT CAVOK 18/12 Q1015 RMK ATIS C

2010/08/09 18:50
EDLP 091850Z 08001KT CAVOK 17/12 Q1016 RMK RWY24 TRL60 AW ATIS I

2010/08/09 18:50
EDLW 091850Z 22004KT CAVOK 18/13 Q1016 RMK ATIS F

2010/08/09 18:50
EDNY 091850Z 00000KT CAVOK 19/14 Q1016 RMK ATIS E

2010/08/09 18:50
EDXW 091850Z AUTO 22005KT 9999NDV NCD 16/10 Q1015 RMK ATIS INFO C

2010/08/09 18:50
EGAE 091850Z 25012KT 9999 SCT030 16/10 Q1007

2010/08/09 18:50
EGNH 091850Z 25003KT 9999 -SHRA SCT018 17/14 Q1009

2010/08/09 18:50
EGNJ 091850Z 21013KT 9999 BKN030 22/14 Q1009

2010/08/09 18:50
EGPA 091850Z AUTO 15010KT 9999NDV FEW009/// BKN034/// 14/14 Q1005

2010/08/09 18:50
EGPC 091850Z 30011KT 9999 -SHRA SCT008 BKN022 12/12 Q1005

2010/08/09 18:50
EGPE 091850Z 06004KT 9999 FEW020CB 15/12 Q1005

2010/08/09 18:50
EGPL 091850Z AUTO 19007KT 9999NDV FEW030/// SCT040/// 15/10 Q1005

2010/08/09 18:50
EGPM 091850Z AUTO 12013KT 9999NDV SCT015/// 14/12 Q1008

2010/08/09 18:50
EGPO 091850Z 20005KT 9999 FEW026 SCT032 15/11 Q1005

2010/08/09 18:55
EGVA 091855Z AUTO 21010KT 9999 BKN015 BKN025 OVC032 18/16 A2989 RMK AO2 RAB1756E1757DZB1757E1807 BKN015 V SCT SLP122 P0000 T01810163 $

2010/08/09 18:55
EHKD 091855Z AUTO 16005KT 9999NDV NCD 18/13 Q1014 BLU BLU NOSIG

2010/08/09 18:50
LGBL 091850Z 00000KT CAVOK 28/18 Q1010 NOSIG BLU

2010/08/09 18:50
LGLR 091850Z 00000KT 9999 FEW035 27/14 Q1010 NOSIG BLU

2010/08/09 18:50
LGPZ 091850Z 22008KT 9999 FEW015 26/22 Q1011 NOSIG BLU

2010/08/09 18:50
LGRX 091850Z 00000KT CAVOK 26/21 Q1009 NOSIG BLU

2010/08/09 18:50
LGSR 091850Z 33015KT CAVOK 27/21 Q1007 NOSIG BLU

2010/08/09 18:50
LGSY 091850Z 29006KT CAVOK 27/23 Q1008 NOSIG BLU

2010/08/09 18:50
LOXT 091850Z 19002KT 50KM FEW050CU 19/15 Q1017 RMK FEW

2010/08/09 19:00
LWOH 091900Z 01003KT 9999 FEW050 21/15 Q1016

2010/08/09 19:00
FOOL 091900Z 17004KT 140V200 8000 SCT010 BKN033 25/23 Q1014 NOSIG

2010/08/09 19:00
LZKC 091900Z 18003KT CAVOK 19/17 Q1016

2010/08/09 19:00
LZLU 091900Z 19003KT 150V210 CAVOK 19/16 Q1016

2010/08/09 19:00
LZNI 091900Z 13003KT 9999 FEW040CB BKN120 20/15 Q1017

2010/08/09 19:00
LZPE 091900Z VRB02KT 9999 FEW036CB BKN050 19/15 Q1017

2010/08/09 18:59
OPKC 091859Z 27006KT 6000 SCT020 BKN100 27/25 Q.1001 NOSIG

2010/08/09 18:55
OPLA 091855Z 00000KT 4000 FU FEW100 30/27 Q1002 NOSIG

2010/08/09 18:55
OPNH 091855Z 00000KT 4000M FU SCT035 SCT100 29/27 Q1000

2010/08/09 19:00
OPRN 091900Z 31008KT 4000 BR FEW035 SCT100 29/25 Q1004.5

2010/08/09 18:53
OPSK 091853Z 00000KT 2000 HZ SCT040 SCT1 CHECK TEXT NEW ENDING ADDED VABBYFYX

2010/08/09 18:59
OPKC 091859Z 27006KT 6000 SCT020 BKN100 27/25 Q.1001 NOSIG

2010/08/09 18:55
OPLA 091855Z 00000KT 4000 FU FEW100 30/27 Q1002 NOSIG

2010/08/09 18:55
OPNH 091855Z 00000KT 4000M FU SCT035 SCT100 29/27 Q1000

2010/08/09 19:00
OPRN 091900Z 31008KT 4000 BR FEW035 SCT100 29/25 Q1004.5

2010/08/09 18:53
OPSK 091853Z 00000KT 2000 HZ SCT040 SCT100 29/27 Q1000 RH 89

2010/08/09 18:45
KSCH 091845Z 27008G16KT 10SM SCT060 33/16 A2993

2010/08/09 18:56
K79J 091856Z 12009KT 10SM CLR 36/21 A2996 RMK AO2 SLP139 T03560206 PNO $

2010/08/09 18:55
KCVS 091855Z 24012KT 10SM FEW080 SCT150 30/15 A3007 RMK AO2A SLP134 T02960150 $

2010/08/09 18:55
KDMA 091855Z AUTO RMK AO2 SLPNO RVRNO PWINO PNO FZRANO TSNO VISNO CHINO $

2010/08/09 18:55
KFTK 091855Z VRB04KT 10SM BKN060 35/23 A2997 RMK AO2A SLP140 T03480226

2010/08/09 18:55
KHIF 091855Z 18014G24KT 10SM -SHRA BKN075 BKN180 BKN210 25/06 A3005 RMK AO2A CIG 130 RWY32 SLP069 MIDFLD WND 150/05KT T02500056

2010/08/09 18:55
KHOP 091855Z AUTO 00000KT 10SM FEW150 SCT190 SCT210 36/23 A2995 RMK AO2 SLP135 T03580228

2010/08/09 18:55
KHRT 091855Z 19008KT 10SM FEW030 SCT250 33/26 A2995 RMK AO2A SLP145 T03260265 $

2010/08/09 18:55
KLFI 091855Z 09010KT 10SM FEW035 FEW250 30/19 A3003 RMK AO2A SLP169 T03040190

2010/08/09 18:55
KMMT 091855Z 09007KT 10SM FEW040 FEW250 33/22 A3001 RMK SLP161

2010/08/09 18:56
KNBC 091856Z 10011G14KT 7SM FEW030 SCT050 BKN200 32/25 A2998 RMK AO2 SLP152 T03220250 $

2010/08/09 18:55
KNBG 091855Z 12014G23KT 2SM +TSRA BR FEW026CB BKN033 BKN050 OVC250 26/23 A2998 RMK AO2 PK WND 11027/1841 TSB19RAB39 SLP151 CNS LTGICCCCG NE-SW TS NE-SW MOV SW T1 SET P0012 T02560228 $

2010/08/09 18:56
KNCA 091856Z 16008KT 4SM HZ SCT025 BKN060 31/M05 A3002 RMK AO2 RAB00E32 SLP166 P0023 T03101050 $

2010/08/09 18:56
KNJK 091856Z VRB03KT 10SM CLR 36/06 A2979 RMK AO2 SLP101 T03560056

2010/08/09 18:56
KNUQ 091856Z 35008KT 10SM CLR 20/13 A2992 RMK AO2 SLP134 T02000128

2010/08/09 18:56
PPIZ 091856Z AUTO 07023G30KT 10SM BKN013 03/01 A2969 RMK AO2 TSNO T00330005 PK WND 07031/1812 SLP057 $

2010/08/09 18:55
KBIX 091855Z 09007KT 060V150 10SM SCT030 36/24 A2993 RMK AO2A SLP136 WND DATA ESTMD ALSTG/SLP ESTMD

2010/08/09 18:56
KCHS 091856Z COR 09007KT 10SM FEW010 BKN032CB OVC060 30/25 A2998 RMK AO2 RAB35E55 SLP153 CB NW MOV N P0014 T03000250

2010/08/09 18:56
KCHS 091856Z 09007KT 10SM FEW010 BKN032 OVC060 30/25 A2998 RMK AO2 RAB35E55 SLP153 TCU S P0014 T03000250

2010/08/09 18:55
KCOF 091855Z 12010KT 10SM CLR 30/23 A2992 RMK AO2A SLP131 T02990227

2010/08/09 18:55
KLFI 091855Z 09010KT 10SM FEW035 FEW250 30/19 A3003 RMK AO2A SLP169 T03040190

2010/08/09 18:56
KNBC 091856Z 10011G14KT 7SM FEW030 SCT050 BKN200 32/25 A2998 RMK AO2 SLP152 T03220250 $

2010/08/09 18:55
KNBG 091855Z 12014G23KT 2SM +TSRA BR FEW026CB BKN033 BKN050 OVC250 26/23 A2998 RMK AO2 PK WND 11027/1841 TSB19RAB39 SLP151 CNS LTGICCCCG NE-SW TS NE-SW MOV SW T1 SET P0012 T02560228 $

2010/08/09 18:56
KNCA 091856Z 16008KT 4SM HZ SCT025 BKN060 31/M05 A3002 RMK AO2 RAB00E32 SLP166 P0023 T03101050 $

2010/08/09 18:56
KNGP 091856Z 15009KT 10SM FEW025 SCT040TCU SCT250 32/26 A2992 RMK AO2 SLP132 TCU DSNT SE T03170261 VISNO

2010/08/09 18:54
KNKT 091854Z 14005KT 10SM FEW015 SCT080 29/23 A3003 RMK AO2 SLP164 T02940233

2010/08/09 18:55
KPAM 091855Z AUTO VRB06KT 10SM FEW055 34/23 A2994 RMK AO2 SLP140 T03410232 $

2010/08/09 19:00
MDSD 091900Z 16010KT 8000 TS/VCSH FEW020CB SCT022 32/24 Q1012 CB/N/NE

2010/08/09 18:56
MUGM 091856Z 14013KT 9999 FEW025CB BKN250 32/25 A2992 RMK SLP129 CB DSNT N T03220250

2010/08/09 19:00
MWCR 091900Z 10006KT 9999 SCT018 SCT200 31/26 Q1013 NOSIG

2010/08/09 19:00
MYNN 091900Z 13009KT 9999 SCT012TCU BKN038 BKN080 30/23 A2996

2010/08/09 19:00
TFFR 091900Z 07004KT 040V100 9999 VCTS FEW015CB SCT026 28/25 Q1013 TEMPO 4000 SHRA

2010/08/09 18:55
KDMA 091855Z AUTO RMK AO2 SLPNO RVRNO PWINO PNO FZRANO TSNO VISNO CHINO $

2010/08/09 18:55
KEGI 091855Z 11007KT 10SM SCT030 35/23 A2996 RMK AO2A SLP145 T03470228 $

2010/08/09 18:55
KHOP 091855Z AUTO 00000KT 10SM FEW150 SCT190 SCT210 36/23 A2995 RMK AO2 SLP135 T03580228

2010/08/09 18:55
KHRT 091855Z 19008KT 10SM FEW030 SCT250 33/26 A2995 RMK AO2A SLP145 T03260265 $

2010/08/09 18:56
KNBC 091856Z 10011G14KT 7SM FEW030 SCT050 BKN200 32/25 A2998 RMK AO2 SLP152 T03220250 $

2010/08/09 18:56
KNCA 091856Z 16008KT 4SM HZ SCT025 BKN060 31/M05 A3002 RMK AO2 RAB00E32 SLP166 P0023 T03101050 $

2010/08/09 18:56
KNFL 091856Z 26005KT 10SM FEW080 29/04 A2996 RMK AO2 SLP119 T02890044

2010/08/09 18:56
KNXP 091856Z 13012G17KT CLR 33/M01 A2997 RMK AO2 SLP109 T03331006 $

2010/08/09 18:56
KNXX 091856Z 23007KT 10SM SCT045 32/17 A3000 RMK AO2 SLP161 T03220167 $

2010/08/09 19:00
MDPC 091900Z 09010KT 9999 SCT025 31/24 Q1011 NOSIG

2010/08/09 19:00
MDPP 091900Z 06010KT 9999 SCT020 32/27 Q1014

2010/08/09 19:00
MDSD 091900Z 16010KT 8000 TS/VCSH FEW020CB SCT022 32/24 Q1012 CB/N/NE

2010/08/09 19:00
MDST 091900Z 09011KT 9999 FEW016CB SCT023 32/24 Q1012 CB/S/SW

2010/08/09 18:56
MUGM 091856Z 14013KT 9999 FEW025CB BKN250 32/25 A2992 RMK SLP129 CB DSNT N T03220250

2010/08/09 19:00
MYNN 091900Z 13009KT 9999 SCT012TCU BKN038 BKN080 30/23 A2996

2010/08/09 19:00
ORER 091900Z 07005KT CAVOK 31/M02 Q1003

2010/08/09 19:00
ORSU 091900Z VRB03KT CAVOK 28/03 Q1008

2010/08/09 19:00
TFFR 091900Z 07004KT 040V100 9999 VCTS FEW015CB SCT026 28/25 Q1013 TEMPO 4000 SHRA

2010/08/09 18:55
KEGI 091855Z 11007KT 10SM SCT030 35/23 A2996 RMK AO2A SLP145 T03470228 $

2010/08/09 18:54
KNFG 091854Z COR 24009KT FEW017 22/13 A2992 RMK AO2 SLP132 T02220133

2010/08/09 18:56
KNFL 091856Z 26005KT 10SM FEW080 29/04 A2996 RMK AO2 SLP119 T02890044

2010/08/09 18:56
KNGP 091856Z 15009KT 10SM FEW025 SCT040TCU SCT250 32/26 A2992 RMK AO2 SLP132 TCU DSNT SE T03170261 VISNO

2010/08/09 18:54
KNKT 091854Z 14005KT 10SM FEW015 SCT080 29/23 A3003 RMK AO2 SLP164 T02940233

2010/08/09 18:55
KNKX 091855Z 26007KT 10SM FEW018 23/13 A2993 RMK AO2 SLP130 T02330128

2010/08/09 18:56
KNPA 091856Z 13009KT 9SM FEW035 SCT160 SCT280 33/26 A2996 RMK AO2 SLP147 T03280256

2010/08/09 18:56
KNSE 091856Z 11006KT 9SM SCT040TCU SCT150 35/24 A2996 RMK AO2 SLP130 TCU W T03500239 $

2010/08/09 18:56
KNTD 091856Z 22008KT 5SM HZ BKN012 17/13 A2995 RMK SLP142 LAG PK 16/13/10010 T01720133

2010/08/09 18:56
KNTU 091856Z 11008KT 10SM FEW035 SCT200 29/22 A3003 RMK AO2 SLP171 T02890222 $

2010/08/09 18:55
KNUC 091855Z 23005KT 10SM SCT016 21/13 A2997 RMK SLP144 T02100125

2010/08/09 18:56
KNXP 091856Z 13012G17KT CLR 33/M01 A2997 RMK AO2 SLP109 T03331006 $

2010/08/09 18:56
KNXX 091856Z 23007KT 10SM SCT045 32/17 A3000 RMK AO2 SLP161 T03220167 $

2010/08/09 18:56
KNYG 091856Z AUTO 17007KT 9SM SCT060 BKN200 32/22 A3000 RMK AO2 SLP158 T03220222 $

2010/08/09 18:55
KPOE 091855Z AUTO 17003KT 10SM CLR 34/22 A2996 RMK AO2 SLP144 T03440217

2010/08/09 18:55
KRCA 091855Z 19018G23KT 10SM FEW150 BKN200 33/16 A2992 RMK AO2A SLP102 T03290155

2010/08/09 18:55
KVBG 091855Z 32008KT 10SM FEW007 SCT012 17/13 A2996 RMK AO2 SLP137 T01720128 VISNO RWY12 $

2010/08/09 18:53
CWCL 091853Z AUTO 35004KT 7SM -RA BKN013 OVC042 10/08 A2997

2010/08/09 18:55
CYFC 091855Z AUTO 19010G15KT 9SM BKN009 BKN017 OVC045 22/20 A2987 RMK SLP115 DENSITY ALT 900FT RVR MISG

2010/08/09 18:57
CYFC 091857Z AUTO 18009KT 9SM FEW009 BKN013 BKN045 22/20 A2987 RMK SLP114 DENSITY ALT 900FT RVR MISG

2010/08/09 18:56
CYKF 091856Z AUTO 22007KT 7SM BKN023 25/21 A2995 RMK SLP138 DENSITY ALT 2400FT LTNG DIST SW

2010/08/09 18:56
CYSN 091856Z 21010KT 10SM -TSRA OVC060 RMK SC8 CB EMBD VIS 3 S

2010/08/09 18:52
CYXU 091852Z 31004KT 5SM -SHRA FEW032 BKN050 OVC140 26/ RMK SF2SC4AC2

2010/08/09 18:53
CZUM 091853Z AUTO 26011G16KT 9SM -RA OVC018 OVC077 14/12 A2964

2010/08/09 18:58
EHEH 091858Z AUTO 20001KT 9999NDV FEW140 OVC260 18/14 Q1015 BLU

2010/08/09 18:49
RJSH 091849Z 26003KT 2000 BCFG BR FEW001 SCT002 BKN200 22/22 Q1013 RMK 1ST001 3ST002 A2994

2010/08/09 18:45
RJTA 091845Z 16002KT 9999 -SHRA FEW003 BKN010 BKN060 25/23 Q1015 RMK 1ST003 5CU010 7SC060 A3000

2010/08/09 19:00
FIMP 091900Z 08010G24KT 9999 BKN015 SCT050 22/17 Q1025

2010/08/09 18:47
KIWA 091847Z VRB04KT 45SM SCT120 38/12 A2990

2010/08/09 19:00
YMAV 091900Z AUTO 32004KT 7000NDV // NCD 04/03 Q1017

2010/08/09 19:00
YMAV 091900Z AUTO 32004KT 7000NDV // NCD 04/03 Q1017

2010/08/09 19:00
SBFL 091900Z 14014KT 9999 SCT040 18/09 Q1022

2010/08/09 18:50
OAKN 091850Z 13005KT 8000 DU FEW150 31/00 Q1005 BLU NOSIG RMK A2969 DA6200

2010/08/09 19:00
GQNN 091900Z 27009KT CAVOK 28/21 Q1010 NOSIG

2010/08/09 18:56
KBIH 091856Z AUTO 16018G23KT 10SM CLR 30/M07 A2997 RMK AO2 PK WND 16026/1824 SLP096 T03001072 TSNO 

2010/08/09 19:00
VHHH 091900Z 08005KT 040V100 9999 FEW012 SCT025 29/26 Q1004 NOSIG

2010/08/09 19:00
GOOY 091900Z 29004KT 250V320 9999 SCT013 28/22 Q1011 NOSIG

2010/08/09 18:53
KNIP 091853Z COR 05013G22KT 3SM RA FEW020 BKN035CB BKN250 28/25 A2996 RMK AO2 RAB46 SLP139 CB OHD MOV SW T2 SET P0000 T02780250 

2010/08/09 18:55
K1P1 091855Z AUTO 28004KT 10SM SCT055 SCT065 BKN075 31/17 A2990 RMK AO2 T03080170

2010/08/09 18:55
K4M9 091855Z AUTO 15007KT 10SM -RA CLR 35/27 A2992 RMK AO2 LTG DSNT NW P0002

2010/08/09 18:55
KBVU 091855Z AUTO 06005KT 10SM CLR 32/03 A2996 RMK AO2

2010/08/09 18:50
KGTU 091850Z 14010G18KT 10SM CLR 36/19 A2997

2010/08/09 18:55
KMAN 091855Z AUTO 04005KT 10SM CLR 27/08 A2987 RMK AO1

2010/08/09 18:55
KMCJ 091855Z AUTO 07005KT 10SM FEW044 SCT070 35/23 A2992 RMK AO1

2010/08/09 18:55
KSNC 091855Z AUTO 20009KT 9SM CLR 30/20 A2998 RMK AO2

2010/08/09 18:55
KSQL 091855Z 33010KT 25SM FEW020 18/12 A2993

2010/08/09 18:58
PADU 091858Z 24003KT 10SM FEW013 SCT022 BKN035 11/08 A2953 RMK AO2 SLP005 MH T01060083

2010/08/09 18:58
PAGA 091858Z AUTO 14012KT 10SM FEW012 BKN039 OVC046 14/12 A2947 RMK AO2 SLPNO T01390117

2010/08/09 18:56
PAJZ 091856Z AUTO 17012KT 2SM BR SCT006 BKN011 OVC014 11/10 A2958 RMK AO2 PWINO TSNO T01050100 CIG 008V012 SLP006 $

2010/08/09 18:56
PAKI 091856Z AUTO 18018KT 2 1/2SM +RA BR OVC010 09/09 A2924 RMK AO2 TSNO T00940094 CIG 007V014 P0000 SLP903 $

2010/08/09 18:56
PALG 091856Z AUTO 00000KT 10SM -RA FEW038 BKN049 BKN070 12/11 A2938 RMK AO2 TSNO T01160111 BKN V SCT RAB54 P0000 SLP952 $

2010/08/09 18:58
PATE 091858Z AUTO 07013KT 10SM OVC012 13/11 A2933 RMK AO2 SLP942 T01330111

2010/08/09 18:56
K4I3 091856Z AUTO 19005KT 10SM CLR 30/18 A3003 RMK AO2

2010/08/09 18:55
KACB 091855Z AUTO 25004KT 7SM SCT030 31/22 A2986 RMK AO2

2010/08/09 18:58
KACQ 091858Z AUTO 24005KT 10SM CLR 28/21 A2994 RMK AO2

2010/08/09 18:57
KADC 091857Z AUTO 26004KT 10SM CLR 29/18 A2994 RMK AO2

2010/08/09 18:55
KAMN 091855Z AUTO 19010G15KT 10SM SCT018 BKN065 BKN075 28/22 A2991 RMK AO2

2010/08/09 18:55
KAUM 091855Z AUTO 00000KT 10SM BKN032 BKN045 29/23 A2993 RMK AO2

2010/08/09 18:55
KAWG 091855Z AUTO 21006KT 10SM 31/23 A2989 RMK AO2

2010/08/09 18:55
KAXA 091855Z AUTO 00000KT 10SM BKN023 OVC028 28/23 A2991 RMK AO2

2010/08/09 19:05
KBAX 091905Z AUTO 23006KT 5SM BR SCT100 24/22 A2992 RMK AO2

2010/08/09 18:55
KBDH 091855Z AUTO 07006KT 10SM CLR 31/18 A2993 RMK AO2

2010/08/09 18:55
KBNW 091855Z AUTO 15006KT 10SM OVC028 30/25 A2989 RMK AO2

2010/08/09 18:54
KCAD 091854Z AUTO 24009KT 10SM SCT031 BKN041 BKN055 28/21 A2992 RMK AO2

2010/08/09 18:55
KCAV 091855Z AUTO 14005KT 10SM SCT022 OVC029 30/23 A2990 RMK AO2

2010/08/09 18:55
KCBF 091855Z AUTO 17008KT 7SM SCT022 33/26 A2986 RMK AO2

2010/08/09 18:55
KCBG 091855Z AUTO 01004KT 10SM CLR 31/24 A2991 RMK AO2

2010/08/09 18:54
KCDA 091854Z AUTO 00000KT 10SM SCT038 BKN043 BKN050 26/17 A2996 RMK AO2

2010/08/09 19:03
KCFE 091903Z AUTO 04004KT 10SM CLR 32/21 A2993 RMK AO2 T03170209

2010/08/09 18:55
KCFS 091855Z AUTO 21010KT 10SM -DZ OVC090 25/21 A2994 RMK AO2

2010/08/09 18:56
KCHS 091856Z COR 09007KT 10SM FEW010 BKN032CB OVC060 30/25 A2998 RMK AO2 RAB35E55 SLP153 CB NW MOV N P0014 T03000250

2010/08/09 18:55
KCKC 091855Z AUTO 29005KT 10SM CLR 29/14 A2993 RMK AO2

2010/08/09 18:55
KCKN 091855Z AUTO 24011KT 10SM CLR 33/19 A2987 RMK AO2

2010/08/09 18:55
KCKP 091855Z AUTO 07005KT 10SM OVC015 26/23 A2989 RMK AO2

2010/08/09 18:57
KCMY 091857Z AUTO 00000KT 10SM SCT026 30/22 A2992 RMK AO2 T02970224

2010/08/09 18:54
KCNB 091854Z AUTO 05006KT 10SM CLR 31/20 A2992 RMK AO2 T03080197

2010/08/09 18:55
KCNC 091855Z AUTO 19007KT 10SM CLR 30/25 A2987 RMK AO2

2010/08/09 18:56
KCOQ 091856Z AUTO 25004KT 10SM CLR 31/16 A2993 RMK AO2

2010/08/09 18:57
KCQM 091857Z AUTO 26006KT 10SM CLR 29/19 A2993 RMK AO2

2010/08/09 18:55
KCSQ 091855Z AUTO 21009KT 10SM CLR 32/29 A2988 RMK AO2

2010/08/09 18:55
KCVX 091855Z AUTO 29008KT 7SM CLR 28/21 A2990 RMK AO2

2010/08/09 18:55
KDEH 091855Z AUTO 36006KT 10SM CLR 31/22 A2996 RMK AO2

2010/08/09 18:55
KDNS 091855Z AUTO 00000KT 10SM BKN027 31/25 A2989 RMK AO2

2010/08/09 18:57
KDRM 091857Z AUTO 14004KT 10SM BKN021 25/20 A2989 RMK AO2

2010/08/09 18:55
KDTL 091855Z AUTO 20007KT 10SM CLR 30/17 A2995 RMK AO2

2010/08/09 18:54
KDUH 091854Z AUTO 23003KT 10SM CLR 30/20 A2998 RMK AO2

2010/08/09 18:55
KEBS 091855Z AUTO 16003KT 10SM OVC026 29/22 A2989 RMK AO2

2010/08/09 18:55
KEOK 091855Z AUTO 16005KT 10SM CLR 31/23 A2989 RMK AO2

2010/08/09 18:55
KERY 091855Z AUTO 18004KT 10SM CLR 27/22 A2989 RMK AO2

2010/08/09 18:55
KFFL 091855Z AUTO 20006KT 10SM CLR 30/26 A2989 RMK AO2

2010/08/09 18:55
KFFX 091855Z AUTO 27004KT 10SM SCT022 BKN028 OVC035 26/22 A2993 RMK AO2

2010/08/09 18:54
KFKS 091854Z AUTO 21007KT 10SM BKN025 25/20 A2990 RMK AO2

2010/08/09 18:56
KFPK 091856Z AUTO 18005KT 10SM SCT060 OVC095 22/22 A2994 RMK AO2

2010/08/09 18:56
KFSD 091856Z 09006KT 10SM SCT025 29/23 A2991 RMK AO2 SLP119 BKN ABV 120 T02890233

2010/08/09 18:54
KFSE 091854Z AUTO 22009KT 10SM CLR 29/19 A2990 RMK AO2

2010/08/09 18:55
KFSW 091855Z AUTO 19006KT 10SM CLR 32/23 A2989 RMK AO2

2010/08/09 18:55
KFXY 091855Z AUTO 10005KT 10SM BKN026 BKN033 BKN041 28/22 A2993 RMK AO2

2010/08/09 18:55
KGGI 091855Z AUTO 17004KT 10SM CLR 30/23 A2990 RMK AO2

2010/08/09 18:54
KGOV 091854Z AUTO 12004KT 5SM HZ BKN017 BKN022 OVC049 26/22 A2991 RMK AO2

2010/08/09 18:50
KGPM 091850Z 15007KT 10SM BKN080 37/21 A2994

2010/08/09 18:55
KHAF 091855Z AUTO 21007KT 10SM OVC012 14/12 A2996 RMK AO2

2010/08/09 18:55
KHAI 091855Z AUTO 14003KT 10SM -RA SCT090 BKN110 25/23 A2996 RMK AO2

2010/08/09 18:55
KHNR 091855Z AUTO 00000KT 10SM CLR 31/25 A2989 RMK AO2

2010/08/09 18:55
KHUA 091855Z 24007G15KT 07SM SCT090 36/22 A2999

2010/08/09 18:54
KHYX 091854Z AUTO 21009KT 7SM SCT036 SCT050 OVC065 23/21 A2995 RMK AO2

2010/08/09 18:55
KI75 091855Z AUTO 17007KT 10SM CLR 29/23 A2988 RMK AO2

2010/08/09 18:55
KICL 091855Z AUTO 21006KT 7SM CLR 34/25 A2985 RMK AO2

2010/08/09 18:55
KIIB 091855Z AUTO 02005KT 10SM CLR 31/25 A2992 RMK AO1

2010/08/09 18:55
KIKV 091855Z AUTO 20003KT 10SM CLR 30/25 A2988 RMK AO2

2010/08/09 18:55
KIRS 091855Z AUTO 14004KT 10SM CLR 27/21 A2995 RMK AO2

2010/08/09 18:55
KISQ 091855Z AUTO 15007KT 10SM CLR 26/22 A2989 RMK AO2

2010/08/09 18:54
KJYG 091854Z AUTO 00000KT 10SM SCT030 30/27 A2992 RMK AO2

2010/08/09 18:55
KJYM 091855Z AUTO 03003KT 10SM -RA SCT070 24/21 A3000 RMK AO2

2010/08/09 18:55
KLDM 091855Z AUTO 23011G16KT 10SM SCT011 27/23 A2992 RMK AO2

2010/08/09 18:55
KLRJ 091855Z AUTO 05005KT 10SM OVC012 26/22 A2989 RMK AO2

2010/08/09 18:56
KLWA 091856Z AUTO 19007KT 10SM SCT110 27/22 A2994 RMK AO2

2010/08/09 18:55
KMCD 091855Z AUTO 07003KT 10SM CLR 23/19 A2991 RMK AO2

2010/08/09 18:54
KMGN 091854Z AUTO 00000KT 7SM SCT020 BKN055 29/21 A2987 RMK AO2

2010/08/09 18:54
KMOP 091854Z AUTO 25008KT 7SM SCT024 BKN032 OVC060 25/23 A2992 RMK AO2

2010/08/09 18:55
KMPZ 091855Z AUTO 20007KT 10SM CLR 31/23 A2989 RMK AO2

2010/08/09 18:55
KMUT 091855Z AUTO 13003KT 10SM CLR 31/26 A2988 RMK AO2

2010/08/09 18:55
KMXO 091855Z AUTO 00000KT 10SM CLR 30/24 A2992 RMK AO2

2010/08/09 18:56
KNTU 091856Z 11008KT 10SM FEW035 SCT200 29/22 A3003 RMK AO2 SLP171 T02890222 $

2010/08/09 18:55
KOEB 091855Z AUTO 11004KT 10SM -DZ CLR 24/22 A2997 RMK AO2

2010/08/09 18:55
KOOA 091855Z AUTO 18010KT 10SM CLR 31/23 A2989 RMK AO2

2010/08/09 18:55
KORC 091855Z AUTO 08005KT 10SM OVC012 26/25 A2991 RMK AO2

2010/08/09 18:55
KOSC 091855Z AUTO 09004KT 10SM SCT012 24/21 A2990 RMK AO2

2010/08/09 18:55
KOZW 091855Z AUTO 21005KT 3SM RA SCT006 BKN026 OVC045 23/22 A2997 RMK AO2

2010/08/09 18:55
KPEA 091855Z AUTO 10SM CLR A2988 RMK AO2

2010/08/09 18:55
KPHN 091855Z AUTO 20003KT 10SM CLR 25/21 A2995 RMK AO2

2010/08/09 18:54
KPZQ 091854Z AUTO 00000KT 10SM CLR 25/20 A2990 RMK AO2

2010/08/09 18:55
KRDK 091855Z AUTO 21006KT 10SM 34/26 A2985 RMK AO2

2010/08/09 18:55
KRGK 091855Z AUTO 00000KT 10SM CLR 32/23 A2990 RMK AO2

2010/08/09 18:55
KRMY 091855Z AUTO 14006KT 10SM -RA SCT005 SCT055 SCT090 23/21 A2996 RMK AO2

2010/08/09 18:55
KRNP 091855Z AUTO 19005KT 10SM -RA BKN060 OVC070 23/21 A2994 RMK AO2

2010/08/09 18:54
KRQB 091854Z AUTO 23006KT 10SM SCT012 SCT017 BKN036 24/22 A2994 RMK AO2

2010/08/09 18:55
KRYV 091855Z AUTO 28005KT 10SM BKN032 29/22 A2992 RMK AO2

2010/08/09 18:54
KSBN 091854Z 19006KT 6SM HZ FEW060 SCT080 27/22 A2997 RMK AO2 RAB04E13 SLP141 P0000 T02670217

2010/08/09 18:55
KSDA 091855Z AUTO 20009KT 10SM CLR 33/27 A2985 RMK AO2

2010/08/09 18:55
KSJX 091855Z AUTO 28006KT 10SM BKN017 BKN024 26/21 A2990 RMK AO2

2010/08/09 18:55
KSLH 091855Z AUTO 07006KT 10SM BKN018 BKN028 25/22 A2988 RMK AO2

2010/08/09 18:52
KSPS 091852Z COR 20011G15KT 10SM SCT075 38/17 A2989 RMK AO2 SLP104 P0003 T03830172

2010/08/09 18:55
KSTE 091855Z AUTO 33003KT 10SM SCT026 SCT032 31/22 A2992 RMK AO2

2010/08/09 18:55
KSUW 091855Z AUTO 00000KT 10SM CLR 31/22 A2988 RMK AO2

2010/08/09 18:55
KTKV 091855Z AUTO 30007KT 10SM SCT047 SCT055 30/18 A2993 RMK AO2 T03010179

2010/08/09 18:55
KTNU 091855Z AUTO 19006KT 10SM CLR 31/24 A2989 RMK AO2

2010/08/09 18:53
KTTF 091853Z AUTO 28004KT 10SM CLR 29/22 A2995 RMK AO2

2010/08/09 18:55
KTVK 091855Z AUTO 10SM CLR 28/25 A2991 RMK AO2

2010/08/09 18:50
KUKT 091850Z AUTO 22010G15KT 10SM SCT050 33/19 A3000 RMK AO1

2010/08/09 18:55
KUNU 091855Z AUTO 25007KT 10SM SCT031 27/20 A2993 RMK AO2 T02740198

2010/08/09 18:54
KVLL 091854Z AUTO 28005KT 10SM -RA SCT075 27/19 A2999 RMK AO2

2010/08/09 18:55
KVTI 091855Z AUTO 06003KT 10SM CLR 31/26 A2991 RMK AO2

2010/08/09 18:55
KY70 091855Z AUTO 21009KT 10SM BKN013 BKN046 OVC055 27/22 A2993 RMK AO2 T02710219

2010/08/09 19:00
SBCF 091900Z 23003KT CAVOK 27/04 Q1019

2010/08/09 19:00
SBCY 091900Z 31003KT CAVOK 36/07 Q1012

2010/08/09 19:00
SBCR 091900Z 23007KT CAVOK 29/04 Q1014

2010/08/09 19:00
SBBG 091900Z 14006KT CAVOK 16/04 Q1024

2010/08/09 19:00
SBOI 091900Z 10008KT 9999 FEW040 SCT100 33/22 Q1011

2010/08/09 19:00
SBCG 091900Z 31006KT CAVOK 31/04 Q1016

2010/08/09 19:00
SBCT 091900Z 09009KT 9999 BKN007 OVC009 11/09 Q1023

2010/08/09 19:00
SBFZ 091900Z 10017KT CAVOK 29/20 Q1011

2010/08/09 19:00
SBMQ 091900Z 06006KT 9999 FEW025 35/25 Q1010

2010/08/09 19:00
SBGR 091900Z 16005KT 7000 FEW014 BKN019 16/12 Q1023

2010/08/09 19:00
UTTT 091900Z 06004MPS CAVOK 27/06 Q1006 R08R/CLRD70 TEMPO 03005G10MPS

2010/08/09 18:49
RJSH 091849Z 26003KT 2000 BCFG BR FEW001 SCT002 BKN200 22/22 Q1013 RMK 1ST001 3ST002 A2994

2010/08/09 18:45
RJTA 091845Z 16002KT 9999 -SHRA FEW003 BKN010 BKN060 25/23 Q1015 RMK 1ST003 5CU010 7SC060 A3000

2010/08/09 18:58
EHEH 091858Z AUTO 20001KT 9999NDV FEW140 OVC260 18/14 Q1015 BLU

2010/08/09 18:45
RJTA 091845Z 16002KT 9999 -SHRA FEW003 BKN010 BKN060 25/23 Q1015 RMK 1ST003 5CU010 7SC060 A3000

2010/08/09 18:54
KNFG 091854Z COR 24009KT 7SM FEW017 22/13 A2992 RMK AO2 SLP132 T02220133 

2010/08/09 19:00
GOOY 091900Z 29004KT 250V320 9999 SCT013 28/22 Q1011 NOSIG

2010/08/09 18:53
KRYT 091853Z AUTO VRB03KT 10SM CLR 34/16 A2999 RMK AO2 SLP139 T03390161 $ 

2010/08/09 18:56
KMEH 091856Z AUTO VRB04KT 10SM CLR 22/06 A2993 RMK AO2 SLP121 T02170056 TSNO 

2010/08/09 19:00
LBSF 091900Z 29003MPS 270V330 9999 SCT050 23/16 Q1016 NOSIG

2010/08/09 19:00
LBWN 091900Z 36005MPS CAVOK 26/21 Q1010 NOSIG

2010/08/09 19:00
LBBG 091900Z 01006MPS CAVOK 27/21 Q1010 NOSIG

2010/08/09 19:00
LBPD 091900Z 12003MPS 9999 FEW055 SCT100 26/20 Q1013 NOSIG

2010/08/09 19:00
LBGO 091900Z 27002MPS CAVOK 23/20 Q1013 NOSIG

2010/08/09 19:00
OPST 091900Z 23002KT 4000 FU FEW040 SCT110 31/23 Q1002 RH66

2010/08/09 19:00
DIAP 091900Z 25005KT 7000 FEW011 BKN080 25/22 Q1013 NOSIG

2010/08/09 19:00
LUKK 091900Z 03005KT 010V080 9999 SCT050CB 25/18 Q1012 08CLRD65 NOSIG

2010/08/09 19:00
LDSP 091900Z 30011KT 270V330 CAVOK 28/10 Q1013 NOSIG 

2010/08/09 19:00
LDPL 091900Z VRB01KT CAVOK 22/18 Q1014 

2010/08/09 19:00
LDDU 091900Z 30006KT 280V020 CAVOK 24/15 Q1013 NOSIG 

2010/08/09 19:00
LDZA 091900Z 07004KT 040V110 CAVOK 22/17 Q1016 NOSIG 

2010/08/09 19:00
LDZD 091900Z 31003KT CAVOK 22/16 Q1014 

2010/08/09 19:00
LDOS 091900Z 03004KT CAVOK 21/18 Q1017

2010/08/09 19:00
FBSK 091900Z 09008KT CAVOK 13/07 Q1026 NOSIG

2010/08/09 19:00
SLLP 091900Z 13009KT 080V180 9999 SKC 15/M07 Q1036

2010/08/09 19:00
SLCB 091900Z 32004KT 9999 SKC 25/01 Q1023

2010/08/09 19:00
SLVR 091900Z 15008KT 8000 SKC 26/10 Q1016

2010/08/09 18:55
EBFN 091855Z 24008KT 9999 FEW035 SCT230 19/12 Q1015 BLU

2010/08/09 18:55
EBFS 091855Z 23004KT 9999 FEW060 SCT080 BKN250 19/11 Q1016 BLU

2010/08/09 18:50
EDHL 091850Z 21004KT CAVOK 17/17 Q1016 RMK C

2010/08/09 18:50
EDLN 091850Z VRB01KT CAVOK 18/12 Q1015 RMK ATIS C

2010/08/09 18:50
EDLP 091850Z 08001KT CAVOK 17/12 Q1016 RMK RWY24 TRL60 AW ATIS I

2010/08/09 18:50
EDLW 091850Z 22004KT CAVOK 18/13 Q1016 RMK ATIS F

2010/08/09 18:50
EDNY 091850Z 00000KT CAVOK 19/14 Q1016 RMK ATIS E

2010/08/09 18:50
EDXW 091850Z AUTO 22005KT 9999NDV NCD 16/10 Q1015 RMK ATIS INFO C

2010/08/09 18:55
EHAM 091855Z 14006KT CAVOK 19/13 Q1014 NOSIG

2010/08/09 18:55
EHBK 091855Z AUTO 25003KT 210V290 9999NDV NCD 19/11 Q1016 NOSIG

2010/08/09 18:55
EHDL 091855Z AUTO 18002KT 9999NDV BKN070 17/14 Q1015 BLU

2010/08/09 18:55
EHGG 091855Z AUTO 28002KT 9999NDV BKN039 19/13 Q1015 NOSIG

2010/08/09 18:55
EHGR 091855Z AUTO 18002KT 9999NDV BKN260 19/12 Q1015 BLU

2010/08/09 18:55
EHKD 091855Z AUTO 16005KT 9999NDV NCD 18/13 Q1014 BLU BLU NOSIG

2010/08/09 18:55
EHLW 091855Z AUTO 19002KT 9999NDV OVC250 18/13 Q1015 BLU

2010/08/09 18:55
EHRD 091855Z 16004KT CAVOK 20/11 Q1014 NOSIG

2010/08/09 18:55
EHVK 091855Z AUTO 15001KT 9999NDV FEW230 19/13 Q1015 BLU

2010/08/09 18:55
EHVL 091855Z AUTO 18008KT 9999NDV FEW110 18/13 Q1014 BLU

2010/08/09 18:55
EHWO 091855Z AUTO 11003KT 9999NDV SCT075 BKN080 20/12 Q1014 BLU

2010/08/09 18:55
ETAR 091855Z AUTO 00000KT 9999 OVC080 18/16 A3002 RMK AO2 DZB1759E1802 SLP162 P0000 T01790159 $

2010/08/09 18:56
ETIC 091856Z AUTO 00000KT 9999 CLR 16/16 A3004 RMK AO2 SLP168 T01630159

2010/08/09 18:55
ETIK 091855Z AUTO 00000KT 9999 CLR 17/14 A3005 RMK AO2 SLP168 T01740142 $

2010/08/09 18:55
ETOU 091855Z AUTO 00000KT 9999 CLR 20/12 A3002 RMK AO2 SLP163 T01950124

2010/08/09 19:00
SBBR 091900Z 08009KT CAVOK 30/M06 Q1020

2010/08/09 19:00
SBCG 091900Z 31006KT CAVOK 31/04 Q1016

2010/08/09 19:00
SBFL 091900Z 14014KT 9999 SCT030 18/09 Q1022

2010/08/09 19:00
SBGL 091900Z 24014KT 9999 SCT020 BKN050 23/17 Q1020

2010/08/09 19:00
SBGR 091900Z 16005KT 7000 FEW014 BKN019 16/12 Q1023

2010/08/09 19:00
SBPV 091900Z 18006KT CAVOK 36/13 Q1010

2010/08/09 19:00
SBSJ 091900Z 22011KT 9999 SCT020 18/13 Q1022

2010/08/09 19:00
SGAS 091900Z 17006KT CAVOK 18/09 Q1019

2010/08/09 19:00
SGES 091900Z 21004KT CAVOK 23/14 Q1016

2010/08/09 19:00
SVCR 091900Z 14015KT 9999 BKN030 33/24 Q1008

2010/08/09 19:00
SVJC 091900Z 28012KT 9999 SCT040 33/23 Q1009

2010/08/09 19:00
SVLF 091900Z 00000KT 9999 BKN040 XX/XX Q1010

2010/08/09 19:00
SVMC 091900Z 16011KT 9999 -TS FEW010 CB BKN013 31/23 Q1010

2010/08/09 19:00
SVMD 091900Z 18012KT 9999 FEW030 SCT100 28/19 Q1022

2010/08/09 19:00
SVMI 091900Z 36003KT 9999 FEW016 BKN100 31/27 Q1011 NOSIG

2010/08/09 19:00
SVSA 091900Z 17015KT 9999 SCT020 32/19 Q1012

2010/08/09 18:50
KQEP 091850Z AUTO 00000KT 4SM BR CLR 25/22 A2985 RMK A02

2010/08/09 18:50
KQFW 091850Z AUTO 06003KT 5SM BR CLR 23/21 A2991 RMK A02

2010/08/09 18:55
KQC3 091855Z AUTO 05005KT 9999 OVC160 18/16 A3012 RMK AO2 SLP098 T01810159 PNO $

2010/08/09 18:55
KQPV 091855Z AUTO 29003KT 7000 SCT180 37/04 A2958 RMK AO2 SLP010 T03700040

2010/08/09 18:55
KQWM 091855Z 33011KT 9999 FEW140 BKN230 40/03 A2951 RMK SLP978 QNH999

2010/08/09 19:00
KQEN 091900Z AUTO 26006KT 1SM BR VV003 19/18 A3043 RMK A02

2010/08/09 19:00
KQES 091900Z AUTO 15004KT 7SM BKN065 26/23 A2983 RMK A02

2010/08/09 19:00
KQEY 091900Z AUTO 18004KT 7SM -SHRA OVC032 25/23 A2961 RMK A02

2010/08/09 19:10
KQEV 091910Z AUTO 18001KT 5SM BR FEW050 SCT100 26/23 A2977 RMK A02

2010/08/09 18:59
CYKL 091859Z AUTO 29013KT 9SM -RA SCT034 BKN069 BKN076 14/08 A2960

2010/08/09 18:59
CWLY 091859Z AUTO 35015KT 2 1/4SM BKN023 BKN057 BKN072 14/13 A2990

2010/08/09 18:54
OAHR 091854Z AUTO /////KT //// // ////// 29/M02 Q1010

2010/08/09 19:00
TKPN 091900Z 10010KT 9999 FEW016 SCT260 30/25 Q1013

2010/08/09 19:00
ORSU 091900Z VRB03KT CAVOK 28/03 Q1008 

2010/08/09 19:00
MHAM 091900Z 23004KT 9999 FEW025TCU BKN250 32/26 TCU N FEW090

2010/08/09 19:00
MHTR 091900Z 08012KT 9999 FEW026TCU BKN250 33/26 TCU W HZ

2010/08/09 19:00
MHYR 091900Z 09005KT 9999 SCT025 BKN080 30/20 TCU TD

2010/08/09 19:00
MHCA 091900Z 16003KT 9999 SCT028TCU 30/22 TCU TD

2010/08/09 19:00
MHSR 091900Z 36006KT 9999 SCT025CB BKN250 27/20 CB S TCU E ESE W

2010/08/09 19:00
MHNO 091900Z 18004KT 9999 SCT040TCU 29/// TCU TD HZ

2010/08/09 19:00
MHLE 091900Z 02005KT 9999 SCT024TCU BKN200 24/14 Q1024 TCU TD

2010/08/09 19:00
MHCH 091900Z 18004KT 9999 TS SCT032CB 30/25 FEW100 CB TS PCPN S

2010/08/09 19:00
WSSS 091900Z 16005KT 9999 FEW018 BKN300 28/25 Q1009 NOSIG

2010/08/09 19:00
NWWW 091900Z AUTO VRB02KT 9999NDV BKN060/// 16/12 Q1024

2010/08/09 19:00
FBSK 091900Z 09008KT CAVOK 13/07 Q1026 NOSIG

2010/08/09 18:59
KNGU 091859Z 07010KT 10SM FEW042 SCT250 32/21 A3004 RMK AO2 SLP171 T03170206 

2010/08/09 19:00
KNEL 091900Z AUTO 21003KT 8SM BKN070 33/14 A2997 RMK AO2 SLP148 T03280144 $ 

2010/08/09 19:00
SBPK 091900Z 21006KT CAVOK 17/01 Q1025

2010/08/09 18:56
KHLR 091856Z AUTO 13006G14KT 10SM CLR 37/20 A2995 RMK AO2 SLP130 T03670200 $

2010/08/09 18:55
KHUA 091855Z 24007G15KT 07SM SCT090 36/22 A2999

2010/08/09 18:56
KNMM 091856Z 19004KT 10SM SCT040 34/24 A2997 RMK AO2 SLP154 T03390239 $

2010/08/09 18:56
KNPA 091856Z 13009KT 9SM FEW035 SCT160 SCT280 33/26 A2996 RMK AO2 SLP147 T03280256

2010/08/09 18:56
KNSI 091856Z COR 17005KT 7SM FEW009 BKN011 16/13 A2995 RMK AO2 SLP138 T01610128 TSNO

2010/08/09 18:56
KNTU 091856Z 11008KT 10SM FEW035 SCT200 29/22 A3003 RMK AO2 SLP171 T02890222 $

2010/08/09 18:52
KNZY 091852Z 26008KT 10SM FEW019 23/13 A2993 RMK AO2 SLP134 T02330128 $

2010/08/09 18:55
KSVN 091855Z 09010G17KT 12SM SCT050 BKN250 34/21 A2998 RMK AO2A SLP155

2010/08/09 18:54
MUCF 091854Z 25015KT 9000 BKN018 29/24 Q1014

2010/08/09 18:55
MUCL 091855Z 23006KT 9999 FEW018CB OVC070 29/28 Q1015

2010/08/09 18:50
MUCM 091850Z 10004KT 060V150 9000 SCT020 BKN090 32/22 Q1014

2010/08/09 18:53
MUCU 091853Z 16008KT 110V200 9999 SCT020CB 31/25 Q1015

2010/08/09 18:55
MUHA 091855Z 17010KT 7000 SCT018 OVC066 25/21 Q1014

2010/08/09 18:51
MUHG 091851Z VRB02KT 9999 SCT020TCU BKN100 33/23 Q1012

2010/08/09 18:55
MUMZ 091855Z 33006KT 9000 BKN025 32/22 Q1013

2010/08/09 18:55
MUVR 091855Z 17005KT 120V210 8000 -RA FEW015CB SCT018 OVC060 23/22 Q1 015

2010/08/09 18:50
OAKN 091850Z 13005KT 8000 DU FEW150 31/00 Q1005 BLU NOSIG RMK A2969 DA6200

2010/08/09 18:58
PAGA 091858Z AUTO 14012KT 10SM FEW012 BKN039 OVC046 14/12 A2947 RMK AO2 SLPNO T01390117

2010/08/09 19:00
TAPA 091900Z 07013KT 9999 -SHRA BKN018 SCT060 30/25 Q1014

2010/08/09 18:55
KDMA 091855Z AUTO RMK AO2 SLPNO RVRNO PWINO PNO FZRANO TSNO VISNO CHINO $

2010/08/09 18:55
KHRT 091855Z 19008KT 10SM FEW030 SCT250 33/26 A2995 RMK AO2A SLP145 T03260265 $

2010/08/09 18:51
KHSA 091851Z 22007KT 7SM -RA SCT008 BKN025 OVC034 27/26 A2995

2010/08/09 18:55
KLFI 091855Z 09010KT 10SM FEW035 FEW250 30/19 A3003 RMK AO2A SLP169 T03040190

2010/08/09 18:55
KMMT 091855Z 09007KT 10SM FEW040 FEW250 33/22 A3001 RMK SLP161

2010/08/09 18:55
KNBG 091855Z 12014G23KT 2SM +TSRA BR FEW026CB BKN033 BKN050 OVC250 26/23 A2998 RMK AO2 PK WND 11027/1841 TSB19RAB39 SLP151 CNS LTGICCCCG NE-SW TS NE-SW MOV SW T1 SET P0012 T02560228 $

2010/08/09 18:56
KNCA 091856Z 16008KT 4SM HZ SCT025 BKN060 31/M05 A3002 RMK AO2 RAB00E32 SLP166 P0023 T03101050 $

2010/08/09 18:54
KNFG 091854Z COR 24009KT FEW017 22/13 A2992 RMK AO2 SLP132 T02220133

2010/08/09 18:56
KNSE 091856Z 11006KT 9SM SCT040TCU SCT150 35/24 A2996 RMK AO2 SLP130 TCU W T03500239 $

2010/08/09 18:56
KNXX 091856Z 23007KT 10SM SCT045 32/17 A3000 RMK AO2 SLP161 T03220167 $

2010/08/09 18:55
KWDG 091855Z 17014G18KT 10SM SCT080 SCT200 39/19 A2988

2010/08/09 19:01
PADM 091901Z AUTO 14013G20KT 2 1/2SM -RA BR FEW006 SCT018 OVC024 11/09 A2938 RMK AO2 TSNO T01110088 P0001 SLP938 $

2010/08/09 18:56
KNRS 091856Z 24008KT 10SM FEW017 20/13 A2995 RMK AO2 SLP139 T02000128

2010/08/09 19:00
KNEL 091900Z AUTO 21003KT 8SM BKN070 33/14 A2997 RMK AO2 SLP148 T03280144 $

2010/08/09 18:51
KP58 091851Z AUTO 07005KT 23/22 A2991 RMK AO2 SLP119 T02330217 PWINO TSNO

2010/08/09 18:56
KBIH 091856Z AUTO 16018G23KT 10SM CLR 30/M07 A2997 RMK AO2 PK WND 16026/1824 SLP096 T03001072 TSNO

2010/08/09 18:56
KMEH 091856Z AUTO VRB04KT 10SM CLR 22/06 A2993 RMK AO2 SLP121 T02170056 TSNO

2010/08/09 19:00
SBSN 091900Z 10007KT 9999 FEW025 32/24 Q1011

2010/08/09 19:00
SBJP 091900Z 18012KT 9999 SCT018 BKN070 26/22 Q1015 

2010/08/09 19:00
SBVT 091900Z 13006KT CAVOK 29/19 Q1016

2010/08/09 19:00
SBUG 091900Z 09008KT CAVOK 17/04 Q1023 

2010/08/09 19:00
SBTF 091900Z 36003KT 9999 SCT020 33/25 Q1011

2010/08/09 19:00
SBTT 091900Z 19005KT 9999 FEW020 SCT100 32/22 Q1013

2010/08/09 19:00
SBTE 091900Z 14005KT CAVOK 37/10 Q1010

2010/08/09 19:00
SBPL 091900Z 12013KT 9999 SCT025 30/14 Q1016

2010/08/09 19:00
SBCZ 091900Z 22002KT 5000 HZ FEW040 35/20 Q1014

2010/08/09 19:00
SBPK 091900Z 21006KT CAVOK 17/01 Q1025

2010/08/09 19:00
SBRB 091900Z 20004KT 5000 FU SCT030 36/15 Q1013 

2010/08/09 19:00
SBPB 091900Z 05013KT CAVOK 30/22 Q1010

2010/08/09 19:00
SBCJ 091900Z 15006KT CAVOK 32/09 Q1015

2010/08/09 18:50
OAKN 091850Z 13005KT 8000 DU FEW150 31/00 Q1005 BLU NOSIG RMK A2969 DA6200

2010/08/09 18:55
OPLA 091855Z 00000KT 4000 FU FEW100 30/27 Q1002 NOSIG

2010/08/09 18:55
OPNH 091855Z 00000KT 4000M FU SCT035 SCT100 29/27 Q1000

2010/08/09 19:00
OPRN 091900Z 31008KT 4000 BR FEW035 SCT100 29/25 Q1004.5

2010/08/09 18:53
OPSK 091853Z 00000KT 2000 HZ SCT040 SCT1 CHECK TEXT NEW ENDING ADDED VABBYFYX

2010/08/09 19:00
UTTT 091900Z 06004MPS CAVOK 27/06 Q1006 R08R/CLRD70 TEMPO 03005G10MPS

2010/08/09 18:55
EBFN 091855Z 24008KT 9999 FEW035 SCT230 19/12 Q1015 BLU

2010/08/09 18:55
EBFS 091855Z 23004KT 9999 FEW060 SCT080 BKN250 19/11 Q1016 BLU

2010/08/09 19:00
SBSV 091900Z 13008KT 9999 SCT017 25/19 Q1017

2010/08/09 19:00
SBGO 091900Z 08006KT 9999 FEW030 33/07 Q1017 

2010/08/09 19:00
SBFN 091900Z 11008KT 9999 SCT017 27/23 Q1013

2010/08/09 18:56
K79J 091856Z 12009KT 10SM CLR 36/21 A2996 RMK AO2 SLP139 T03560206 PNO $

2010/08/09 18:55
KCVS 091855Z 24012KT 10SM FEW080 SCT150 30/15 A3007 RMK AO2A SLP134 T02960150 $

2010/08/09 18:55
KDMA 091855Z AUTO RMK AO2 SLPNO RVRNO PWINO PNO FZRANO TSNO VISNO CHINO $

2010/08/09 18:55
KFTK 091855Z VRB04KT 10SM BKN060 35/23 A2997 RMK AO2A SLP140 T03480226

2010/08/09 18:55
KHIF 091855Z 18014G24KT 10SM -SHRA BKN075 BKN180 BKN210 25/06 A3005 RMK AO2A CIG 130 RWY32 SLP069 MIDFLD WND 150/05KT T02500056

2010/08/09 18:55
KHOP 091855Z AUTO 00000KT 10SM FEW150 SCT190 SCT210 36/23 A2995 RMK AO2 SLP135 T03580228

2010/08/09 18:55
KHRT 091855Z 19008KT 10SM FEW030 SCT250 33/26 A2995 RMK AO2A SLP145 T03260265 $

2010/08/09 18:55
KLFI 091855Z 09010KT 10SM FEW035 FEW250 30/19 A3003 RMK AO2A SLP169 T03040190

2010/08/09 18:55
KMMT 091855Z 09007KT 10SM FEW040 FEW250 33/22 A3001 RMK SLP161

2010/08/09 18:56
KNBC 091856Z 10011G14KT 7SM FEW030 SCT050 BKN200 32/25 A2998 RMK AO2 SLP152 T03220250 $

2010/08/09 18:55
KNBG 091855Z 12014G23KT 2SM +TSRA BR FEW026CB BKN033 BKN050 OVC250 26/23 A2998 RMK AO2 PK WND 11027/1841 TSB19RAB39 SLP151 CNS LTGICCCCG NE-SW TS NE-SW MOV SW T1 SET P0012 T02560228 $

2010/08/09 18:56
KNCA 091856Z 16008KT 4SM HZ SCT025 BKN060 31/M05 A3002 RMK AO2 RAB00E32 SLP166 P0023 T03101050 $

2010/08/09 18:56
KNJK 091856Z VRB03KT 10SM CLR 36/06 A2979 RMK AO2 SLP101 T03560056

2010/08/09 18:56
KNUQ 091856Z 35008KT 10SM CLR 20/13 A2992 RMK AO2 SLP134 T02000128

2010/08/09 18:55
KBIX 091855Z 09007KT 060V150 10SM SCT030 36/24 A2993 RMK AO2A SLP136 WND DATA ESTMD ALSTG/SLP ESTMD

2010/08/09 18:55
KCOF 091855Z 12010KT 10SM CLR 30/23 A2992 RMK AO2A SLP131 T02990227

2010/08/09 18:55
KLFI 091855Z 09010KT 10SM FEW035 FEW250 30/19 A3003 RMK AO2A SLP169 T03040190

2010/08/09 18:56
KNBC 091856Z 10011G14KT 7SM FEW030 SCT050 BKN200 32/25 A2998 RMK AO2 SLP152 T03220250 $

2010/08/09 18:55
KNBG 091855Z 12014G23KT 2SM +TSRA BR FEW026CB BKN033 BKN050 OVC250 26/23 A2998 RMK AO2 PK WND 11027/1841 TSB19RAB39 SLP151 CNS LTGICCCCG NE-SW TS NE-SW MOV SW T1 SET P0012 T02560228 $

2010/08/09 18:56
KNCA 091856Z 16008KT 4SM HZ SCT025 BKN060 31/M05 A3002 RMK AO2 RAB00E32 SLP166 P0023 T03101050 $

2010/08/09 18:56
KNGP 091856Z 15009KT 10SM FEW025 SCT040TCU SCT250 32/26 A2992 RMK AO2 SLP132 TCU DSNT SE T03170261 VISNO

2010/08/09 18:54
KNKT 091854Z 14005KT 10SM FEW015 SCT080 29/23 A3003 RMK AO2 SLP164 T02940233

2010/08/09 18:55
KPAM 091855Z AUTO VRB06KT 10SM FEW055 34/23 A2994 RMK AO2 SLP140 T03410232 $

2010/08/09 18:55
KDMA 091855Z AUTO RMK AO2 SLPNO RVRNO PWINO PNO FZRANO TSNO VISNO CHINO $

2010/08/09 18:55
KHOP 091855Z AUTO 00000KT 10SM FEW150 SCT190 SCT210 36/23 A2995 RMK AO2 SLP135 T03580228

2010/08/09 18:55
KHRT 091855Z 19008KT 10SM FEW030 SCT250 33/26 A2995 RMK AO2A SLP145 T03260265 $

2010/08/09 18:56
KNBC 091856Z 10011G14KT 7SM FEW030 SCT050 BKN200 32/25 A2998 RMK AO2 SLP152 T03220250 $

2010/08/09 18:56
KNCA 091856Z 16008KT 4SM HZ SCT025 BKN060 31/M05 A3002 RMK AO2 RAB00E32 SLP166 P0023 T03101050 $

2010/08/09 18:56
KNFL 091856Z 26005KT 10SM FEW080 29/04 A2996 RMK AO2 SLP119 T02890044

2010/08/09 18:56
KNXP 091856Z 13012G17KT CLR 33/M01 A2997 RMK AO2 SLP109 T03331006 $

2010/08/09 18:56
KNXX 091856Z 23007KT 10SM SCT045 32/17 A3000 RMK AO2 SLP161 T03220167 $

2010/08/09 18:54
KNFG 091854Z COR 24009KT FEW017 22/13 A2992 RMK AO2 SLP132 T02220133

2010/08/09 18:56
KNFL 091856Z 26005KT 10SM FEW080 29/04 A2996 RMK AO2 SLP119 T02890044

2010/08/09 18:56
KNGP 091856Z 15009KT 10SM FEW025 SCT040TCU SCT250 32/26 A2992 RMK AO2 SLP132 TCU DSNT SE T03170261 VISNO

2010/08/09 18:54
KNKT 091854Z 14005KT 10SM FEW015 SCT080 29/23 A3003 RMK AO2 SLP164 T02940233

2010/08/09 18:55
KNKX 091855Z 26007KT 10SM FEW018 23/13 A2993 RMK AO2 SLP130 T02330128

2010/08/09 18:56
KNPA 091856Z 13009KT 9SM FEW035 SCT160 SCT280 33/26 A2996 RMK AO2 SLP147 T03280256

2010/08/09 18:56
KNTD 091856Z 22008KT 5SM HZ BKN012 17/13 A2995 RMK SLP142 LAG PK 16/13/10010 T01720133

2010/08/09 18:56
KNTU 091856Z 11008KT 10SM FEW035 SCT200 29/22 A3003 RMK AO2 SLP171 T02890222 $

2010/08/09 18:56
KNXP 091856Z 13012G17KT CLR 33/M01 A2997 RMK AO2 SLP109 T03331006 $

2010/08/09 18:56
KNXX 091856Z 23007KT 10SM SCT045 32/17 A3000 RMK AO2 SLP161 T03220167 $

2010/08/09 18:56
KNYG 091856Z AUTO 17007KT 9SM SCT060 BKN200 32/22 A3000 RMK AO2 SLP158 T03220222 $

2010/08/09 18:55
KPOE 091855Z AUTO 17003KT 10SM CLR 34/22 A2996 RMK AO2 SLP144 T03440217

2010/08/09 18:55
KRCA 091855Z 19018G23KT 10SM FEW150 BKN200 33/16 A2992 RMK AO2A SLP102 T03290155

2010/08/09 18:55
KVBG 091855Z 32008KT 10SM FEW007 SCT012 17/13 A2996 RMK AO2 SLP137 T01720128 VISNO RWY12 $

2010/08/09 18:55
KHUA 091855Z 24007G15KT 07SM SCT090 36/22 A2999

2010/08/09 18:56
KNTU 091856Z 11008KT 10SM FEW035 SCT200 29/22 A3003 RMK AO2 SLP171 T02890222 $

2010/08/09 18:53
KNIP 091853Z COR 05013G22KT 3SM RA FEW020 BKN035CB BKN250 28/25 A2996 RMK AO2 RAB46 SLP139 CB OHD MOV SW T2 SET P0000 T02780250

2010/08/09 18:54
KNFG 091854Z COR 24009KT 7SM FEW017 22/13 A2992 RMK AO2 SLP132 T02220133

2010/08/09 18:53
KRYT 091853Z AUTO VRB03KT 10SM CLR 34/16 A2999 RMK AO2 SLP139 T03390161 $

2010/08/09 18:56
KNRS 091856Z 24008KT 10SM FEW017 20/13 A2995 RMK AO2 SLP139 T02000128

2010/08/09 18:55
KDMA 091855Z AUTO RMK AO2 SLPNO RVRNO PWINO PNO FZRANO TSNO VISNO CHINO $

2010/08/09 18:55
KHRT 091855Z 19008KT 10SM FEW030 SCT250 33/26 A2995 RMK AO2A SLP145 T03260265 $

2010/08/09 18:55
KLFI 091855Z 09010KT 10SM FEW035 FEW250 30/19 A3003 RMK AO2A SLP169 T03040190

2010/08/09 18:55
KMMT 091855Z 09007KT 10SM FEW040 FEW250 33/22 A3001 RMK SLP161

2010/08/09 18:55
KNBG 091855Z 12014G23KT 2SM +TSRA BR FEW026CB BKN033 BKN050 OVC250 26/23 A2998 RMK AO2 PK WND 11027/1841 TSB19RAB39 SLP151 CNS LTGICCCCG NE-SW TS NE-SW MOV SW T1 SET P0012 T02560228 $

2010/08/09 18:56
KNCA 091856Z 16008KT 4SM HZ SCT025 BKN060 31/M05 A3002 RMK AO2 RAB00E32 SLP166 P0023 T03101050 $

2010/08/09 18:54
KNFG 091854Z COR 24009KT FEW017 22/13 A2992 RMK AO2 SLP132 T02220133

2010/08/09 18:56
KNXX 091856Z 23007KT 10SM SCT045 32/17 A3000 RMK AO2 SLP161 T03220167 $

2010/08/09 19:00
KNEL 091900Z AUTO 21003KT 8SM BKN070 33/14 A2997 RMK AO2 SLP148 T03280144 $

2010/08/09 18:59
KNGU 091859Z 07010KT 10SM FEW042 SCT250 32/21 A3004 RMK AO2 SLP171 T03170206

2010/08/09 18:56
KHLR 091856Z AUTO 13006G14KT 10SM CLR 37/20 A2995 RMK AO2 SLP130 T03670200 $

2010/08/09 18:55
KHUA 091855Z 24007G15KT 07SM SCT090 36/22 A2999

2010/08/09 18:56
KNMM 091856Z 19004KT 10SM SCT040 34/24 A2997 RMK AO2 SLP154 T03390239 $

2010/08/09 18:56
KNPA 091856Z 13009KT 9SM FEW035 SCT160 SCT280 33/26 A2996 RMK AO2 SLP147 T03280256

2010/08/09 18:56
KNSI 091856Z COR 17005KT 7SM FEW009 BKN011 16/13 A2995 RMK AO2 SLP138 T01610128 TSNO

2010/08/09 18:56
KNTU 091856Z 11008KT 10SM FEW035 SCT200 29/22 A3003 RMK AO2 SLP171 T02890222 $

2010/08/09 18:52
KNZY 091852Z 26008KT 10SM FEW019 23/13 A2993 RMK AO2 SLP134 T02330128 $

2010/08/09 18:55
KSVN 091855Z 09010G17KT 12SM SCT050 BKN250 34/21 A2998 RMK AO2A SLP155

2010/08/09 18:55
KSNC 091855Z AUTO 20009KT 9SM CLR 30/20 A2998 RMK AO2

2010/08/09 18:56
KCHS 091856Z COR 09007KT 10SM FEW010 BKN032CB OVC060 30/25 A2998 RMK AO2 RAB35E55 SLP153 CB NW MOV N P0014 T03000250

2010/08/09 18:56
KCHS 091856Z 09007KT 10SM FEW010 BKN032 OVC060 30/25 A2998 RMK AO2 RAB35E55 SLP153 TCU S P0014 T03000250

2010/08/09 18:56
PHNY 091856Z AUTO VRB04KT 10SM FEW030 24/17 A3013 RMK AO2 TSNO T02380166 SLP184 $

2010/08/09 18:56
KCHS 091856Z COR 09007KT 10SM FEW010 BKN032CB OVC060 30/25 A2998 RMK AO2 RAB35E55 SLP153 CB NW MOV N P0014 T03000250

2010/08/09 18:55
KCKP 091855Z AUTO 07005KT 10SM OVC015 26/23 A2989 RMK AO2

2010/08/09 18:56
KFSD 091856Z 09006KT 10SM SCT025 29/23 A2991 RMK AO2 SLP119 BKN ABV 120 T02890233

2010/08/09 18:54
KPZQ 091854Z AUTO 00000KT 10SM CLR 25/20 A2990 RMK AO2

2010/08/09 18:54
KSBN 091854Z 19006KT 6SM HZ FEW060 SCT080 27/22 A2997 RMK AO2 RAB04E13 SLP141 P0000 T02670217

2010/08/09 18:52
KSPS 091852Z COR 20011G15KT 10SM SCT075 38/17 A2989 RMK AO2 SLP104 P0003 T03830172

2010/08/09 18:55
KTKV 091855Z AUTO 30007KT 10SM SCT047 SCT055 30/18 A2993 RMK AO2 T03010179

2010/08/09 18:55
KVTI 091855Z AUTO 06003KT 10SM CLR 31/26 A2991 RMK AO2

2010/08/09 18:50
LTAD 091850Z 32010KT CAVOK 30/09 Q1011 NOSIG RMK RWY29 30006KT

2010/08/09 18:50
LTAG 091850Z 22004KT CAVOK 28/23 Q1006 NOSIG

2010/08/09 18:50
LTAH 091850Z 27010KT 9999 BKN030 25/13 Q1015 RMK RWY13 26008KT

2010/08/09 18:50
LTAJ 091850Z 27007KT CAVOK 29/16 Q1007 NOSIG

2010/08/09 18:50
LTAN 091850Z 34006KT CAVOK 29/05 Q1011 NOSIG RMK RWY19 35006KT

2010/08/09 18:50
LTAN 091850Z 34006KT CAVOK 29/05 Q1011 NOSIG

2010/08/09 18:50
LTAP 091850Z 34006KT 310V020 CAVOK 24/18 Q1009 NOSIG RMK RWY23 35004KT 240V030

2010/08/09 18:50
LTAT 091850Z 24006KT CAVOK 23/M01 Q1007 NOSIG RMK RWY03 25005KT

2010/08/09 18:50
LTAU 091850Z 36007KT CAVOK 26/05 Q1012 NOSIG RMK RWY07 34010KT

2010/08/09 18:50
LTAU 091850Z 36007KT CAVOK 26/05 Q1012 NOSIG

2010/08/09 18:50
LTBF 091850Z 36008KT CAVOK 28/22 Q1009 NOSIG RMK RWY18 35007KT

2010/08/09 18:50
LTBG 091850Z 02013KT CAVOK 27/23 Q1009 NOSIG RMK RWY18 03015KT

2010/08/09 18:50
LTBI 091850Z 26007KT 9999 BKN035 26/19 Q1012 NOSIG RMK RWY09 26007KT

2010/08/09 18:50
LTBL 091850Z 25003KT CAVOK 29/22 Q1007 NOSIG RMK RWY17 25003KT

2010/08/09 18:50
LTBQ 091850Z VRB02KT 9999 FEW035 SCT120 25/23 Q1009 NOSIG RMK RWY09 VRB01KT

2010/08/09 18:50
LTCC 091850Z 31003KT 260V330 CAVOK 27/03 Q1006 NOSIG

2010/08/09 18:50
LTCC 091850Z 31003KT 260V330 CAVOK 27/03 Q1006 NOSIG RMK RWY16 VRB02KT

2010/08/09 18:50
LTCE 091850Z 09006KT 030V150 CAVOK 17/01 Q1017 NOSIG

2010/08/09 18:50
LTCE 091850Z 09006KT 030V150 CAVOK 17/01 Q1017 NOSIG RMK RWY08R VRB02KT RWY26R /////KT RWY08L VRB01KT

2010/08/09 18:50
LTCG 091850Z VRB01KT 9999 FEW020 SCT035 27/23 Q1007 NOSIG

2010/08/09 18:50
LTCI 091850Z 10004KT 070V140 9999 FEW040 19/02 Q1016 NOSIG

2010/08/09 18:50
LTFE 091850Z 25005KT CAVOK 28/23 Q1005 NOSIG

2010/08/09 18:59
CYKL 091859Z AUTO 29013KT 9SM -RA SCT034 BKN069 BKN076 14/08 A2960

2010/08/09 19:00
SBMO 091900Z 16005KT 7000 SCT006 SCT018 BKN090 23/20 Q1016 

2010/08/09 19:00
SBLO 091900Z 27007KT CAVOK 29/06 Q1018

2010/08/09 18:55
EHAM 091855Z 14006KT CAVOK 19/13 Q1014 NOSIG

2010/08/09 18:55
EHBK 091855Z AUTO 25003KT 210V290 9999NDV NCD 19/11 Q1016 NOSIG

2010/08/09 18:55
EHGG 091855Z AUTO 28002KT 9999NDV BKN039 19/13 Q1015 NOSIG

2010/08/09 18:55
EHRD 091855Z 16004KT CAVOK 20/11 Q1014 NOSIG

2010/08/09 18:50
LTAC 091850Z 02009KT CAVOK 26/10 Q1012 NOSIG

2010/08/09 18:50
LTAF 091850Z /////KT 9999 FEW035 28/23 Q1006 NOSIG

2010/08/09 18:50
LTAI 091850Z VRB02KT CAVOK 28/24 Q1005 NOSIG

2010/08/09 18:50
LTBA 091850Z 36010KT 9999 FEW013 SCT035 28/24 Q1009 NOSIG

2010/08/09 18:50
LTBJ 091850Z 35017KT CAVOK 31/20 Q1006 BECMG VRB02KT

2010/08/09 18:50
LTBS 091850Z 17007KT CAVOK 28/24 Q1005 NOSIG

2010/08/09 18:51
KP58 091851Z AUTO 07005KT 23/22 A2991 RMK AO2 SLP119 T02330217 PWINO TSNO

2010/08/09 18:56
KBIH 091856Z AUTO 16018G23KT 10SM CLR 30/M07 A2997 RMK AO2 PK WND 16026/1824 SLP096 T03001072 TSNO

2010/08/09 18:56
KMEH 091856Z AUTO VRB04KT 10SM CLR 22/06 A2993 RMK AO2 SLP121 T02170056 TSNO

2010/08/09 19:00
SBCP 091900Z 19022KT CAVOK 26/18 Q1017

2010/08/09 18:50
LSMA 091850Z AUTO 14002KT 9999NDV FEW068 SCT080 20/16 Q1016 RMK BLU

2010/08/09 18:50
LSME 091850Z AUTO 36003KT 330V050 9999NDV FEW062 22/14 Q1016 RMK BLU

2010/08/09 18:50
LSMM 091850Z AUTO 10007KT 9999NDV SCT060 BKN068 20/16 Q1017 RMK WHT

2010/08/09 18:50
LSMP 091850Z AUTO VRB01KT 9999NDV FEW060 22/15 Q1016 RMK BLU

2010/08/09 18:56
KFPK 091856Z AUTO 18005KT 10SM SCT060 OVC095 22/22 A2994 RMK AO2

2010/08/09 18:54
KFSE 091854Z AUTO 22009KT 10SM CLR 29/19 A2990 RMK AO2

2010/08/09 18:55
KFSW 091855Z AUTO 19006KT 10SM CLR 32/23 A2989 RMK AO2

2010/08/09 18:55
KFXY 091855Z AUTO 10005KT 10SM BKN026 BKN033 BKN041 28/22 A2993 RMK AO2

2010/08/09 18:55
KGGI 091855Z AUTO 17004KT 10SM CLR 30/23 A2990 RMK AO2

2010/08/09 18:54
KGOV 091854Z AUTO 12004KT 5SM HZ BKN017 BKN022 OVC049 26/22 A2991 RMK AO2

2010/08/09 18:50
KGPM 091850Z 15007KT 10SM BKN080 37/21 A2994

2010/08/09 18:55
KHAF 091855Z AUTO 21007KT 10SM OVC012 14/12 A2996 RMK AO2

2010/08/09 18:55
KHAI 091855Z AUTO 14003KT 10SM -RA SCT090 BKN110 25/23 A2996 RMK AO2

2010/08/09 18:55
KHNR 091855Z AUTO 00000KT 10SM CLR 31/25 A2989 RMK AO2

2010/08/09 18:54
KHYX 091854Z AUTO 21009KT 7SM SCT036 SCT050 OVC065 23/21 A2995 RMK AO2

2010/08/09 18:55
KICL 091855Z AUTO 21006KT 7SM CLR 34/25 A2985 RMK AO2

2010/08/09 18:55
KIIB 091855Z AUTO 02005KT 10SM CLR 31/25 A2992 RMK AO1

2010/08/09 18:55
KIKV 091855Z AUTO 20003KT 10SM CLR 30/25 A2988 RMK AO2

2010/08/09 18:55
KIRS 091855Z AUTO 14004KT 10SM CLR 27/21 A2995 RMK AO2

2010/08/09 18:55
KISQ 091855Z AUTO 15007KT 10SM CLR 26/22 A2989 RMK AO2

2010/08/09 18:54
KJYG 091854Z AUTO 00000KT 10SM SCT030 30/27 A2992 RMK AO2

2010/08/09 18:55
KJYM 091855Z AUTO 03003KT 10SM -RA SCT070 24/21 A3000 RMK AO2

2010/08/09 18:55
KLDM 091855Z AUTO 23011G16KT 10SM SCT011 27/23 A2992 RMK AO2

2010/08/09 18:55
KLRJ 091855Z AUTO 05005KT 10SM OVC012 26/22 A2989 RMK AO2

2010/08/09 18:56
KLWA 091856Z AUTO 19007KT 10SM SCT110 27/22 A2994 RMK AO2

2010/08/09 18:55
KMCD 091855Z AUTO 07003KT 10SM CLR 23/19 A2991 RMK AO2

2010/08/09 18:54
KMGN 091854Z AUTO 00000KT 7SM SCT020 BKN055 29/21 A2987 RMK AO2

2010/08/09 18:54
KMOP 091854Z AUTO 25008KT 7SM SCT024 BKN032 OVC060 25/23 A2992 RMK AO2

2010/08/09 18:55
KMPZ 091855Z AUTO 20007KT 10SM CLR 31/23 A2989 RMK AO2

2010/08/09 18:55
KMUT 091855Z AUTO 13003KT 10SM CLR 31/26 A2988 RMK AO2

2010/08/09 18:55
KMXO 091855Z AUTO 00000KT 10SM CLR 30/24 A2992 RMK AO2

2010/08/09 18:55
KOEB 091855Z AUTO 11004KT 10SM -DZ CLR 24/22 A2997 RMK AO2

2010/08/09 18:55
KOOA 091855Z AUTO 18010KT 10SM CLR 31/23 A2989 RMK AO2

2010/08/09 18:55
KORC 091855Z AUTO 08005KT 10SM OVC012 26/25 A2991 RMK AO2

2010/08/09 18:55
KOSC 091855Z AUTO 09004KT 10SM SCT012 24/21 A2990 RMK AO2

2010/08/09 18:55
KOZW 091855Z AUTO 21005KT 3SM RA SCT006 BKN026 OVC045 23/22 A2997 RMK AO2

2010/08/09 18:55
KPEA 091855Z AUTO 10SM CLR A2988 RMK AO2

2010/08/09 18:55
KPHN 091855Z AUTO 20003KT 10SM CLR 25/21 A2995 RMK AO2

2010/08/09 18:55
KRDK 091855Z AUTO 21006KT 10SM 34/26 A2985 RMK AO2

2010/08/09 18:55
KRGK 091855Z AUTO 00000KT 10SM CLR 32/23 A2990 RMK AO2

2010/08/09 18:55
KRMY 091855Z AUTO 14006KT 10SM -RA SCT005 SCT055 SCT090 23/21 A2996 RMK AO2

2010/08/09 18:55
KRNP 091855Z AUTO 19005KT 10SM -RA BKN060 OVC070 23/21 A2994 RMK AO2

2010/08/09 18:54
KRQB 091854Z AUTO 23006KT 10SM SCT012 SCT017 BKN036 24/22 A2994 RMK AO2

2010/08/09 18:55
KRYV 091855Z AUTO 28005KT 10SM BKN032 29/22 A2992 RMK AO2

2010/08/09 18:55
KSDA 091855Z AUTO 20009KT 10SM CLR 33/27 A2985 RMK AO2

2010/08/09 18:55
KSJX 091855Z AUTO 28006KT 10SM BKN017 BKN024 26/21 A2990 RMK AO2

2010/08/09 18:55
KSLH 091855Z AUTO 07006KT 10SM BKN018 BKN028 25/22 A2988 RMK AO2

2010/08/09 18:55
KSTE 091855Z AUTO 33003KT 10SM SCT026 SCT032 31/22 A2992 RMK AO2

2010/08/09 18:55
KSUW 091855Z AUTO 00000KT 10SM CLR 31/22 A2988 RMK AO2

2010/08/09 18:55
KTNU 091855Z AUTO 19006KT 10SM CLR 31/24 A2989 RMK AO2

2010/08/09 18:53
KTTF 091853Z AUTO 28004KT 10SM CLR 29/22 A2995 RMK AO2

2010/08/09 18:55
KTVK 091855Z AUTO 10SM CLR 28/25 A2991 RMK AO2

2010/08/09 18:50
KUKT 091850Z AUTO 22010G15KT 10SM SCT050 33/19 A3000 RMK AO1

2010/08/09 18:55
KUNU 091855Z AUTO 25007KT 10SM SCT031 27/20 A2993 RMK AO2 T02740198

2010/08/09 18:54
KVLL 091854Z AUTO 28005KT 10SM -RA SCT075 27/19 A2999 RMK AO2

2010/08/09 18:55
KY70 091855Z AUTO 21009KT 10SM BKN013 BKN046 OVC055 27/22 A2993 RMK AO2 T02710219

2010/08/09 18:51
KHSA 091851Z 22007KT 7SM -RA SCT008 BKN025 OVC034 27/26 A2995

2010/08/09 18:56
KNSE 091856Z 11006KT 9SM SCT040TCU SCT150 35/24 A2996 RMK AO2 SLP130 TCU W T03500239 $

2010/08/09 18:55
KWDG 091855Z 17014G18KT 10SM SCT080 SCT200 39/19 A2988

2010/08/09 18:58
PAGA 091858Z AUTO 14012KT 10SM FEW012 BKN039 OVC046 14/12 A2947 RMK AO2 SLPNO T01390117

2010/08/09 18:50
EETU 091850Z AUTO 17006KT 9999NDV OVC110/// 20/17 Q1014

2010/08/09 18:55
K1P1 091855Z AUTO 28004KT 10SM SCT055 SCT065 BKN075 31/17 A2990 RMK AO2 T03080170

2010/08/09 18:55
K4M9 091855Z AUTO 15007KT 10SM -RA CLR 35/27 A2992 RMK AO2 LTG DSNT NW P0002

2010/08/09 18:55
KBVU 091855Z AUTO 06005KT 10SM CLR 32/03 A2996 RMK AO2

2010/08/09 18:50
KGTU 091850Z 14010G18KT 10SM CLR 36/19 A2997

2010/08/09 18:55
KMAN 091855Z AUTO 04005KT 10SM CLR 27/08 A2987 RMK AO1

2010/08/09 18:55
KMCJ 091855Z AUTO 07005KT 10SM FEW044 SCT070 35/23 A2992 RMK AO1

2010/08/09 18:55
KSQL 091855Z 33010KT 25SM FEW020 18/12 A2993

2010/08/09 18:56
PPIZ 091856Z AUTO 07023G30KT 10SM BKN013 03/01 A2969 RMK AO2 TSNO T00330005 PK WND 07031/1812 SLP057 $

2010/08/09 18:56
KNSE 091856Z 11006KT 9SM SCT040TCU SCT150 35/24 A2996 RMK AO2 SLP130 TCU W T03500239 $

2010/08/09 18:55
KNUC 091855Z 23005KT 10SM SCT016 21/13 A2997 RMK SLP144 T02100125

2010/08/09 18:58
PADU 091858Z 24003KT 10SM FEW013 SCT022 BKN035 11/08 A2953 RMK AO2 SLP005 MH T01060083

2010/08/09 18:58
PAGA 091858Z AUTO 14012KT 10SM FEW012 BKN039 OVC046 14/12 A2947 RMK AO2 SLPNO T01390117

2010/08/09 18:56
PAJZ 091856Z AUTO 17012KT 2SM BR SCT006 BKN011 OVC014 11/10 A2958 RMK AO2 PWINO TSNO T01050100 CIG 008V012 SLP006 $

2010/08/09 18:56
PAKI 091856Z AUTO 18018KT 2 1/2SM +RA BR OVC010 09/09 A2924 RMK AO2 TSNO T00940094 CIG 007V014 P0000 SLP903 $

2010/08/09 18:56
PALG 091856Z AUTO 00000KT 10SM -RA FEW038 BKN049 BKN070 12/11 A2938 RMK AO2 TSNO T01160111 BKN V SCT RAB54 P0000 SLP952 $

2010/08/09 18:58
PATE 091858Z AUTO 07013KT 10SM OVC012 13/11 A2933 RMK AO2 SLP942 T01330111

2010/08/09 18:56
K4I3 091856Z AUTO 19005KT 10SM CLR 30/18 A3003 RMK AO2

2010/08/09 18:55
KACB 091855Z AUTO 25004KT 7SM SCT030 31/22 A2986 RMK AO2

2010/08/09 18:58
KACQ 091858Z AUTO 24005KT 10SM CLR 28/21 A2994 RMK AO2

2010/08/09 18:57
KADC 091857Z AUTO 26004KT 10SM CLR 29/18 A2994 RMK AO2

2010/08/09 18:55
KAMN 091855Z AUTO 19010G15KT 10SM SCT018 BKN065 BKN075 28/22 A2991 RMK AO2

2010/08/09 18:55
KAUM 091855Z AUTO 00000KT 10SM BKN032 BKN045 29/23 A2993 RMK AO2

2010/08/09 18:55
KAWG 091855Z AUTO 21006KT 10SM 31/23 A2989 RMK AO2

2010/08/09 18:55
KAXA 091855Z AUTO 00000KT 10SM BKN023 OVC028 28/23 A2991 RMK AO2

2010/08/09 18:55
KBDH 091855Z AUTO 07006KT 10SM CLR 31/18 A2993 RMK AO2

2010/08/09 18:55
KBNW 091855Z AUTO 15006KT 10SM OVC028 30/25 A2989 RMK AO2

2010/08/09 18:54
KCAD 091854Z AUTO 24009KT 10SM SCT031 BKN041 BKN055 28/21 A2992 RMK AO2

2010/08/09 18:55
KCAV 091855Z AUTO 14005KT 10SM SCT022 OVC029 30/23 A2990 RMK AO2

2010/08/09 18:55
KCBF 091855Z AUTO 17008KT 7SM SCT022 33/26 A2986 RMK AO2

2010/08/09 18:55
KCBG 091855Z AUTO 01004KT 10SM CLR 31/24 A2991 RMK AO2

2010/08/09 18:54
KCDA 091854Z AUTO 00000KT 10SM SCT038 BKN043 BKN050 26/17 A2996 RMK AO2

2010/08/09 18:55
KCFS 091855Z AUTO 21010KT 10SM -DZ OVC090 25/21 A2994 RMK AO2

2010/08/09 18:55
KCKC 091855Z AUTO 29005KT 10SM CLR 29/14 A2993 RMK AO2

2010/08/09 18:55
KCKN 091855Z AUTO 24011KT 10SM CLR 33/19 A2987 RMK AO2

2010/08/09 18:57
KCMY 091857Z AUTO 00000KT 10SM SCT026 30/22 A2992 RMK AO2 T02970224

2010/08/09 18:54
KCNB 091854Z AUTO 05006KT 10SM CLR 31/20 A2992 RMK AO2 T03080197

2010/08/09 18:55
KCNC 091855Z AUTO 19007KT 10SM CLR 30/25 A2987 RMK AO2

2010/08/09 18:56
KCOQ 091856Z AUTO 25004KT 10SM CLR 31/16 A2993 RMK AO2

2010/08/09 18:57
KCQM 091857Z AUTO 26006KT 10SM CLR 29/19 A2993 RMK AO2

2010/08/09 18:55
KCSQ 091855Z AUTO 21009KT 10SM CLR 32/29 A2988 RMK AO2

2010/08/09 18:55
KCVX 091855Z AUTO 29008KT 7SM CLR 28/21 A2990 RMK AO2

2010/08/09 18:55
KDEH 091855Z AUTO 36006KT 10SM CLR 31/22 A2996 RMK AO2

2010/08/09 18:55
KDNS 091855Z AUTO 00000KT 10SM BKN027 31/25 A2989 RMK AO2

2010/08/09 18:57
KDRM 091857Z AUTO 14004KT 10SM BKN021 25/20 A2989 RMK AO2

2010/08/09 18:55
KDTL 091855Z AUTO 20007KT 10SM CLR 30/17 A2995 RMK AO2

2010/08/09 18:54
KDUH 091854Z AUTO 23003KT 10SM CLR 30/20 A2998 RMK AO2

2010/08/09 18:55
KEBS 091855Z AUTO 16003KT 10SM OVC026 29/22 A2989 RMK AO2

2010/08/09 18:55
KEOK 091855Z AUTO 16005KT 10SM CLR 31/23 A2989 RMK AO2

2010/08/09 18:55
KERY 091855Z AUTO 18004KT 10SM CLR 27/22 A2989 RMK AO2

2010/08/09 18:55
KFFL 091855Z AUTO 20006KT 10SM CLR 30/26 A2989 RMK AO2

2010/08/09 18:55
KFFX 091855Z AUTO 27004KT 10SM SCT022 BKN028 OVC035 26/22 A2993 RMK AO2

2010/08/09 18:54
KFKS 091854Z AUTO 21007KT 10SM BKN025 25/20 A2990 RMK AO2

2010/08/09 19:05
KBAX 091905Z AUTO 23006KT 5SM BR SCT100 24/22 A2992 RMK AO2

2010/08/09 19:03
KCFE 091903Z AUTO 04004KT 10SM CLR 32/21 A2993 RMK AO2 T03170209

2010/08/09 19:01
PADM 091901Z AUTO 14013G20KT 2 1/2SM -RA BR FEW006 SCT018 OVC024 11/09 A2938 RMK AO2 TSNO T01110088 P0001 SLP938 $

2010/08/09 19:00
SBSP 091900Z 18004KT 8000 BKN015 15/12 Q1023

2010/08/09 18:50
EDLN 091850Z VRB01KT CAVOK 18/12 Q1015 RMK ATIS C

2010/08/09 18:50
EDLP 091850Z 08001KT CAVOK 17/12 Q1016 RMK RWY24 TRL60 AW ATIS I

2010/08/09 18:50
EDLW 091850Z 22004KT CAVOK 18/13 Q1016 RMK ATIS F

2010/08/09 18:50
EDHL 091850Z 21004KT CAVOK 17/17 Q1016 RMK C

2010/08/09 18:50
EDNY 091850Z 00000KT CAVOK 19/14 Q1016 RMK ATIS E

2010/08/09 18:50
EDXW 091850Z AUTO 22005KT 9999NDV NCD 16/10 Q1015 RMK ATIS INFO C

2010/08/09 18:50
LGSR 091850Z 33015KT CAVOK 27/21 Q1007 NOSIG BLU

2010/08/09 18:50
EGDR 091850Z 23014KT 0200 FG VV/// 17/17 Q1013 RED

2010/08/09 18:50
EGDY 091850Z 20010KT 9999 FEW010 SCT035 BKN080 18/17 Q1013 BLU

2010/08/09 18:50
EGOM 091850Z AUTO 23008KT 9999NDV // SCT060/// 14/11 Q1008

2010/08/09 18:50
EGOP 091850Z AUTO 28011KT 1500NDV BR FEW003/// BKN013/// 16/16 Q1011

2010/08/09 18:50
EGUW 091850Z 22008KT CAVOK 21/09 Q1012 BLU NOSIG

2010/08/09 18:50
EGXX 091850Z AUTO 22014KT 9999NDV // BKN050/// 21/13 Q1010

2010/08/09 18:50
LGPZ 091850Z 22008KT 9999 FEW015 26/22 Q1011 NOSIG BLU

2010/08/09 18:50
LGRX 091850Z 00000KT CAVOK 26/21 Q1009 NOSIG BLU

2010/08/09 18:50
LCEN 091850Z 28009KT CAVOK 28/23 Q1006 NOSIG

2010/08/09 18:50
EGPA 091850Z AUTO 15010KT 9999NDV FEW009/// BKN034/// 14/14 Q1005

2010/08/09 18:50
EGPC 091850Z 30011KT 9999 -SHRA SCT008 BKN022 12/12 Q1005

2010/08/09 18:50
EGAE 091850Z 25012KT 9999 SCT030 16/10 Q1007

2010/08/09 18:50
EGPB 091850Z 13009KT 9999 FEW009 15/13 Q1007 NOSIG

2010/08/09 18:50
EGNH 091850Z 25003KT 9999 -SHRA SCT018 17/14 Q1009

2010/08/09 18:50
EGNJ 091850Z 21013KT 9999 BKN030 22/14 Q1009

2010/08/09 18:50
EGPC 091850Z 30011KT 9999 -SHRA SCT008 BKN022 12/12 Q1005

2010/08/09 18:50
EGPE 091850Z 06004KT 9999 FEW020CB 15/12 Q1005

2010/08/09 18:50
EGPL 091850Z AUTO 19007KT 9999NDV FEW030/// SCT040/// 15/10 Q1005

2010/08/09 18:50
EGPM 091850Z AUTO 12013KT 9999NDV SCT015/// 14/12 Q1008

2010/08/09 18:50
EGPO 091850Z 20005KT 9999 FEW026 SCT032 15/11 Q1005

2010/08/09 19:00
SBPP 091900Z 18008KT 9999 FEW020 26/12 Q1018

2010/08/09 19:01
CYBN 091901Z AUTO 27003KT 3SM RA VV001 22/20 A2993

2010/08/09 18:53
KRIL 091853Z AUTO 00000KT 9SM CLR 21/11 A3020 RMK AO2 RAE05 SLP166 P0000 T02110106 TSNO 

2010/08/09 19:00
YSDU 091900Z AUTO 07009KT 9999NDV // SCT010 BKN017 OVC074 11/11 Q1015

2010/08/09 19:00
YSDU 091900Z AUTO 07009KT 9999NDV // SCT010 BKN017 OVC074 11/11 Q1015

2010/08/09 19:00
UBBG 091900Z 31005KT 9999 SCT100 25/12 Q1010 NOSIG RMK R30R/CLRD70 

2010/08/09 19:00
LZPP 091900Z 11002KT 9999 FEW033 SCT100 18/15 Q1017

2010/08/09 19:00
LZSL 091900Z 26002KT 9999 FEW050 SCT100 19/15 Q1016

2010/08/09 19:00
LZZI 091900Z VRB02KT CAVOK 16/14 Q1018

2010/08/09 19:00
LZIB 091900Z 23004KT CAVOK 18/16 Q1017

2010/08/09 19:00
LZKZ 091900Z 09002KT CAVOK 17/15 Q1017

2010/08/09 19:00
LZTT 091900Z 26004KT 9999 FEW006 BKN120 14/13 Q1018

2010/08/09 19:00
DTTB 091900Z 09006KT CAVOK 23/17 Q1016

2010/08/09 19:00
DTTK 091900Z 07002KT CAVOK 29/10 Q1015

2010/08/09 19:00
DTTN 091900Z 06004KT 9999 FEW020 SCT200 29/09 Q1014

2010/08/09 19:00
OJAI 091900Z 31010KT CAVOK 25/19 Q1009 NOSIG

2010/08/09 19:00
OJAM 091900Z 00000KT 5000 NSC 28/14 Q1009 NOSIG

2010/08/09 19:00
NWWM 091900Z AUTO 09005KT 050V120 9999NDV OVC050/// 20/14 Q1024

2010/08/09 19:00
LHBP 091900Z 29005KT 260V350 CAVOK 18/13 Q1017 NOSIG

2010/08/09 19:00
DTTB 091900Z 09006KT CAVOK 23/17 Q1016

2010/08/09 19:00
DTTK 091900Z 07002KT CAVOK 29/10 Q1015

2010/08/09 19:00
DTTN 091900Z 06004KT 9999 FEW020 SCT200 29/09 Q1014

2010/08/09 19:00
YMAV 091900Z AUTO 32004KT 7000NDV // NCD 04/03 Q1017

2010/08/09 19:00
NWWL 091900Z AUTO 12012KT 9999NDV FEW026/// OVC039/// 22/16 Q1022

2010/08/09 18:50
EGPU 091850Z AUTO 22008KT 9999NDV // NCD 14/11 Q1005

2010/08/09 19:00
NWWU 091900Z AUTO 11018KT 9999NDV BKN031/// BKN037/// BKN045/// 23/17 Q1022

2010/08/09 18:50
EGPI 091850Z AUTO 24005KT 200V270 9999NDV -SHRA SCT014/// SCT026/// 14/12 Q1007

2010/08/09 19:00
OJAI 091900Z 31010KT CAVOK 25/19 Q1009 NOSIG

2010/08/09 19:00
OJAM 091900Z 00000KT 5000 NSC 28/14 Q1009 NOSIG

2010/08/09 18:50
BGGH 091850Z 21010KT 9999 SCT020 BKN060 12/09 Q1008

2010/08/09 18:54
KNKT 091854Z COR 14005KT 10SM SCT030 BKN150 29/23 A3003 RMK AO2 SLP164 T02940233 

2010/08/09 19:00
GMAD 091900Z 27007KT 6000 NSC 25/19 Q1012 NOSIG

2010/08/09 19:00
GMFF 091900Z 16011KT 8000 SCT033 FEW040CB BKN100 36/09 Q1015 NOSIG

2010/08/09 19:00
GMME 091900Z 30004KT 8000 NSC 28/22 Q1012 NOSIG

2010/08/09 19:00
GMMN 091900Z 01008KT CAVOK 34/16 Q1013 NOSIG

2010/08/09 19:00
GMMX 091900Z 22014KT 6000 SCT033 FEW040CB BKN100 28/19 Q1017 RESH

2010/08/09 19:00
GMTT 091900Z 06022KT 9999 FEW016 SCT200 27/18 Q1012 NOSIG

2010/08/09 19:00
GMFF 091900Z 16011KT 8000 SCT033 FEW040CB BKN100 36/09 Q1015 NOSIG

2010/08/09 19:00
GMFM 091900Z 31007KT 8000 FEW026 37/13 Q1015

2010/08/09 19:00
GMFO 091900Z 35012KT 9999 FEW033 FEW040CB SCT230 30/19 Q1016 NOSIG

2010/08/09 19:00
GMMH 091900Z 30014KT CAVOK 22/18 Q1012

2010/08/09 19:00
GMML 091900Z 30010KT CAVOK 26/19 Q1012

2010/08/09 19:00
GMMW 091900Z 02004KT 8000 FEW016 SCT100 26/21 Q1014

2010/08/09 19:00
GMMZ 091900Z 25021KT CAVOK 30/08 Q1021

2010/08/09 19:00
GMTA 091900Z 02004KT CAVOK 24/22 Q1015

2010/08/09 18:50
EGAE 091850Z 25012KT 9999 SCT030 16/10 Q1007

2010/08/09 18:50
EGNH 091850Z 25003KT 9999 -SHRA SCT018 17/14 Q1009

2010/08/09 18:50
EGNJ 091850Z 21013KT 9999 BKN030 22/14 Q1009

2010/08/09 18:50
EGOV 091850Z 24005KT 9999 FEW018 SCT060 16/14 Q1009 BLU NOSIG

2010/08/09 18:50
EGPA 091850Z AUTO 15010KT 9999NDV FEW009/// BKN034/// 14/14 Q1005

2010/08/09 18:50
EGPC 091850Z 30011KT 9999 -SHRA SCT008 BKN022 12/12 Q1005

2010/08/09 18:50
EGPE 091850Z 06004KT 9999 FEW020CB 15/12 Q1005

2010/08/09 18:50
EGPL 091850Z AUTO 19007KT 9999NDV FEW030/// SCT040/// 15/10 Q1005

2010/08/09 18:50
EGPM 091850Z AUTO 12013KT 9999NDV SCT015/// 14/12 Q1008

2010/08/09 18:50
EGPO 091850Z 20005KT 9999 FEW026 SCT032 15/11 Q1005

2010/08/09 18:55
EGVA 091855Z AUTO 21010KT 9999 BKN015 BKN025 OVC032 18/16 A2989 RMK AO2 RAB1756E1757DZB1757E1807 BKN015 V SCT SLP122 P0000 T01810163 $

2010/08/09 18:50
EGXD 091850Z 26008KT 9999 FEW026 18/13 Q1009 BLU NOSIG

2010/08/09 19:00
YBCS 091900Z 12005KT 9999 VCSH FEW005 BKN017 22/21 Q1014

2010/08/09 19:00
YBCS 091900Z 12005KT 9999 VCSH FEW005 BKN017 22/21 Q1014

2010/08/09 18:50
EGXZ 091850Z AUTO 25006KT 9999NDV FEW027/// 18/13 Q1009

2010/08/09 18:50
EGXT 091850Z AUTO 22012KT 9999NDV FEW031/// BKN080/// 21/13 Q1011

2010/08/09 19:00
SBBG 091900Z 14006KT CAVOK 16/04 Q1024

2010/08/09 19:00
SBCF 091900Z 23003KT CAVOK 27/04 Q1019

2010/08/09 19:00
SBCR 091900Z 23007KT CAVOK 29/04 Q1014

2010/08/09 19:00
SBCT 091900Z 09009KT 9999 BKN007 OVC009 11/09 Q1023

2010/08/09 19:00
SBCY 091900Z 31003KT CAVOK 36/07 Q1012

2010/08/09 19:00
SBCZ 091900Z 22002KT 5000 HZ FEW040 35/20 Q1014

2010/08/09 19:00
SBFN 091900Z 11008KT 9999 SCT017 27/23 Q1013

2010/08/09 19:00
SBFZ 091900Z 10017KT CAVOK 29/20 Q1011

2010/08/09 19:00
SBGO 091900Z 08006KT 9999 FEW030 33/07 Q1017

2010/08/09 19:00
SBJP 091900Z 18012KT 9999 SCT018 BKN070 26/22 Q1015

2010/08/09 19:00
SBLO 091900Z 27007KT CAVOK 29/06 Q1018

2010/08/09 19:00
SBMA 091900Z 16005KT 9999 FEW035 39/19 Q1010

2010/08/09 19:00
SBMO 091900Z 16005KT 7000 SCT006 SCT018 BKN090 23/20 Q1016

2010/08/09 19:00
SBMQ 091900Z 06006KT 9999 FEW025 35/25 Q1010

2010/08/09 19:00
SBPB 091900Z 05013KT CAVOK 30/22 Q1010

2010/08/09 19:00
SBPK 091900Z 21006KT CAVOK 17/01 Q1025

2010/08/09 19:00
SBPL 091900Z 12013KT 9999 SCT025 30/14 Q1016

2010/08/09 19:00
SBRB 091900Z 20004KT 5000 FU SCT030 36/15 Q1013

2010/08/09 19:00
SBSN 091900Z 10007KT 9999 FEW025 32/24 Q1011

2010/08/09 19:00
SBSP 091900Z 18004KT 8000 BKN015 15/12 Q1023

2010/08/09 19:00
SBSV 091900Z 13008KT 9999 SCT017 25/19 Q1017

2010/08/09 19:00
SBTE 091900Z 14005KT CAVOK 37/10 Q1010

2010/08/09 19:00
SBTF 091900Z 36003KT 9999 SCT020 33/25 Q1011

2010/08/09 19:00
SBTT 091900Z 19005KT 9999 FEW020 SCT100 32/22 Q1013

2010/08/09 19:00
SBUG 091900Z 09008KT CAVOK 17/04 Q1023

2010/08/09 19:00
SBVT 091900Z 13006KT CAVOK 29/19 Q1016

2010/08/09 19:00
SLCB 091900Z 32004KT 9999 SKC 25/01 Q1023

2010/08/09 19:00
SLLP 091900Z 13009KT 080V180 9999 SKC 15/M07 Q1036

2010/08/09 19:00
SLVR 091900Z 15008KT 8000 SKC 26/10 Q1016

2010/08/09 19:00
SOCA 091900Z 08009KT 9999 FEW023 30/24 Q1012 NOSIG

2010/08/09 19:02
CYQA 091902Z AUTO 27004KT 220V290 9SM SCT022 BKN027 BKN044 26/22 A2992 RMK SLP130 DENSITY ALT 2400FT LTNG DIST S

2010/08/09 19:00
SCAR 091900Z 22011KT CAVOK 16/08 Q1015

2010/08/09 19:00
SCDA 091900Z 24007KT 8000 OVC020 15/09 Q1016

2010/08/09 19:00
SCCF 091900Z 24019KT CAVOK 22/M12 Q1024

2010/08/09 19:00
SCFA 091900Z 18009KT 9999 FEW020 SCT200 16/08 Q1016 NOSIG

2010/08/09 19:00
SCIP 091900Z 02011KT 9999 SCT013 SCT025 19/15 Q1023 NOSIG

2010/08/09 19:00
SCAT 091900Z 27003KT CAVOK 16/07 Q1017

2010/08/09 19:00
SCSE 091900Z 27007KT 9999 BKN018 13/09 Q1018 NEFO PLAYA 2400FT

2010/08/09 19:00
SCER 091900Z 35014KT 9000 NSC 13/12 Q1017 

2010/08/09 19:00
SCVM 091900Z 28006KT 9000 FEW150 14/11 Q1017

2010/08/09 19:00
SCRD 091900Z 35010KT CAVOK 14/09 Q1017

2010/08/09 19:00
SCEL 091900Z 14007KT CAVOK 21/01 Q1015 NOSIG

2010/08/09 19:00
SCTB 091900Z 23005KT CAVOK 21/M02 Q1016

2010/08/09 19:00
SCRG 091900Z 17007KT CAVOK 18/07 Q1015

2010/08/09 19:00
SCIC 091900Z 19004KT CAVOK 12/02 Q1014

2010/08/09 19:00
SCCH 091900Z 21007KT CAVOK 15/02 Q1016

2010/08/09 19:00
SCIE 091900Z 21009KT CAVOK 15/02 Q1017

2010/08/09 19:00
SCGE 091900Z 18012KT CAVOK 15/06 Q1017

2010/08/09 19:00
YSCB 091900Z 10010KT 6000 -RA FEW035 OVC070 08/07 Q1018

2010/08/09 19:00
YSCB 091900Z 10010KT 6000 -RA FEW035 OVC070 08/07 Q1018

2010/08/09 18:50
KOMN 091850Z 11011G17KT 10SM SCT020 32/24 A2993

2010/08/09 18:55
KSUN 091855Z 11007KT 30SM SCT080 BKN120 22/11 A3005

2010/08/09 18:56
PAVC 091856Z AUTO 21019G31KT 4SM BR 10/08 A2960 RMK AO2 PWINO TSNO T01000083 PK WND 22031/1855 SLP024 $

2010/08/09 19:00
K3A1 091900Z AUTO 23005KT 10SM CLR 34/22 A3002 RMK AO2 T03420218 TSNO

2010/08/09 19:02
K47A 091902Z AUTO 00000KT 10SM CLR 33/17 A3005 RMK AO2 LTG DSNT NE AND SW

2010/08/09 18:58
K4A9 091858Z AUTO 00000KT 10SM SCT050 SCT110 35/19 A3000 RMK AO2 T03530189

2010/08/09 19:00
K4R4 091900Z AUTO 13008KT 10SM SCT033 SCT042 SCT090 35/25 A2997 RMK AO2 T03490249

2010/08/09 19:00
KASJ 091900Z AUTO 11003KT 10SM CLR 32/19 A3001 RMK AO2

2010/08/09 19:00
KAVC 091900Z AUTO 00000KT 10SM SCT090 33/19 A3007 RMK AO2

2010/08/09 19:00
KBCB 091900Z AUTO 00000KT 10SM CLR 32/19 A3012 RMK AO2 PWINO

2010/08/09 19:00
KBIJ 091900Z AUTO 00000KT 10SM SCT055 SCT070 SCT090 35/21 A2996 RMK AO2 LTG DSNT SW

2010/08/09 19:00
KCPK 091900Z AUTO 12006KT 7SM -RA CLR 33/21 A3003 RMK AO2

2010/08/09 19:00
KDPL 091900Z AUTO 00000KT 10SM SCT048 SCT055 33/19 A3002 RMK AO2

2010/08/09 18:59
KEDE 091859Z AUTO 11009KT 10SM CLR 33/20 A2999 RMK AO2

2010/08/09 19:00
KEXX 091900Z AUTO 00000KT 10SM SCT065 31/22 A3003 RMK AO2

2010/08/09 19:00
KFQD 091900Z AUTO 00000KT 10SM SCT050 33/21 A3004 RMK AO2

2010/08/09 19:00
KHBI 091900Z AUTO 12003KT 10SM SCT048 32/20 A3005 RMK AO2

2010/08/09 19:01
KHLX 091901Z AUTO 18003KT 10SM SCT047 31/21 A3014 RMK AO2

2010/08/09 18:55
KJQF 091855Z 14005KT 7SM SCT046 BKN090 33/20 A3002

2010/08/09 19:00
KONX 091900Z AUTO 10004KT 10SM SCT022 30/23 A3003 RMK AO2

2010/08/09 18:48
KRHV 091848Z 14010KT 10SM SKC 23/12 A2991

2010/08/09 19:00
KUKF 091900Z AUTO 00000KT 10SM SCT055 34/22 A3006 RMK AO1

2010/08/09 19:00
SCEL 091900Z 14007KT CAVOK 21/01 Q1015 NOSIG

2010/08/09 19:00
SCIE 091900Z 21009KT CAVOK 15/02 Q1017

2010/08/09 19:00
SCTC 091900Z 22007KT 170V260 CAVOK 14/05 Q1019

2010/08/09 19:00
SCVD 091900Z 12006KT 9999 FEW028 15/08 Q1021 RMK HR67

2010/08/09 19:00
SCJO 091900Z 17014KT 9999 SCT020 14/07 Q1023

2010/08/09 19:00
SCTE 091900Z 23004KT 9999 SCT015 BKN040 11/10 Q1024 NOSIG

2010/08/09 19:00
SCMK 091900Z VRB03KT 9999 SCT025 10/05 Q1024

2010/08/09 19:00
SCON 091900Z AUTO 24007KT 200V270 CAVOK 10/05 Q1025

2010/08/09 19:00
SCAP 091900Z 24009KT 9999 SCT040 14/07 Q1028

2010/08/09 19:00
SCBA 091900Z 31027G38KT 9999 SCT030 SCT070 04/M01 Q1018

2010/08/09 19:00
SCCC 091900Z 28009G19KT CAVOK 13/M02 Q1017

2010/08/09 19:00
SCHR 091900Z 24014KT 9999 FEW040 09/M01 Q1018

2010/08/09 19:00
SCNT 091900Z 31018G28KT 9999 SCT015 BKN200 08/M00 Q1011

2010/08/09 19:00
SCCI 091900Z 26030G44KT 8000 SCT013 03/M01 Q1006 NOSIG RMK -SHSN

2010/08/09 19:00
SCFM 091900Z 26021KT 9999 SCT015 BKN070 04/M00 Q1005

2010/08/09 19:00
SCGZ 091900Z 26023G35KT 4000 -SHSN SCT010 BKN026 00/M00 Q0995

2010/08/09 19:00
SCRM 091900Z 10043G53KT 0500 BLSN OVC002 M12/M13 Q0963 NOSIG

2010/08/09 19:00
SCFT 091900Z 25008KT 190V310 9999 SCT040 13/02 Q1023

2010/08/09 19:00
KPTK 091900Z 25008KT 9SM -RA SCT017 OVC130 24/22 A2997 RMK AO2 P0000

2010/08/09 18:58
PAJZ 091858Z AUTO 17013KT 1 1/2SM BR FEW004 BKN008 OVC011 11/10 A2958 RMK AO2 PWINO TSNO CIG 007V010 $

2010/08/09 19:01
KMEM 091901Z 12015KT 10SM TS BKN047CB OVC250 33/23 A2994 RMK AO2 TSB01 OCNL LTGCG E TS E

2010/08/09 18:50
EGYP 091850Z 28019KT 9999 FEW014CB 04/02 Q0994 BLU TEMPO 3000 SHGS BKN014CB YLO1

2010/08/09 19:00
SBNF 091900Z 15008KT 9999 BKN045 18/13 Q1022

2010/08/09 19:00
SBBE 091900Z 16005KT 9999 SCT025 FEW030TCU 33/22 Q1010

2010/08/09 19:00
SBRJ 091900Z 19011KT 9999 FEW012 BKN020 23/18 Q1020

2010/08/09 19:00
SBAR 091900Z 15010KT 9999 SCT017 26/21 Q1017

2010/08/09 18:50
EGVN 091850Z 21005KT 9999 BKN019 BKN044 18/16 Q1012 TEMPO 6000 -RADZ

2010/08/09 19:00
SGAS 091900Z 17006KT CAVOK 18/09 Q1019

2010/08/09 19:00
SGES 091900Z 21004KT CAVOK 23/14 Q1016

2010/08/09 19:00
SBEG 091900Z 10008KT 9999 SCT023 33/19 Q1010

2010/08/09 19:00
YBCS 091900Z 12005KT 9999 VCSH FEW005 BKN017 22/21 Q1014

2010/08/09 18:50
LOXZ 091850Z 34003KT 30KM FEW040CU BKN050SC 18/15 Q1018 RMK BKN

2010/08/09 19:00
SBRF 091900Z 11017KT 3000 -RADZ BKN007 BKN015 BKN070 23/21 Q1015

2010/08/09 19:00
YSDU 091900Z AUTO 07009KT 9999NDV // SCT010 BKN017 OVC074 11/11 Q1015

2010/08/09 19:00
SVMI 091900Z 36003KT 9999 FEW016 BKN100 31/27 Q1011 NOSIG

2010/08/09 19:00
MNMG 091900Z 12006KT 9999 FEW020CB SCT070 31/24 Q1010 A2982 CB/NE/SW/W TCU/NW/N

2010/08/09 18:55
EHEH 091855Z AUTO 19001KT 9999NDV BKN260 19/13 Q1015 BLU BLU NOSIG

2010/08/09 18:55
EHKD 091855Z AUTO 16005KT 9999NDV NCD 18/13 Q1014 BLU BLU NOSIG

2010/08/09 19:00
SCAR 091900Z 22011KT CAVOK 16/08 Q1015

2010/08/09 19:00
SCDA 091900Z 24007KT 8000 OVC020 15/09 Q1016

2010/08/09 19:00
SCFA 091900Z 18009KT 9999 FEW020 SCT200 16/08 Q1016 NOSIG

2010/08/09 19:00
SCCF 091900Z 24019KT CAVOK 22/M12 Q1024

2010/08/09 19:00
SCAT 091900Z 27003KT CAVOK 16/07 Q1017

2010/08/09 19:00
SCIP 091900Z 02011KT 9999 SCT013 SCT025 19/15 Q1023 NOSIG

2010/08/09 19:00
SCSE 091900Z 27007KT 9999 BKN018 13/09 Q1018 NEFO PLAYA 2400FT

2010/08/09 19:00
SCEL 091900Z 14007KT CAVOK 21/01 Q1015 NOSIG

2010/08/09 19:00
SCIE 091900Z 21009KT CAVOK 15/02 Q1017

2010/08/09 19:00
SCTC 091900Z 22007KT 170V260 CAVOK 14/05 Q1019

2010/08/09 19:00
SCJO 091900Z 17014KT 9999 SCT020 14/07 Q1023

2010/08/09 19:00
SCTE 091900Z 23004KT 9999 SCT015 BKN040 11/10 Q1024 NOSIG

2010/08/09 19:00
SCBA 091900Z 31027G38KT 9999 SCT030 SCT070 04/M01 Q1018

2010/08/09 19:00
SCCI 091900Z 26030G44KT 8000 SCT013 03/M01 Q1006 NOSIG RMK -SHSN

2010/08/09 19:00
SCNT 091900Z 31018G28KT 9999 SCT015 BKN200 08/M00 Q1011

2010/08/09 19:00
SLLP 091900Z 13009KT 080V180 9999 SKC 15/M07 Q1036

2010/08/09 19:00
SLCB 091900Z 32004KT 9999 SKC 25/01 Q1023

2010/08/09 19:00
SLVR 091900Z 15008KT 8000 SKC 26/10 Q1016

2010/08/09 19:00
SLTJ 091900Z 13005KT 9999 SKC 19/07 Q1019

2010/08/09 18:55
EBFN 091855Z 24008KT 9999 FEW035 SCT230 19/12 Q1015 BLU

2010/08/09 18:55
EBFS 091855Z 23004KT 9999 FEW060 SCT080 BKN250 19/11 Q1016 BLU

2010/08/09 18:50
EGDR 091850Z 23014KT 0200 FG VV/// 17/17 Q1013 RED

2010/08/09 18:50
EGDY 091850Z 20010KT 9999 FEW010 SCT035 BKN080 18/17 Q1013 BLU

2010/08/09 18:50
EGOM 091850Z AUTO 23008KT 9999NDV // SCT060/// 14/11 Q1008

2010/08/09 18:50
EGOP 091850Z AUTO 28011KT 1500NDV BR FEW003/// BKN013/// 16/16 Q1011

2010/08/09 18:50
EGPU 091850Z AUTO 22008KT 9999NDV // NCD 14/11 Q1005

2010/08/09 18:50
EGUW 091850Z 22008KT CAVOK 21/09 Q1012 BLU NOSIG

2010/08/09 18:50
EGXX 091850Z AUTO 22014KT 9999NDV // BKN050/// 21/13 Q1010

2010/08/09 19:00
EPGD 091900Z 12001KT 9999 -SHRA SCT011 BKN036CB 18/16 Q1016 RETS

2010/08/09 19:00
EPKK 091900Z 04003KT CAVOK 16/15 Q1017

2010/08/09 19:00
EPKT 091900Z 00000KT CAVOK 16/15 Q1016

2010/08/09 19:00
EPPO 091900Z 23003KT 9999 FEW040TCU 20/15 Q1016

2010/08/09 19:00
EPRZ 091900Z 19002KT 9999 -SHRA BKN040CB 17/17 Q1016 RETS

2010/08/09 19:00
EPWA 091900Z 00000KT CAVOK 19/16 Q1015 NOSIG

2010/08/09 19:00
EPWR 091900Z 24005KT CAVOK 19/17 Q1016

2010/08/09 19:00
LBBG 091900Z 01006MPS CAVOK 27/21 Q1010 NOSIG

2010/08/09 19:00
LBGO 091900Z 27002MPS CAVOK 23/20 Q1013 NOSIG

2010/08/09 19:00
LBPD 091900Z 12003MPS 9999 FEW055 SCT100 26/20 Q1013 NOSIG

2010/08/09 19:00
LBSF 091900Z 29003MPS 270V330 9999 SCT050 23/16 Q1016 NOSIG

2010/08/09 19:00
LBWN 091900Z 36005MPS CAVOK 26/21 Q1010 NOSIG

2010/08/09 19:00
LDDU 091900Z 30006KT 280V020 CAVOK 24/15 Q1013 NOSIG

2010/08/09 19:00
LDPL 091900Z VRB01KT CAVOK 22/18 Q1014

2010/08/09 19:00
LDSP 091900Z 30011KT 270V330 CAVOK 28/10 Q1013 NOSIG

2010/08/09 19:00
LDZA 091900Z 07004KT 040V110 CAVOK 22/17 Q1016 NOSIG

2010/08/09 19:00
LDZD 091900Z 31003KT CAVOK 22/16 Q1014

2010/08/09 19:00
LHBP 091900Z 29005KT 260V350 CAVOK 18/13 Q1017 NOSIG

2010/08/09 19:00
LZIB 091900Z 23004KT CAVOK 18/16 Q1017

2010/08/09 19:00
LZTT 091900Z 26004KT 9999 FEW006 BKN120 14/13 Q1018

2010/08/09 18:50
BGGH 091850Z 21010KT 9999 SCT020 BKN060 12/09 Q1008

2010/08/09 18:57
KHUA 091857Z 24007G15KT 7SM SCT090 36/22 A2999 RMK AO2A SLP142 T03580217 $

2010/08/09 19:00
KNEL 091900Z AUTO 21003KT 8SM BKN070 33/14 A2997 RMK AO2 SLP148 T03280144 $

2010/08/09 18:54
KNFG 091854Z COR 24009KT 7SM FEW017 22/13 A2992 RMK AO2 SLP132 T02220133

2010/08/09 18:59
KNGU 091859Z 07010KT 10SM FEW042 SCT250 32/21 A3004 RMK AO2 SLP171 T03170206

2010/08/09 18:53
KNIP 091853Z COR 05013G22KT 3SM RA FEW020 BKN035CB BKN250 28/25 A2996 RMK AO2 RAB46 SLP139 CB OHD MOV SW T2 SET P0000 T02780250

2010/08/09 18:56
KNRS 091856Z 24008KT 10SM FEW017 20/13 A2995 RMK AO2 SLP139 T02000128

2010/08/09 19:00
MHAM 091900Z 23004KT 9999 FEW025TCU BKN250 32/26 TCU N FEW090

2010/08/09 19:00
MHCA 091900Z 16003KT 9999 SCT028TCU 30/22 TCU TD

2010/08/09 19:00
MHCH 091900Z 18004KT 9999 TS SCT032CB 30/25 FEW100 CB TS PCPN S

2010/08/09 19:00
MHLE 091900Z 02005KT 9999 SCT024TCU BKN200 24/14 Q1024 TCU TD

2010/08/09 19:00
MHNO 091900Z 18004KT 9999 SCT040TCU 29/// TCU TD HZ

2010/08/09 19:00
MHSR 091900Z 36006KT 9999 SCT025CB BKN250 27/20 CB S TCU E ESE W

2010/08/09 19:00
MHYR 091900Z 09005KT 9999 SCT025 BKN080 30/20 TCU TD

2010/08/09 19:00
NTAA 091900Z 16008KT 9999 FEW020 26/16 Q1019 WS ALL RWY NOSIG

2010/08/09 18:54
OAHR 091854Z AUTO /////KT //// // ////// 29/M02 Q1010

2010/08/09 19:00
OEMA 091900Z 27008KT 9000 SCT045 SCT100 41/04 Q1005 NOSIG

2010/08/09 19:00
OJAI 091900Z 31010KT CAVOK 25/19 Q1009 NOSIG

2010/08/09 19:00
OJAM 091900Z 00000KT 5000 NSC 28/14 Q1009 NOSIG

2010/08/09 18:50
TJPS 091850Z 16008KT 10SM FEW030 BKN060 31/26 A2993 DSNT SHRA SE-SW

2010/08/09 19:00
TKPN 091900Z 10010KT 9999 FEW016 SCT260 30/25 Q1013

2010/08/09 19:00
WSSS 091900Z 16005KT 9999 FEW018 BKN300 28/25 Q1009 NOSIG

2010/08/09 19:00
UGTB 091900Z 01003KT 9999 SCT050 SCT100 27/11 Q1014 NOSIG RMK 13CLRD80

2010/08/09 19:00
UGSB 091900Z 10004KT P6000 BKN070 28/24 Q1006 NOSIG

2010/08/09 19:00
YSDU 091900Z AUTO 07009KT 9999NDV // SCT010 BKN017 OVC074 11/11 Q1015

2010/08/09 18:45
LHDC 091845Z 00000KT CAVOK 20/16 Q1017

2010/08/09 18:45
LHKE 091845Z 30002MPS CAVOK 21/15 Q1016 NOSIG RMK BLU

2010/08/09 18:45
LHPA 091845Z 23001MPS CAVOK 17/15 Q1018 NOSIG RMK BLU

2010/08/09 18:45
LHPP 091845Z 10003KT CAVOK 19/16 Q1018

2010/08/09 18:45
LHPR 091845Z 00000KT CAVOK 20/17 Q1018

2010/08/09 18:45
LHSN 091845Z 28001MPS CAVOK 21/18 Q1016 NOSIG RMK BLU

2010/08/09 18:45
LHUD 091845Z 31003KT CAVOK 19/18 Q1017

2010/08/09 18:50
EGEC 091850Z AUTO 22004KT 9999NDV // NSC 14/11 Q1007

2010/08/09 19:00
OMAA 091900Z 03005KT CAVOK 35/22 Q0997 A2945 NOSIG

2010/08/09 19:00
OMAD 091900Z 03004KT 010V080 CAVOK 35/24 Q0997 A2945

2010/08/09 19:00
OMAL 091900Z 04006KT CAVOK 38/10 Q1000 A2953

2010/08/09 19:00
OMDB 091900Z 03004KT 320V080 CAVOK 38/15 Q0998 NOSIG

2010/08/09 19:00
OMDW 091900Z 03004KT CAVOK 33/16 Q0998 NOSIG

2010/08/09 19:00
OMFJ 091900Z 12005KT CAVOK 32/24 Q0999 A2950

2010/08/09 19:00
OMRK 091900Z 09003KT CAVOK 35/22 Q0997 A2945

2010/08/09 19:00
OMSJ 091900Z 00000KT CAVOK 33/16 Q0998

2010/08/09 19:00
UKBB 091900Z 32002MPS CAVOK 24/18 Q1014 86190095 36CLRD95 NOSIG

2010/08/09 19:00
UKHH 091900Z 02002MPS 4100 DU SKC 31/11 Q1013 080///65 NOSIG

2010/08/09 19:00
UKOO 091900Z 01004MPS CAVOK 29/16 Q1012 34090070 NOSIG

2010/08/09 19:00
UKDE 091900Z 05004MPS CAVOK 32/10 Q1011 02CLRD70 NOSIG

2010/08/09 19:00
UKDD 091900Z 04003MPS CAVOK 27/12 Q1012 08090070 NOSIG

2010/08/09 19:00
UKFF 091900Z 09003MPS CAVOK 26/14 Q1010 01010070 NOSIG

2010/08/09 19:00
UKLL 091900Z 29005G10MPS 220V360 0550 R31/P2000N VCTS +SHRA BKN005 SCT020CB 22/17 Q1016 31220355 TEMPO -TSRA

2010/08/09 19:00
UKCC 091900Z 12003MPS CAVOK 29/10 Q1012 08090070 NOSIG

2010/08/09 19:00
UKDR 091900Z 06003MPS CAVOK 28/13 Q1012 1809//70 NOSIG

2010/08/09 19:00
OEDF 091900Z 18006KT 8000 SKC 34/21 Q0997 NOSIG

2010/08/09 19:00
OEDR 091900Z 13004KT CAVOK 34/28 Q0996 NOSIG

2010/08/09 19:00
OEJN 091900Z 36004KT CAVOK 33/28 Q1001 NOSIG

2010/08/09 19:00
OEMA 091900Z 27008KT 9000 SCT045 SCT100 41/04 Q1005 NOSIG

2010/08/09 19:00
OERK 091900Z 06008KT 8000 SKC 37/04 Q1004 NOSIG

2010/08/09 19:00
OERY 091900Z 08010KT CAVOK 39/05 Q1006 NOSIG

2010/08/09 19:00
OYSN 091900Z 35006KT 9999 BKN030 19/11 Q1022

2010/08/09 19:00
LATI 091900Z 09002KT CAVOK 24/23 Q1013 NOSIG

2010/08/09 19:00
OYHD 091900Z 36008KT 7000 BKN030 33/30 Q1001

2010/08/09 19:00
TTPP 091900Z ///11KT 7000 -TSRA SCT008CB BKN260 24/23 Q1012 TEMPO TSRA

2010/08/09 19:00
GGOV 091900Z 26010KT 9999 SCT015TCU FEW020CB 28/24 Q1011 4000 TSRA

2010/08/09 18:50
EGDX 091850Z AUTO 25008KT 9999NDV // FEW018/// SCT031/// BKN045/// 18/16 Q1012

2010/08/09 19:00
FMMI 091900Z 08003KT 9999 FEW016 BKN020 14/14 Q1026 NOSIG

2010/08/09 19:02
CYKJ 091902Z AUTO 09005KT 5SM -RA OVC009 15/14 A2978 RMK SLP098 DENSITY ALT 2200FT

2010/08/09 18:56
KNUW 091856Z 23003KT 6SM -RA BR FEW006 SCT012 OVC018 14/12 A2999 RMK AO2 RAB37 SLP160 PCPN VRY LGT P0000 T01360117 $ 

2010/08/09 18:55
KQA7 091855Z AUTO 14003KT 8000 DU HZ FEW085 BKN150 31/M02 A2982 RMK AO2A SLP977 T03061021 $

2010/08/09 18:55
KQSR 091855Z 13004KT 9999 -RA SCT007 SCT020 OVC040 16/15 A3008 RMK AO2A SLP084 WND DATA/ALSTG ESTMD

2010/08/09 18:55
KQXF 091855Z AUTO 35004KT 9999 CLR 35/00 A2954 RMK AO2 SLP992 T03450001 $

2010/08/09 18:56
KHLR 091856Z AUTO 13006G14KT 10SM CLR 37/20 A2995 RMK AO2 SLP130 T03670200 $

2010/08/09 18:56
PHNY 091856Z AUTO VRB04KT 10SM FEW030 24/17 A3013 RMK AO2 TSNO T02380166 SLP184 $

2010/08/09 18:53
PTKK 091853Z VRB04KT 15SM FEW014 BKN120 OVC280 26/24 A2984 RMK SLP106 T02580243

2010/08/09 19:00
RJSM 091900Z VRB01KT 0800 R10/1400D FG BKN000 OVC001 23/22 Q1013 RMK 5ST000 8ST001 A2994

2010/08/09 19:00
TGPY 091900Z 12008KT 9999 BKN012CB BKN250 28/25 Q1012 CB E AND SE TOP OVHD 

2010/08/09 18:50
EGXJ 091850Z AUTO 22014KT 9999NDV // SCT037/// BKN080/// 20/13 Q1010

2010/08/09 18:50
EGVP 091850Z AUTO 22008KT 9999NDV // OVC010/// 17/15 Q1013

2010/08/09 18:50
EGOS 091850Z AUTO 27010KT 9999NDV FEW060/// 18/12 Q1010

2010/08/09 18:50
EGXG 091850Z AUTO 19005KT 9999NDV FEW032/// 18/15 Q1009

2010/08/09 18:50
EGYD 091850Z AUTO 23016KT 9999NDV // FEW038/// BKN090/// 21/13 Q1010

2010/08/09 18:50
ETUO 091850Z AUTO 00000KT 9999NDV // BKN060/// 19/14 Q1016

2010/08/09 18:50
EGXU 091850Z AUTO 19004KT 9999NDV // NCD 18/16 Q1009

2010/08/09 19:02
PASY 091902Z 31005KT 3SM BR BKN001 OVC025 10/09 A2984 RMK AO2 PNO $  

2010/08/09 19:03
CYOO 091903Z AUTO 20010G16KT 190V250 3SM +RA TS FEW027 SCT036 BKN056 BKN072 24/22 A2992 RMK SLP132 DENSITY ALT 1600FT PCPN 0.8MM PAST HR LTNG DIST NE SW W

2010/08/09 19:00
TBPB 091900Z 18015KT 9999 SCT012 SCT032 29/24 Q1013 NOSIG

2010/08/09 19:00
MDSD 091900Z 16010KT 8000 TS/VCSH FEW020CB SCT022 32/24 Q1012 CB/N/NE

2010/08/09 18:45
MMAA 091845Z 15008KT 10SM FEW010 SCT300 31/25 A2981 RMK 8/102

2010/08/09 18:45
MMCB 091845Z 00000KT 7SM BKN015TCU BKN200 28/18 A3005 RMK 8/208 HZY

2010/08/09 18:46
MMPB 091846Z 14004KT 10SM SCT020 BKN100 OVC220 24/12 A3029 RMK 8/177 HZY

2010/08/09 18:45
MMQT 091845Z 11005KT 5SM SCT020 BKN250 22/15 A3022 RMK 8/502 HZY

2010/08/09 18:45
MMTO 091845Z 12007KT 5SM BKN015TCU BKN070 20/11 A3034 RMK 8/230 HZ

2010/08/09 18:45
MMZH 091845Z 18006KT 10SM SCT020TCU BKN120 BKN250 32/26 A2983 RMK 8/232 HZY

2010/08/09 19:00
MNMG 091900Z 12006KT 9999 FEW020CB SCT070 31/24 Q1010 A2982 CB/NE/SW/W TCU/NW/N

2010/08/09 18:56
MUGM 091856Z 14013KT 9999 FEW025CB BKN250 32/25 A2992 RMK SLP129 CB DSNT N T03220250

2010/08/09 18:55
MUHA 091855Z 17010KT 7000 SCT018 OVC066 25/21 Q1014

2010/08/09 19:00
NTAA 091900Z 16008KT 9999 FEW020 26/16 Q1019 WS ALL RWY NOSIG

2010/08/09 19:00
NWWW 091900Z AUTO VRB02KT 9999NDV BKN060/// 16/12 Q1024

2010/08/09 18:58
PAGA 091858Z AUTO 14012KT 10SM FEW012 BKN039 OVC046 14/12 A2947 RMK AO2 SLPNO T01390117

2010/08/09 19:00
PKWA 091900Z AUTO 05011KT 10SM SCT021 28/23 A2986 RMK AO2 T02770232

2010/08/09 19:00
SOCA 091900Z 08009KT 9999 FEW023 30/24 Q1012 NOSIG

2010/08/09 19:00
SVMI 091900Z 36003KT 9999 FEW016 BKN100 31/27 Q1011 NOSIG

2010/08/09 19:00
TAPA 091900Z 07013KT 9999 -SHRA BKN018 SCT060 30/25 Q1014

2010/08/09 19:00
TFFR 091900Z 07004KT 040V100 9999 VCTS FEW015CB SCT026 28/25 Q1013 TEMPO 4000 SHRA

2010/08/09 19:00
VHHH 091900Z 08005KT 040V100 9999 FEW012 SCT025 29/26 Q1004 NOSIG

2010/08/09 19:01
PAIK 091901Z AUTO 09010G18KT 10SM FEW037 BKN075 14/11 A2948 RMK AO2 RAE1830 SLP022 P0000 T01440111

2010/08/09 19:01
PAKF 091901Z AUTO 20016G25KT 10SM FEW022 OVC028 13/08 A2952 RMK AO2 PK WND 19030/1704 SLP090 T01280083

2010/08/09 18:53
KRIL 091853Z AUTO 00000KT 9SM CLR 21/11 A3020 RMK AO2 RAE05 SLP166 P0000 T02110106 TSNO

2010/08/09 18:45
CWSK 091845Z AUTO 14005KT 17/15 RMK AO1 T01660148

2010/08/09 19:00
SBGL 091900Z 24014KT 9999 SCT020 BKN050 23/17 Q1020

2010/08/09 19:00
SBKP 091900Z 13013KT 7000 NSC 23/12 Q1019

2010/08/09 18:58
YMAV 091858Z AUTO 31004KT 6000NDV // NCD 03/03 Q1017

2010/08/09 19:00
UBBB 091900Z 16004KT CAVOK 30/29 Q1009 NOSIG RMK R88CLRD70

2010/08/09 19:00
MDPP 091900Z 06010KT 9999 SCT020 32/27 Q1014

2010/08/09 19:00
MDST 091900Z 09011KT 9999 FEW016CB SCT023 32/24 Q1012 CB/S/SW

2010/08/09 19:00
MDCY 091900Z 00000KT 8000 -TSRA FEW014 BKN016 26/26 Q1016 CB/S/SE

2010/08/09 19:00
MDPC 091900Z 09010KT 9999 SCT025 31/24 Q1011 NOSIG

2010/08/09 19:00
MDJB 091900Z 03006KT 8000 VCSH FEW014CB BKN020 SCT300 33/25 Q1011 CB/E/NW/N VCSH/E/N

2010/08/09 19:00
MDLR 091900Z 06012KT 9999 BKN028 32/24 Q1013

2010/08/09 19:00
MDBH 091900Z 13012KT 9999 FEW017CB FEW021 SCT300 33/27 Q1013 CB/S/NW

2010/08/09 19:00
MDSD 091900Z 16010KT 8000 TS/VCSH FEW020CB SCT022 32/24 Q1012 CB/N/NE

2010/08/09 19:00
TFFR 091900Z 07004KT 040V100 9999 VCTS FEW015CB SCT026 28/25 Q1013 TEMPO 4000 SHRA

2010/08/09 18:50
EGAE 091850Z 25012KT 9999 SCT030 16/10 Q1007

2010/08/09 18:50
EGNH 091850Z 25003KT 9999 -SHRA SCT018 17/14 Q1009

2010/08/09 18:50
EGNJ 091850Z 21013KT 9999 BKN030 22/14 Q1009

2010/08/09 18:50
EGPE 091850Z 06004KT 9999 FEW020CB 15/12 Q1005

2010/08/09 18:50
EGPA 091850Z AUTO 15010KT 9999NDV FEW009/// BKN034/// 14/14 Q1005

2010/08/09 18:50
EGPC 091850Z 30011KT 9999 -SHRA SCT008 BKN022 12/12 Q1005

2010/08/09 18:50
EGPL 091850Z AUTO 19007KT 9999NDV FEW030/// SCT040/// 15/10 Q1005

2010/08/09 18:50
EGPM 091850Z AUTO 12013KT 9999NDV SCT015/// 14/12 Q1008

2010/08/09 18:50
EGPO 091850Z 20005KT 9999 FEW026 SCT032 15/11 Q1005

2010/08/09 19:00
SBFL 091900Z 14014KT 9999 SCT030 18/09 Q1022

2010/08/09 18:50
EGDL 091850Z 19006KT 6000 -RADZ FEW007 BKN010 17/16 Q1013 TEMPO 9999 NSW BKN007

2010/08/09 18:50
EGDM 091850Z 22012KT 9999 -DZ OVC004 17/15 Q1013

2010/08/09 18:50
EGOV 091850Z 24005KT 9999 FEW018 SCT060 16/14 Q1009 NOSIG

2010/08/09 18:50
EGUB 091850Z 21010KT 9999 SCT020 BKN035 BKN090 19/14 Q1012 TEMPO FEW020 BKN035

2010/08/09 18:50
EGVN 091850Z 21005KT 9999 BKN019 BKN044 18/16 Q1012 TEMPO 6000 -RADZ

2010/08/09 18:50
EGWU 091850Z 23011KT 9999 FEW026 BKN060 20/14 Q1013 BECMG SCT024

2010/08/09 18:50
EGXC 091850Z 22013KT 9999 FEW040 BKN100 21/13 Q1010 NOSIG

2010/08/09 18:55
EHAK 091855Z AUTO 18017KT 9000NDV FEW005/// SCT007/// 17/15 Q1011

2010/08/09 18:55
EHDV 091855Z AUTO 18018KT 9999NDV NCD 18/15 Q1011

2010/08/09 18:55
EHFD 091855Z AUTO 19020KT 9999NDV NCD 17/15 Q1014

2010/08/09 18:55
EHFZ 091855Z AUTO 19023KT 9999NDV ///////// 18/14 Q1013

2010/08/09 18:55
EHJA 091855Z AUTO 17020KT 9999NDV NCD 17/14 Q1012

2010/08/09 18:55
EHKV 091855Z AUTO 19016KT 9999NDV 17/15 Q1013

2010/08/09 18:55
EHMA 091855Z AUTO 22005KT 9999NDV ///////// 19/13 Q1015

2010/08/09 18:55
EHMG 091855Z AUTO 20015KT 9999NDV NCD 18/15 Q1014

2010/08/09 18:55
EHPG 091855Z AUTO 21015KT 180V280 9999NDV NCD 18/14 Q1013

2010/08/09 18:55
EHQE 091855Z AUTO 17014KT 9999NDV ///////// 18/15 Q1014

2010/08/09 19:02
KHTL 091902Z AUTO 01005KT 8SM -RA BKN036 OVC060 24/22 A2993 RMK AO2 TSE1856 P0001 

2010/08/09 19:00
UBBN 091900Z 13010KT 9999 SCT050CB BKN100 29/09 Q1010 R14R/CLRD60 NOSIG RMK G/O QFE683

2010/08/09 18:59
OPKC 091859Z 27006KT 6000 SCT020 BKN100 27/25 Q.1001 NOSIG

2010/08/09 18:55
OPLA 091855Z 00000KT 4000 FU FEW100 30/27 Q1002 NOSIG

2010/08/09 18:55
OPNH 091855Z 00000KT 4000M FU SCT035 SCT100 29/27 Q1000

2010/08/09 19:00
OPRN 091900Z 31008KT 4000 BR FEW035 SCT100 29/25 Q1004.5

2010/08/09 18:53
OPSK 091853Z 00000KT 2000 HZ SCT040 SCT100 29/27 Q1000 RH 89

2010/08/09 18:55
PTTP 091855Z 09010KT 14SM -SHRA BKN017TCU OVC120 25/23 A2989 RMK TCU ALQDS SLP121 T02500233

2010/08/09 19:00
MROC 091900Z 25012KT 9999 FEW040 SCT120 BKN250 26/24 A2998 NOSIG

2010/08/09 18:53
PTKK 091853Z VRB04KT 15SM FEW014 BKN120 OVC280 26/24 A2984 RMK SLP106 T02580243

2010/08/09 19:00
FOOL 091900Z 17004KT 140V200 8000 SCT010 BKN033 25/23 Q1014 NOSIG

2010/08/09 19:00
MROC 091900Z 25012KT 9999 FEW040 SCT120 BKN250 26/24 A2998 NOSIG

2010/08/09 19:00
FLLS 091900Z 14003KT CAVOK 16/09 Q1023

2010/08/09 19:00
SMJP 091900Z 140/03KT 8000 -SHRA FEW020CB SCT030 32/21 Q1012 TEMPO 5000 -TSRA

2010/08/09 18:50
KOMN 091850Z 11011G17KT 10SM SCT020 32/24 A2993

2010/08/09 18:55
KSUN 091855Z 11007KT 30SM SCT080 BKN120 22/11 A3005

2010/08/09 19:00
K3A1 091900Z AUTO 23005KT 10SM CLR 34/22 A3002 RMK AO2 T03420218 TSNO

2010/08/09 18:58
K4A9 091858Z AUTO 00000KT 10SM SCT050 SCT110 35/19 A3000 RMK AO2 T03530189

2010/08/09 19:00
K4R4 091900Z AUTO 13008KT 10SM SCT033 SCT042 SCT090 35/25 A2997 RMK AO2 T03490249

2010/08/09 19:00
KASJ 091900Z AUTO 11003KT 10SM CLR 32/19 A3001 RMK AO2

2010/08/09 19:00
KAVC 091900Z AUTO 00000KT 10SM SCT090 33/19 A3007 RMK AO2

2010/08/09 19:00
KBCB 091900Z AUTO 00000KT 10SM CLR 32/19 A3012 RMK AO2 PWINO

2010/08/09 19:00
KBIJ 091900Z AUTO 00000KT 10SM SCT055 SCT070 SCT090 35/21 A2996 RMK AO2 LTG DSNT SW

2010/08/09 19:00
KCPK 091900Z AUTO 12006KT 7SM -RA CLR 33/21 A3003 RMK AO2

2010/08/09 19:00
KDPL 091900Z AUTO 00000KT 10SM SCT048 SCT055 33/19 A3002 RMK AO2

2010/08/09 18:59
KEDE 091859Z AUTO 11009KT 10SM CLR 33/20 A2999 RMK AO2

2010/08/09 19:00
KEXX 091900Z AUTO 00000KT 10SM SCT065 31/22 A3003 RMK AO2

2010/08/09 19:00
KFQD 091900Z AUTO 00000KT 10SM SCT050 33/21 A3004 RMK AO2

2010/08/09 19:00
KHBI 091900Z AUTO 12003KT 10SM SCT048 32/20 A3005 RMK AO2

2010/08/09 19:00
KONX 091900Z AUTO 10004KT 10SM SCT022 30/23 A3003 RMK AO2

2010/08/09 18:48
KRHV 091848Z 14010KT 10SM SKC 23/12 A2991

2010/08/09 19:00
KUKF 091900Z AUTO 00000KT 10SM SCT055 34/22 A3006 RMK AO1

2010/08/09 18:50
TJPS 091850Z 16008KT 10SM FEW030 BKN060 31/26 A2993 DSNT SHRA SE-SW

2010/08/09 19:00
MROC 091900Z 25012KT 9999 FEW040 SCT120 BKN250 26/24 A2998 NOSIG

2010/08/09 19:00
SBFL 091900Z 14014KT 9999 SCT040 18/09 Q1022

2010/08/09 19:00
KPTK 091900Z 25008KT 9SM -RA SCT017 OVC130 24/22 A2997 RMK AO2 P0000

2010/08/09 18:58
PAJZ 091858Z AUTO 17013KT 1 1/2SM BR FEW004 BKN008 OVC011 11/10 A2958 RMK AO2 PWINO TSNO CIG 007V010 $

2010/08/09 19:01
KMEM 091901Z 12015KT 10SM TS BKN047CB OVC250 33/23 A2994 RMK AO2 TSB01 OCNL LTGCG E TS E

2010/08/09 19:00
YSCB 091900Z 10010KT 6000 -RA FEW035 OVC070 08/07 Q1018

2010/08/09 19:00
UTTT 091900Z 06004MPS CAVOK 27/06 Q1006 R08R/CLRD70 TEMPO 03005G10MPS

2010/08/09 18:54
KNKT 091854Z COR 14005KT 10SM SCT030 BKN150 29/23 A3003 RMK AO2 SLP164 T02940233

2010/08/09 18:57
KHUA 091857Z 24007G15KT 7SM SCT090 36/22 A2999 RMK AO2A SLP142 T03580217 $

2010/08/09 19:00
KNEL 091900Z AUTO 21003KT 8SM BKN070 33/14 A2997 RMK AO2 SLP148 T03280144 $

2010/08/09 18:54
KNFG 091854Z COR 24009KT 7SM FEW017 22/13 A2992 RMK AO2 SLP132 T02220133

2010/08/09 18:59
KNGU 091859Z 07010KT 10SM FEW042 SCT250 32/21 A3004 RMK AO2 SLP171 T03170206

2010/08/09 18:53
KNIP 091853Z COR 05013G22KT 3SM RA FEW020 BKN035CB BKN250 28/25 A2996 RMK AO2 RAB46 SLP139 CB OHD MOV SW T2 SET P0000 T02780250

2010/08/09 18:56
KNRS 091856Z 24008KT 10SM FEW017 20/13 A2995 RMK AO2 SLP139 T02000128

2010/08/09 18:56
KHLR 091856Z AUTO 13006G14KT 10SM CLR 37/20 A2995 RMK AO2 SLP130 T03670200 $

2010/08/09 18:55
KNYL 091855Z 21006KT 10SM CLR 37/02 A2979 RMK AO2 SLP085 T03720017

2010/08/09 18:56
KNUW 091856Z 23003KT 6SM -RA BR FEW006 SCT012 OVC018 14/12 A2999 RMK AO2 RAB37 SLP160 PCPN VRY LGT P0000 T01360117 $

2010/08/09 19:00
GBYD 091900Z 27007KT 9999 SCT011 SCT120 28/24 Q1012

2010/08/09 19:00
SPHI 091900Z 20010KT CAVOK 24/15 Q1016 RMK PP000

2010/08/09 19:00
SPIM 091900Z 18007KT 6000 FEW013 BKN018 18/13 Q1016 NOSIG RMK BIRD HAZARD RWY 15 PP000

2010/08/09 19:00
SPQT 091900Z /////KT 8000 FEW020 32/22 Q1013 NOSIG RMK BRUMOSO BIRD HAZARD RWY 06/24 PP000

2010/08/09 19:00
SPQU 091900Z 24011KT CAVOK 19/M12 Q1026 NOSIG RMK PP000

2010/08/09 19:00
SPRU 091900Z 18010KT 9000 FEW012 17/13 Q1015 RMK BIRD HAZARD RWY20 PP000

2010/08/09 19:00
SPSO 091900Z 29009KT 6000 FEW012 19/14 Q1017 RMK BIRDS HAZARD RWY 22/04 W PP000

2010/08/09 19:00
SPTN 091900Z 23006KT CAVOK 20/09 Q1012 RMK PP000

2010/08/09 19:00
SPZO 091900Z 03007KT 300V050 9999 SKC 20/M19 Q1031 NOSIG RMK PP000

2010/08/09 19:00
OPST 091900Z 23002KT 4000 FU FEW040 SCT110 31/23 Q1002 RH66

2010/08/09 18:53
KRIL 091853Z AUTO 00000KT 9SM CLR 21/11 A3020 RMK AO2 RAE05 SLP166 P0000 T02110106 TSNO

2010/08/09 19:02
K47A 091902Z AUTO 00000KT 10SM CLR 33/17 A3005 RMK AO2 LTG DSNT NE AND SW

2010/08/09 19:01
KHLX 091901Z AUTO 18003KT 10SM SCT047 31/21 A3014 RMK AO2

2010/08/09 19:01
PAIK 091901Z AUTO 09010G18KT 10SM FEW037 BKN075 14/11 A2948 RMK AO2 RAE1830 SLP022 P0000 T01440111

2010/08/09 18:55
KJQF 091855Z 14005KT 7SM SCT046 BKN090 33/20 A3002

2010/08/09 18:56
PHNY 091856Z AUTO VRB04KT 10SM FEW030 24/17 A3013 RMK AO2 TSNO T02380166 SLP184 $

2010/08/09 19:00
DIAP 091900Z 25005KT 7000 FEW011 BKN080 25/22 Q1013 NOSIG

2010/08/09 19:00
MNRS 091900Z 08006KT 9999 FEW015CB BKN016 29/25 Q1011 CB/4C

2010/08/09 19:00
MNJG 091900Z 00000KT 9999 BKN020 25/18 Q1011

2010/08/09 19:00
MNJU 091900Z 09006KT 9999 SCT020 SCT080 29/26 Q1011

2010/08/09 19:00
MNCH 091900Z 09006KT 9999 FEW024CB SCT025TCU 32/25 Q1010 CB/N/NE/NW TCU/E/SE/S

2010/08/09 19:00
MNBL 091900Z 09008KT 9999 SCT020 SCT080 30/27 Q1011

2010/08/09 19:01
KMEM 091901Z 12015KT 10SM TS BKN047CB OVC250 33/23 A2994

2010/08/09 19:00
MNMG 091900Z 12006KT 9999 FEW020CB SCT070 31/24 Q1010 A2982 CB/NE/SW/W TCU/NW/N

2010/08/09 18:45
MMAA 091845Z 15008KT 10SM FEW010 SCT300 31/25 A2981 RMK 8/102

2010/08/09 18:45
MMTO 091845Z 12007KT 5SM BKN015TCU BKN070 20/11 A3034 RMK 8/230 HZ

2010/08/09 18:45
MMZH 091845Z 18006KT 10SM SCT020TCU BKN120 BKN250 32/26 A2983 RMK 8/232 HZY

2010/08/09 18:50
EGDR 091850Z 23014KT 0200 FG VV/// 17/17 Q1013 RED

2010/08/09 18:50
EGDY 091850Z 20010KT 9999 FEW010 SCT035 BKN080 18/17 Q1013 BLU

2010/08/09 18:50
EGOS 091850Z AUTO 27010KT 9999NDV FEW060/// 18/12 Q1010

2010/08/09 18:50
EGPU 091850Z AUTO 22008KT 9999NDV // NCD 14/11 Q1005

2010/08/09 18:45
LHDC 091845Z 00000KT CAVOK 20/16 Q1017

2010/08/09 18:45
LHKE 091845Z 30002MPS CAVOK 21/15 Q1016 NOSIG RMK BLU

2010/08/09 18:45
LHPP 091845Z 10003KT CAVOK 19/16 Q1018

2010/08/09 18:45
LHSN 091845Z 28001MPS CAVOK 21/18 Q1016 NOSIG RMK BLU

2010/08/09 18:45
LHUD 091845Z 31003KT CAVOK 19/18 Q1017

2010/08/09 18:45
MMCB 091845Z 00000KT 7SM BKN015TCU BKN200 28/18 A3005 RMK 8/208 HZY

2010/08/09 18:45
MMPA 091845Z 11008KT 6SM SCT020 BKN250 34/25 A2990 RMK 8/108 HZY

2010/08/09 18:46
MMPB 091846Z 14004KT 10SM SCT020 BKN100 OVC220 24/12 A3029 RMK 8/177 HZY

2010/08/09 18:45
MMQT 091845Z 11005KT 5SM SCT020 BKN250 22/15 A3022 RMK 8/502 HZY

2010/08/09 19:00
KPTK 091900Z 25008KT 9SM -RA SCT017 OVC130 24/22 A2997

2010/08/09 19:00
GCLP 091900Z 03008KT 9999 SCT024 24/19 Q1013 NOSIG

2010/08/09 19:00
GCXO 091900Z 33005KT 290V030 8000 FEW002 BKN005 18/17 Q1016 NOSIG

2010/08/09 19:00
GCTS 091900Z 10005KT 070V130 9999 FEW020 BKN026 24/18 Q1013 NOSIG

2010/08/09 19:00
GCRR 091900Z 08009KT CAVOK 24/22 Q1011

2010/08/09 19:00
GCFV 091900Z 15003KT 8000 FEW025 24/21 Q1012

2010/08/09 19:02
YSDU 091902Z AUTO 07010KT 4900NDV // SCT010 BKN017 OVC074 11/11 Q1015

2010/08/09 19:00
LEAS 091900Z 09007KT 060V120 9999 SCT020 BKN030 20/16 Q1020 NOSIG

2010/08/09 19:00
LEBB 091900Z 35004KT 310V020 9999 SCT030 BKN040 21/15 Q1020 NOSIG

2010/08/09 19:00
LECO 091900Z 35005KT 320V020 CAVOK 23/17 Q1018

2010/08/09 19:00
LEGE 091900Z 20006KT 180V240 3000 TSRA SCT010 FEW028CB BKN034 21/20 Q1017

2010/08/09 19:00
LEST 091900Z 32004KT 280V010 CAVOK 21/15 Q1018 NOSIG

2010/08/09 19:00
LEZG 091900Z 30014KT 9999 FEW040 26/15 Q1016

2010/08/09 19:00
LESO 091900Z 03003KT 330V060 9999 BKN030 21/16 Q1020

2010/08/09 19:00
LEVT 091900Z 03009KT 9999 FEW018 SCT027 18/15 Q1020

2010/08/09 19:00
LERS 091900Z 19004KT 160V220 9999 FEW030 26/19 Q1015

2010/08/09 19:00
LEMH 091900Z VRB01KT CAVOK 24/20 Q1016

2010/08/09 19:00
LEAM 091900Z 23004KT 200V260 CAVOK 25/22 Q1014

2010/08/09 19:00
LEGR 091900Z 29009KT 260V330 9999 FEW090 34/10 Q1016

2010/08/09 19:00
LERL 091900Z 21004KT CAVOK 31/10 Q1018

2010/08/09 19:00
MZBZ 091900Z 17003KT 9999 SCT028 BKN280 32/26 A2987 NOSIG

2010/08/09 19:00
YPXM 091900Z AUTO 08007KT 9999NDV // BKN013 BKN020 BKN029 24/21 Q////

2010/08/09 19:00
YSTW 091900Z AUTO 12010KT 9999NDV // SCT076 OVC098 12/10 Q1017

2010/08/09 19:00
YSWG 091900Z AUTO 09016KT 9999NDV // SCT040 OVC047 10/07 Q1014

2010/08/09 19:00
YTEF 091900Z AUTO 13009KT //// // ////// 09/M06 Q1021

2010/08/09 19:00
YTNK 091900Z AUTO 16007KT 9999NDV // NCD 12/00 Q1017

2010/08/09 19:00
YTRE 091900Z AUTO 01007KT //// // ////// 17/13 Q1019

2010/08/09 19:00
YWGT 091900Z AUTO 17001KT //// // ////// 07/06 Q1015

2010/08/09 19:00
YWHA 091900Z AUTO 23008KT 9999NDV // SCT070 BKN094 08/07 Q1012

2010/08/09 19:00
YWLM 091900Z AUTO 02008KT 9999NDV // SCT079 OVC096 13/11 Q1018

2010/08/09 19:02
YSDU 091902Z AUTO 07010KT 4900NDV // SCT010 BKN017 OVC074 11/11 Q1015

2010/08/09 19:00
UGTB 091900Z 01003KT 9999 SCT050 SCT100 27/11 Q1014 NOSIG RMK 13CLRD80

2010/08/09 19:00
UGSB 091900Z 10004KT P6000 BKN070 28/24 Q1006 NOSIG

2010/08/09 19:00
LEAB 091900Z 19003KT CAVOK 30/12 Q1018 NOSIG

2010/08/09 19:00
LELN 091900Z 26010KT CAVOK 26/02 Q1019

2010/08/09 19:00
LESA 091900Z 26003KT 230V290 8000 FEW040TCU SCT045 27/16 Q1018

2010/08/09 19:00
LETO 091900Z 20009KT 9999 FEW050 32/12 Q1016 NOSIG

2010/08/09 19:00
LEVD 091900Z 29009KT 9999 FEW035TCU 29/07 Q1018

2010/08/09 19:00
LEVS 091900Z 24007KT 200V270 9999 FEW050 31/10 Q1017

2010/08/09 19:00
GCLA 091900Z 34005KT 310V010 9000 FEW015 BKN020 23/18 Q1014

2010/08/09 19:00
LEMD 091900Z 18011G21KT 130V220 CAVOK 33/12 Q1016 NOSIG

2010/08/09 19:00
LEBL 091900Z 10007KT 9999 FEW013 26/22 Q1016 NOSIG

2010/08/09 19:00
LEPA 091900Z 27005KT CAVOK 26/18 Q1015 NOSIG

2010/08/09 19:00
LEZL 091900Z 35004KT 320V020 CAVOK 36/12 Q1012 NOSIG

2010/08/09 19:00
LEMG 091900Z 15008KT 130V190 CAVOK 28/14 Q1015 NOSIG

2010/08/09 19:00
LEVC 091900Z 06007KT 020V080 9999 FEW035 29/20 Q1014 NOSIG

2010/08/09 19:00
LEAL 091900Z 07004KT 040V100 CAVOK 29/16 Q1014 NOSIG

2010/08/09 19:00
LEIB 091900Z VRB02KT CAVOK 26/22 Q1014 NOSIG

2010/08/09 19:00
LELC 091900Z 06003KT 030V100 CAVOK 26/19 Q1014 NOSIG

2010/08/09 19:00
LEVX 091900Z 27008KT 250V310 CAVOK 25/15 Q1016

2010/08/09 19:00
UKBB 091900Z 32002MPS CAVOK 24/18 Q1014 86190095 36CLRD95 NOSIG

2010/08/09 19:00
UKHH 091900Z 02002MPS 4100 DU SKC 31/11 Q1013 080///65 NOSIG

2010/08/09 19:00
UKOO 091900Z 01004MPS CAVOK 29/16 Q1012 34090070 NOSIG

2010/08/09 19:00
UKDE 091900Z 05004MPS CAVOK 32/10 Q1011 02CLRD70 NOSIG

2010/08/09 19:00
UKDD 091900Z 04003MPS CAVOK 27/12 Q1012 08090070 NOSIG

2010/08/09 19:00
UKFF 091900Z 09003MPS CAVOK 26/14 Q1010 01010070 NOSIG

2010/08/09 19:00
UKLL 091900Z 29005G10MPS 220V360 0550 R31/P2000N VCTS +SHRA BKN005 SCT020CB 22/17 Q1016 31220355 TEMPO -TSRA

2010/08/09 19:00
UKCC 091900Z 12003MPS CAVOK 29/10 Q1012 08090070 NOSIG

2010/08/09 19:00
UKDR 091900Z 06003MPS CAVOK 28/13 Q1012 1809//70 NOSIG

2010/08/09 19:00
LEJR 091900Z 25003KT 240V310 CAVOK 32/14 Q1013

2010/08/09 19:00
LELL 091900Z 09006KT 040V130 9999 FEW011 24/18 Q1016

2010/08/09 19:00
LEPP 091900Z 01010KT 9999 FEW029 19/14 Q1020

2010/08/09 19:00
LEXJ 091900Z 06004KT 030V090 9999 SCT028 SCT038 21/15 Q1020

2010/08/09 19:00
YBCS 091900Z 12005KT 9999 VCSH FEW005 BKN017 22/21 Q1014 FM1900 12008KT 9999 -SHRA SCT018 BKN040 TEMPO 1900/2200 3000 SHRA BKN014

2010/08/09 19:00
YPXM 091900Z AUTO 08007KT 9999NDV // BKN013 BKN020 BKN029 24/21 Q////

2010/08/09 19:01
KMEM 091901Z 12015KT 10SM TS BKN047CB OVC250 33/23 A2994

2010/08/09 19:00
YBCS 091900Z 12005KT 9999 VCSH FEW005 BKN017 22/21 Q1014 FM1900 12008KT 9999 -SHRA SCT018 BKN040 TEMPO 1900/2200 3000 SHRA BKN014

2010/08/09 19:00
KPTK 091900Z 25008KT 9SM -RA SCT017 OVC130 24/22 A2997

2010/08/09 19:00
LYBE 091900Z 34003KT CAVOK 23/15 Q1017 NOSIG

2010/08/09 19:00
LYBT 091900Z 33002KT CAVOK 21/17 Q1016 NOSIG

2010/08/09 19:00
LYKV 091900Z VRB01KT CAVOK 19/17 Q1017 NOSIG

2010/08/09 19:00
LYNI 091900Z 31005KT 280V340 CAVOK 22/16 Q1016 NOSIG

2010/08/09 19:00
LYPG 091900Z 10003KT CAVOK 27/19 Q1012 NOSIG

2010/08/09 19:00
LYUZ 091900Z 03004KT 9999 FEW020 17/12 Q1020

2010/08/09 19:00
LYVR 091900Z VRB01KT CAVOK 20/17 Q1016

2010/08/09 19:00
OPPS 091900Z NW-04KTS 4000 BR SCT040 BKN100 28/27 Q1003.2

2010/08/09 19:00
TGPY 091900Z 12008KT 9999 BKN012CB BKN250 28/25 Q1012 CB E AND SE TOP OVHD

2010/08/09 19:00
YSCB 091900Z 10010KT 6000 -RA FEW035 OVC070 08/07 Q1018

2010/08/09 19:00
LKKV 091900Z 00000KT CAVOK 16/13 Q1018

2010/08/09 19:00
LKMT 091900Z 00000KT CAVOK 17/15 Q1016 NOSIG

2010/08/09 19:00
LKPR 091900Z 30003KT CAVOK 17/13 Q1017 NOSIG

2010/08/09 19:00
LKTB 091900Z 02005KT 9999 FEW024 19/14 Q1017 NOSIG

2010/08/09 19:00
OPPS 091900Z NW-04KTS 4000 BR SCT040 BKN100 28/27 Q1003.2

2010/08/09 19:00
EIDW 091900Z 27014KT 9999 FEW028 16/09 Q1009 NOSIG

2010/08/09 19:00
EINN 091900Z 25010KT 9999 FEW025 SCT050 16/09 Q1011 NOSIG

2010/08/09 19:00
EICK 091900Z 31007KT 9999 BKN036 16/08 Q1012 NOSIG

2010/08/09 19:00
EIKN 091900Z 25014KT 210V270 9999 FEW018CB SCT022 13/09 Q1009 NOSIG

2010/08/09 19:00
BIAR 091900Z 33010KT CAVOK 14/09 Q1012

2010/08/09 19:00
BIEG 091900Z 05011KT 9999 FEW040 15/10 Q1011

2010/08/09 19:00
BIKF 091900Z 31008KT 9999 BKN008 11/08 Q1014

2010/08/09 19:00
BIRK 091900Z 27005KT 9999 BKN010 11/09 Q1013

2010/08/09 19:00
SBKP 091900Z 13013KT 7000 NSC 23/12 Q1019

2010/08/09 19:00
LUKK 091900Z 03005KT 010V080 9999 SCT050CB 25/18 Q1012 08CLRD65 NOSIG

2010/08/09 19:00
UBBB 091900Z 16004KT CAVOK 30/29 Q1009 NOSIG RMK R88CLRD70

2010/08/09 19:00
UHHH 091900Z METAR 11003MPS 9999 -SHRA FEW005 BKN019CB OVC100 20/20 Q1006 NOSIG

2010/08/09 19:00
UKBB 091900Z 32002MPS CAVOK 24/18 Q1014 86190095 36CLRD95 NOSIG

2010/08/09 19:00
UKFF 091900Z 09003MPS CAVOK 26/14 Q1010 01010070 NOSIG

2010/08/09 19:00
UKLL 091900Z 29005G10MPS 220V360 0550 R31/P2000N VCTS +SHRA BKN005 SCT020CB 22/17 Q1016 31220355 TEMPO -TSRA

2010/08/09 19:00
UKOO 091900Z 01004MPS CAVOK 29/16 Q1012 34090070 NOSIG

2010/08/09 19:00
UTTT 091900Z 06004MPS CAVOK 27/06 Q1006 R08R/CLRD70 TEMPO 03005G10MPS

2010/08/09 18:59
CWLY 091859Z AUTO 35015KT 2 1/4SM BKN023 BKN057 BKN072 14/13 A2990

2010/08/09 18:58
CWOB 091858Z AUTO ///// 1/8SM CLR 04/ A2971

2010/08/09 18:59
CYKF 091859Z AUTO 21008KT 6SM -RA BKN023 24/20 A2996 RMK SLP140 DENSITY ALT 2200FT LTNG DIST SW

2010/08/09 19:02
CYKJ 091902Z AUTO 09005KT 5SM -RA OVC009 15/14 A2978 RMK SLP098 DENSITY ALT 2200FT

2010/08/09 18:59
CYKL 091859Z AUTO 29013KT 9SM -RA SCT034 BKN069 BKN076 14/08 A2960

2010/08/09 19:02
CYQA 091902Z AUTO 27004KT 220V290 9SM SCT022 BKN027 BKN044 26/22 A2992 RMK SLP130 DENSITY ALT 2400FT LTNG DIST S

2010/08/09 18:59
EGVA 091859Z AUTO 21012KT 9999 -DZ SCT014 BKN025 OVC050 18/16 A2989 RMK AO2 DZB1859 SLP121 $

2010/08/09 19:00
KAFF 091900Z 27010KT 10SM TS FEW019 SCT080 SCT110 BKN200 21/16 A3021 RMK AO2A SLP134

2010/08/09 19:02
PASY 091902Z 31005KT 3SM BR BKN001 OVC025 10/09 A2984 RMK AO2 PNO $

2010/08/09 19:00
YBCS 091900Z 12005KT 9999 VCSH FEW005 BKN017 22/21 Q1014

2010/08/09 19:00
YSCB 091900Z 10010KT 6000 -RA FEW035 OVC070 08/07 Q1018

2010/08/09 19:00
YSDU 091900Z AUTO 07009KT 9999NDV // SCT010 BKN017 OVC074 11/11 Q1015

2010/08/09 19:00
SBAR 091900Z 15010KT 9999 SCT017 26/21 Q1017

2010/08/09 19:00
SBBE 091900Z 16005KT 9999 SCT025 FEW030TCU 33/22 Q1010

2010/08/09 19:00
SBEG 091900Z 10008KT 9999 SCT023 33/19 Q1010

2010/08/09 19:00
SBKP 091900Z 13013KT 7000 NSC 23/12 Q1019

2010/08/09 19:00
SBPP 091900Z 18008KT 9999 FEW020 26/12 Q1018

2010/08/09 19:00
SBRF 091900Z 11017KT 3000 -RADZ BKN007 BKN015 BKN070 23/21 Q1015

2010/08/09 19:00
SBRJ 091900Z 19011KT 9999 FEW012 BKN020 23/18 Q1020

2010/08/09 19:00
SCAP 091900Z 24009KT 9999 SCT040 14/07 Q1028

2010/08/09 19:00
SCAR 091900Z 22011KT CAVOK 16/08 Q1015

2010/08/09 19:00
SCBA 091900Z 31027G38KT 9999 SCT030 SCT070 04/M01 Q1018

2010/08/09 19:00
SCCH 091900Z 21007KT CAVOK 15/02 Q1016

2010/08/09 19:00
SCCI 091900Z 26030G44KT 8000 SCT013 03/M01 Q1006 NOSIG RMK -SHSN

2010/08/09 19:00
SCDA 091900Z 24007KT 8000 OVC020 15/09 Q1016

2010/08/09 19:00
SCEL 091900Z 14007KT CAVOK 21/01 Q1015 NOSIG

2010/08/09 19:00
SCFA 091900Z 18009KT 9999 FEW020 SCT200 16/08 Q1016 NOSIG

2010/08/09 19:00
SCGE 091900Z 18012KT CAVOK 15/06 Q1017

2010/08/09 19:00
SCGZ 091900Z 26023G35KT 4000 -SHSN SCT010 BKN026 00/M00 Q0995

2010/08/09 19:00
SCIE 091900Z 21009KT CAVOK 15/02 Q1017

2010/08/09 19:00
SCNT 091900Z 31018G28KT 9999 SCT015 BKN200 08/M00 Q1011

2010/08/09 19:00
SCON 091900Z AUTO 24007KT 200V270 CAVOK 10/05 Q1025

2010/08/09 19:00
SCRD 091900Z 35010KT CAVOK 14/09 Q1017

2010/08/09 19:00
SCSE 091900Z 27007KT 9999 BKN018 13/09 Q1018 NEFO PLAYA 2400FT

2010/08/09 19:00
SCTB 091900Z 23005KT CAVOK 21/M02 Q1016

2010/08/09 19:00
SCTE 091900Z 23004KT 9999 SCT015 BKN040 11/10 Q1024 NOSIG

2010/08/09 19:00
SLTJ 091900Z 13005KT 9999 SKC 19/07 Q1019

2010/08/09 19:00
SMJP 091900Z 140/03KT 8000 -SHRA FEW020CB SCT030 32/21 Q1012 TEMPO 5000 -TSRA

2010/08/09 19:00
SPQT 091900Z /////KT 8000 FEW020 32/22 Q1013 NOSIG RMK BRUMOSO BIRD HAZARD RWY 06/24 PP000

2010/08/09 19:00
SVVA 091900Z 23009KT 9999 BKN016 30/22 Q1014

2010/08/09 19:00
LEAM 091900Z 23004KT 200V260 CAVOK 25/22 Q1014

2010/08/09 19:00
LEAS 091900Z 09007KT 060V120 9999 SCT020 BKN030 20/16 Q1020 NOSIG

2010/08/09 19:00
LEBB 091900Z 35004KT 310V020 9999 SCT030 BKN040 21/15 Q1020 NOSIG

2010/08/09 19:00
LECO 091900Z 35005KT 320V020 CAVOK 23/17 Q1018

2010/08/09 19:00
LEGE 091900Z 20006KT 180V240 3000 TSRA SCT010 FEW028CB BKN034 21/20 Q1017

2010/08/09 19:00
LEMH 091900Z VRB01KT CAVOK 24/20 Q1016

2010/08/09 19:00
LERS 091900Z 19004KT 160V220 9999 FEW030 26/19 Q1015

2010/08/09 19:00
LEST 091900Z 32004KT 280V010 CAVOK 21/15 Q1018 NOSIG

2010/08/09 19:00
LEVT 091900Z 03009KT 9999 FEW018 SCT027 18/15 Q1020

2010/08/09 19:00
LEZG 091900Z 30014KT 9999 FEW040 26/15 Q1016

2010/08/09 19:00
LFBC 091900Z AUTO 30005KT 9999NDV FEW038 20/14 Q1019

2010/08/09 19:00
LFBG 091900Z AUTO 26008KT 9999NDV FEW038 22/14 Q1018

2010/08/09 19:00
LFKS 091900Z AUTO VRB02KT 9999NDV NSC 24/18 Q1015

2010/08/09 19:00
LFMI 091900Z AUTO 21005KT 160V240 9999NDV NSC 22/19 Q1015

2010/08/09 19:00
LFOA 091900Z AUTO 36005KT 9999NDV NSC 25/10 Q1015

2010/08/09 19:00
LFOC 091900Z AUTO 29005KT 9999NDV NSC 25/09 Q1015

2010/08/09 19:00
LFOE 091900Z AUTO 33005KT 290V020 9999NDV NSC 21/13 Q1016

2010/08/09 19:00
LFOJ 091900Z AUTO VRB01KT 9999NDV NSC 25/09 Q1015

2010/08/09 19:00
LFPV 091900Z AUTO 26002KT 9999NDV NSC 23/11 Q1015

2010/08/09 19:00
LFQI 091900Z AUTO 32006KT 9999NDV NSC 22/13 Q1015

2010/08/09 19:00
LFSD 091900Z AUTO VRB01KT 9999NDV NSC 22/13 Q1016

2010/08/09 19:00
LFSF 091900Z AUTO 00000KT 9999NDV NSC 21/12 Q1016

2010/08/09 19:00
LFSI 091900Z AUTO 06003KT 9999NDV NSC 23/12 Q1016

2010/08/09 19:00
LFSO 091900Z AUTO 01003KT 9999NDV NSC 20/11 Q1017

2010/08/09 19:00
LFSR 091900Z AUTO 10002KT 9999NDV NSC 22/14 Q1015

2010/08/09 19:00
LFYR 091900Z AUTO 00000KT //// // ///////// 23/13 Q1015

2010/08/09 19:00
LKCV 091900Z 11001KT CAVOK 18/16 Q1017 NOSIG RMK BLU+ BLU+

2010/08/09 19:00
LKNA 091900Z 01005KT CAVOK 18/12 Q1018 NOSIG RMK BLU+ BLU+

2010/08/09 19:00
LKPO 091900Z 27002KT 9999 FEW043 18/14 Q1017 NOSIG RMK BLU+ BLU+

2010/08/09 19:04
CYKF 091904Z AUTO 25009KT 200V260 5SM -RA BKN021 24/21 A2996 RMK SLP143 DENSITY ALT 2200FT LTNG DIST SW

2010/08/09 18:50
EGDX 091850Z AUTO 25008KT 9999NDV // FEW018/// SCT031/// BKN045/// 18/16 Q1012

2010/08/09 18:50
EGEC 091850Z AUTO 22004KT 9999NDV // NSC 14/11 Q1007

2010/08/09 18:50
EGOS 091850Z AUTO 27010KT 9999NDV FEW060/// 18/12 Q1010

2010/08/09 18:50
EGVP 091850Z AUTO 22008KT 9999NDV // OVC010/// 17/15 Q1013

2010/08/09 18:50
EGXG 091850Z AUTO 19005KT 9999NDV FEW032/// 18/15 Q1009

2010/08/09 18:50
EGXJ 091850Z AUTO 22014KT 9999NDV // SCT037/// BKN080/// 20/13 Q1010

2010/08/09 18:50
EGXT 091850Z AUTO 22012KT 9999NDV FEW031/// BKN080/// 21/13 Q1011

2010/08/09 18:50
EGXU 091850Z AUTO 19004KT 9999NDV // NCD 18/16 Q1009

2010/08/09 18:50
EGXZ 091850Z AUTO 25006KT 9999NDV FEW027/// 18/13 Q1009

2010/08/09 18:50
EGYD 091850Z AUTO 23016KT 9999NDV // FEW038/// BKN090/// 21/13 Q1010

2010/08/09 18:50
ETUO 091850Z AUTO 00000KT 9999NDV // BKN060/// 19/14 Q1016

2010/08/09 19:00
LATI 091900Z 09002KT CAVOK 24/23 Q1013 NOSIG

2010/08/09 19:00
LFSX 091900Z AUTO 00000KT 9999NDV NSC 20/14 Q1016

2010/08/09 18:45
LHDC 091845Z 00000KT CAVOK 20/16 Q1017

2010/08/09 18:45
LHKE 091845Z 30002MPS CAVOK 21/15 Q1016 NOSIG RMK BLU

2010/08/09 18:45
LHPA 091845Z 23001MPS CAVOK 17/15 Q1018 NOSIG RMK BLU

2010/08/09 18:45
LHPP 091845Z 10003KT CAVOK 19/16 Q1018

2010/08/09 18:45
LHSN 091845Z 28001MPS CAVOK 21/18 Q1016 NOSIG RMK BLU

2010/08/09 18:45
LHUD 091845Z 31003KT CAVOK 19/18 Q1017

2010/08/09 19:00
LKKV 091900Z 00000KT CAVOK 16/13 Q1018

2010/08/09 19:00
LKMT 091900Z 00000KT CAVOK 17/15 Q1016 NOSIG

2010/08/09 19:00
LKPD 091900Z 00000KT CAVOK 18/16 Q1017 NOSIG RMK BLU+ BLU+

2010/08/09 19:00
LKPR 091900Z 30003KT CAVOK 17/13 Q1017 NOSIG

2010/08/09 19:00
LKTB 091900Z 02005KT 9999 FEW024 19/14 Q1017 NOSIG

2010/08/09 19:00
LYBE 091900Z 34003KT CAVOK 23/15 Q1017 NOSIG

2010/08/09 19:00
LYNI 091900Z 31005KT 280V340 CAVOK 22/16 Q1016 NOSIG

2010/08/09 19:00
LYPG 091900Z 10003KT CAVOK 27/19 Q1012 NOSIG

2010/08/09 18:54
KNKT 091854Z COR 14005KT 10SM SCT030 BKN150 29/23 A3003 RMK AO2 SLP164 T02940233

2010/08/09 18:56
KNUW 091856Z 23003KT 6SM -RA BR FEW006 SCT012 OVC018 14/12 A2999 RMK AO2 RAB37 SLP160 PCPN VRY LGT P0000 T01360117 $

2010/08/09 18:55
KNYL 091855Z 21006KT 10SM CLR 37/02 A2979 RMK AO2 SLP085 T03720017

2010/08/09 19:00
LKKV 091900Z 00000KT CAVOK 16/13 Q1018

2010/08/09 19:00
MNCH 091900Z 09006KT 9999 FEW024CB SCT025TCU 32/25 Q1010 CB/N/NE/NW TCU/E/SE/S

2010/08/09 19:00
MNMG 091900Z 12006KT 9999 FEW020CB SCT070 31/24 Q1010 A2982 CB/NE/SW/W TCU/NW/N

2010/08/09 19:00
MROC 091900Z 25012KT 9999 FEW040 SCT120 BKN250 26/24 A2998 NOSIG

2010/08/09 19:00
OEDR 091900Z 13004KT CAVOK 34/28 Q0996 NOSIG

2010/08/09 19:00
OERK 091900Z 06008KT 8000 SKC 37/04 Q1004 NOSIG

2010/08/09 19:00
OERY 091900Z 08010KT CAVOK 39/05 Q1006 NOSIG

2010/08/09 19:00
OLBA 091900Z VRB03KT 9999 BKN026 28/22 Q1008 NOSIG

2010/08/09 19:00
RJSM 091900Z VRB01KT 0800 R10/1400D FG BKN000 OVC001 23/22 Q1013 RMK 5ST000 8ST001 A2994

2010/08/09 19:00
SCAP 091900Z 24009KT 9999 SCT040 14/07 Q1028

2010/08/09 19:00
SCGE 091900Z 18012KT CAVOK 15/06 Q1017

2010/08/09 19:00
SCGZ 091900Z 26023G35KT 4000 -SHSN SCT010 BKN026 00/M00 Q0995

2010/08/09 19:00
SCNT 091900Z 31018G28KT 9999 SCT015 BKN200 08/M00 Q1011

2010/08/09 19:00
SCON 091900Z AUTO 24007KT 200V270 CAVOK 10/05 Q1025

2010/08/09 19:00
SCRD 091900Z 35010KT CAVOK 14/09 Q1017

2010/08/09 19:00
SCSE 091900Z 27007KT 9999 BKN018 13/09 Q1018 NEFO PLAYA 2400FT

2010/08/09 19:00
SCTB 091900Z 23005KT CAVOK 21/M02 Q1016

2010/08/09 19:00
TBPB 091900Z 18015KT 9999 SCT012 SCT032 29/24 Q1013 NOSIG

2010/08/09 19:00
TGPY 091900Z 12008KT 9999 BKN012CB BKN250 28/25 Q1012 CB E AND SE TOP OVHD

2010/08/09 19:00
TTPP 091900Z ///11KT 7000 -TSRA SCT008CB BKN260 24/23 Q1012 TEMPO TSRA

2010/08/09 19:00
TKPK 091900Z 01005KT 9999 FEW015 SCT019 30/26 Q1014

2010/08/09 19:00
ORBI 091900Z 33004KT CAVOK 36/08 Q1000 NOSIG

2010/08/09 19:00
ORMM 091900Z 14007KT 8000 NSC 37/23 Q0997

2010/08/09 19:03
KBVE 091903Z AUTO 22006KT SCT021 SCT110 25/23 A2998 RMK AO2 RAE1859 P0001 TSNO $ 

2010/08/09 19:00
OIAW 091900Z 11006KT CAVOK 37/14 Q0997 A2945

2010/08/09 19:00
OIFM 091900Z 00000KT CAVOK 24/M01 Q1017 A3003

2010/08/09 19:00
OIKB 091900Z 05004KT 8000 SKC 32/26 Q0998 A2949

2010/08/09 19:00
OIMM 091900Z 25006KT CAVOK 25/03 Q1014 A2995

2010/08/09 19:00
OISS 091900Z 00000KT CAVOK 24/M04 Q1013 A2991

2010/08/09 19:00
OITT 091900Z 05018KT 9999 FEW040 FEW045CB 27/09 Q1016 A3001

2010/08/09 19:00
OIZH 091900Z 22004KT CAVOK 26/M05 Q1010 A2984

2010/08/09 19:00
KJES 091900Z AUTO 05011KT 10SM SCT049 35/25 A2996 RMK AO2 LTG DSNT E T03500252

2010/08/09 19:00
KJGG 091900Z AUTO 15009KT 10SM CLR 34/21 A3002 RMK AO1

2010/08/09 19:00
KJKA 091900Z AUTO 11010G16KT 10SM SCT027 SCT033 34/27 A2997 RMK AO2 LTG DSNT SW T03440268

2010/08/09 19:00
KJNX 091900Z AUTO 12003KT 10SM SCT045 SCT050 SCT070 31/21 A3002 RMK AO2

2010/08/09 18:59
KJYL 091859Z AUTO 06010G14KT 10SM CLR 34/23 A2999 RMK AO2 LTG DSNT S

2010/08/09 19:00
KJYO 091900Z AUTO 18009KT 10SM CLR 36/18 A2999 RMK AO2

2010/08/09 19:00
KLDJ 091900Z AUTO 23003KT 7SM SCT065 BKN095 34/17 A2995 RMK AO2 T03360166

2010/08/09 19:00
KLHZ 091900Z AUTO 15004KT 10SM CLR 33/20 A3004 RMK AO2 T03300201

2010/08/09 19:01
KLWB 091901Z AUTO 00000KT 10SM CLR 30/13 A3012 RMK AO2

2010/08/09 19:01
KMFV 091901Z AUTO 16004KT 10SM CLR 31/23 A3004 RMK AO2

2010/08/09 19:00
KMGR 091900Z AUTO 10010KT 047V117 10SM SCT050 SCT075 35/19 A2997 RMK AO2

2010/08/09 19:01
KMLJ 091901Z AUTO 04003KT 10SM SCT050 34/22 A3000 RMK AO2

2010/08/09 19:01
KMQI 091901Z AUTO 08005KT 10SM SCT019 SCT085 SCT110 29/24 A3003 RMK AO2

2010/08/09 19:01
KMRN 091901Z AUTO 00000KT 10SM SCT065 33/18 A3009 RMK AO2

2010/08/09 19:02
KMWK 091902Z AUTO 00000KT 10SM SCT040 SCT048 SCT060 32/20 A3005 RMK AO2

2010/08/09 19:00
KPGV 091900Z AUTO 15006KT 10SM SCT048 32/19 A3003 RMK AO2 LTG DSNT S

2010/08/09 19:01
KPTB 091901Z AUTO 13006KT 10SM CLR 34/ A3000 RMK AO2

2010/08/09 19:00
KRUQ 091900Z AUTO 00000KT 10SM CLR 32/19 A3003 RMK AO2

2010/08/09 19:00
KSIF 091900Z AUTO 00000KT 7SM OVC050 32/22 A3002 RMK AO2 T03160221

2010/08/09 19:00
KSUT 091900Z AUTO 13005KT 10SM SCT025 SCT060 30/22 A3002 RMK AO2

2010/08/09 19:01
KTDF 091901Z AUTO 20003KT 32/20 A3004 RMK AO1

2010/08/09 19:01
KTNB 091901Z AUTO 08003KT 10SM BKN045 BKN060 29/17 A3017 RMK AO2

2010/08/09 19:00
KTPF 091900Z AUTO 00000KT 10SM SCT030 SCT038 BKN065 31/26 A2988 RMK AO2

2010/08/09 19:04
KTTA 091904Z AUTO 00000KT 10SM CLR 33/20 A3002 RMK AO2

2010/08/09 19:00
KUNV 091900Z AUTO 26003KT 10SM CLR 31/13 A3002 RMK AO2 T03140131

2010/08/09 18:58
KVUJ 091858Z AUTO 00000KT 10SM SCT050 SCT065 BKN100 33/21 A3002 RMK AO2

2010/08/09 18:59
KW99 091859Z AUTO 12004KT 10SM CLR 36/12 A3000 RMK AO2

2010/08/09 18:58
K0R3 091858Z AUTO 00000KT CLR 35/25 A2995 RMK AO2 LTG DSNT NE PWINO

2010/08/09 19:00
K1A5 091900Z AUTO 35003KT 10SM CLR 32/17 A3008 RMK AO2 T03200174

2010/08/09 19:00
K3J7 091900Z AUTO 07003KT 10SM SCT047 SCT095 34/21 A2998 RMK AO2 T03380213

2010/08/09 18:58
K8A0 091858Z AUTO 24004KT 10SM SCT055 SCT075 BKN100 36/18 A3000 RMK AO2

2010/08/09 18:58
KACP 091858Z AUTO 00000KT 10SM SCT001 SCT050 SCT070 36/23 A2994 RMK AO2 LTG DSNT E

2010/08/09 19:00
KAFP 091900Z AUTO 07003KT 10SM CLR 34/20 A3001 RMK AO2 T03390196

2010/08/09 19:00
KALX 091900Z AUTO 17003KT 10SM CLR 34/21 A3000 RMK AO1 LTG DSNT SW

2010/08/09 19:00
KAYS 091900Z AUTO 06007KT 10SM SCT050 34/23 A2995 RMK AO1 LTG DSNT E

2010/08/09 19:02
KBGE 091902Z AUTO 06014G18KT 10SM CLR 36/16 A2996 RMK AO2

2010/08/09 18:53
KBPT 091853Z COR 18004KT 10SM BKN035 35/23 A2995 RMK AO2 SLP141 T03500233

2010/08/09 19:00
KBQK 091900Z AUTO 07013G17KT 10SM SCT027 SCT035 SCT041 33/25 A2997 RMK AO1 LTG DSNT SE T03270252 PNO

2010/08/09 19:00
KCCO 091900Z AUTO 00000KT 10SM CLR 33/22 A3003 RMK AO1

2010/08/09 19:00
KCDH 091900Z AUTO 24003KT 10SM CLR 37/22 A2992 RMK AO2

2010/08/09 18:59
KCJR 091859Z AUTO 23008KT 171V241 10SM SCT050 SCT060 34/22 A3000 RMK AO2

2010/08/09 18:55
KCLS 091855Z AUTO 25004KT 10SM OVC020 18/12 A3001 RMK AO2

2010/08/09 19:00
KCPC 091900Z AUTO 09006KT 10SM CLR 34/19 A3000 RMK AO2 T03390190

2010/08/09 18:58
KDBN 091858Z AUTO 08009KT 10SM CLR 34/22 A2997 RMK AO1

2010/08/09 18:55
KEMV 091855Z AUTO 15006KT 10SM CLR 32/20 A3002 RMK AO2

2010/08/09 19:00
KEYF 091900Z AUTO 07005KT 10SM CLR 34/19 A3001 RMK AO2 T03370186

2010/08/09 19:00
KF24 091900Z AUTO 15004KT 10SM CLR 37/20 A2997 RMK AO2 T03690203

2010/08/09 19:15
KFDW 091915Z AUTO 09006KT 10SM CLR 35/16 A3002 RMK AO1

2010/08/09 19:00
KFFA 091900Z AUTO 11005KT 10SM CLR 29/23 A3003 RMK AO2 T02890230

2010/08/09 19:00
KFKN 091900Z AUTO 14004KT 10SM BKN055 35/19 A3000 RMK AO1

2010/08/09 18:59
KFVX 091859Z AUTO 18006KT 10SM CLR 34/25 A3000 RMK AO2

2010/08/09 19:00
KGAO 091900Z AUTO 06005KT 10SM VCTS CLR 32/26 A2997 RMK AO2 LTG DSNT ALQS

2010/08/09 19:02
KGEV 091902Z AUTO 27007KT 10SM SCT043 BKN050 BKN060 29/15 A3017 RMK AO2

2010/08/09 18:55
KGHG 091855Z AUTO 19008G14KT 10SM CLR 32/20 A2993 RMK AO2

2010/08/09 19:00
KGWW 091900Z AUTO 19003KT 10SM CLR 32/21 A3002 RMK AO2 T03180210

2010/08/09 19:00
KHNZ 091900Z AUTO 18005KT 10SM BKN046 OVC070 31/19 A3003 RMK AO2 T03100194

2010/08/09 18:58
KHOE 091858Z AUTO 09006KT 10SM CLR 34/22 A2995 RMK AO2 T03420217

2010/08/09 19:01
KHQU 091901Z AUTO 11005KT 10SM SCT047 SCT065 33/19 A3004 RMK AO1

2010/08/09 19:00
KHSP 091900Z AUTO 26/19 A3024 RMK AO2 PWINO TSNO

2010/08/09 19:00
KHWY 091900Z AUTO 19010G14KT 10SM SCT050 SCT060 SCT080 35/19 A2999 RMK AO2

2010/08/09 19:00
KIER 091900Z AUTO 22003KT 10SM CLR 37/24 A2994 RMK AO2 PWINO

2010/08/09 19:00
KIPJ 091900Z AUTO 00000KT 10SM SCT050 35/19 A3003 RMK AO2 T03480188

2010/08/09 19:00
KIXA 091900Z AUTO 00000KT 10SM SCT050 33/19 A3000 RMK AO2 T03280186

2010/08/09 19:00
PAAP 091900Z 00000KT 3/4SM -DZ BR BKN000 OVC001 13/12 A3001 RMK -DZ BR BKN000 NO SPECI

2010/08/09 18:56
PANW 091856Z AUTO 18008KT 1 1/4SM BR BKN003 BKN008 OVC080 10/09 A2956 RMK AO2 PWINO TSNO T01000094 CIG 001V006 SLP988 $

2010/08/09 19:03
KMSY 091903Z 01007KT 10SM TS SCT037CB SCT060 BKN150 BKN250 33/24 A2995 RMK AO2 TSB02 OCNL LTGICCG NE-SE TS NE-SE MOV SW CB DSNT N-NE AND SE-S AND NW

2010/08/09 19:03
KNEW 091903Z 11011G27KT 3SM TSRA BR FEW017 BKN026 OVC060 26/25 A2998 RMK AO2 PK WND 11027/1854 OCNL LTGCG E-SW TS E-SW MOV SW P0005

2010/08/09 19:02
KFHR 091902Z AUTO 00000KT 10SM BKN022 BKN042 OVC080 15/12 A2999 RMK AO2

2010/08/09 19:02
PABE 091902Z 17016G26KT 7SM -RA SCT007 BKN011 OVC016 10/09 A2936 RMK AO2 PK WND 17026/1858 P0001

2010/08/09 19:02
PAKT 091902Z 14005KT 10SM SCT010 OVC019 14/12 A3002 RMK AO2

2010/08/09 19:00
SPHO 091900Z VRB04KT CAVOK 24/07 Q1025 RMK PP000

2010/08/09 19:00
SPHY 091900Z 03013KT CAVOK 14/06 Q1023 RMK PP000

2010/08/09 19:00
SPJL 091900Z VRB05KT CAVOK 16/M08 Q1036 RMK PP000

2010/08/09 19:00
SPME 091900Z 28006KT CAVOK 27/23 Q1012 RMK BIRD HAZARD RWY 32/14 TRZ SC PP000

2010/08/09 19:00
SPTU 091900Z 01003KT 9999 SCT015 33/24 Q1013 RMK PP000

2010/08/09 19:00
SPYL 091900Z /////KT CAVOK 25/16 Q1014 RMK BIRD HAZARD RWY 35 PP000

2010/08/09 18:48
MMTC 091848Z 00000KT 15SM FEW040 SCT200 33/14 A3003 RMK 8/102

2010/08/09 18:48
MMCS 091848Z 30005KT 10SM FEW040 33/14 A3006 RMK 8/100

2010/08/09 19:00
LUKK 091900Z 03005KT 010V080 9999 SCT050CB 25/18 Q1012 08CLRD65 NOSIG

2010/08/09 19:00
MNPC 091900Z 08010KT 7000 BKN018 30/26 Q1011 HZ

2010/08/09 19:00
MNRS 091900Z 08006KT 9999 FEW015CB BKN016 29/25 Q1011 CB/4C

2010/08/09 19:00
MNJG 091900Z 00000KT 9999 BKN020 25/18 Q1011

2010/08/09 19:00
MNJU 091900Z 09006KT 9999 SCT020 SCT080 29/26 Q1011

2010/08/09 19:00
MNCH 091900Z 09006KT 9999 FEW024CB SCT025TCU 32/25 Q1010 CB/N/NE/NW TCU/E/SE/S

2010/08/09 19:00
MNBL 091900Z 09008KT 9999 SCT020 SCT080 30/27 Q1011

2010/08/09 19:00
YBCS 091900Z 12005KT 9999 VCSH FEW005 BKN017 22/21 Q1014 FM1900 12008KT 9999 -SHRA SCT018 BKN040 TEMPO 1900/2200 3000 SHRA BKN014

2010/08/09 19:02
YSDU 091902Z AUTO 07010KT 4900NDV // SCT010 BKN017 OVC074 11/11 Q1015

2010/08/09 19:00
SBPP 091900Z 18008KT 9999 FEW020 26/12 Q1018

2010/08/09 19:00
LBSF 091900Z 29003MPS 270V330 9999 SCT050 23/16 Q1016 NOSIG

2010/08/09 19:00
LBWN 091900Z 36005MPS CAVOK 26/21 Q1010 NOSIG

2010/08/09 19:00
LBBG 091900Z 01006MPS CAVOK 27/21 Q1010 NOSIG

2010/08/09 19:00
LBPD 091900Z 12003MPS 9999 FEW055 SCT100 26/20 Q1013 NOSIG

2010/08/09 19:00
LBGO 091900Z 27002MPS CAVOK 23/20 Q1013 NOSIG

2010/08/09 19:02
PASY 091902Z 31005KT 3SM BR BKN001 OVC025 10/09 A2984

2010/08/09 19:00
YMAV 091900Z AUTO 32004KT 7000NDV // NCD 04/03 Q1017

2010/08/09 18:50
OAKN 091850Z 13005KT 8000 DU FEW150 31/00 Q1005 BLU NOSIG RMK A2969 DA6200

2010/08/09 19:00
YPXM 091900Z AUTO 08007KT 9999NDV // BKN013 BKN020 BKN029 24/21 Q////

2010/08/09 19:00
NWWW 091900Z AUTO VRB02KT 9999NDV BKN060/// 16/12 Q1024

2010/08/09 19:00
MKJS 091900Z 05010KT 9999 TS FEW022CB BKN220 31/24 Q1012

2010/08/09 18:50
EGPI 091850Z AUTO 24005KT 200V270 9999NDV -SHRA SCT014/// SCT026/// 14/12 Q1007

2010/08/09 18:50
EGPU 091850Z AUTO 22008KT 9999NDV // NCD 14/11 Q1005

2010/08/09 18:50
BGGH 091850Z 21010KT 9999 SCT020 BKN060 12/09 Q1008

2010/08/09 19:00
LHBP 091900Z 29005KT 260V350 CAVOK 18/13 Q1017 NOSIG

2010/08/09 19:00
SBPS 091900Z 08012KT 9999 FEW020 23/18 Q1017

2010/08/09 19:00
MROC 091900Z 25012KT 9999 FEW040 SCT120 BKN250 26/24 A2998 NOSIG

2010/08/09 19:00
MRPV 091900Z 12003KT 9999 FEW035 SCT100 BKN250 27/18 A2996 TEMPO 24004KT

2010/08/09 19:00
MRLB 091900Z 13003KT 9999 FEW020 BKN120 31/24 A2983 RMK RA N NE

2010/08/09 19:00
MRLM 091900Z 07003KT CAVOK 29/24 A2983 RMK SCT130 BKN250

2010/08/09 19:00
MROC 091900Z 25012KT 9999 FEW040 SCT120 BKN250 26/24 A2998 NOSIG

2010/08/09 19:00
MRPV 091900Z 12003KT 9999 FEW035 SCT100 BKN250 27/18 A2996 TEMPO 24004 KT

2010/08/09 19:00
MRLB 091900Z 13003KT 9999 FEW020 BKN120 31/24 A2983 RMK RA N NE

2010/08/09 19:00
MRLM 091900Z 07003KT CAVOK 29/24 A2983 RMK SCT130 BKN250

2010/08/09 19:00
SBBV 091900Z 14017KT 9999 VCSH BKN020 FEW027TCU BKN070 29/20 Q1011

2010/08/09 19:00
SARE 091900Z 16003KT CAVOK 19/06 Q1021

2010/08/09 18:50
BGGH 091850Z 21010KT 9999 SCT020 BKN060 12/09 Q1008

2010/08/09 19:00
MKJS 091900Z 05010KT 9999 TS FEW022CB BKN220 31/24 Q1012

2010/08/09 19:00
SARF 091900Z 18006KT 9999 FEW020 18/09 Q1020

2010/08/09 19:00
SAWE 091900Z 27024G43KT 9999 FEW012 03/M02 Q1000

2010/08/09 19:00
SAZM 091900Z 27003KT CAVOK 16/04 Q1023

2010/08/09 18:59
EGVA 091859Z AUTO 21012KT 9999 -DZ SCT014 BKN025 OVC050 18/16 A2989 RMK AO2 DZB1859 SLP121 $

2010/08/09 19:00
LFAQ 091900Z AUTO 32009KT 9999NDV NSC 19/12 Q1016

2010/08/09 19:00
LFBU 091900Z AUTO 26009KT 9999NDV NSC 22/13 Q1018

2010/08/09 19:00
LFLN 091900Z AUTO 01003KT 9999NDV NSC 24/15 Q1016

2010/08/09 19:00
LFPM 091900Z AUTO 11001KT 9999NDV NSC 23/12 Q1015

2010/08/09 19:00
LFRH 091900Z 27009KT 9999 SCT027 BKN034 17/15 Q1018

2010/08/09 19:00
LFRQ 091900Z AUTO 25004KT 210V280 9999NDV OVC005 17/16 Q1018

2010/08/09 19:00
LFRT 091900Z AUTO VRB02KT 9999NDV SCT031 BKN037 OVC044 18/14 Q1017

2010/08/09 19:00
LFSD 091900Z AUTO VRB01KT 9999NDV NSC 22/13 Q1016

2010/08/09 19:00
LFTW 091900Z AUTO 20004KT 170V230 9999NDV //////CB 24/17 Q1015

2010/08/09 19:00
SACO 091900Z 05013KT CAVOK 17/01 Q1023

2010/08/09 19:00
SAEZ 091900Z 29006KT 240V330 CAVOK 18/06 Q1024

2010/08/09 19:00
SAME 091900Z 14005KT CAVOK 16/M04 Q1020

2010/08/09 19:00
SANT 091900Z 05008KT 8000 FEW040 SCT200 20/03 Q1020

2010/08/09 19:00
SARE 091900Z 16003KT CAVOK 19/06 Q1021

2010/08/09 19:00
SARF 091900Z 18006KT 9999 FEW020 18/09 Q1020

2010/08/09 19:00
SASA 091900Z 07008KT CAVOK 17/02 Q1019

2010/08/09 19:00
SASJ 091900Z 05008KT CAVOK 18/02 Q1018

2010/08/09 19:00
SAVC 091900Z 27007KT CAVOK 15/01 Q1016

2010/08/09 19:00
SAWE 091900Z 27024G43KT 9999 FEW012 03/M02 Q1000

2010/08/09 19:00
SAWG 091900Z 23039G53KT 9999 SCT030 08/04 Q1006

2010/08/09 19:00
SAWH 091900Z 25015KT 1500 SN OVC009 M01/M02 Q0997

2010/08/09 19:00
SAZM 091900Z 27003KT CAVOK 16/04 Q1023

2010/08/09 19:00
SAZN 091900Z 32004KT CAVOK 15/M05 Q1022

2010/08/09 19:00
SAZS 091900Z 28005KT CAVOK 08/M04 Q1022

2010/08/09 19:00
LFBA 091900Z AUTO 31002KT 9999NDV OVC048 22/15 Q1018

2010/08/09 19:00
LFBE 091900Z AUTO 25003KT 210V290 9999NDV OVC040 22/16 Q1018

2010/08/09 19:00
LFGJ 091900Z AUTO 10004KT 9999NDV NSC 23/14 Q1015

2010/08/09 19:00
LFJR 091900Z AUTO 32004KT 290V010 9999NDV NSC 24/11 Q1016

2010/08/09 19:00
LFMD 091900Z AUTO VRB02KT 9999NDV OVC039 24/20 Q1015

2010/08/09 19:00
LFMH 091900Z AUTO 31007KT 290V350 9999NDV NSC 25/14 Q1016

2010/08/09 19:00
LFOT 091900Z 27005KT CAVOK 26/10 Q1015 NOSIG

2010/08/09 19:00
LFPN 091900Z AUTO VRB02KT 9999NDV NSC 24/10 Q1015

2010/08/09 19:00
LFRC 091900Z AUTO 22009KT 9999NDV NSC 18/13 Q1016

2010/08/09 19:00
LFRG 091900Z AUTO VRB02KT 9999NDV NSC 17/12 Q1017

2010/08/09 19:00
LFRK 091900Z AUTO 36002KT 9999NDV ///////// 19/12 Q1016

2010/08/09 19:00
LFMI 091900Z AUTO 21005KT 160V240 9999NDV NSC 22/19 Q1015

2010/08/09 19:00
LFMK 091900Z AUTO 28010KT 9999NDV NSC 23/16 Q1018

2010/08/09 19:00
LFRD 091900Z AUTO 05003KT 9999NDV NSC 18/13 Q1017

2010/08/09 19:00
LFRN 091900Z AUTO 01005KT 330V040 9999NDV NSC 23/11 Q1016

2010/08/09 19:00
LFRO 091900Z AUTO 22010KT 9999NDV OVC022 18/16 Q1017

2010/08/09 19:00
LFRZ 091900Z AUTO 28012KT 9999NDV NSC 19/14 Q1017

2010/08/09 19:00
LFSB 091900Z VRB03KT 9999 FEW053 SCT250 20/14 Q1016 NOSIG

2010/08/09 19:00
LFST 091900Z AUTO VRB01KT 9999NDV NSC 21/14 Q1016

2010/08/09 19:00
LFTH 091900Z 15004KT 8000 FEW008 SCT015 OVC200 23/21 Q1015 NOSIG

2010/08/09 19:00
LRBS 091900Z 08003KT CAVOK 25/19 Q1013 NOSIG

2010/08/09 19:00
LRCK 091900Z 35006KT 320V020 CAVOK 27/20 Q1012 NOSIG

2010/08/09 19:00
LROP 091900Z 10002KT CAVOK 24/20 Q1013 880///95 NOSIG

2010/08/09 19:00
LRSB 091900Z 27006KT 9999 FEW041 BKN066 20/18 Q1017

2010/08/09 19:00
LRTR 091900Z 02004KT CAVOK 20/17 Q1016

2010/08/09 19:00
LFLL 091900Z 01008KT CAVOK 25/15 Q1015 NOSIG

2010/08/09 19:00
LFMN 091900Z 20004KT 9999 FEW015 BKN036 24/20 Q1016 NOSIG

2010/08/09 19:00
LFPG 091900Z 36005KT 290V030 CAVOK 24/11 Q1015 NOSIG

2010/08/09 19:00
LFPO 091900Z 25003KT CAVOK 23/11 Q1015 NOSIG

2010/08/09 19:00
LFQQ 091900Z 30009KT CAVOK 21/13 Q1015 NOSIG

2010/08/09 19:00
LFRB 091900Z 23010KT 8000 BKN003 BKN008 17/16 Q1017 NOSIG

2010/08/09 19:00
LFRS 091900Z 27007KT CAVOK 20/13 Q1017 NOSIG

2010/08/09 19:00
LFCR 091900Z AUTO 27010KT 9999NDV BKN033 20/15 Q1019

2010/08/09 19:00
LFJL 091900Z AUTO 30002KT 9999NDV NSC 22/09 Q1016

2010/08/09 19:00
LFLP 091900Z AUTO 30004KT 9999NDV FEW054 21/14 Q1016

2010/08/09 19:00
LFLS 091900Z AUTO 07005KT 9999NDV NSC 24/13 Q1016

2010/08/09 19:00
LFLY 091900Z AUTO 02007KT 9999NDV NSC 26/15 Q1015

2010/08/09 19:00
LFMT 091900Z 27007KT 9999 FEW050CB BKN110 26/17 Q1014 BECMG SHRA

2010/08/09 19:00
LFMU 091900Z AUTO 31009KT 9999NDV VCTS //////CB 27/19 Q1015

2010/08/09 19:00
LFOB 091900Z AUTO 02008KT 9999NDV NSC 21/14 Q1016

2010/08/09 19:00
LFOH 091900Z AUTO 02003KT 9999NDV NSC 17/10 Q1016

2010/08/09 19:00
LFOK 091900Z AUTO VRB01KT 9999NDV NSC 22/09 Q1016

2010/08/09 19:00
LFOP 091900Z AUTO 36007KT 9999NDV NSC 20/13 Q1016

2010/08/09 19:00
LFPB 091900Z AUTO VRB02KT 9999NDV NSC 24/12 Q1014

2010/08/09 19:00
LFSN 091900Z VRB03KT CAVOK 20/13 Q1016 NOSIG

2010/08/09 19:00
LFKB 091900Z 14001KT 9999 FEW030 SCT210 23/20 Q1015 NOSIG

2010/08/09 19:00
LFKF 091900Z AUTO 26013KT 9999NDV NCD 24/16 Q1015

2010/08/09 19:00
LFKJ 091900Z 23014KT 9999 FEW016 SCT160 24/19 Q1016 NOSIG

2010/08/09 19:00
LFMP 091900Z AUTO 30009KT 270V330 9999NDV -RA //////CB 25/17 Q1016

2010/08/09 19:00
LFMV 091900Z AUTO 21008KT 9999NDV NSC 26/19 Q1014

2010/08/09 19:00
LFSL 091900Z AUTO 23004KT 180V320 9999NDV SCT046 20/16 Q1018

2010/08/09 19:00
LFBD 091900Z 27007KT 9999 SCT036 SCT043 21/13 Q1018 NOSIG

2010/08/09 19:00
LFBH 091900Z AUTO 29016KT 9999NDV NSC 18/14 Q1018

2010/08/09 19:00
LFBI 091900Z AUTO 24009KT 9999NDV NSC 24/14 Q1016

2010/08/09 19:00
LFBL 091900Z AUTO 26007KT 220V280 9999NDV NSC 21/15 Q1018

2010/08/09 19:00
LFBO 091900Z 27008KT 9999 BKN039 22/16 Q1019 NOSIG

2010/08/09 19:00
LFBP 091900Z 22005KT 9999 BKN041 20/18 Q1020 NOSIG

2010/08/09 19:00
LFBT 091900Z 22005KT 9999 FEW008 BKN023 18/16 Q1021 TEMPO SCT008 BKN013

2010/08/09 19:00
LFBZ 091900Z AUTO 30004KT 9999NDV NSC 21/16 Q1020

2010/08/09 19:00
LFLB 091900Z AUTO 00000KT 9999NDV NSC 20/16 Q1015

2010/08/09 19:00
LFLX 091900Z AUTO 32002KT 9999NDV NSC 25/09 Q1015

2010/08/09 19:00
LFML 091900Z 19007KT 9999 FEW010 SCT230 24/20 Q1015 NOSIG

2010/08/09 19:02
YSDU 091902Z AUTO 07010KT 4900NDV // SCT010 BKN017 OVC074 11/11 Q1015

2010/08/09 19:00
LFBD 091900Z 27007KT 9999 SCT036 SCT043 21/13 Q1018 NOSIG

2010/08/09 19:00
LFBI 091900Z AUTO 24009KT 9999NDV NSC 24/14 Q1016

2010/08/09 19:00
LFBL 091900Z AUTO 26007KT 220V280 9999NDV NSC 21/15 Q1018

2010/08/09 19:00
LFBO 091900Z 27008KT 9999 BKN039 22/16 Q1019 NOSIG

2010/08/09 19:00
LFBP 091900Z 22005KT 9999 BKN041 20/18 Q1020 NOSIG

2010/08/09 19:00
LFBT 091900Z 22005KT 9999 FEW008 BKN023 18/16 Q1021 TEMPO SCT008 BKN013

2010/08/09 19:00
LFBZ 091900Z AUTO 30004KT 9999NDV NSC 21/16 Q1020

2010/08/09 19:00
LFKB 091900Z 14001KT 9999 FEW030 SCT210 23/20 Q1015 NOSIG

2010/08/09 19:00
LFKF 091900Z AUTO 26013KT 9999NDV NCD 24/16 Q1015

2010/08/09 19:00
LFKJ 091900Z 23014KT 9999 FEW016 SCT160 24/19 Q1016 NOSIG

2010/08/09 19:00
LFLB 091900Z AUTO 00000KT 9999NDV NSC 20/16 Q1015

2010/08/09 19:00
LFLL 091900Z 01008KT CAVOK 25/15 Q1015 NOSIG

2010/08/09 19:00
LFLX 091900Z AUTO 32002KT 9999NDV NSC 25/09 Q1015

2010/08/09 19:00
LFML 091900Z 19007KT 9999 FEW010 SCT230 24/20 Q1015 NOSIG

2010/08/09 19:00
LFMN 091900Z 20004KT 9999 FEW015 BKN036 24/20 Q1016 NOSIG

2010/08/09 19:00
LFMP 091900Z AUTO 30009KT 270V330 9999NDV -RA //////CB 25/17 Q1016

2010/08/09 19:00
LFPG 091900Z 36005KT 290V030 CAVOK 24/11 Q1015 NOSIG

2010/08/09 19:00
LFQQ 091900Z 30009KT CAVOK 21/13 Q1015 NOSIG

2010/08/09 19:00
LFRB 091900Z 23010KT 8000 BKN003 BKN008 17/16 Q1017 NOSIG

2010/08/09 19:00
LFRO 091900Z AUTO 22010KT 9999NDV OVC022 18/16 Q1017

2010/08/09 19:00
LFRS 091900Z 27007KT CAVOK 20/13 Q1017 NOSIG

2010/08/09 19:00
LFRZ 091900Z AUTO 28012KT 9999NDV NSC 19/14 Q1017

2010/08/09 19:00
LFSL 091900Z AUTO 23004KT 180V320 9999NDV SCT046 20/16 Q1018

2010/08/09 19:00
LRBS 091900Z 08003KT CAVOK 25/19 Q1013 NOSIG

2010/08/09 19:00
LRCK 091900Z 35006KT 320V020 CAVOK 27/20 Q1012 NOSIG

2010/08/09 19:00
LROP 091900Z 10002KT CAVOK 24/20 Q1013 880///95 NOSIG

2010/08/09 19:00
LRSB 091900Z 27006KT 9999 FEW041 BKN066 20/18 Q1017

2010/08/09 19:00
LRTR 091900Z 02004KT CAVOK 20/17 Q1016

2010/08/09 18:50
ETUO 091850Z AUTO 00000KT 9999NDV // BKN060/// 19/14 Q1016

2010/08/09 19:00
LFBC 091900Z AUTO 30005KT 9999NDV FEW038 20/14 Q1019

2010/08/09 19:00
LFBF 091900Z AUTO 28007KT 9999NDV // OVC041 22/17 Q1019

2010/08/09 19:00
LFBG 091900Z AUTO 26008KT 9999NDV FEW038 22/14 Q1018

2010/08/09 19:00
LFBM 091900Z AUTO 30007KT 9999NDV NSC 21/14 Q1019

2010/08/09 19:00
LFKS 091900Z AUTO VRB02KT 9999NDV NSC 24/18 Q1015

2010/08/09 19:00
LFLL 091900Z 01008KT CAVOK 25/15 Q1015 NOSIG

2010/08/09 19:00
LFMI 091900Z AUTO 21005KT 160V240 9999NDV NSC 22/19 Q1015

2010/08/09 19:00
LFMN 091900Z 20004KT 9999 FEW015 BKN036 24/20 Q1016 NOSIG

2010/08/09 19:00
LFMO 091900Z AUTO 20007KT 9999NDV NSC 27/18 Q1014

2010/08/09 19:00
LFMP 091900Z AUTO 30009KT 270V330 9999NDV -RA //////CB 25/17 Q1016

2010/08/09 19:00
LFOA 091900Z AUTO 36005KT 9999NDV NSC 25/10 Q1015

2010/08/09 19:00
LFOC 091900Z AUTO 29005KT 9999NDV NSC 25/09 Q1015

2010/08/09 19:00
LFOE 091900Z AUTO 33005KT 290V020 9999NDV NSC 21/13 Q1016

2010/08/09 19:00
LFOJ 091900Z AUTO VRB01KT 9999NDV NSC 25/09 Q1015

2010/08/09 19:00
LFPG 091900Z 36005KT 290V030 CAVOK 24/11 Q1015 NOSIG

2010/08/09 19:00
LFPO 091900Z 25003KT CAVOK 23/11 Q1015 NOSIG

2010/08/09 19:00
LFPV 091900Z AUTO 26002KT 9999NDV NSC 23/11 Q1015

2010/08/09 19:00
LFQI 091900Z AUTO 32006KT 9999NDV NSC 22/13 Q1015

2010/08/09 19:00
LFQQ 091900Z 30009KT CAVOK 21/13 Q1015 NOSIG

2010/08/09 19:00
LFRB 091900Z 23010KT 8000 BKN003 BKN008 17/16 Q1017 NOSIG

2010/08/09 19:00
LFRS 091900Z 27007KT CAVOK 20/13 Q1017 NOSIG

2010/08/09 19:00
LFSD 091900Z AUTO VRB01KT 9999NDV NSC 22/13 Q1016

2010/08/09 19:00
LFSF 091900Z AUTO 00000KT 9999NDV NSC 21/12 Q1016

2010/08/09 19:00
LFSI 091900Z AUTO 06003KT 9999NDV NSC 23/12 Q1016

2010/08/09 19:00
LFSO 091900Z AUTO 01003KT 9999NDV NSC 20/11 Q1017

2010/08/09 19:00
LFSR 091900Z AUTO 10002KT 9999NDV NSC 22/14 Q1015

2010/08/09 19:00
LFSX 091900Z AUTO 00000KT 9999NDV NSC 20/14 Q1016

2010/08/09 19:00
LFYR 091900Z AUTO 00000KT //// // ///////// 23/13 Q1015

2010/08/09 19:00
EICK 091900Z 31007KT 9999 BKN036 16/08 Q1012 NOSIG

2010/08/09 19:00
EIDW 091900Z 27014KT 9999 FEW028 16/09 Q1009 NOSIG

2010/08/09 19:00
EIKN 091900Z 25014KT 210V270 9999 FEW018CB SCT022 13/09 Q1009 NOSIG

2010/08/09 19:00
EINN 091900Z 25010KT 9999 FEW025 SCT050 16/09 Q1011 NOSIG

2010/08/09 19:00
LEAB 091900Z 19003KT CAVOK 30/12 Q1018 NOSIG

2010/08/09 19:00
LEAL 091900Z 07004KT 040V100 CAVOK 29/16 Q1014 NOSIG

2010/08/09 19:00
LEBL 091900Z 10007KT 9999 FEW013 26/22 Q1016 NOSIG

2010/08/09 19:00
LEGR 091900Z 29009KT 260V330 9999 FEW090 34/10 Q1016

2010/08/09 19:00
LEIB 091900Z VRB02KT CAVOK 26/22 Q1014 NOSIG

2010/08/09 19:00
LELC 091900Z 06003KT 030V100 CAVOK 26/19 Q1014 NOSIG

2010/08/09 19:00
LELN 091900Z 26010KT CAVOK 26/02 Q1019

2010/08/09 19:00
LEMD 091900Z 18011G21KT 130V220 CAVOK 33/12 Q1016 NOSIG

2010/08/09 19:00
LEMG 091900Z 15008KT 130V190 CAVOK 28/14 Q1015 NOSIG

2010/08/09 19:00
LEPA 091900Z 27005KT CAVOK 26/18 Q1015 NOSIG

2010/08/09 19:00
LEPP 091900Z 01010KT 9999 FEW029 19/14 Q1020

2010/08/09 19:00
LESA 091900Z 26003KT 230V290 8000 FEW040TCU SCT045 27/16 Q1018

2010/08/09 19:00
LESO 091900Z 03003KT 330V060 9999 BKN030 21/16 Q1020

2010/08/09 19:00
LETO 091900Z 20009KT 9999 FEW050 32/12 Q1016 NOSIG

2010/08/09 19:00
LEVC 091900Z 06007KT 020V080 9999 FEW035 29/20 Q1014 NOSIG

2010/08/09 19:00
LEVD 091900Z 29009KT 9999 FEW035TCU 29/07 Q1018

2010/08/09 19:00
LEVS 091900Z 24007KT 200V270 9999 FEW050 31/10 Q1017

2010/08/09 19:00
LEVX 091900Z 27008KT 250V310 CAVOK 25/15 Q1016

2010/08/09 19:00
LEXJ 091900Z 06004KT 030V090 9999 SCT028 SCT038 21/15 Q1020

2010/08/09 19:00
LEZL 091900Z 35004KT 320V020 CAVOK 36/12 Q1012 NOSIG

2010/08/09 19:00
LFBF 091900Z AUTO 28007KT 9999NDV // OVC041 22/17 Q1019

2010/08/09 19:00
LFBM 091900Z AUTO 30007KT 9999NDV NSC 21/14 Q1019

2010/08/09 19:00
LFMO 091900Z AUTO 20007KT 9999NDV NSC 27/18 Q1014

2010/08/09 19:00
LFPO 091900Z 25003KT CAVOK 23/11 Q1015 NOSIG

2010/08/09 19:00
LQBK 091900Z 29003KT CAVOK 20/18 Q1016 NOSIG

2010/08/09 19:00
RJAA 091900Z 16003KT 9999 FEW020 SCT140 22/22 Q1015 NOSIG

2010/08/09 19:00
RJBB 091900Z 21009KT 9999 FEW005 BKN060 27/25 Q1013 NOSIG

2010/08/09 19:00
RJCC 091900Z 18003KT 1500 R01R/P1800N -DZ BR SCT001 BKN002 21/20 Q1014

2010/08/09 19:00
RJFS 091900Z VRB03KT 9999 -RA FEW035 SCT130 BKN170 26/24 Q1010

2010/08/09 19:00
RJFF 091900Z 15005KT 9999 -RA FEW020 SCT090 BKN150 26/23 Q1010

2010/08/09 19:00
RJFR 091900Z 09007KT 050V110 9999 FEW007 SCT010 BKN150 27/24 Q1010

2010/08/09 19:00
RJGG 091900Z 12008KT 9999 FEW006 SCT050 BKN070 26/25 Q1013 NOSIG

2010/08/09 19:00
RJOH 091900Z 16003KT 9999 FEW050 BKN080 27/23 Q1011

2010/08/09 19:00
RJTT 091900Z 17007KT 9999 FEW010 SCT015 BKN090 26/23 Q1015

2010/08/09 19:00
ROAH 091900Z 17022G32KT 9999 -SHRA SCT012 FEW025TCU BKN035 28/25 Q1006

2010/08/09 19:00
RJAH 091900Z 17001KT 9999 SCT015 24/23 Q1015

2010/08/09 19:00
ZBAA 091900Z 02002MPS 1800 R01/1400N R36R/2000N R36L/P2000U BR NSC 25/23 Q1006 NOSIG

2010/08/09 19:00
ZBSJ 091900Z 02001MPS 1100 R33/1100N BR -RA OVC046 26/24 Q1006 NOSIG

2010/08/09 19:00
ZBTJ 091900Z 05001MPS 1700 BR NSC 26/25 Q1006 NOSIG

2010/08/09 19:00
ZBYN 091900Z 03001MPS 2000 RA BR OVC040 22/19 Q1009 NOSIG

2010/08/09 19:00
ZGGG 091900Z VRB01MPS 8000 SCT020 29/26 Q1005 NOSIG

2010/08/09 19:00
ZSHC 091900Z VRB02MPS CAVOK 28/25 Q1002

2010/08/09 19:00
ZSPD 091900Z 01005MPS 330V040 9999 BKN011 28/25 Q1002 NOSIG

2010/08/09 19:00
ZSSS 091900Z 03003MPS 360V060 9999 FEW018 28/25 Q1002 NOSIG

2010/08/09 19:00
ZWSH 091900Z AUTO VRB03MPS CAVOK 27/07 Q1010

2010/08/09 19:00
ZWWW 091900Z 19003MPS CAVOK 25/10 Q1007 NOSIG

2010/08/09 19:00
ZYTL 091900Z 11002MPS 050V140 6000 -RA FEW010 BKN040 24/23 Q1006 NOSIG

2010/08/09 19:00
ZYTX 091900Z VRB01MPS 7000 BKN030 21/20 Q1006 NOSIG

2010/08/09 19:03
KBVE 091903Z AUTO 22006KT SCT021 SCT110 25/23 A2998

2010/08/09 19:00
GCLP 091900Z 03008KT 9999 SCT024 24/19 Q1013 NOSIG

2010/08/09 19:00
GCXO 091900Z 33005KT 290V030 8000 FEW002 BKN005 18/17 Q1016 NOSIG

2010/08/09 19:00
GCTS 091900Z 10005KT 070V130 9999 FEW020 BKN026 24/18 Q1013 NOSIG

2010/08/09 19:00
GCRR 091900Z 08009KT CAVOK 24/22 Q1011

2010/08/09 19:00
GCFV 091900Z 15003KT 8000 FEW025 24/21 Q1012

2010/08/09 19:00
LCLK 091900Z 22006KT CAVOK 28/26 Q1005 NOSIG

2010/08/09 19:00
LCPH 091900Z 30006KT 9999 FEW009 SCT016 29/26 Q1005

2010/08/09 19:00
LEAB 091900Z 19003KT CAVOK 30/12 Q1018 NOSIG

2010/08/09 19:00
LELN 091900Z 26010KT CAVOK 26/02 Q1019

2010/08/09 19:00
LESA 091900Z 26003KT 230V290 8000 FEW040TCU SCT045 27/16 Q1018

2010/08/09 19:00
LETO 091900Z 20009KT 9999 FEW050 32/12 Q1016 NOSIG

2010/08/09 19:00
LEVD 091900Z 29009KT 9999 FEW035TCU 29/07 Q1018

2010/08/09 19:00
LEVS 091900Z 24007KT 200V270 9999 FEW050 31/10 Q1017

2010/08/09 19:00
RKSI 091900Z 06004KT 9999 FEW040 SCT120 26/22 Q1008 NOSIG

2010/08/09 19:00
RKSS 091900Z 36003KT 330V060 9999 FEW030 SCT120 25/22 Q1008 NOSIG 

2010/08/09 19:00
RKPC 091900Z 08011G025KT 050V110 7000 -SHRA BKN020 BKN110 28/23 Q1005 BECMG TL1920 NSW 

2010/08/09 19:00
RKJB 091900Z AUTO 05005KT3000NDV NCD 27/23 Q1008 

2010/08/09 19:00
RKNY 091900Z AUTO 27003KT3000NDV NCD 23/20 Q1008 

2010/08/09 19:00
LEAS 091900Z 09007KT 060V120 9999 SCT020 BKN030 20/16 Q1020 NOSIG

2010/08/09 19:00
LEBB 091900Z 35004KT 310V020 9999 SCT030 BKN040 21/15 Q1020 NOSIG

2010/08/09 19:00
LECO 091900Z 35005KT 320V020 CAVOK 23/17 Q1018

2010/08/09 19:00
LEGE 091900Z 20006KT 180V240 3000 TSRA SCT010 FEW028CB BKN034 21/20 Q1017

2010/08/09 19:00
LEST 091900Z 32004KT 280V010 CAVOK 21/15 Q1018 NOSIG

2010/08/09 19:00
LEZG 091900Z 30014KT 9999 FEW040 26/15 Q1016

2010/08/09 19:00
LESO 091900Z 03003KT 330V060 9999 BKN030 21/16 Q1020

2010/08/09 19:00
LEVT 091900Z 03009KT 9999 FEW018 SCT027 18/15 Q1020

2010/08/09 19:00
LERS 091900Z 19004KT 160V220 9999 FEW030 26/19 Q1015

2010/08/09 19:00
LEMH 091900Z VRB01KT CAVOK 24/20 Q1016

2010/08/09 19:00
LEAM 091900Z 23004KT 200V260 CAVOK 25/22 Q1014

2010/08/09 19:00
LEGR 091900Z 29009KT 260V330 9999 FEW090 34/10 Q1016

2010/08/09 19:00
LERL 091900Z 21004KT CAVOK 31/10 Q1018

2010/08/09 19:02
KHTL 091902Z AUTO 01005KT 8SM -RA BKN036 OVC060 24/22 A2993

2010/08/09 18:56
KNQI 091856Z COR 15010G15KT 10SM BKN039 BKN060 34/25 A2990 RMK AO2 SLP122 T03440250 

2010/08/09 19:00
ZGKL 091900Z AUTO 00000MPS 3000 BR //// 27/25 Q1004

2010/08/09 19:00
ZGSZ 091900Z 00000MPS 9999 FEW017 29/24 Q1004 NOSIG

2010/08/09 19:00
ZLXY 091900Z 03003MPS 4000 BR NSC 26/23 Q1004 NOSIG

2010/08/09 19:00
ZMUB 091900Z 00000MPS CAVOK 07/01 Q1008 NOSIG RMK QFE649.8 64

2010/08/09 19:00
ZPPP 091900Z 00000MPS 9999 SCT026 20/15 Q1016 NOSIG

2010/08/09 19:00
ZSAM 091900Z 29002MPS CAVOK 28/23 Q1004 NOSIG

2010/08/09 19:00
ZSFZ 091900Z 24003MPS 8000 NSC 28/24 Q1003 NOSIG

2010/08/09 19:00
ZSNB 091900Z 30004MPS CAVOK 27/25 Q1001 NOSIG

2010/08/09 19:00
ZSQD 091900Z VRB01MPS 9999 FEW012 25/23 Q1006 NOSIG

2010/08/09 19:00
ZUUU 091900Z 00000MPS 4000 BR SCT040 27/24 Q1003 NOSIG

2010/08/09 19:00
LFBD 091900Z 27007KT 9999 SCT036 SCT043 21/13 Q1018 NOSIG

2010/08/09 19:00
LFBI 091900Z AUTO 24009KT 9999NDV NSC 24/14 Q1016

2010/08/09 19:00
LFBL 091900Z AUTO 26007KT 220V280 9999NDV NSC 21/15 Q1018

2010/08/09 19:00
LFBO 091900Z 27008KT 9999 BKN039 22/16 Q1019 NOSIG

2010/08/09 19:00
LFBP 091900Z 22005KT 9999 BKN041 20/18 Q1020 NOSIG

2010/08/09 19:00
LFBT 091900Z 22005KT 9999 FEW008 BKN023 18/16 Q1021 TEMPO SCT008 BKN013

2010/08/09 19:00
LFBZ 091900Z AUTO 30004KT 9999NDV NSC 21/16 Q1020

2010/08/09 19:00
LFCR 091900Z AUTO 27010KT 9999NDV BKN033 20/15 Q1019

2010/08/09 19:00
LFKB 091900Z 14001KT 9999 FEW030 SCT210 23/20 Q1015 NOSIG

2010/08/09 19:00
LFKF 091900Z AUTO 26013KT 9999NDV NCD 24/16 Q1015

2010/08/09 19:00
LFKJ 091900Z 23014KT 9999 FEW016 SCT160 24/19 Q1016 NOSIG

2010/08/09 19:00
LFLB 091900Z AUTO 00000KT 9999NDV NSC 20/16 Q1015

2010/08/09 19:00
LFLS 091900Z AUTO 07005KT 9999NDV NSC 24/13 Q1016

2010/08/09 19:00
LFLX 091900Z AUTO 32002KT 9999NDV NSC 25/09 Q1015

2010/08/09 19:00
LFLY 091900Z AUTO 02007KT 9999NDV NSC 26/15 Q1015

2010/08/09 19:00
LFMK 091900Z AUTO 28010KT 9999NDV NSC 23/16 Q1018

2010/08/09 19:00
LFML 091900Z 19007KT 9999 FEW010 SCT230 24/20 Q1015 NOSIG

2010/08/09 19:00
LFMU 091900Z AUTO 31009KT 9999NDV

2010/08/09 19:00
LFOB 091900Z AUTO 02008KT 9999NDV NSC 21/14 Q1016

2010/08/09 19:00
LFOH 091900Z AUTO 02003KT 9999NDV NSC 17/10 Q1016

2010/08/09 19:00
LFOP 091900Z AUTO 36007KT 9999NDV NSC 20/13 Q1016

2010/08/09 19:00
LFRD 091900Z AUTO 05003KT 9999NDV NSC 18/13 Q1017

2010/08/09 19:00
LFRN 091900Z AUTO 01005KT 330V040 9999NDV NSC 23/11 Q1016

2010/08/09 19:00
LFRO 091900Z AUTO 22010KT 9999NDV OVC022 18/16 Q1017

2010/08/09 19:00
LFRZ 091900Z AUTO 28012KT 9999NDV NSC 19/14 Q1017

2010/08/09 19:00
LFSB 091900Z VRB03KT 9999 FEW053 SCT250 20/14 Q1016 NOSIG

2010/08/09 19:00
LFSL 091900Z AUTO 23004KT 180V320 9999NDV SCT046 20/16 Q1018

2010/08/09 19:00
LFST 091900Z AUTO VRB01KT 9999NDV NSC 21/14 Q1016

2010/08/09 19:00
LFTH 091900Z 15004KT 8000 FEW008 SCT015 OVC200 23/21 Q1015 NOSIG

2010/08/09 19:00
LFBA 091900Z AUTO 31002KT 9999NDV OVC048 22/15 Q1018

2010/08/09 19:00
LFBE 091900Z AUTO 25003KT 210V290 9999NDV OVC040 22/16 Q1018

2010/08/09 19:00
LFCR 091900Z AUTO 27010KT 9999NDV BKN033 20/15 Q1019

2010/08/09 19:00
LFGJ 091900Z AUTO 10004KT 9999NDV NSC 23/14 Q1015

2010/08/09 19:00
LFJL 091900Z AUTO 30002KT 9999NDV NSC 22/09 Q1016

2010/08/09 19:00
LFLN 091900Z AUTO 01003KT 9999NDV NSC 24/15 Q1016

2010/08/09 19:00
LFLS 091900Z AUTO 07005KT 9999NDV NSC 24/13 Q1016

2010/08/09 19:00
LFLY 091900Z AUTO 02007KT 9999NDV NSC 26/15 Q1015

2010/08/09 19:00
LFMD 091900Z AUTO VRB02KT 9999NDV OVC039 24/20 Q1015

2010/08/09 19:00
LFMH 091900Z AUTO 31007KT 290V350 9999NDV NSC 25/14 Q1016

2010/08/09 19:00
LFMK 091900Z AUTO 28010KT 9999NDV NSC 23/16 Q1018

2010/08/09 19:00
LFMT 091900Z 27007KT 9999 FEW050CB BKN110 26/17 Q1014 BECMG SHRA

2010/08/09 19:00
LFMU 091900Z AUTO 31009KT 9999NDV

2010/08/09 19:00
LFOB 091900Z AUTO 02008KT 9999NDV NSC 21/14 Q1016

2010/08/09 19:00
LFOH 091900Z AUTO 02003KT 9999NDV NSC 17/10 Q1016

2010/08/09 19:00
LFOP 091900Z AUTO 36007KT 9999NDV NSC 20/13 Q1016

2010/08/09 19:00
LFOT 091900Z 27005KT CAVOK 26/10 Q1015 NOSIG

2010/08/09 19:00
LFPB 091900Z AUTO VRB02KT 9999NDV NSC 24/12 Q1014

2010/08/09 19:00
LFPM 091900Z AUTO 11001KT 9999NDV NSC 23/12 Q1015

2010/08/09 19:00
LFPN 091900Z AUTO VRB02KT 9999NDV NSC 24/10 Q1015

2010/08/09 19:00
LFRC 091900Z AUTO 22009KT 9999NDV NSC 18/13 Q1016

2010/08/09 19:00
LFRD 091900Z AUTO 05003KT 9999NDV NSC 18/13 Q1017

2010/08/09 19:00
LFRH 091900Z 27009KT 9999 SCT027 BKN034 17/15 Q1018

2010/08/09 19:00
LFRK 091900Z AUTO 36002KT 9999NDV ///////// 19/12 Q1016

2010/08/09 19:00
LFRN 091900Z AUTO 01005KT 330V040 9999NDV NSC 23/11 Q1016

2010/08/09 19:00
LFRQ 091900Z AUTO 25004KT 210V280 9999NDV OVC005 17/16 Q1018

2010/08/09 19:00
LFSB 091900Z VRB03KT 9999 FEW053 SCT250 20/14 Q1016 NOSIG

2010/08/09 19:00
LFSN 091900Z VRB03KT CAVOK 20/13 Q1016 NOSIG

2010/08/09 19:00
LFST 091900Z AUTO VRB01KT 9999NDV NSC 21/14 Q1016

2010/08/09 19:00
LFTH 091900Z 15004KT 8000 FEW008 SCT015 OVC200 23/21 Q1015 NOSIG

2010/08/09 19:00
OIAA 091900Z 20004KT CAVOK 34/24 Q0997

2010/08/09 19:00
OIBK 091900Z 32004KT 6000 NSC 32/29 Q0997 A2946

2010/08/09 19:00
OICC 091900Z 00000KT CAVOK 25/M05 Q1012 A2989 864.0

2010/08/09 19:00
OIIE 091900Z 04008KT CAVOK 28/03 Q1011 A2987

2010/08/09 19:00
OITR 091900Z 35004KT 9999 SCT035 25/11 Q1014 A2994

2010/08/09 19:00
OIYY 091900Z 24004KT CAVOK 28/M01 Q1014 A2996

2010/08/09 19:03
KBVE 091903Z AUTO 22006KT SCT021 SCT110 25/23 A2998

2010/08/09 19:03
KMSY 091903Z 01007KT 10SM TS SCT037CB SCT060 BKN150 BKN250 33/24 A2995 RMK AO2 TSB02 OCNL LTGICCG NE-SE TS NE-SE MOV SW CB DSNT N-NE AND SE-S AND NW 

2010/08/09 19:00
OIBB 091900Z 17004KT 6000 SKC 33/29 Q0998 A2947

2010/08/09 19:00
OINZ 091900Z VRB02KT CAVOK 26/29 Q1009 A2982

2010/08/09 19:02
KHTL 091902Z AUTO 01005KT 8SM -RA BKN036 OVC060 24/22 A2993

2010/08/09 18:50
KEFD 091850Z 07006KT 10SM BKN030 35/25 A2997

2010/08/09 18:56
KHLR 091856Z AUTO 13006G14KT 10SM CLR 37/20 A2995 RMK AO2 SLP130 T03670200 $

2010/08/09 18:57
KNJM 091857Z AUTO 16006KT 10SM SCT015 29/25 A3003 RMK AO2 SLP172 T02890250

2010/08/09 18:56
KNRS 091856Z 24008KT 10SM FEW017 20/13 A2995 RMK AO2 SLP139 T02000128

2010/08/09 18:55
KSVN 091855Z 09010G17KT 12SM SCT050 BKN250 34/21 A2998 RMK AO2A SLP155

2010/08/09 19:00
KNEL 091900Z AUTO 21003KT 8SM BKN070 33/14 A2997 RMK AO2 SLP148 T03280144 $

2010/08/09 18:54
KNFG 091854Z COR 24009KT 7SM FEW017 22/13 A2992 RMK AO2 SLP132 T02220133

2010/08/09 18:59
KNGU 091859Z 07010KT 10SM FEW042 SCT250 32/21 A3004 RMK AO2 SLP171 T03170206

2010/08/09 18:53
KNIP 091853Z COR 05013G22KT 3SM RA FEW020 BKN035CB BKN250 28/25 A2996 RMK AO2 RAB46 SLP139 CB OHD MOV SW T2 SET P0000 T02780250

2010/08/09 18:54
KNKT 091854Z COR 14005KT 10SM SCT030 BKN150 29/23 A3003 RMK AO2 SLP164 T02940233

2010/08/09 18:56
KNMM 091856Z 19004KT 10SM SCT040 34/24 A2997 RMK AO2 SLP154 T03390239 $

2010/08/09 18:56
KNSI 091856Z COR 17005KT 7SM FEW009 BKN011 16/13 A2995 RMK AO2 SLP138 T01610128 TSNO

2010/08/09 18:56
KNUW 091856Z 23003KT 6SM -RA BR FEW006 SCT012 OVC018 14/12 A2999 RMK AO2 RAB37 SLP160 PCPN VRY LGT P0000 T01360117 $

2010/08/09 18:55
KNYL 091855Z 21006KT 10SM CLR 37/02 A2979 RMK AO2 SLP085 T03720017

2010/08/09 18:52
KNZY 091852Z 26008KT 10SM FEW019 23/13 A2993 RMK AO2 SLP134 T02330128 $

2010/08/09 18:55
KOSC 091855Z AUTO 09004KT 10SM SCT012 24/21 A2990 RMK AO2

2010/08/09 18:59
KNGU 091859Z 07010KT 10SM FEW042 SCT250 32/21 A3004 RMK AO2 SLP171 T03170206

2010/08/09 18:53
KNIP 091853Z COR 05013G22KT 3SM RA FEW020 BKN035CB BKN250 28/25 A2996 RMK AO2 RAB46 SLP139 CB OHD MOV SW T2 SET P0000 T02780250

2010/08/09 18:57
KNJM 091857Z AUTO 16006KT 10SM SCT015 29/25 A3003 RMK AO2 SLP172 T02890250

2010/08/09 18:54
KNKT 091854Z COR 14005KT 10SM SCT030 BKN150 29/23 A3003 RMK AO2 SLP164 T02940233

2010/08/09 18:56
KNPA 091856Z 13009KT 9SM FEW035 SCT160 SCT280 33/26 A2996 RMK AO2 SLP147 T03280256

2010/08/09 18:56
KNTU 091856Z 11008KT 10SM FEW035 SCT200 29/22 A3003 RMK AO2 SLP171 T02890222 $

2010/08/09 19:00
SCAR 091900Z 22011KT CAVOK 16/08 Q1015

2010/08/09 19:00
SCBA 091900Z 31027G38KT 9999 SCT030 SCT070 04/M01 Q1018

2010/08/09 19:00
SCDA 091900Z 24007KT 8000 OVC020 15/09 Q1016

2010/08/09 19:00
SCEL 091900Z 14007KT CAVOK 21/01 Q1015 NOSIG

2010/08/09 19:00
SCFA 091900Z 18009KT 9999 FEW020 SCT200 16/08 Q1016 NOSIG

2010/08/09 19:00
SCIE 091900Z 21009KT CAVOK 15/02 Q1017

2010/08/09 19:00
SCTE 091900Z 23004KT 9999 SCT015 BKN040 11/10 Q1024 NOSIG

2010/08/09 19:00
SPHI 091900Z 20010KT CAVOK 24/15 Q1016 RMK PP000

2010/08/09 19:00
SPQU 091900Z 24011KT CAVOK 19/M12 Q1026 NOSIG RMK PP000

2010/08/09 19:00
SPRU 091900Z 18010KT 9000 FEW012 17/13 Q1015 RMK BIRD HAZARD RWY20 PP000

2010/08/09 19:00
SPSO 091900Z 29009KT 6000 FEW012 19/14 Q1017 RMK BIRDS HAZARD RWY 22/04 W PP000

2010/08/09 19:00
TBPB 091900Z 18015KT 9999 SCT012 SCT032 29/24 Q1013 NOSIG

2010/08/09 19:00
TTPP 091900Z ///11KT 7000 -TSRA SCT008CB BKN260 24/23 Q1012 TEMPO TSRA

2010/08/09 18:55
KQON 091855Z AUTO 33004KT 5000 CLR 35/04 A2961 RMK AO2 SLP008 T03450037

2010/08/09 18:55
KQPD 091855Z AUTO 23002KT 9000 30/00 A2962 RMK AO2 SLP935 T03030001 $

2010/08/09 18:55
KQRY 091855Z AUTO 31003KT 9999 BKN100 OVC130 17/14 A3010 RMK AO2 SLP083 P0000 T01700139

2010/08/09 18:55
KQXJ 091855Z 32008KT 9999 FEW040 37/01 A2950 RMK SLP989 PA+410 DA+3045

2010/08/09 19:00
LPFR 091900Z 26004KT CAVOK 30/18 Q1012

2010/08/09 19:00
LPMA 091900Z 16003KT 090V220 9999 FEW013 23/19 Q1013 RS11001KT 0516002KT 2323002KT

2010/08/09 19:00
LPPR 091900Z 00000KT CAVOK 27/17 Q1015

2010/08/09 19:00
LPPS 091900Z 36010KT 9999 SCT013 SCT030 23/19 Q1014

2010/08/09 19:00
LPPT 091900Z 30009KT CAVOK 35/12 Q1013 NOSIG

2010/08/09 19:00
OIAG 091900Z 00000KT 9999 FEW040 36/17 Q0998 A2948

2010/08/09 19:00
OIAM 091900Z 11010KT CAVOK 36/22 Q0996 A2943

2010/08/09 19:00
OICI 091900Z 33012KT CAVOK 30/M07 Q1012 A2990 863.4

2010/08/09 19:00
OINN 091900Z 18004KT CAVOK 26/23 Q1008 A2978

2010/08/09 19:00
OINR 091900Z 24004KT CAVOK 28/23 Q1007 A2976

2010/08/09 19:00
OISY 091900Z 16004KT 9999 FEW045 SCT090 26/01 Q1019 A3009

2010/08/09 19:00
FCBB 091900Z 30003KT 8000 BKN023 23/19 Q1015 NOSIG

2010/08/09 19:00
FCPP 091900Z 18004KT 6000 SCT010 OVC023 22/20 Q1015 NOSIG

2010/08/09 19:00
FKKD 091900Z 28004KT 230V360 9999 TS BKN010 FEW013CB BKN100 25/24 Q1013 NOSIG

2010/08/09 19:00
FKYS 091900Z 23003KT 9999 BKN013 22/19 Q1017 NOSIG

2010/08/09 19:00
FKKR 091900Z 32008KT 9999 BKN020 SCT120 28/22 Q1011 NOSIG

2010/08/09 19:00
FEFF 091900Z 11002KT 4000 FU NSC 25/22 Q1012 TEMPO 2000

2010/08/09 19:00
FOOL 091900Z 17004KT 140V200 8000 SCT010 BKN033 25/23 Q1014 NOSIG

2010/08/09 19:00
FGSL 091900Z 26007KT 9999 SCT010 BKN100 24/24 Q1013 NOSIG

2010/08/09 19:00
FGBT 091900Z 18004KT 8000 BKN012 OVC120 25/23 Q1013 NOSIG

2010/08/09 19:00
FZAA 091900Z 25006KT 7000 FEW018 OVC100 23/18 Q1015 NOSIG

2010/08/09 19:00
FPST 091900Z 12006KT 9999 FEW020 BKN040 24/21 Q1013 NOSIG

2010/08/09 19:00
SUMU 091900Z 25007KT 8000 NSC 16/03 Q1023 NOSIG

2010/08/09 19:00
SULS 091900Z 21006KT CAVOK 13/04 Q1023

2010/08/09 19:00
SUAA 091900Z 25010KT 9999 FEW026 BKN200 15/06 Q1023

2010/08/09 19:00
SUCA 091900Z 26005KT CAVOK 17/02 Q1022

2010/08/09 19:00
SUSO 091900Z 0000KT CAVOK 19/02 Q1023

2010/08/09 19:00
SUDU 091900Z 00000KT CAVOK 19/02 Q1022

2010/08/09 18:55
KDPG 091855Z 26006KT 50SM FEW090CB SCT100 BKN130 29/03 A3009 RMK VCTS CB E AND W MOV NE SLP138 T02880031

2010/08/09 19:00
MKJS 091900Z 05010KT 9999 TS FEW022CB BKN220 31/24 Q1012

2010/08/09 18:48
MMCS 091848Z 30005KT 10SM FEW040 33/14 A3006 RMK 8/100

2010/08/09 18:48
MMTC 091848Z 00000KT 15SM FEW040 SCT200 33/14 A3003 RMK 8/102

2010/08/09 19:00
MRLB 091900Z 13003KT 9999 FEW020 BKN120 31/24 A2983 RMK RA N NE

2010/08/09 19:00
MROC 091900Z 25012KT 9999 FEW040 SCT120 BKN250 26/24 A2998 NOSIG

2010/08/09 19:00
MRPV 091900Z 12003KT 9999 FEW035 SCT100 BKN250 27/18 A2996 TEMPO 24004 KT

2010/08/09 19:00
MZBZ 091900Z 17003KT 9999 SCT028 BKN280 32/26 A2987 NOSIG

2010/08/09 18:57
PTYA 091857Z VRB05KT 12SM SCT016 SCT030 BKN130 OVC300 26/23 A2982 RMK SLP100 T02590226

2010/08/09 19:00
RJAA 091900Z 16003KT 9999 FEW020 SCT140 22/22 Q1015 NOSIG RMK 1CU020 3AC140 A2999

2010/08/09 19:00
RJCC 091900Z 18003KT 1500 R01R/P1800N -DZ BR SCT001 BKN002 21/20 Q1014 RMK 3ST001 7ST002 A2995

2010/08/09 19:00
RJFF 091900Z 15005KT 9999 -RA FEW020 SCT090 BKN150 26/23 Q1010 RMK 1CU020 3AC090 6AC150 A2983

2010/08/09 19:00
RJTT 091900Z 17007KT 9999 FEW010 SCT015 BKN090 26/23 Q1015 RMK 1ST010 4CU015 6AC090 A2997

2010/08/09 19:00
RKSS 091900Z 36003KT 330V060 9999 FEW030 SCT120 25/22 Q1008 NOSIG

2010/08/09 19:00
ROAH 091900Z 17022G32KT 9999 -SHRA SCT012 FEW025TCU BKN035 28/25 Q1006 RMK 3CU012 2TCU025 6SC035 A2971 TCU 15KM W-NW MOV NE

2010/08/09 19:00
TBPB 091900Z 18015KT 9999 SCT012 SCT032 29/24 Q1013 NOSIG

2010/08/09 19:00
TGPY 091900Z 12008KT 9999 BKN012CB BKN250 28/25 Q1012 CB E AND SE TOP OVHD

2010/08/09 19:00
TKPK 091900Z 01005KT 9999 FEW015 SCT019 30/26 Q1014

2010/08/09 19:00
TTPP 091900Z ///11KT 7000 -TSRA SCT008CB BKN260 24/23 Q1012 TEMPO TSRA

2010/08/09 19:00
ZBHH 091900Z 03002MPS CAVOK 14/08 Q1012 NOSIG

2010/08/09 19:00
ZGHA 091900Z 19001MPS 3500 BR SKC 28/28 Q1002 NOSIG

2010/08/09 19:00
ZHCC 091900Z 03002MPS 340V100 6000 SCT040 25/24 Q1004 NOSIG

2010/08/09 19:00
ZHHH 091900Z 06002MPS 020V080 3000 BR NSC 29/29 Q1003 NOSIG

2010/08/09 19:00
ZJHK 091900Z 00000MPS 8000 NSC 25/25 Q1003 NOSIG

2010/08/09 19:00
ZJSY 091900Z VRB01MPS 9999 FEW015 SCT046 26/24 Q1003 NOSIG

2010/08/09 19:00
ZLLL 091900Z 00000MPS CAVOK 16/13 Q1014 NOSIG

2010/08/09 19:00
ZSNJ 091900Z 07001MPS 8000 SKC 27/24 Q1003 NOSIG

2010/08/09 19:00
ZSOF 091900Z AUTO 05001MPS 5000 BR SKC 27/24 Q1003 NOSIG

2010/08/09 19:00
ZUCK 091900Z 08002MPS CAVOK 31/21 Q1002 NOSIG

2010/08/09 19:00
ZYCC 091900Z 21004MPS 3000 BR SCT003 19/18 Q1007 NOSIG

2010/08/09 19:00
ZYHB 091900Z 19002MPS CAVOK 15/14 Q1005 NOSIG

2010/08/09 19:02
PASY 091902Z 31005KT 3SM BR BKN001 OVC025 10/09 A2984 RMK AO2 PNO $  REQ ANCMTRASY 

2010/08/09 19:00
OIAD 091900Z 00000KT 6000 NSC 35/17 Q0999 A2950 FEW100

2010/08/09 19:00
OING 091900Z 20006KT CAVOK 25/17 Q1010 A2983

2010/08/09 19:00
OIZB 091900Z 32030KT 8000 SKC 36/03 Q1001 A2956

2010/08/09 19:00
OIZI 091900Z 14004KT 8000 NSC 37/13 Q1002 A2960

2010/08/09 19:05
CYSC 091905Z AUTO 00000KT 9SM SCT031 BKN043 OVC061 22/20 A2991 RMK DENSITY ALT 1800FT

2010/08/09 19:05
CYKF 091905Z AUTO 25011KT 200V260 5SM RA TS BKN021 24/21 A2997 RMK SLP143 DENSITY ALT 2200FT LTNG DIST SW

2010/08/09 19:05
CYOO 091905Z AUTO 21008G16KT 190V250 2 1/4SM +RA TS SCT034 BKN044 BKN056 OVC072 24/22 A2992 RMK SLP133 DENSITY ALT 1600FT PCPN 1.5MM PAST HR LTNG DIST NE SW W

2010/08/09 19:00
OIFS 091900Z 33006KT CAVOK 16/M04 Q1021 A3015 796.6

2010/08/09 19:00
OIMB 091900Z 05010KT CAVOK 25/09 Q1014 A2997

2010/08/09 19:00
OIMS 091900Z 09010KT CAVOK 29/04 Q1015 A2997

2010/08/09 19:00
OIMT 091900Z 04006KT CAVOK 34/01 Q1006 A2973 924.8

2010/08/09 19:00
OIIK 091900Z VRB02KT CAVOK 24/10 Q1014 A2996

2010/08/09 19:00
OITM 091900Z 06016KT 9999 SCT040 WUXQP Q1013 A2993

2010/08/09 19:00
TLPL 091900Z 16012KT 9000 -SHRA FEW008 SCT014CB BKN080 27/24 Q1013 CB/ALL QDS

2010/08/09 19:00
TDPD 091900Z 10004KT 9999 SCT020 SCT270 FEW///CB 30/24 Q1013

2010/08/09 19:00
BIAR 091900Z 33010KT CAVOK 14/09 Q1012

2010/08/09 19:00
BIEG 091900Z 05011KT 9999 FEW040 15/10 Q1011

2010/08/09 19:00
BIKF 091900Z 31008KT 9999 BKN008 11/08 Q1014

2010/08/09 19:00
BIRK 091900Z 27005KT 9999 BKN010 11/09 Q1013

2010/08/09 18:55
KDPG 091855Z 26006KT 50SM FEW090CB SCT100 BKN130 29/03 A3009 RMK VCTS CB E AND W MOV NE SLP138 T02880031

2010/08/09 19:00
LQBK 091900Z 29003KT CAVOK 20/18 Q1016 NOSIG

2010/08/09 19:00
MKJS 091900Z 05010KT 9999 TS FEW022CB BKN220 31/24 Q1012

2010/08/09 19:00
MNBL 091900Z 09008KT 9999 SCT020 SCT080 30/27 Q1011

2010/08/09 19:00
MNJG 091900Z 00000KT 9999 BKN020 25/18 Q1011

2010/08/09 19:00
MNJU 091900Z 09006KT 9999 SCT020 SCT080 29/26 Q1011

2010/08/09 19:00
MNPC 091900Z 08010KT 7000 BKN018 30/26 Q1011 HZ

2010/08/09 19:00
MNRS 091900Z 08006KT 9999 FEW015CB BKN016 29/25 Q1011 CB/4C

2010/08/09 19:00
MRLB 091900Z 13003KT 9999 FEW020 BKN120 31/24 A2983 RMK RA N NE

2010/08/09 19:00
MRLM 091900Z 07003KT CAVOK 29/24 A2983 RMK SCT130 BKN250

2010/08/09 19:00
MRPV 091900Z 12003KT 9999 FEW035 SCT100 BKN250 27/18 A2996 TEMPO 24004 KT

2010/08/09 19:00
MZBZ 091900Z 17003KT 9999 SCT028 BKN280 32/26 A2987 NOSIG

2010/08/09 19:00
OIAW 091900Z 11006KT CAVOK 37/14 Q0997 A2945

2010/08/09 19:00
OIFM 091900Z 00000KT CAVOK 24/M01 Q1017 A3003

2010/08/09 19:00
OIKB 091900Z 05004KT 8000 SKC 32/26 Q0998 A2949

2010/08/09 19:00
OIMM 091900Z 25006KT CAVOK 25/03 Q1014 A2995

2010/08/09 19:00
OISS 091900Z 00000KT CAVOK 24/M04 Q1013 A2991

2010/08/09 19:00
OITT 091900Z 05018KT 9999 FEW040 FEW045CB 27/09 Q1016 A3001

2010/08/09 19:00
OIZH 091900Z 22004KT CAVOK 26/M05 Q1010 A2984

2010/08/09 19:00
ORBI 091900Z 33004KT CAVOK 36/08 Q1000 NOSIG

2010/08/09 19:00
ORMM 091900Z 14007KT 8000 NSC 37/23 Q0997

2010/08/09 19:00
TKPK 091900Z 01005KT 9999 FEW015 SCT019 30/26 Q1014

2010/08/09 19:00
ZWSH 091900Z AUTO VRB03MPS CAVOK 27/07 Q1010

2010/08/09 19:00
WBKK 091900Z 12003KT 9999 FEW014 SCT140 BKN270 26/24 Q1009 NOSIG

2010/08/09 19:00
WMKJ 091900Z 34001KT 9999 FEW022 BKN300 25/24 Q1008

2010/08/09 19:00
WMKK 091900Z 21001KT 9999 FEW017CB SCT140 BKN280 26/25 Q1007 NOSIG

2010/08/09 19:00
WMKP 091900Z 27002KT 9000 FEW025 SCT140 BKN270 27/26 Q1007 NOSIG

2010/08/09 19:00
WMSA 091900Z 00000KT 9999 FEW027 BKN280 27/25 Q1007

2010/08/09 19:03
PASI 091903Z 22003KT 10SM FEW007 OVC028 14/11 A2998 RMK AO2 MTNS OBSCD ALQDS

2010/08/09 19:02
KHTL 091902Z AUTO 01005KT 8SM -RA BKN036 OVC060 24/22 A2993 RMK AO2 TSE1856 P0001

2010/08/09 19:03
KBVE 091903Z AUTO 22006KT SCT021 SCT110 25/23 A2998 RMK AO2 RAE1859 P0001 TSNO $

2010/08/09 19:03
KMSY 091903Z 01007KT 10SM TS SCT037CB SCT060 BKN150 BKN250 33/24 A2995 RMK AO2 TSB02 OCNL LTGICCG NE-SE TS NE-SE MOV SW CB DSNT N-NE AND SE-S AND NW

2010/08/09 19:00
SAZS 091900Z 28005KT CAVOK 08/M04 Q1022

2010/08/09 18:45
PAHV 091845Z 16015G22KT 35SM SCT040 14/06 A2963 RMK EPO

2010/08/09 18:55
KVVG 091855Z AUTO 36006KT RA 27/26 A2991 RMK AO2

2010/08/09 19:00
KW45 091900Z AUTO 20005KT 10SM CLR 34/19 A3001 RMK AO2 T03400185

2010/08/09 19:00
K3I2 091900Z AUTO 00000KT 10SM CLR 33/19 A3002 RMK AO2

2010/08/09 19:00
KUXL 091900Z AUTO 36004KT 10SM BKN048 35/24 A2996 RMK AO2

2010/08/09 19:00
KCTJ 091900Z AUTO 13004KT 10SM SCT050 SCT095 34/21 A3004 RMK AO2 T03440212

2010/08/09 19:02
KCWV 091902Z AUTO 11011G15KT 10SM CLR 36/23 A2997 RMK AO2 LTG DSNT SE T03550229

2010/08/09 18:58
KDNN 091858Z AUTO 14005KT 10SM SCT055 33/21 A3000 RMK AO2

2010/08/09 19:00
KDRI 091900Z AUTO 00000KT 10SM OVC050 33/24 A2997 RMK AO2

2010/08/09 19:01
KHDC 091901Z AUTO 02014G26KT 7SM TS SCT019 SCT040 OVC060 32/27 A2998 RMK AO2 LTG DSNT ALQS

2010/08/09 19:01
KHRJ 091901Z AUTO 08005KT 10SM CLR 33/19 A3002 RMK AO2

2010/08/09 19:00
KI16 091900Z AUTO 34003KT 10SM CLR 32/16 A3001 RMK AO2

2010/08/09 19:01
KIDI 091901Z AUTO 00000KT 10SM CLR 29/16 A3004 RMK AO2

2010/08/09 18:55
KLGC 091855Z AUTO 07005KT 10SM FEW050 36/19 A2999 RMK AO1

2010/08/09 19:00
KLKU 091900Z AUTO 17005KT 10SM CLR 33/21 A3000 RMK AO2

2010/08/09 19:00
KLNP 091900Z AUTO 04003KT 10SM BKN039 BKN050 29/20 A3013 RMK AO1

2010/08/09 19:00
KLOM 091900Z AUTO 22006KT 180V250 10SM CLR 33/19 A2998 RMK AO1 T03300187

2010/08/09 19:00
KMDQ 091900Z AUTO 14005KT 10SM CLR 34/24 A2999 RMK AO2 T03410237

2010/08/09 19:00
KMKJ 091900Z AUTO 30006KT 10SM SCT048 SCT050 30/11 A3018 RMK AO1

2010/08/09 19:00
KMQS 091900Z AUTO 21006KT 10SM CLR 32/22 A3003 RMK AO2

2010/08/09 19:00
KMTV 091900Z AUTO 20004KT 10SM CLR 34/21 A3005 RMK AO2

2010/08/09 19:00
KOBE 091900Z AUTO 11004KT 10SM RA SCT021 BKN050 OVC070 26/24 A2992 RMK AO2 LTG DSNT S AND NW

2010/08/09 19:00
KOKV 091900Z AUTO 15010KT 140V200 10SM SCT070 36/18 A2999 RMK AO2 T03560178

2010/08/09 19:00
KOMH 091900Z AUTO 16007KT 10SM SCT050 BKN065 34/21 A3001 RMK AO2 T03360214

2010/08/09 19:00
KOPN 091900Z AUTO 12007KT 10SM SCT060 35/23 A3002 RMK AO1

2010/08/09 19:00
KPCM 091900Z AUTO 08005KT 10SM SCT030 SCT080 33/24 A2991 RMK AO2

2010/08/09 19:00
KPSK 091900Z AUTO 27005KT 10SM CLR 34/12 A3011 RMK AO2

2010/08/09 19:00
KRCZ 091900Z AUTO 09004KT 10SM CLR 34/21 A3001 RMK AO2 T03370209

2010/08/09 19:02
KRHP 091902Z AUTO 00000KT CLR 32/21 A3007 RMK AO2 PWINO

2010/08/09 18:53
KRIL 091853Z AUTO 00000KT 9SM CLR 21/11 A3020 RMK AO2 RAE05 SLP166 P0000 T02110106 TSNO

2010/08/09 19:00
KRMN 091900Z AUTO 24005KT 10SM SCT050 33/23 A3004 RMK AO2

2010/08/09 19:00
KSFQ 091900Z AUTO 08005KT 10SM SCT050 32/22 A3002 RMK AO2

2010/08/09 19:00
KSHD 091900Z AUTO 18005KT 10SM CLR 34/20 A3003 RMK AO2

2010/08/09 19:00
KSVH 091900Z AUTO 17004KT 10SM CLR 32/21 A3003 RMK AO2 T03190212

2010/08/09 19:00
KTBR 091900Z AUTO 08006KT 10SM SCT055 35/19 A2997 RMK AO2 LTG DSNT SE T03460191

2010/08/09 19:00
KTMA 091900Z AUTO 08006KT 10SM SCT060 SCT065 33/20 A2997 RMK AO2 T03280199

2010/08/09 19:00
KTVI 091900Z AUTO 08011G15KT 10SM CLR 35/20 A2996 RMK AO2 T03530195

2010/08/09 18:56
KVDF 091856Z AUTO 00000KT 10SM SCT025 BKN038 BKN060 32/25 A2989 RMK AO2

2010/08/09 19:00
KVDI 091900Z AUTO 08010G16KT 035V105 10SM SCT055 SCT075 35/21 A2998 RMK AO2 LTG DSNT SE

2010/08/09 19:00
KVJI 091900Z AUTO 23004KT 10SM SCT046 33/20 A3010 RMK AO2 TSNO

2010/08/09 19:00
WSSS 091900Z 16005KT 9999 FEW018 BKN300 28/25 Q1009 NOSIG

2010/08/09 19:00
YSDU 091900Z AUTO 07009KT 9999NDV // SCT010 BKN017 OVC074 11/11 Q1015

2010/08/09 19:00
SACO 091900Z 05013KT CAVOK 17/01 Q1023

2010/08/09 19:00
SBNT 091900Z 12017KT 9999 VCSH SCT027 FEW030TCU BKN100 26/22 Q1014

2010/08/09 19:00
UGTB 091900Z 01003KT 9999 SCT050 SCT100 27/11 Q1014 NOSIG RMK 13CLRD80

2010/08/09 19:00
UGSB 091900Z 10004KT P6000 BKN070 28/24 Q1006 NOSIG

2010/08/09 19:00
UBBG 091900Z 31005KT 9999 SCT100 25/12 Q1010 NOSIG RMK R30R/CLRD70 

2010/08/09 19:00
VHHH 091900Z 08005KT 040V100 9999 FEW012 SCT025 29/26 Q1004 NOSIG

2010/08/09 18:49
MMCZ 091849Z 15007KT 8SM SCT015TCU BKN250 30/24 A2993 RMK 8/206

2010/08/09 18:48
MMMD 091848Z 11006KT 7SM BKN025 BKN300 34/25 A2988 RMK 8/202

2010/08/09 18:45
MMUN 091845Z 14008KT 8SM SCT020TCU BKN250 33/22 A2992 RMK 8/202 DSNT RA W CB 4TH QUAD AC

2010/08/09 19:00
MZBZ 091900Z 17003KT 9999 SCT028 BKN280 32/26 A2987 Q1011 NOSIG

2010/08/09 19:00
GMAD 091900Z 27007KT 6000 NSC 25/19 Q1012 NOSIG

2010/08/09 19:00
GMFF 091900Z 16011KT 8000 SCT033 FEW040CB BKN100 36/09 Q1015 NOSIG

2010/08/09 19:00
GMME 091900Z 30004KT 8000 NSC 28/22 Q1012 NOSIG

2010/08/09 19:00
GMMN 091900Z 01008KT CAVOK 34/16 Q1013 NOSIG

2010/08/09 19:00
GMMX 091900Z 22014KT 6000 SCT033 FEW040CB BKN100 28/19 Q1017 RESH

2010/08/09 19:00
GMTT 091900Z 06022KT 9999 FEW016 SCT200 27/18 Q1012 NOSIG

2010/08/09 19:00
GMFF 091900Z 16011KT 8000 SCT033 FEW040CB BKN100 36/09 Q1015 NOSIG

2010/08/09 19:00
GMFM 091900Z 31007KT 8000 FEW026 37/13 Q1015

2010/08/09 19:00
GMFO 091900Z 35012KT 9999 FEW033 FEW040CB SCT230 30/19 Q1016 NOSIG

2010/08/09 19:00
GMMH 091900Z 30014KT CAVOK 22/18 Q1012

2010/08/09 19:00
GMML 091900Z 30010KT CAVOK 26/19 Q1012

2010/08/09 19:00
GMMW 091900Z 02004KT 8000 FEW016 SCT100 26/21 Q1014

2010/08/09 19:00
GMMZ 091900Z 25021KT CAVOK 30/08 Q1021

2010/08/09 19:00
GMTA 091900Z 02004KT CAVOK 24/22 Q1015

2010/08/09 19:00
SCAR 091900Z 22011KT CAVOK 16/08 Q1015

2010/08/09 19:00
SCDA 091900Z 24007KT 8000 OVC020 15/09 Q1016

2010/08/09 19:00
SCFA 091900Z 18009KT 9999 FEW020 SCT200 16/08 Q1016 NOSIG

2010/08/09 19:00
SCCF 091900Z 24019KT CAVOK 22/M12 Q1024

2010/08/09 19:00
SCAT 091900Z 27003KT CAVOK 16/07 Q1017

2010/08/09 19:00
SCIP 091900Z 02011KT 9999 SCT013 SCT025 19/15 Q1023 NOSIG

2010/08/09 19:00
SCSE 091900Z 27007KT 9999 BKN018 13/09 Q1018 NEFO PLAYA 2400FT

2010/08/09 19:00
SCEL 091900Z 14007KT CAVOK 21/01 Q1015 NOSIG

2010/08/09 19:00
SCIE 091900Z 21009KT CAVOK 15/02 Q1017

2010/08/09 19:00
SCTC 091900Z 22007KT 170V260 CAVOK 14/05 Q1019

2010/08/09 19:00
SCJO 091900Z 17014KT 9999 SCT020 14/07 Q1023

2010/08/09 19:00
SCTE 091900Z 23004KT 9999 SCT015 BKN040 11/10 Q1024 NOSIG

2010/08/09 19:00
SCBA 091900Z 31027G38KT 9999 SCT030 SCT070 04/M01 Q1018

2010/08/09 19:00
SCCI 091900Z 26030G44KT 8000 SCT013 03/M01 Q1006 NOSIG RMK -SHSN

2010/08/09 19:00
SCNT 091900Z 31018G28KT 9999 SCT015 BKN200 08/M00 Q1011

2010/08/09 19:00
DIAP 091900Z 25005KT 7000 FEW011 BKN080 25/22 Q1013 NOSIG

2010/08/09 19:00
DXXX 091900Z VRB03KT 8000 FEW010 BKN086 26/23 Q1013 NOSIG

2010/08/09 18:54
KNKT 091854Z COR 14005KT 10SM SCT030 BKN150 29/23 A3003 RMK AO2 SLP164 T02940233

2010/08/09 18:56
KNUW 091856Z 23003KT 6SM -RA BR FEW006 SCT012 OVC018 14/12 A2999 RMK AO2 RAB37 SLP160 PCPN VRY LGT P0000 T01360117 $

2010/08/09 18:55
KNYL 091855Z 21006KT 10SM CLR 37/02 A2979 RMK AO2 SLP085 T03720017

2010/08/09 19:00
TTPP 091900Z ///11KT 7000 -TSRA SCT008CB BKN260 24/23 Q1012 TEMPO TSRA

2010/08/09 18:56
KNQI 091856Z COR 15010G15KT 10SM BKN039 BKN060 34/25 A2990 RMK AO2 SLP122 T03440250

2010/08/09 19:00
KNEL 091900Z AUTO 21003KT 8SM BKN070 33/14 A2997 RMK AO2 SLP148 T03280144 $

2010/08/09 18:54
KNFG 091854Z COR 24009KT 7SM FEW017 22/13 A2992 RMK AO2 SLP132 T02220133

2010/08/09 18:59
KNGU 091859Z 07010KT 10SM FEW042 SCT250 32/21 A3004 RMK AO2 SLP171 T03170206

2010/08/09 18:53
KNIP 091853Z COR 05013G22KT 3SM RA FEW020 BKN035CB BKN250 28/25 A2996 RMK AO2 RAB46 SLP139 CB OHD MOV SW T2 SET P0000 T02780250

2010/08/09 18:54
KNKT 091854Z COR 14005KT 10SM SCT030 BKN150 29/23 A3003 RMK AO2 SLP164 T02940233

2010/08/09 18:56
KNMM 091856Z 19004KT 10SM SCT040 34/24 A2997 RMK AO2 SLP154 T03390239 $

2010/08/09 18:56
KNSI 091856Z COR 17005KT 7SM FEW009 BKN011 16/13 A2995 RMK AO2 SLP138 T01610128 TSNO

2010/08/09 18:56
KNUW 091856Z 23003KT 6SM -RA BR FEW006 SCT012 OVC018 14/12 A2999 RMK AO2 RAB37 SLP160 PCPN VRY LGT P0000 T01360117 $

2010/08/09 18:55
KNYL 091855Z 21006KT 10SM CLR 37/02 A2979 RMK AO2 SLP085 T03720017

2010/08/09 18:52
KNZY 091852Z 26008KT 10SM FEW019 23/13 A2993 RMK AO2 SLP134 T02330128 $

2010/08/09 18:56
KHLR 091856Z AUTO 13006G14KT 10SM CLR 37/20 A2995 RMK AO2 SLP130 T03670200 $

2010/08/09 18:57
KNJM 091857Z AUTO 16006KT 10SM SCT015 29/25 A3003 RMK AO2 SLP172 T02890250

2010/08/09 18:56
KNRS 091856Z 24008KT 10SM FEW017 20/13 A2995 RMK AO2 SLP139 T02000128

2010/08/09 18:55
KSVN 091855Z 09010G17KT 12SM SCT050 BKN250 34/21 A2998 RMK AO2A SLP155

2010/08/09 18:59
KNGU 091859Z 07010KT 10SM FEW042 SCT250 32/21 A3004 RMK AO2 SLP171 T03170206

2010/08/09 18:53
KNIP 091853Z COR 05013G22KT 3SM RA FEW020 BKN035CB BKN250 28/25 A2996 RMK AO2 RAB46 SLP139 CB OHD MOV SW T2 SET P0000 T02780250

2010/08/09 18:57
KNJM 091857Z AUTO 16006KT 10SM SCT015 29/25 A3003 RMK AO2 SLP172 T02890250

2010/08/09 18:54
KNKT 091854Z COR 14005KT 10SM SCT030 BKN150 29/23 A3003 RMK AO2 SLP164 T02940233

2010/08/09 18:56
KNPA 091856Z 13009KT 9SM FEW035 SCT160 SCT280 33/26 A2996 RMK AO2 SLP147 T03280256

2010/08/09 18:56
KNTU 091856Z 11008KT 10SM FEW035 SCT200 29/22 A3003 RMK AO2 SLP171 T02890222 $

2010/08/09 19:00
TTPP 091900Z ///11KT 7000 -TSRA SCT008CB BKN260 24/23 Q1012 TEMPO TSRA

2010/08/09 18:55
KDPG 091855Z 26006KT 50SM FEW090CB SCT100 BKN130 29/03 A3009 RMK VCTS CB E AND W MOV NE SLP138 T02880031

2010/08/09 19:02
PAKT 091902Z 14005KT 10SM SCT010 OVC019 14/12 A3002

2010/08/09 19:03
KMSY 091903Z 01007KT 10SM TS SCT037CB SCT060 BKN150 BKN250 33/24 A2995 RMK AO2 TSB02 OCNL LTGICCG NE-SE TS NE-SE MOV SW CB DSNT N-NE AND SE-S AND NW

2010/08/09 19:03
KNEW 091903Z 11011G27KT 3SM TSRA BR FEW017 BKN026 OVC060 26/25 A2998 RMK AO2 PK WND 11027/1854 OCNL LTGCG E-SW TS E-SW MOV SW P0005

2010/08/09 19:02
KFHR 091902Z AUTO 00000KT 10SM BKN022 BKN042 OVC080 15/12 A2999 RMK AO2

2010/08/09 19:02
PAKT 091902Z 14005KT 10SM SCT010 OVC019 14/12 A3002 RMK AO2

2010/08/09 19:03
PASI 091903Z 22003KT 10SM FEW007 OVC028 14/11 A2998 RMK AO2 MTNS OBSCD ALQDS

2010/08/09 19:03
KMSY 091903Z 01007KT 10SM TS SCT037CB SCT060 BKN150 BKN250 33/24 A2995 RMK AO2 TSB02 OCNL LTGICCG NE-SE TS NE-SE MOV SW CB DSNT N-NE AND SE-S AND NW

2010/08/09 19:00
FCBB 091900Z 30003KT 8000 BKN023 23/19 Q1015 NOSIG

2010/08/09 19:00
FCPP 091900Z 18004KT 6000 SCT010 OVC023 22/20 Q1015 NOSIG

2010/08/09 19:00
FGBT 091900Z 18004KT 8000 BKN012 OVC120 25/23 Q1013 NOSIG

2010/08/09 19:00
FGSL 091900Z 26007KT 9999 SCT010 BKN100 24/24 Q1013 NOSIG

2010/08/09 19:00
FKKD 091900Z 28004KT 230V360 9999 TS BKN010 FEW013CB BKN100 25/24 Q1013 NOSIG

2010/08/09 19:00
FKKR 091900Z 32008KT 9999 BKN020 SCT120 28/22 Q1011 NOSIG

2010/08/09 19:00
FOOL 091900Z 17004KT 140V200 8000 SCT010 BKN033 25/23 Q1014 NOSIG

2010/08/09 19:00
FPST 091900Z 12006KT 9999 FEW020 BKN040 24/21 Q1013 NOSIG

2010/08/09 19:00
FZAA 091900Z 25006KT 7000 FEW018 OVC100 23/18 Q1015 NOSIG

2010/08/09 18:57
PTYA 091857Z VRB05KT 12SM SCT016 SCT030 BKN130 OVC300 26/23 A2982 RMK SLP100 T02590226

2010/08/09 18:55
PTTP 091855Z 09010KT 14SM -SHRA BKN017TCU OVC120 25/23 A2989 RMK TCU ALQDS SLP121 T02500233

2010/08/09 19:00
SAEZ 091900Z 29006KT 240V330 CAVOK 18/06 Q1024

2010/08/09 19:00
FCBB 091900Z 30003KT 8000 BKN023 23/19 Q1015 NOSIG

2010/08/09 19:00
FCPP 091900Z 18004KT 6000 SCT010 OVC023 22/20 Q1015 NOSIG

2010/08/09 19:00
FKKD 091900Z 28004KT 230V360 9999 TS BKN010 FEW013CB BKN100 25/24 Q1013 NOSIG

2010/08/09 19:00
FKYS 091900Z 23003KT 9999 BKN013 22/19 Q1017 NOSIG

2010/08/09 19:00
FKKR 091900Z 32008KT 9999 BKN020 SCT120 28/22 Q1011 NOSIG

2010/08/09 19:00
FEFF 091900Z 11002KT 4000 FU NSC 25/22 Q1012 TEMPO 2000

2010/08/09 19:00
FOOL 091900Z 17004KT 140V200 8000 SCT010 BKN033 25/23 Q1014 NOSIG

2010/08/09 19:00
FGSL 091900Z 26007KT 9999 SCT010 BKN100 24/24 Q1013 NOSIG

2010/08/09 19:00
FGBT 091900Z 18004KT 8000 BKN012 OVC120 25/23 Q1013 NOSIG

2010/08/09 19:00
FZAA 091900Z 25006KT 7000 FEW018 OVC100 23/18 Q1015 NOSIG

2010/08/09 19:00
FPST 091900Z 12006KT 9999 FEW020 BKN040 24/21 Q1013 NOSIG

2010/08/09 19:00
KAFF 091900Z 27010KT 10SM TS FEW019 SCT080 SCT110 BKN200 21/16 A3021 RMK AO2A SLP134

2010/08/09 19:02
PASY 091902Z 31005KT 3SM BR BKN001 OVC025 10/09 A2984 RMK AO2 PNO $

2010/08/09 19:00
TQPF 091900Z 10011KT 9999 SCT016 BKN080 27/// Q1014 JP 

2010/08/09 18:50
EGEC 091850Z AUTO 22004KT 9999NDV // NSC 14/11 Q1007

2010/08/09 19:02
KHTL 091902Z AUTO 01005KT 8SM -RA BKN036 OVC060 24/22 A2993 RMK AO2 TSE1856 P0001

2010/08/09 19:02
PABE 091902Z 17016G26KT 7SM -RA SCT007 BKN011 OVC016 10/09 A2936 RMK AO2 PK WND 17026/1858 P0001

2010/08/09 19:03
KBVE 091903Z AUTO 22006KT SCT021 SCT110 25/23 A2998 RMK AO2 RAE1859 P0001 TSNO $

2010/08/09 19:00
SBFI 091900Z 24006KT CAVOK 20/12 Q1018

2010/08/09 19:00
UKBB 091900Z 32002MPS CAVOK 24/18 Q1014 86190095 36CLRD95 NOSIG

2010/08/09 19:00
UKHH 091900Z 02002MPS 4100 DU SKC 31/11 Q1013 080///65 NOSIG

2010/08/09 19:00
UKOO 091900Z 01004MPS CAVOK 29/16 Q1012 34090070 NOSIG

2010/08/09 19:00
UKDE 091900Z 05004MPS CAVOK 32/10 Q1011 02CLRD70 NOSIG

2010/08/09 19:00
UKDD 091900Z 04003MPS CAVOK 27/12 Q1012 08090070 NOSIG

2010/08/09 19:00
UKFF 091900Z 09003MPS CAVOK 26/14 Q1010 01010070 NOSIG

2010/08/09 19:00
UKLL 091900Z 29005G10MPS 220V360 0550 R31/P2000N VCTS +SHRA BKN005 SCT020CB 22/17 Q1016 31220355 TEMPO -TSRA

2010/08/09 19:00
UKCC 091900Z 12003MPS CAVOK 29/10 Q1012 08090070 NOSIG

2010/08/09 19:00
UKDR 091900Z 06003MPS CAVOK 28/13 Q1012 1809//70 NOSIG

2010/08/09 19:00
YBCS 091900Z 12005KT 9999 VCSH FEW005 BKN017 22/21 Q1014

2010/08/09 19:00
LKKV 091900Z 00000KT CAVOK 16/13 Q1018

2010/08/09 19:00
LKMT 091900Z 00000KT CAVOK 17/15 Q1016 NOSIG

2010/08/09 19:00
LKPR 091900Z 30003KT CAVOK 17/13 Q1017 NOSIG

2010/08/09 19:00
LKTB 091900Z 02005KT 9999 FEW024 19/14 Q1017 NOSIG

2010/08/09 19:00
FLLS 091900Z 14003KT CAVOK 16/09 Q1023

2010/08/09 19:00
FQBR 091900Z /////KT CAVOK 22/21 Q1017

2010/08/09 19:00
FQMA 091900Z 20013KT 9999 BKN020 19/13 Q1021 NOSIG

2010/08/09 19:00
OEDF 091900Z 18006KT 8000 SKC 34/21 Q0997 NOSIG

2010/08/09 19:00
OEDR 091900Z 13004KT CAVOK 34/28 Q0996 NOSIG

2010/08/09 19:00
OEJN 091900Z 36004KT CAVOK 33/28 Q1001 NOSIG

2010/08/09 19:00
OEMA 091900Z 27008KT 9000 SCT045 SCT100 41/04 Q1005 NOSIG

2010/08/09 19:00
OERK 091900Z 06008KT 8000 SKC 37/04 Q1004 NOSIG

2010/08/09 19:00
OERY 091900Z 08010KT CAVOK 39/05 Q1006 NOSIG

2010/08/09 19:00
OYSN 091900Z 35006KT 9999 BKN030 19/11 Q1022

2010/08/09 18:45
PAHV 091845Z 16015G22KT 35SM SCT040 14/06 A2963 RMK EPO

2010/08/09 18:55
KVVG 091855Z AUTO 36006KT RA 27/26 A2991 RMK AO2

2010/08/09 19:00
KW45 091900Z AUTO 20005KT 10SM CLR 34/19 A3001 RMK AO2 T03400185

2010/08/09 19:00
K3I2 091900Z AUTO 00000KT 10SM CLR 33/19 A3002 RMK AO2

2010/08/09 19:00
KUXL 091900Z AUTO 36004KT 10SM BKN048 35/24 A2996 RMK AO2

2010/08/09 19:00
KCTJ 091900Z AUTO 13004KT 10SM SCT050 SCT095 34/21 A3004 RMK AO2 T03440212

2010/08/09 18:58
KDNN 091858Z AUTO 14005KT 10SM SCT055 33/21 A3000 RMK AO2

2010/08/09 19:00
KDRI 091900Z AUTO 00000KT 10SM OVC050 33/24 A2997 RMK AO2

2010/08/09 19:00
KI16 091900Z AUTO 34003KT 10SM CLR 32/16 A3001 RMK AO2

2010/08/09 18:55
KLGC 091855Z AUTO 07005KT 10SM FEW050 36/19 A2999 RMK AO1

2010/08/09 19:00
KLKU 091900Z AUTO 17005KT 10SM CLR 33/21 A3000 RMK AO2

2010/08/09 19:00
KLNP 091900Z AUTO 04003KT 10SM BKN039 BKN050 29/20 A3013 RMK AO1

2010/08/09 19:00
KLOM 091900Z AUTO 22006KT 180V250 10SM CLR 33/19 A2998 RMK AO1 T03300187

2010/08/09 19:00
KMDQ 091900Z AUTO 14005KT 10SM CLR 34/24 A2999 RMK AO2 T03410237

2010/08/09 19:00
KMKJ 091900Z AUTO 30006KT 10SM SCT048 SCT050 30/11 A3018 RMK AO1

2010/08/09 19:00
KMQS 091900Z AUTO 21006KT 10SM CLR 32/22 A3003 RMK AO2

2010/08/09 19:00
KMTV 091900Z AUTO 20004KT 10SM CLR 34/21 A3005 RMK AO2

2010/08/09 19:00
KOBE 091900Z AUTO 11004KT 10SM RA SCT021 BKN050 OVC070 26/24 A2992 RMK AO2 LTG DSNT S AND NW

2010/08/09 19:00
KOKV 091900Z AUTO 15010KT 140V200 10SM SCT070 36/18 A2999 RMK AO2 T03560178

2010/08/09 19:00
KOMH 091900Z AUTO 16007KT 10SM SCT050 BKN065 34/21 A3001 RMK AO2 T03360214

2010/08/09 19:00
KOPN 091900Z AUTO 12007KT 10SM SCT060 35/23 A3002 RMK AO1

2010/08/09 19:00
KPCM 091900Z AUTO 08005KT 10SM SCT030 SCT080 33/24 A2991 RMK AO2

2010/08/09 19:00
KPSK 091900Z AUTO 27005KT 10SM CLR 34/12 A3011 RMK AO2

2010/08/09 19:00
KRCZ 091900Z AUTO 09004KT 10SM CLR 34/21 A3001 RMK AO2 T03370209

2010/08/09 18:53
KRIL 091853Z AUTO 00000KT 9SM CLR 21/11 A3020 RMK AO2 RAE05 SLP166 P0000 T02110106 TSNO

2010/08/09 19:00
KRMN 091900Z AUTO 24005KT 10SM SCT050 33/23 A3004 RMK AO2

2010/08/09 19:00
KSFQ 091900Z AUTO 08005KT 10SM SCT050 32/22 A3002 RMK AO2

2010/08/09 19:00
KSHD 091900Z AUTO 18005KT 10SM CLR 34/20 A3003 RMK AO2

2010/08/09 19:00
KSVH 091900Z AUTO 17004KT 10SM CLR 32/21 A3003 RMK AO2 T03190212

2010/08/09 19:00
KTBR 091900Z AUTO 08006KT 10SM SCT055 35/19 A2997 RMK AO2 LTG DSNT SE T03460191

2010/08/09 19:00
KTMA 091900Z AUTO 08006KT 10SM SCT060 SCT065 33/20 A2997 RMK AO2 T03280199

2010/08/09 19:00
KTVI 091900Z AUTO 08011G15KT 10SM CLR 35/20 A2996 RMK AO2 T03530195

2010/08/09 18:56
KVDF 091856Z AUTO 00000KT 10SM SCT025 BKN038 BKN060 32/25 A2989 RMK AO2

2010/08/09 19:00
KVDI 091900Z AUTO 08010G16KT 035V105 10SM SCT055 SCT075 35/21 A2998 RMK AO2 LTG DSNT SE

2010/08/09 19:00
KVJI 091900Z AUTO 23004KT 10SM SCT046 33/20 A3010 RMK AO2 TSNO

2010/08/09 18:55
KOSC 091855Z AUTO 09004KT 10SM SCT012 24/21 A2990 RMK AO2

2010/08/09 18:50
KEFD 091850Z 07006KT 10SM BKN030 35/25 A2997

2010/08/09 19:00
TTPP 091900Z ///11KT 7000 -TSRA SCT008CB BKN260 24/23 Q1012 TEMPO TSRA

2010/08/09 19:00
SAVC 091900Z 27007KT CAVOK 15/01 Q1016

2010/08/09 19:00
SBCB 091900Z 25018KT 9999 SCT025 SCT080 24/17 Q1019

2010/08/09 19:00
FBSK 091900Z 09008KT CAVOK 13/07 Q1026 NOSIG

2010/08/09 19:00
FEFF 091900Z 11002KT 4000 FU NSC 25/22 Q1012 TEMPO 2000

2010/08/09 19:00
SAME 091900Z 14005KT CAVOK 16/M04 Q1020

2010/08/09 19:00
YSCB 091900Z 10010KT 6000 -RA FEW035 OVC070 08/07 Q1018

2010/08/09 19:00
SBRP 091900Z 21004KT CAVOK 3209 Q1016

2010/08/09 18:45
LHDC 091845Z 00000KT CAVOK 20/16 Q1017

2010/08/09 18:45
LHKE 091845Z 30002MPS CAVOK 21/15 Q1016 NOSIG RMK BLU

2010/08/09 18:45
LHPA 091845Z 23001MPS CAVOK 17/15 Q1018 NOSIG RMK BLU

2010/08/09 18:45
LHPP 091845Z 10003KT CAVOK 19/16 Q1018

2010/08/09 18:45
LHPR 091845Z 00000KT CAVOK 20/17 Q1018

2010/08/09 18:45
LHSN 091845Z 28001MPS CAVOK 21/18 Q1016 NOSIG RMK BLU

2010/08/09 18:45
LHUD 091845Z 31003KT CAVOK 19/18 Q1017

2010/08/09 19:00
KJNX 091900Z AUTO 12003KT 10SM SCT045 SCT050 SCT070 31/21 A3002 RMK AO2

2010/08/09 19:00
KAYS 091900Z AUTO 06007KT 10SM SCT050 34/23 A2995 RMK AO1 LTG DSNT E

2010/08/09 18:58
KDBN 091858Z AUTO 08009KT 10SM CLR 34/22 A2997 RMK AO1

2010/08/09 19:00
HECA 091900Z 35012KT CAVOK 29/22 Q1008 NOSIG

2010/08/09 18:50
HLLB 091850Z 33015KT 9999 SCT020 25/19 Q1013

2010/08/09 18:55
HLLT 091855Z HLLT 06007KT CAVOK 25/18 Q1015

2010/08/09 19:01
KLWB 091901Z AUTO 00000KT 10SM CLR 30/13 A3012 RMK AO2

2010/08/09 19:01
KMFV 091901Z AUTO 16004KT 10SM CLR 31/23 A3004 RMK AO2

2010/08/09 19:01
KMLJ 091901Z AUTO 04003KT 10SM SCT050 34/22 A3000 RMK AO2

2010/08/09 19:01
KMQI 091901Z AUTO 08005KT 10SM SCT019 SCT085 SCT110 29/24 A3003 RMK AO2

2010/08/09 19:01
KMRN 091901Z AUTO 00000KT 10SM SCT065 33/18 A3009 RMK AO2

2010/08/09 19:02
KMWK 091902Z AUTO 00000KT 10SM SCT040 SCT048 SCT060 32/20 A3005 RMK AO2

2010/08/09 19:01
KPTB 091901Z AUTO 13006KT 10SM CLR 34/ A3000 RMK AO2

2010/08/09 19:01
KTDF 091901Z AUTO 20003KT 32/20 A3004 RMK AO1

2010/08/09 19:01
KTNB 091901Z AUTO 08003KT 10SM BKN045 BKN060 29/17 A3017 RMK AO2

2010/08/09 19:04
KTTA 091904Z AUTO 00000KT 10SM CLR 33/20 A3002 RMK AO2

2010/08/09 19:02
KBGE 091902Z AUTO 06014G18KT 10SM CLR 36/16 A2996 RMK AO2

2010/08/09 19:15
KFDW 091915Z AUTO 09006KT 10SM CLR 35/16 A3002 RMK AO1

2010/08/09 19:02
KGEV 091902Z AUTO 27007KT 10SM SCT043 BKN050 BKN060 29/15 A3017 RMK AO2

2010/08/09 19:01
KHQU 091901Z AUTO 11005KT 10SM SCT047 SCT065 33/19 A3004 RMK AO1

2010/08/09 19:02
KCWV 091902Z AUTO 11011G15KT 10SM CLR 36/23 A2997 RMK AO2 LTG DSNT SE T03550229

2010/08/09 19:01
KHDC 091901Z AUTO 02014G26KT 7SM TS SCT019 SCT040 OVC060 32/27 A2998 RMK AO2 LTG DSNT ALQS

2010/08/09 19:01
KHRJ 091901Z AUTO 08005KT 10SM CLR 33/19 A3002 RMK AO2

2010/08/09 19:01
KIDI 091901Z AUTO 00000KT 10SM CLR 29/16 A3004 RMK AO2

2010/08/09 19:02
KRHP 091902Z AUTO 00000KT CLR 32/21 A3007 RMK AO2 PWINO

2010/08/09 19:00
KJES 091900Z AUTO 05011KT 10SM SCT049 35/25 A2996 RMK AO2 LTG DSNT E T03500252

2010/08/09 19:00
KJGG 091900Z AUTO 15009KT 10SM CLR 34/21 A3002 RMK AO1

2010/08/09 19:00
KJKA 091900Z AUTO 11010G16KT 10SM SCT027 SCT033 34/27 A2997 RMK AO2 LTG DSNT SW T03440268

2010/08/09 18:59
KJYL 091859Z AUTO 06010G14KT 10SM CLR 34/23 A2999 RMK AO2 LTG DSNT S

2010/08/09 19:00
KJYO 091900Z AUTO 18009KT 10SM CLR 36/18 A2999 RMK AO2

2010/08/09 19:00
KLDJ 091900Z AUTO 23003KT 7SM SCT065 BKN095 34/17 A2995 RMK AO2 T03360166

2010/08/09 19:00
KLHZ 091900Z AUTO 15004KT 10SM CLR 33/20 A3004 RMK AO2 T03300201

2010/08/09 19:00
KMGR 091900Z AUTO 10010KT 047V117 10SM SCT050 SCT075 35/19 A2997 RMK AO2

2010/08/09 19:00
KPGV 091900Z AUTO 15006KT 10SM SCT048 32/19 A3003 RMK AO2 LTG DSNT S

2010/08/09 19:00
KRUQ 091900Z AUTO 00000KT 10SM CLR 32/19 A3003 RMK AO2

2010/08/09 19:00
KSIF 091900Z AUTO 00000KT 7SM OVC050 32/22 A3002 RMK AO2 T03160221

2010/08/09 19:00
KSUT 091900Z AUTO 13005KT 10SM SCT025 SCT060 30/22 A3002 RMK AO2

2010/08/09 19:00
KTPF 091900Z AUTO 00000KT 10SM SCT030 SCT038 BKN065 31/26 A2988 RMK AO2

2010/08/09 19:00
KUNV 091900Z AUTO 26003KT 10SM CLR 31/13 A3002 RMK AO2 T03140131

2010/08/09 18:58
KVUJ 091858Z AUTO 00000KT 10SM SCT050 SCT065 BKN100 33/21 A3002 RMK AO2

2010/08/09 18:59
KW99 091859Z AUTO 12004KT 10SM CLR 36/12 A3000 RMK AO2

2010/08/09 18:58
K0R3 091858Z AUTO 00000KT CLR 35/25 A2995 RMK AO2 LTG DSNT NE PWINO

2010/08/09 19:00
K1A5 091900Z AUTO 35003KT 10SM CLR 32/17 A3008 RMK AO2 T03200174

2010/08/09 19:00
K3J7 091900Z AUTO 07003KT 10SM SCT047 SCT095 34/21 A2998 RMK AO2 T03380213

2010/08/09 18:58
K8A0 091858Z AUTO 24004KT 10SM SCT055 SCT075 BKN100 36/18 A3000 RMK AO2

2010/08/09 18:58
KACP 091858Z AUTO 00000KT 10SM SCT001 SCT050 SCT070 36/23 A2994 RMK AO2 LTG DSNT E

2010/08/09 19:00
KAFP 091900Z AUTO 07003KT 10SM CLR 34/20 A3001 RMK AO2 T03390196

2010/08/09 19:00
KALX 091900Z AUTO 17003KT 10SM CLR 34/21 A3000 RMK AO1 LTG DSNT SW

2010/08/09 18:53
KBPT 091853Z COR 18004KT 10SM BKN035 35/23 A2995 RMK AO2 SLP141 T03500233

2010/08/09 19:00
KBQK 091900Z AUTO 07013G17KT 10SM SCT027 SCT035 SCT041 33/25 A2997 RMK AO1 LTG DSNT SE T03270252 PNO

2010/08/09 19:00
KCCO 091900Z AUTO 00000KT 10SM CLR 33/22 A3003 RMK AO1

2010/08/09 19:00
KCDH 091900Z AUTO 24003KT 10SM CLR 37/22 A2992 RMK AO2

2010/08/09 18:59
KCJR 091859Z AUTO 23008KT 171V241 10SM SCT050 SCT060 34/22 A3000 RMK AO2

2010/08/09 18:55
KCLS 091855Z AUTO 25004KT 10SM OVC020 18/12 A3001 RMK AO2

2010/08/09 19:00
KCPC 091900Z AUTO 09006KT 10SM CLR 34/19 A3000 RMK AO2 T03390190

2010/08/09 18:55
KEMV 091855Z AUTO 15006KT 10SM CLR 32/20 A3002 RMK AO2

2010/08/09 19:00
KEYF 091900Z AUTO 07005KT 10SM CLR 34/19 A3001 RMK AO2 T03370186

2010/08/09 19:00
KF24 091900Z AUTO 15004KT 10SM CLR 37/20 A2997 RMK AO2 T03690203

2010/08/09 19:00
KFFA 091900Z AUTO 11005KT 10SM CLR 29/23 A3003 RMK AO2 T02890230

2010/08/09 19:00
KFKN 091900Z AUTO 14004KT 10SM BKN055 35/19 A3000 RMK AO1

2010/08/09 18:59
KFVX 091859Z AUTO 18006KT 10SM CLR 34/25 A3000 RMK AO2

2010/08/09 19:00
KGAO 091900Z AUTO 06005KT 10SM VCTS CLR 32/26 A2997 RMK AO2 LTG DSNT ALQS

2010/08/09 18:55
KGHG 091855Z AUTO 19008G14KT 10SM CLR 32/20 A2993 RMK AO2

2010/08/09 19:00
KGWW 091900Z AUTO 19003KT 10SM CLR 32/21 A3002 RMK AO2 T03180210

2010/08/09 19:00
KHNZ 091900Z AUTO 18005KT 10SM BKN046 OVC070 31/19 A3003 RMK AO2 T03100194

2010/08/09 18:58
KHOE 091858Z AUTO 09006KT 10SM CLR 34/22 A2995 RMK AO2 T03420217

2010/08/09 19:00
KHSP 091900Z AUTO 26/19 A3024 RMK AO2 PWINO TSNO

2010/08/09 19:00
KHWY 091900Z AUTO 19010G14KT 10SM SCT050 SCT060 SCT080 35/19 A2999 RMK AO2

2010/08/09 19:00
KIER 091900Z AUTO 22003KT 10SM CLR 37/24 A2994 RMK AO2 PWINO

2010/08/09 19:00
KIPJ 091900Z AUTO 00000KT 10SM SCT050 35/19 A3003 RMK AO2 T03480188

2010/08/09 19:00
KIXA 091900Z AUTO 00000KT 10SM SCT050 33/19 A3000 RMK AO2 T03280186

2010/08/09 19:00
PAAP 091900Z 00000KT 3/4SM -DZ BR BKN000 OVC001 13/12 A3001 RMK -DZ BR BKN000 NO SPECI

2010/08/09 18:56
PANW 091856Z AUTO 18008KT 1 1/4SM BR BKN003 BKN008 OVC080 10/09 A2956 RMK AO2 PWINO TSNO T01000094 CIG 001V006 SLP988 $

2010/08/09 19:00
HAAB 091900Z 21006KT 9/9 FEW023 CB BKN025 17/12 Q1024

2010/08/09 19:00
HRYR 091900Z 11003KT 9999 FEW030 25/11 Q1020 NOSIG

2010/08/09 19:00
GCFV 091900Z 15003KT 8000 FEW025 24/21 Q1012

2010/08/09 19:00
GCLA 091900Z 34005KT 310V010 9000 FEW015 BKN020 23/18 Q1014

2010/08/09 19:00
GCLP 091900Z 03008KT 9999 SCT024 24/19 Q1013 NOSIG

2010/08/09 19:00
GCRR 091900Z 08009KT CAVOK 24/22 Q1011

2010/08/09 19:00
GCTS 091900Z 10005KT 070V130 9999 FEW020 BKN026 24/18 Q1013 NOSIG

2010/08/09 19:00
GCXO 091900Z 33005KT 290V030 8000 FEW002 BKN005 18/17 Q1016 NOSIG

2010/08/09 19:00
GMFF 091900Z 16011KT 8000 SCT033 FEW040CB BKN100 36/09 Q1015 NOSIG

2010/08/09 19:00
GMFO 091900Z 35012KT 9999 FEW033 FEW040CB SCT230 30/19 Q1016 NOSIG

2010/08/09 19:00
GMME 091900Z 30004KT 8000 NSC 28/22 Q1012 NOSIG

2010/08/09 19:00
GMMN 091900Z 01008KT CAVOK 34/16 Q1013 NOSIG

2010/08/09 19:00
GMMX 091900Z 22014KT 6000 SCT033 FEW040CB BKN100 28/19 Q1017 RESH

2010/08/09 19:00
GMTA 091900Z 02004KT CAVOK 24/22 Q1015

2010/08/09 19:00
GMTT 091900Z 06022KT 9999 FEW016 SCT200 27/18 Q1012 NOSIG

2010/08/09 18:53
PABR 091853Z 07020G26KT 5SM -DZ BR OVC003 02/02 A2988

2010/08/09 18:53
PACD 091853Z 00000KT 10SM FEW015 BKN032 BKN065 BKN180 13/09 A2952

2010/08/09 18:55
PAED 091855Z AUTO 34006KT 10SM OVC070 14/11 A2962

2010/08/09 18:55
PAEI 091855Z AUTO 00000KT 10SM OVC070 15/10 A2958

2010/08/09 18:53
PAEN 091853Z 00000KT 10SM OVC075 16/12 A2963

2010/08/09 18:53
PAFA 091853Z 11005KT 10SM BKN075 BKN100 BKN120 14/11 A2957

2010/08/09 18:56
PAFS 091856Z AUTO 02006KT 10SM OVC055 12/10 A2952

2010/08/09 18:53
PAJN 091853Z 09008KT 10SM FEW014 BKN034 OVC050 14/11 A2999

2010/08/09 18:54
PAKN 091854Z 19009KT 10SM OVC025 12/09 A2954

2010/08/09 18:53
PANC 091853Z 36006KT 10SM OVC060 13/12 A2963

2010/08/09 18:53
PAOM 091853Z 13010KT 10SM FEW013 SCT019 BKN039 12/09 A2933

2010/08/09 18:53
PAOR 091853Z 00000KT 10SM FEW075 SCT095 BKN150 16/10 A2967

2010/08/09 18:53
PAOT 091853Z 10018G24KT 10SM FEW040 BKN070 BKN090 16/11 A2943

2010/08/09 18:56
PARY 091856Z AUTO 08008KT 8SM SCT006 BKN012 OVC050 12/11 A2951

2010/08/09 18:53
PASC 091853Z 06022KT 3SM BR OVC003 04/03 A2974

2010/08/09 18:53
PASI 091853Z 24003KT 10SM BKN007 OVC028 14/12 A2998

2010/08/09 18:56
PATQ 091856Z AUTO 08018G24KT 10SM OVC009 02/00 A2979

2010/08/09 18:56
PAVD 091856Z 00000KT 1SM BKN005 OVC020 12/09 A2982

2010/08/09 18:56
PAWG 091856Z 33003KT 10SM FEW005 BKN040 OVC060 13/11 A3001

2010/08/09 19:00
GQNN 091900Z 27009KT CAVOK 28/21 Q1010 NOSIG

2010/08/09 19:00
GBYD 091900Z 27007KT 9999 SCT011 SCT120 28/24 Q1012

2010/08/09 19:00
GOOY 091900Z 29004KT 250V320 9999 SCT013 28/22 Q1011 NOSIG

2010/08/09 19:00
OJAI 091900Z 31010KT CAVOK 25/19 Q1009 NOSIG

2010/08/09 19:00
OJAM 091900Z 00000KT 5000 NSC 28/14 Q1009 NOSIG

2010/08/09 19:00
OLBA 091900Z VRB03KT 9999 BKN026 28/22 Q1008 NOSIG

2010/08/09 19:00
OEDF 091900Z 18006KT 8000 SKC 34/21 Q0997 NOSIG

2010/08/09 19:00
OEDR 091900Z 13004KT CAVOK 34/28 Q0996 NOSIG

2010/08/09 19:00
OEJN 091900Z 36004KT CAVOK 33/28 Q1001 NOSIG

2010/08/09 19:00
OEMA 091900Z 27008KT 9000 SCT045 SCT100 41/04 Q1005 NOSIG

2010/08/09 19:00
OERK 091900Z 06008KT 8000 SKC 37/04 Q1004 NOSIG

2010/08/09 19:00
OIAA 091900Z 20004KT CAVOK 34/24 Q0997

2010/08/09 19:00
OIAW 091900Z 11006KT CAVOK 37/14 Q0997 A2945

2010/08/09 19:00
OIBB 091900Z 17004KT 6000 SKC 33/29 Q0998 A2947

2010/08/09 19:00
OIBK 091900Z 32004KT 6000 NSC 32/29 Q0997 A2946

2010/08/09 19:00
OICC 091900Z 00000KT CAVOK 25/M05 Q1012 A2989 864.0

2010/08/09 19:00
OIFM 091900Z 00000KT CAVOK 24/M01 Q1017 A3003

2010/08/09 19:00
OIKB 091900Z 05004KT 8000 SKC 32/26 Q0998 A2949

2010/08/09 19:00
OIMM 091900Z 25006KT CAVOK 25/03 Q1014 A2995

2010/08/09 19:00
OINZ 091900Z VRB02KT CAVOK 26/29 Q1009 A2982

2010/08/09 19:00
OISS 091900Z 00000KT CAVOK 24/M04 Q1013 A2991

2010/08/09 19:00
OITR 091900Z 35004KT 9999 SCT035 25/11 Q1014 A2994

2010/08/09 19:00
OITT 091900Z 05018KT 9999 FEW040 FEW045CB 27/09 Q1016 A3001

2010/08/09 19:00
OIYY 091900Z 24004KT CAVOK 28/M01 Q1014 A2996

2010/08/09 19:00
OIZH 091900Z 22004KT CAVOK 26/M05 Q1010 A2984

2010/08/09 19:00
OKBK 091900Z 20005KT 8000 NSC 38/13 Q0998 NOSIG

2010/08/09 19:00
ORBI 091900Z 33004KT CAVOK 36/08 Q1000 NOSIG

2010/08/09 19:00
ORMM 091900Z 14007KT 8000 NSC 37/23 Q0997

2010/08/09 19:00
OSAP 091900Z 28015KT CAVOK 28/15 Q1005

2010/08/09 19:00
OSDI 091900Z 20014KT CAVOK 28/18 Q1007

2010/08/09 19:00
OSLK 091900Z 12004KT CAVOK 27/22 Q1006

2010/08/09 19:00
OMAA 091900Z 03005KT CAVOK 35/22 Q0997 A2945 NOSIG

2010/08/09 19:00
OMAL 091900Z 04006KT CAVOK 38/10 Q1000 A2953

2010/08/09 19:00
OMDB 091900Z 03004KT 320V080 CAVOK 38/15 Q0998 NOSIG

2010/08/09 19:00
OMFJ 091900Z 12005KT CAVOK 32/24 Q0999 A2950

2010/08/09 19:00
OMRK 091900Z 09003KT CAVOK 35/22 Q0997 A2945

2010/08/09 19:00
OMSJ 091900Z 00000KT CAVOK 33/16 Q0998

2010/08/09 19:00
OYAA 091900Z 05006KT 7000 NSC 31/23 Q1002

2010/08/09 19:00
OYHD 091900Z 36008KT 7000 BKN030 33/30 Q1001

2010/08/09 19:00
OYSN 091900Z 35006KT 9999 BKN030 19/11 Q1022

2010/08/09 19:00
OYTZ 091900Z 33004KT 9999 SCT030 BKN060 24/20 Q1009

2010/08/09 19:00
OMAD 091900Z 03004KT 010V080 CAVOK 35/24 Q0997 A2945

2010/08/09 19:00
OPPS 091900Z NW-04KTS 4000 BR SCT040 BKN100 28/27 Q1003.2

2010/08/09 19:00
SBBE 091900Z 16005KT 9999 SCT025 FEW030TCU 33/22 Q1010

2010/08/09 19:00
SBBR 091900Z 08009KT CAVOK 30/M06 Q1020

2010/08/09 19:00
SBBV 091900Z 14017KT 9999 VCSH BKN020 FEW027TCU BKN070 29/20 Q1011

2010/08/09 19:00
SBCF 091900Z 23003KT CAVOK 27/04 Q1019

2010/08/09 19:00
SBCG 091900Z 31006KT CAVOK 31/04 Q1016

2010/08/09 19:00
SBEG 091900Z 10008KT 9999 SCT023 33/19 Q1010

2010/08/09 19:00
SBFZ 091900Z 10017KT CAVOK 29/20 Q1011

2010/08/09 19:00
SBGL 091900Z 24014KT 9999 SCT020 BKN050 23/17 Q1020

2010/08/09 19:00
SBGR 091900Z 16005KT 7000 FEW014 BKN019 16/12 Q1023

2010/08/09 19:00
SBKP 091900Z 13013KT 7000 NSC 23/12 Q1019

2010/08/09 19:00
SBPA 091900Z 15006KT 9999 FEW040 16/04 Q1024

2010/08/09 19:00
SBPS 091900Z 08012KT 9999 FEW020 23/18 Q1017

2010/08/09 19:00
SBRF 091900Z 11017KT 3000 -RADZ BKN007 BKN015 BKN070 23/21 Q1015

2010/08/09 19:00
SBSL 091900Z 34010KT 9999 SCT020 30/24 Q1011

2010/08/09 19:00
SBSN 091900Z 10007KT 9999 FEW025 32/24 Q1011

2010/08/09 19:00
SBSV 091900Z 13008KT 9999 SCT017 25/19 Q1017

2010/08/09 19:00
SBTT 091900Z 19005KT 9999 FEW020 SCT100 32/22 Q1013

2010/08/09 19:00
SBAR 091900Z 15010KT 9999 SCT017 26/21 Q1017

2010/08/09 19:00
SBBG 091900Z 14006KT CAVOK 16/04 Q1024

2010/08/09 19:00
SBCJ 091900Z 15006KT CAVOK 32/09 Q1015

2010/08/09 19:00
SBCR 091900Z 23007KT CAVOK 29/04 Q1014

2010/08/09 19:00
SBCT 091900Z 09009KT 9999 BKN007 OVC009 11/09 Q1023

2010/08/09 19:00
SBCY 091900Z 31003KT CAVOK 36/07 Q1012

2010/08/09 19:00
SBCZ 091900Z 22002KT 5000 HZ FEW040 35/20 Q1014

2010/08/09 19:00
SBFL 091900Z 14014KT 9999 SCT040 18/09 Q1022

2010/08/09 19:00
SBFL 091900Z 14014KT 9999 SCT030 18/09 Q1022

2010/08/09 19:00
SBFN 091900Z 11008KT 9999 SCT017 27/23 Q1013

2010/08/09 19:00
SBGO 091900Z 08006KT 9999 FEW030 33/07 Q1017

2010/08/09 19:00
SBLO 091900Z 27007KT CAVOK 29/06 Q1018

2010/08/09 19:00
SBMA 091900Z 16005KT 9999 FEW035 39/19 Q1010

2010/08/09 19:00
SBMO 091900Z 16005KT 7000 SCT006 SCT018 BKN090 23/20 Q1016

2010/08/09 19:00
SBMQ 091900Z 06006KT 9999 FEW025 35/25 Q1010

2010/08/09 19:00
SBPK 091900Z 21006KT CAVOK 17/01 Q1025

2010/08/09 19:00
SBPP 091900Z 18008KT 9999 FEW020 26/12 Q1018

2010/08/09 19:00
SBPV 091900Z 18006KT CAVOK 36/13 Q1010

2010/08/09 19:00
SBRB 091900Z 20004KT 5000 FU SCT030 36/15 Q1013

2010/08/09 19:00
SBRJ 091900Z 19011KT 9999 FEW012 BKN020 23/18 Q1020

2010/08/09 19:00
SBSJ 091900Z 22011KT 9999 SCT020 18/13 Q1022

2010/08/09 19:00
SBSP 091900Z 18004KT 8000 BKN015 15/12 Q1023

2010/08/09 19:00
SBTE 091900Z 14005KT CAVOK 37/10 Q1010

2010/08/09 19:00
SBUG 091900Z 09008KT CAVOK 17/04 Q1023

2010/08/09 19:00
SBVT 091900Z 13006KT CAVOK 29/19 Q1016

2010/08/09 18:53
PABI 091853Z 18022G33KT 10SM FEW090 SCT110 SCT180 17/04 A2960

2010/08/09 18:55
PACZ 091855Z 17007KT 4SM BR -DZ OVC012 09/08 A2920

2010/08/09 18:56
PADK 091856Z 31011KT 10SM BKN022 BKN034 OVC040 11/08 A2974

2010/08/09 18:55
PAEH 091855Z AUTO 16018G33KT 1 1/2SM OVC004 09/07

2010/08/09 18:57
PAFB 091857Z 08004KT 13SM SCT075 BKN100 BKN120 14/11 A2959

2010/08/09 18:58
PAGA 091858Z AUTO 14012KT 10SM FEW012 BKN039 OVC046 14/12 A2947

2010/08/09 18:55
PAIM 091855Z AUTO 05006KT 10SM BKN018 BKN025 OVC030 13/10 A2952

2010/08/09 18:55
PALU 091855Z AUTO 06017KT 5SM 08/08 A2960

2010/08/09 18:55
PASV 091855Z AUTO 19014KT 10SM SCT017 BKN027 OVC041 10/09 A2954

2010/08/09 18:56
PASY 091856Z 32004KT 1 1/4SM BR BKN001 BKN010 OVC022 09/09 A2984

2010/08/09 18:55
PATC 091855Z 02012KT 10SM OVC065 13/11 A2934

2010/08/09 18:55
PATL 091855Z AUTO 11004KT 10SM OVC010 11/11 A2951

2010/08/09 19:00
SBJP 091900Z 18012KT 9999 SCT018 BKN070 26/22 Q1015

2010/08/09 19:00
SBPB 091900Z 05013KT CAVOK 30/22 Q1010

2010/08/09 19:00
SBPL 091900Z 12013KT 9999 SCT025 30/14 Q1016

2010/08/09 19:00
SBTF 091900Z 36003KT 9999 SCT020 33/25 Q1011

2010/08/09 19:00
MKJS 091900Z 05010KT 9999 TS FEW022CB BKN220 31/24 Q1012

2010/08/09 18:50
MUCM 091850Z 10004KT 060V150 9000 SCT020 BKN090 32/22 Q1014

2010/08/09 18:53
MUCU 091853Z 16008KT 110V200 9999 SCT020CB 31/25 Q1015

2010/08/09 18:55
MUHA 091855Z 17010KT 7000 SCT018 OVC066 25/21 Q1014

2010/08/09 18:55
MUVR 091855Z 17005KT 120V210 8000 -RA FEW015CB SCT018 OVC060 23/22 Q1 015

2010/08/09 19:00
MWCB 091900Z 08003KT 9999 FEW016 BKN250 32/25 Q1013

2010/08/09 19:00
MWCR 091900Z 10006KT 9999 SCT018 SCT200 31/26 Q1013 NOSIG

2010/08/09 18:59
MYEG 091859Z AUTO 10008KT 10SM SCT019 SCT025 SCT095 30/25 A2997 RMK AO2

2010/08/09 19:00
MYNN 091900Z 13009KT 9999 SCT012TCU BKN038 BKN080 30/23 A2996

2010/08/09 19:00
OOMS 091900Z 29005KT 8000 NSC 31/27 Q0998 NOSIG

2010/08/09 18:50
OOSA 091850Z 15007KT 6000 SCT012 BKN025 26/22 Q1004 NOSIG RMK05 RH83

2010/08/09 19:00
MDLR 091900Z 06012KT 9999 BKN028 32/24 Q1013

2010/08/09 19:00
MDPC 091900Z 09010KT 9999 SCT025 31/24 Q1011 NOSIG

2010/08/09 19:00
MDPP 091900Z 06010KT 9999 SCT020 32/27 Q1014

2010/08/09 19:00
MDSD 091900Z 16010KT 8000 TS/VCSH FEW020CB SCT022 32/24 Q1012 CB/N/NE

2010/08/09 19:00
MDST 091900Z 09011KT 9999 FEW016CB SCT023 32/24 Q1012 CB/S/SW

2010/08/09 19:00
TAPA 091900Z 07013KT 9999 -SHRA BKN018 SCT060 30/25 Q1014

2010/08/09 18:53
TIST 091853Z 08004KT 10SM -RA FEW080 29/ A2995 RMK AO2 SLP144 P0001 T0289 $

2010/08/09 18:53
TISX 091853Z 10011KT 10SM SCT023 BKN100 29/25 A2995 RMK AO2 RAE52 SLP141 P0001 T02940250 $

2010/08/09 18:50
TJBQ 091850Z 07005KT 10SM SCT020 BKN040 27/ A2994

2010/08/09 18:50
TJPS 091850Z 16008KT 10SM FEW030 BKN060 31/26 A2993 DSNT SHRA SE-SW

2010/08/09 18:56
TJSJ 091856Z VRB04KT 10SM -RA FEW017 SCT030 BKN065 28/25 A2995 RMK AO2 TSB29E55RAB03 SLP140 TS DSIPTD P0012 T02830250

2010/08/09 19:00
TKPK 091900Z 01005KT 9999 FEW015 SCT019 30/26 Q1014

2010/08/09 19:00
TKPN 091900Z 10010KT 9999 FEW016 SCT260 30/25 Q1013

2010/08/09 19:00
TUPJ 091900Z 12009KT 9999 SCT018CB BKN220 29/24 A2996

2010/08/09 19:00
TBPB 091900Z 18015KT 9999 SCT012 SCT032 29/24 Q1013 NOSIG

2010/08/09 19:00
TFFR 091900Z 07004KT 040V100 9999 VCTS FEW015CB SCT026 28/25 Q1013 TEMPO 4000 SHRA

2010/08/09 19:00
TGPY 091900Z 12008KT 9999 BKN012CB BKN250 28/25 Q1012 CB E AND SE TOP OVHD

2010/08/09 19:00
TLPL 091900Z 16012KT 9000 -SHRA FEW008 SCT014CB BKN080 27/24 Q1013 CB/ALL QDS

2010/08/09 19:00
TTPP 091900Z ///11KT 7000 -TSRA SCT008CB BKN260 24/23 Q1012 TEMPO TSRA

2010/08/09 19:03
KMSY 091903Z 01007KT 10SM TS SCT037CB SCT060 BKN150 BKN250 33/24 A2995

2010/08/09 19:00
MHLC 091900Z 35006KT 9999 SCT024TCU BKN200 31/26 Q1011 A2987 NOSIG

2010/08/09 19:00
MHLM 091900Z 36008KT 9999 SCT030 BKN250 34/26 Q1011 A2986 NOSIG

2010/08/09 19:00
MHTG 091900Z 01011KT 8000 SHRA BKN030CB 26/21 Q1017 A3003 NOSIG

2010/08/09 19:00
MNPC 091900Z 08010KT 7000 BKN018 30/26 Q1011 HZ

2010/08/09 19:00
MPTO 091900Z 17004KT 9999 SCT016TCU BKN090 29/25 Q1011 NOSIG

2010/08/09 19:00
MRLB 091900Z 13003KT 9999 FEW020 BKN120 31/24 A2983 RMK RA N NE

2010/08/09 19:00
MRLM 091900Z 07003KT CAVOK 29/24 A2983 RMK SCT130 BKN250

2010/08/09 19:00
MROC 091900Z 25012KT 9999 FEW040 SCT120 BKN250 26/24 A2998 NOSIG

2010/08/09 19:00
MRPV 091900Z 12003KT 9999 FEW035 SCT100 BKN250 27/18 A2996 TEMPO 24004 KT

2010/08/09 19:00
MRPV 091900Z 12003KT 9999 FEW035 SCT100 BKN250 27/18 A2996 TEMPO 24004KT

2010/08/09 18:50
MSLP 091850Z 13006KT 9999 FEW027 SCT300 33/23 Q1011 A2986 MDT CU TO NW/N

2010/08/09 18:50
MSLP 091850Z 13006KT 9999 FEW027 SCT300 33/23 Q1011 MDT CU TO NW/N

2010/08/09 18:50
MSSS 091850Z 15004KT 9999 FEW027 BKN300 29/24 Q1016 A3001

2010/08/09 18:50
MSSS 091850Z 15004KT 9999 FEW027 BKN300 29/24 Q1016

2010/08/09 19:00
MZBZ 091900Z 17003KT 9999 SCT028 BKN280 32/26 A2987 NOSIG

2010/08/09 18:55
MUCL 091855Z 23006KT 9999 FEW018CB OVC070 29/28 Q1015

2010/08/09 18:50
MUCM 091850Z 10004KT 060V150 9000 SCT020 BKN090 32/22 Q1014

2010/08/09 18:53
MUCU 091853Z 16008KT 110V200 9999 SCT020CB 31/25 Q1015

2010/08/09 18:56
MUGM 091856Z 14013KT 9999 FEW025CB BKN250 32/25 A2992 RMK SLP129 CB DSNT N T03220250

2010/08/09 18:55
MUHA 091855Z 17010KT 7000 SCT018 OVC066 25/21 Q1014

2010/08/09 18:55
MUMZ 091855Z 33006KT 9000 BKN025 32/22 Q1013

2010/08/09 18:55
MUVR 091855Z 17005KT 120V210 8000 -RA FEW015CB SCT018 OVC060 23/22 Q1 015

2010/08/09 18:53
TIST 091853Z 08004KT 10SM -RA FEW080 29/ A2995

2010/08/09 18:53
TISX 091853Z 10011KT 10SM SCT023 BKN100 29/25 A2995

2010/08/09 18:50
TJBQ 091850Z 07005KT 10SM SCT020 BKN040 27/ A2994

2010/08/09 18:50
TJPS 091850Z 16008KT 10SM FEW030 BKN060 31/26 A2993 DSNT SHRA SE-SW

2010/08/09 18:56
TJSJ 091856Z VRB04KT 10SM -RA FEW017 SCT030 BKN065 28/25 A2995

2010/08/09 19:00
MHAM 091900Z 23004KT 9999 FEW025TCU BKN250 32/26 TCU N FEW090

2010/08/09 19:00
MHCA 091900Z 16003KT 9999 SCT028TCU 30/22 TCU TD

2010/08/09 19:00
MHCH 091900Z 18004KT 9999 TS SCT032CB 30/25 FEW100 CB TS PCPN S

2010/08/09 19:00
MHLE 091900Z 02005KT 9999 SCT024TCU BKN200 24/14 Q1024 TCU TD

2010/08/09 19:00
MHNO 091900Z 18004KT 9999 SCT040TCU 29/// TCU TD HZ

2010/08/09 19:00
MHRO 091900Z 09012KT 9999 FEW026TCU BKN250 31/25 Q1012 A2988 NOSIG

2010/08/09 19:00
MHSR 091900Z 36006KT 9999 SCT025CB BKN250 27/20 CB S TCU E ESE W

2010/08/09 19:00
MHYR 091900Z 09005KT 9999 SCT025 BKN080 30/20 TCU TD

2010/08/09 19:00
MNMG 091900Z 12006KT 9999 FEW020CB SCT070 31/24 Q1010 A2982 CB/NE/SW/W TCU/NW/N

2010/08/09 19:00
MNPC 091900Z 08010KT 7000 BKN018 30/26 Q1011 HZ

2010/08/09 18:50
MSAC 091850Z 10004KT 9999 FEW037 BKN300 30/23 Q1010

2010/08/09 19:00
ZBAA 091900Z 02002MPS 1800 R01/1400N R36R/2000N R36L/P2000U BR NSC 25/23 Q1006 NOSIG

2010/08/09 19:00
ZBTJ 091900Z 05001MPS 1700 BR NSC 26/25 Q1006 NOSIG

2010/08/09 19:00
ZBYN 091900Z 03001MPS 2000 RA BR OVC040 22/19 Q1009 NOSIG

2010/08/09 19:00
ZGGG 091900Z VRB01MPS 8000 SCT020 29/26 Q1005 NOSIG

2010/08/09 19:00
ZGSZ 091900Z 00000MPS 9999 FEW017 29/24 Q1004 NOSIG

2010/08/09 19:00
ZHHH 091900Z 06002MPS 020V080 3000 BR NSC 29/29 Q1003 NOSIG

2010/08/09 19:00
ZLLL 091900Z 00000MPS CAVOK 16/13 Q1014 NOSIG

2010/08/09 19:00
ZMUB 091900Z 00000MPS CAVOK 07/01 Q1008 NOSIG RMK QFE649.8 64

2010/08/09 19:00
ZPPP 091900Z 00000MPS 9999 SCT026 20/15 Q1016 NOSIG

2010/08/09 19:00
ZSAM 091900Z 29002MPS CAVOK 28/23 Q1004 NOSIG

2010/08/09 19:00
ZSHC 091900Z VRB02MPS CAVOK 28/25 Q1002

2010/08/09 19:00
ZSNJ 091900Z 07001MPS 8000 SKC 27/24 Q1003 NOSIG

2010/08/09 19:00
ZSOF 091900Z AUTO 05001MPS 5000 BR SKC 27/24 Q1003 NOSIG

2010/08/09 19:00
ZSPD 091900Z 01005MPS 330V040 9999 BKN011 28/25 Q1002 NOSIG

2010/08/09 19:00
ZSSS 091900Z 03003MPS 360V060 9999 FEW018 28/25 Q1002 NOSIG

2010/08/09 19:00
ZUCK 091900Z 08002MPS CAVOK 31/21 Q1002 NOSIG

2010/08/09 19:00
ZUUU 091900Z 00000MPS 4000 BR SCT040 27/24 Q1003 NOSIG

2010/08/09 19:00
ZWWW 091900Z 19003MPS CAVOK 25/10 Q1007 NOSIG

2010/08/09 19:00
ZYHB 091900Z 19002MPS CAVOK 15/14 Q1005 NOSIG

2010/08/09 19:00
ZYTL 091900Z 11002MPS 050V140 6000 -RA FEW010 BKN040 24/23 Q1006 NOSIG

2010/08/09 19:00
LBBG 091900Z 01006MPS CAVOK 27/21 Q1010 NOSIG

2010/08/09 19:00
LBPD 091900Z 12003MPS 9999 FEW055 SCT100 26/20 Q1013 NOSIG

2010/08/09 19:00
LBSF 091900Z 29003MPS 270V330 9999 SCT050 23/16 Q1016 NOSIG

2010/08/09 19:00
LBWN 091900Z 36005MPS CAVOK 26/21 Q1010 NOSIG

2010/08/09 19:00
LHBP 091900Z 29005KT 260V350 CAVOK 18/13 Q1017 NOSIG

2010/08/09 19:00
LRBS 091900Z 08003KT CAVOK 25/19 Q1013 NOSIG

2010/08/09 19:00
LRCK 091900Z 35006KT 320V020 CAVOK 27/20 Q1012 NOSIG

2010/08/09 19:00
LROP 091900Z 10002KT CAVOK 24/20 Q1013 880///95 NOSIG

2010/08/09 19:00
LRTR 091900Z 02004KT CAVOK 20/17 Q1016

2010/08/09 19:00
EPGD 091900Z 12001KT 9999 -SHRA SCT011 BKN036CB 18/16 Q1016 RETS

2010/08/09 19:00
EPKK 091900Z 04003KT CAVOK 16/15 Q1017

2010/08/09 19:00
EPKT 091900Z 00000KT CAVOK 16/15 Q1016

2010/08/09 19:00
EPPO 091900Z 23003KT 9999 FEW040TCU 20/15 Q1016

2010/08/09 19:00
EPRZ 091900Z 19002KT 9999 -SHRA BKN040CB 17/17 Q1016 RETS

2010/08/09 19:00
EPWA 091900Z 00000KT CAVOK 19/16 Q1015 NOSIG

2010/08/09 19:00
UKBB 091900Z 32002MPS CAVOK 24/18 Q1014 86190095 36CLRD95 NOSIG

2010/08/09 19:00
UKLL 091900Z 29005G10MPS 220V360 0550 R31/P2000N VCTS +SHRA BKN005 SCT020CB 22/17 Q1016 31220355 TEMPO -TSRA

2010/08/09 19:00
UKOO 091900Z 01004MPS CAVOK 29/16 Q1012 34090070 NOSIG

2010/08/09 19:00
LATI 091900Z 09002KT CAVOK 24/23 Q1013 NOSIG

2010/08/09 19:00
LDDU 091900Z 30006KT 280V020 CAVOK 24/15 Q1013 NOSIG

2010/08/09 19:00
LDOS 091900Z 03004KT CAVOK 21/18 Q1017

2010/08/09 19:00
LDPL 091900Z VRB01KT CAVOK 22/18 Q1014

2010/08/09 19:00
LDSP 091900Z 30011KT 270V330 CAVOK 28/10 Q1013 NOSIG

2010/08/09 19:00
LDZA 091900Z 07004KT 040V110 CAVOK 22/17 Q1016 NOSIG

2010/08/09 19:00
LDZD 091900Z 31003KT CAVOK 22/16 Q1014

2010/08/09 19:00
LKMT 091900Z 00000KT CAVOK 17/15 Q1016 NOSIG

2010/08/09 19:00
LKPR 091900Z 30003KT CAVOK 17/13 Q1017 NOSIG

2010/08/09 19:00
LKTB 091900Z 02005KT 9999 FEW024 19/14 Q1017 NOSIG

2010/08/09 19:00
LQSA 091900Z 30004KT 9999 SCT050 21/15 Q1018 NOSIG

2010/08/09 19:00
LWOH 091900Z 01003KT 9999 FEW050 21/15 Q1016

2010/08/09 19:00
LWSK 091900Z 01012KT CAVOK 25/15 Q1015 NOSIG

2010/08/09 19:00
LYBE 091900Z 34003KT CAVOK 23/15 Q1017 NOSIG

2010/08/09 19:00
LYNI 091900Z 31005KT 280V340 CAVOK 22/16 Q1016 NOSIG

2010/08/09 19:00
LYPG 091900Z 10003KT CAVOK 27/19 Q1012 NOSIG

2010/08/09 19:00
LZIB 091900Z 23004KT CAVOK 18/16 Q1017

2010/08/09 19:00
LZKZ 091900Z 09002KT CAVOK 17/15 Q1017

2010/08/09 19:00
LZTT 091900Z 26004KT 9999 FEW006 BKN120 14/13 Q1018

2010/08/09 19:00
LPFR 091900Z 26004KT CAVOK 30/18 Q1012

2010/08/09 19:00
LPPR 091900Z 00000KT CAVOK 27/17 Q1015

2010/08/09 19:00
LPPS 091900Z 36010KT 9999 SCT013 SCT030 23/19 Q1014

2010/08/09 19:00
LPPT 091900Z 30009KT CAVOK 35/12 Q1013 NOSIG

2010/08/09 18:53
PHJR 091853Z 08008G15KT 10SM OVC050 27/17 A3010

2010/08/09 18:53
PHKO 091853Z 00000KT 10SM BKN055 26/18 A3004

2010/08/09 18:53
PHLI 091853Z 06011KT 10SM SCT020 BKN055 27/21 A3014

2010/08/09 18:53
PHNL 091853Z 06014KT 10SM FEW033 SCT042 BKN050 28/17 A3009

2010/08/09 18:54
PHOG 091854Z 07017G26KT 10SM FEW035 SCT050 27/18 A3010

2010/08/09 18:53
PHTO 091853Z 00000KT 10SM SCT040 BKN055 23/18 A3012

2010/08/09 19:00
LFBD 091900Z 27007KT 9999 SCT036 SCT043 21/13 Q1018 NOSIG

2010/08/09 19:00
LFBH 091900Z AUTO 29016KT 9999NDV NSC 18/14 Q1018

2010/08/09 19:00
LFBI 091900Z AUTO 24009KT 9999NDV NSC 24/14 Q1016

2010/08/09 19:00
LFBO 091900Z 27008KT 9999 BKN039 22/16 Q1019 NOSIG

2010/08/09 19:00
LFBP 091900Z 22005KT 9999 BKN041 20/18 Q1020 NOSIG

2010/08/09 19:00
LFBT 091900Z 22005KT 9999 FEW008 BKN023 18/16 Q1021 TEMPO SCT008 BKN013

2010/08/09 19:00
LFBZ 091900Z AUTO 30004KT 9999NDV NSC 21/16 Q1020

2010/08/09 19:00
LFGJ 091900Z AUTO 10004KT 9999NDV NSC 23/14 Q1015

2010/08/09 19:00
LFKB 091900Z 14001KT 9999 FEW030 SCT210 23/20 Q1015 NOSIG

2010/08/09 19:00
LFKJ 091900Z 23014KT 9999 FEW016 SCT160 24/19 Q1016 NOSIG

2010/08/09 19:00
LFLB 091900Z AUTO 00000KT 9999NDV NSC 20/16 Q1015

2010/08/09 19:00
LFLL 091900Z 01008KT CAVOK 25/15 Q1015 NOSIG

2010/08/09 19:00
LFLS 091900Z AUTO 07005KT 9999NDV NSC 24/13 Q1016

2010/08/09 19:00
LFLY 091900Z AUTO 02007KT 9999NDV NSC 26/15 Q1015

2010/08/09 19:00
LFMD 091900Z AUTO VRB02KT 9999NDV OVC039 24/20 Q1015

2010/08/09 19:00
LFMH 091900Z AUTO 31007KT 290V350 9999NDV NSC 25/14 Q1016

2010/08/09 19:00
LFML 091900Z 19007KT 9999 FEW010 SCT230 24/20 Q1015 NOSIG

2010/08/09 19:00
LFMN 091900Z 20004KT 9999 FEW015 BKN036 24/20 Q1016 NOSIG

2010/08/09 19:00
LFMP 091900Z AUTO 30009KT 270V330 9999NDV -RA //////CB 25/17 Q1016

2010/08/09 19:00
LFMT 091900Z 27007KT 9999 FEW050CB BKN110 26/17 Q1014 BECMG SHRA

2010/08/09 19:00
LFOB 091900Z AUTO 02008KT 9999NDV NSC 21/14 Q1016

2010/08/09 19:00
LFOH 091900Z AUTO 02003KT 9999NDV NSC 17/10 Q1016

2010/08/09 19:00
LFOT 091900Z 27005KT CAVOK 26/10 Q1015 NOSIG

2010/08/09 19:00
LFPB 091900Z AUTO VRB02KT 9999NDV NSC 24/12 Q1014

2010/08/09 19:00
LFPG 091900Z 36005KT 290V030 CAVOK 24/11 Q1015 NOSIG

2010/08/09 19:00
LFPN 091900Z AUTO VRB02KT 9999NDV NSC 24/10 Q1015

2010/08/09 19:00
LFPO 091900Z 25003KT CAVOK 23/11 Q1015 NOSIG

2010/08/09 19:00
LFQQ 091900Z 30009KT CAVOK 21/13 Q1015 NOSIG

2010/08/09 19:00
LFRB 091900Z 23010KT 8000 BKN003 BKN008 17/16 Q1017 NOSIG

2010/08/09 19:00
LFRC 091900Z AUTO 22009KT 9999NDV NSC 18/13 Q1016

2010/08/09 19:00
LFRD 091900Z AUTO 05003KT 9999NDV NSC 18/13 Q1017

2010/08/09 19:00
LFRK 091900Z AUTO 36002KT 9999NDV ///////// 19/12 Q1016

2010/08/09 19:00
LFRN 091900Z AUTO 01005KT 330V040 9999NDV NSC 23/11 Q1016

2010/08/09 19:00
LFRO 091900Z AUTO 22010KT 9999NDV OVC022 18/16 Q1017

2010/08/09 19:00
LFRQ 091900Z AUTO 25004KT 210V280 9999NDV OVC005 17/16 Q1018

2010/08/09 19:00
LFRS 091900Z 27007KT CAVOK 20/13 Q1017 NOSIG

2010/08/09 19:00
LFRZ 091900Z AUTO 28012KT 9999NDV NSC 19/14 Q1017

2010/08/09 19:00
LFSB 091900Z VRB03KT 9999 FEW053 SCT250 20/14 Q1016 NOSIG

2010/08/09 19:00
LFSF 091900Z AUTO 00000KT 9999NDV NSC 21/12 Q1016

2010/08/09 19:00
LFSN 091900Z VRB03KT CAVOK 20/13 Q1016 NOSIG

2010/08/09 19:00
LFSR 091900Z AUTO 10002KT 9999NDV NSC 22/14 Q1015

2010/08/09 19:00
LFST 091900Z AUTO VRB01KT 9999NDV NSC 21/14 Q1016

2010/08/09 19:00
LFBA 091900Z AUTO 31002KT 9999NDV OVC048 22/15 Q1018

2010/08/09 19:00
LFBC 091900Z AUTO 30005KT 9999NDV FEW038 20/14 Q1019

2010/08/09 19:00
LFBL 091900Z AUTO 26007KT 220V280 9999NDV NSC 21/15 Q1018

2010/08/09 19:00
LFBM 091900Z AUTO 30007KT 9999NDV NSC 21/14 Q1019

2010/08/09 19:00
LFKF 091900Z AUTO 26013KT 9999NDV NCD 24/16 Q1015

2010/08/09 19:00
LFOE 091900Z AUTO 33005KT 290V020 9999NDV NSC 21/13 Q1016

2010/08/09 19:00
LFOP 091900Z AUTO 36007KT 9999NDV NSC 20/13 Q1016

2010/08/09 19:00
LFPB 091900Z AUTO VRB02KT 9999NDV NSC 24/12 Q1014

2010/08/09 19:00
LFPG 091900Z 36005KT 290V030 CAVOK 24/11 Q1015 NOSIG

2010/08/09 19:00
LFPV 091900Z AUTO 26002KT 9999NDV NSC 23/11 Q1015

2010/08/09 19:00
LFQQ 091900Z 30009KT CAVOK 21/13 Q1015 NOSIG

2010/08/09 19:00
LFRH 091900Z 27009KT 9999 SCT027 BKN034 17/15 Q1018

2010/08/09 19:00
LFSD 091900Z AUTO VRB01KT 9999NDV NSC 22/13 Q1016

2010/08/09 19:00
LFSI 091900Z AUTO 06003KT 9999NDV NSC 23/12 Q1016

2010/08/09 19:00
LFSL 091900Z AUTO 23004KT 180V320 9999NDV SCT046 20/16 Q1018

2010/08/09 19:00
LFSO 091900Z AUTO 01003KT 9999NDV NSC 20/11 Q1017

2010/08/09 19:00
LFSX 091900Z AUTO 00000KT 9999NDV NSC 20/14 Q1016

2010/08/09 19:00
LFTH 091900Z 15004KT 8000 FEW008 SCT015 OVC200 23/21 Q1015 NOSIG

2010/08/09 18:54
PGSN 091854Z 11005KT 6SM RA BR SCT016 BKN040 BKN110 25/24 A2991

2010/08/09 18:55
PGUA 091855Z AUTO 25003KT 10SM OVC160 24/24 A2991

2010/08/09 18:54
PGUM 091854Z 17003KT 10SM CLR 25/24 A2991

2010/08/09 19:00
PKWA 091900Z AUTO 05011KT 10SM SCT021 28/23 A2986

2010/08/09 19:00
EICK 091900Z 31007KT 9999 BKN036 16/08 Q1012 NOSIG

2010/08/09 19:00
EIDW 091900Z 27014KT 9999 FEW028 16/09 Q1009 NOSIG

2010/08/09 19:00
EIKN 091900Z 25014KT 210V270 9999 FEW018CB SCT022 13/09 Q1009 NOSIG

2010/08/09 19:00
EINN 091900Z 25010KT 9999 FEW025 SCT050 16/09 Q1011 NOSIG

2010/08/09 19:00
FMMI 091900Z 08003KT 9999 FEW016 BKN020 14/14 Q1026 NOSIG

2010/08/09 19:00
WBGG 091900Z 12003KT 9999 SCT020 BKN150 24/23 Q1009 NOSIG

2010/08/09 19:00
WBKK 091900Z 12003KT 9999 FEW014 SCT140 BKN270 26/24 Q1009 NOSIG

2010/08/09 18:55
KQAE 091855Z 31002KT 8000 DU HZ CLR 36/09 A2956 RMK SLP006

2010/08/09 18:55
KQMG 091855Z AUTO VRB06KT 10SM FEW170 30/13 A3009 RMK AO2 SLP114 T03040133

2010/08/09 18:55
KQTO 091855Z 29004KT 9999 CLR 34/06 A2953 RMK SLP999

2010/08/09 18:55
KQTU 091855Z 32006KT 9999 CLR 38/03 A2960 RMK SLP004

2010/08/09 18:55
KQTX 091855Z 35004KT 9999 CLR 37/M01 A2961 RMK SLP996

2010/08/09 18:55
KQTZ 091855Z 30007KT 9000 DU HZ CLR 38/05 A2954 RMK SLP996 QNH1000MB WND DATA ESTMD ALSTG/SLP ESTMD

2010/08/09 18:55
KQXJ 091855Z 32008KT 9999 FEW040 37/01 A2950 RMK SLP989 PA+410 DA+3045

2010/08/09 19:00
ORBI 091900Z 33004KT CAVOK 36/08 Q1000 NOSIG

2010/08/09 19:00
ORER 091900Z 07005KT CAVOK 31/M02 Q1003

2010/08/09 18:55
KQAJ 091855Z 35003KT 9999 FEW170 38/04 A2963 RMK SLP015 WND DATA ESTMD ALSTG/SLP ESTMD

2010/08/09 18:55
KQAQ 091855Z 30003KT 8000 HZ CLR 38/06 A2956 RMK SLP005 PA +456 DA +3141

2010/08/09 18:55
KQPD 091855Z AUTO 23002KT 9000 30/00 A2962 RMK AO2 SLP935 T03030001 $

2010/08/09 18:55
KQSL 091855Z 32007KT 9999 CLR 37/02 A2959 RMK SLP007 Q1002MB

2010/08/09 18:55
KQTI 091855Z AUTO 31004KT 9999 CLR 31/02 A2965 RMK AO2 SLP012 T03140021

2010/08/09 19:00
RJAA 091900Z 16003KT 9999 FEW020 SCT140 22/22 Q1015 NOSIG RMK 1CU020 3AC140 A2999

2010/08/09 19:00
RJAA 091900Z 16003KT 9999 FEW020 SCT140 22/22 Q1015 NOSIG

2010/08/09 19:00
RJAH 091900Z 17001KT 9999 SCT015 24/23 Q1015

2010/08/09 19:00
RJCC 091900Z 18003KT 1500 R01R/P1800N -DZ BR SCT001 BKN002 21/20 Q1014 RMK 3ST001 7ST002 A2995

2010/08/09 19:00
RJCC 091900Z 18003KT 1500 R01R/P1800N -DZ BR SCT001 BKN002 21/20 Q1014

2010/08/09 19:00
RJTT 091900Z 17007KT 9999 FEW010 SCT015 BKN090 26/23 Q1015 RMK 1ST010 4CU015 6AC090 A2997

2010/08/09 19:00
RJTT 091900Z 17007KT 9999 FEW010 SCT015 BKN090 26/23 Q1015

2010/08/09 18:55
RODN 091855Z 15016G30KT 9999 BKN017 BKN023 BKN029 OVC065 28/26 A2973 RMK AO2A PK WND 17030/1847 CIG 015V022 BKN029 V OVC SLP066 T02790256

2010/08/09 19:00
RJFR 091900Z 09007KT 050V110 9999 FEW007 SCT010 BKN150 27/24 Q1010

2010/08/09 18:55
RJTY 091855Z AUTO 28003KT 9999 BKN050 OVC060 24/23 A3004 RMK AO2 SLP166 T02440228

2010/08/09 19:00
LKCV 091900Z 11001KT CAVOK 18/16 Q1017 NOSIG

2010/08/09 19:00
LKKB 091900Z 00000KT CAVOK 19/13 Q1016 NOSIG

2010/08/09 19:00
LKLN 091900Z AUTO 34001KT CAVOK 18/14 Q1017

2010/08/09 19:00
LKNA 091900Z 01005KT CAVOK 18/12 Q1018 NOSIG

2010/08/09 19:00
LKPD 091900Z 00000KT CAVOK 18/16 Q1017 NOSIG

2010/08/09 19:00
LKPO 091900Z 27002KT 9999 FEW043 18/14 Q1017 NOSIG

2010/08/09 19:00
LRBC 091900Z 35004KT CAVOK 22/20 Q1015

2010/08/09 19:00
LRCV 091900Z 26008KT CAVOK 24/17 Q1014

2010/08/09 19:00
LRIA 091900Z 28004KT CAVOK 22/20 Q1015

2010/08/09 19:00
LRSV 091900Z 16004KT 8000 -TSRA SCT040CB 20/19 Q1017

2010/08/09 19:00
LRTC 091900Z AUTO 34012KT 9999 BKN170 26/19 Q1011

2010/08/09 18:54
PGSN 091854Z 11005KT 6SM RA BR SCT016 BKN040 BKN110 25/24 A2991

2010/08/09 18:54
PGUM 091854Z 17003KT 10SM CLR 25/24 A2991

2010/08/09 18:53
PKMR 091853Z 07005KT 15SM SCT015 BKN045 BKN110 OVC300 28/24 A2983

2010/08/09 19:00
PKWA 091900Z AUTO 05011KT 10SM SCT021 28/23 A2986

2010/08/09 18:53
PTKK 091853Z VRB04KT 15SM FEW014 BKN120 OVC280 26/24 A2984

2010/08/09 18:51
PTRO 091851Z 00000KT 14SM BKN015CB OVC280 25/23 A2986

2010/08/09 18:55
PTTP 091855Z 09010KT 14SM -SHRA BKN017TCU OVC120 25/23 A2989

2010/08/09 18:57
PTYA 091857Z VRB05KT 12SM SCT016 SCT030 BKN130 OVC300 26/23 A2982

2010/08/09 18:50
EGPN 091850Z 24014KT 9999 FEW022 17/12 Q1005

2010/08/09 19:00
LJLJ 091900Z 12003KT 080V160 9999 SCT035 21/17 Q1017 NOSIG

2010/08/09 19:00
LJMB 091900Z VRB02KT CAVOK 19/18 Q1018

2010/08/09 19:00
LJPZ 091900Z 12004KT CAVOK 22/19 Q1015

2010/08/09 19:00
LPAZ 091900Z 05010KT 9999 SCT018 BKN036 21/16 Q1020

2010/08/09 19:00
LPHR 091900Z 01007KT 340V050 9999 FEW016 BKN040 24/15 Q1021

2010/08/09 19:00
LPLA 091900Z 03006KT 9999 FEW025 23/18 Q1022

2010/08/09 19:00
LPPD 091900Z 04007KT 360V080 9999 FEW022 BKN040 22/15 Q1020

2010/08/09 19:00
LYTV 091900Z VRB01KT CAVOK 22/17 Q1012

2010/08/09 19:00
LJCE 091900Z 11003KT 9999 FEW037 21/18 Q1017 RMK BLU

2010/08/09 19:00
LRAR 091900Z 34004KT CAVOK 20/18 Q1016

2010/08/09 19:00
LRBM 091900Z 00000KT CAVOK 18/16 Q1016

2010/08/09 19:00
LRCL 091900Z 27004KT 9999 FEW053 SCT075 20/17 Q1017

2010/08/09 19:00
LROD 091900Z 33004KT CAVOK 19/17 Q1017

2010/08/09 19:00
LRSM 091900Z AUTO 00000KT 9999 SCT230 20/19 Q1016

2010/08/09 19:00
LRTM 091900Z VRB02KT 9999 FEW040 22/19 Q1016

2010/08/09 19:00
GGOV 091900Z 26010KT 9999 SCT015TCU FEW020CB 28/24 Q1011 4000 TSRA

2010/08/09 19:00
RKNY 091900Z AUTO 27003KT3000NDV NCD 23/20 Q1008

2010/08/09 19:00
RKPC 091900Z 08011G025KT 050V110 7000 -SHRA BKN020 BKN110 28/23 Q1005 BECMG TL1920 NSW

2010/08/09 19:00
RKSI 091900Z 06004KT 9999 FEW040 SCT120 26/22 Q1008 NOSIG

2010/08/09 19:00
RKSS 091900Z 36003KT 330V060 9999 FEW030 SCT120 25/22 Q1008 NOSIG

2010/08/09 19:00
PAPO 091900Z 36011KT 10SM CLR 12/09 A2949 RMK ASOS VIA PHONE

2010/08/09 19:00
LCLK 091900Z 22006KT CAVOK 28/26 Q1005 NOSIG

2010/08/09 19:00
LCPH 091900Z 30006KT 9999 FEW009 SCT016 29/26 Q1005

2010/08/09 18:48
MMCS 091848Z 30005KT 10SM FEW040 33/14 A3006 RMK 8/100

2010/08/09 18:48
MMTC 091848Z 00000KT 15SM FEW040 SCT200 33/14 A3003 RMK 8/102

2010/08/09 19:00
SBFI 091900Z 24006KT CAVOK 20/12 Q1018

2010/08/09 18:50
BGBW 091850Z AUTO 06003KT 9999NDV -RA BKN014/// OVC017/// 11/10 Q1008

2010/08/09 18:50
BGCO 091850Z 34025KT 9999 FEW210 10/M01 Q1011

2010/08/09 18:50
BGGH 091850Z 21010KT 9999 SCT020 BKN060 12/09 Q1008

2010/08/09 18:50
BGJN 091850Z 18009KT 9999 SCT100 BKN150 13/03 Q1008

2010/08/09 18:50
BGSF 091850Z 07006KT 030V130 9999 SCT045 BKN110 16/08 Q1008

2010/08/09 18:55
BGTL 091855Z AUTO 25004KT 9999 CLR 05/03 A2987 RMK AO2 SLP120 T00530026

2010/08/09 19:00
BIAR 091900Z 33010KT CAVOK 14/09 Q1012

2010/08/09 19:00
BIEG 091900Z 05011KT 9999 FEW040 15/10 Q1011

2010/08/09 19:00
BIKF 091900Z 31008KT 9999 BKN008 11/08 Q1014

2010/08/09 19:00
BIRK 091900Z 27005KT 9999 BKN010 11/09 Q1013

2010/08/09 19:00
GVAC 091900Z 06009KT 9999 SCT013 27/19 Q1012 NOSIG

2010/08/09 19:00
LPLA 091900Z 03006KT 9999 FEW025 23/18 Q1022

2010/08/09 19:03
KNEW 091903Z 11011G27KT 3SM TSRA BR FEW017 BKN026 OVC060 26/25 A2998

2010/08/09 18:54
PGSN 091854Z 11005KT 6SM RA BR SCT016 BKN040 BKN110 25/24 A2991 RMK AO2 SLP124 P0013 T02500239

2010/08/09 18:55
PGUA 091855Z AUTO 25003KT 10SM OVC160 24/24 A2991 RMK AO2 SLP110 T02420242 VISNO RWY24L $

2010/08/09 18:54
PGUM 091854Z 17003KT 10SM CLR 25/24 A2991 RMK AO2 SLP120 T02500239

2010/08/09 18:50
PHJH 091850Z 08015KT 15SM FEW040 27/17 A3009

2010/08/09 18:53
PHJR 091853Z 08008G15KT 10SM OVC050 27/17 A3010 RMK AO2 SLP200 T02720172

2010/08/09 18:54
PHMK 091854Z 08014G20KT 10SM CLR 29/14 A3009 RMK AO2 PK WND 08028/1843 SLP191 T02890139

2010/08/09 18:53
PKMR 091853Z 07005KT 15SM SCT015 BKN045 BKN110 OVC300 28/24 A2983 RMK SLP102 T02760242

2010/08/09 19:00
PKWA 091900Z AUTO 05011KT 10SM SCT021 28/23 A2986 RMK AO2 T02770232

2010/08/09 18:56
PMDY 091856Z AUTO 08012KT 10SM CLR 27/22 A3024 RMK AO2 TSNO T02720216 SLP549

2010/08/09 18:53
PTKK 091853Z VRB04KT 15SM FEW014 BKN120 OVC280 26/24 A2984 RMK SLP106 T02580243

2010/08/09 18:51
PTRO 091851Z 00000KT 14SM BKN015CB OVC280 25/23 A2986 RMK CB VC ALQDS

2010/08/09 18:55
PTTP 091855Z 09010KT 14SM -SHRA BKN017TCU OVC120 25/23 A2989 RMK TCU ALQDS SLP121 T02500233

2010/08/09 18:57
PTYA 091857Z VRB05KT 12SM SCT016 SCT030 BKN130 OVC300 26/23 A2982 RMK SLP100 T02590226

2010/08/09 19:00
WBKK 091900Z 12003KT 9999 FEW014 SCT140 BKN270 26/24 Q1009 NOSIG

2010/08/09 19:00
WMKJ 091900Z 34001KT 9999 FEW022 BKN300 25/24 Q1008

2010/08/09 19:00
WMKK 091900Z 21001KT 9999 FEW017CB SCT140 BKN280 26/25 Q1007 NOSIG

2010/08/09 19:00
WMKP 091900Z 27002KT 9000 FEW025 SCT140 BKN270 27/26 Q1007 NOSIG

2010/08/09 19:00
WMSA 091900Z 00000KT 9999 FEW027 BKN280 27/25 Q1007

2010/08/09 19:00
RPLC 091900Z 00000KT 9999 FEW036 SCT100 OVC270 25/23 Q1009 A2981 RMK NOSIG

2010/08/09 19:00
LPFR 091900Z 26004KT CAVOK 30/18 Q1012

2010/08/09 19:00
LPLA 091900Z 03006KT 9999 FEW025 23/18 Q1022

2010/08/09 19:00
LPMA 091900Z 16003KT 090V220 9999 FEW013 23/19 Q1013 RS11001KT 0516002KT 2323002KT

2010/08/09 19:00
LPPR 091900Z 00000KT CAVOK 27/17 Q1015

2010/08/09 19:00
LPPS 091900Z 36010KT 9999 SCT013 SCT030 23/19 Q1014

2010/08/09 19:00
LPPT 091900Z 30009KT CAVOK 35/12 Q1013 NOSIG

2010/08/09 19:00
UBBB 091900Z 16004KT CAVOK 30/29 Q1009 NOSIG RMK R88CLRD70

2010/08/09 19:00
UBBG 091900Z 31005KT 9999 SCT100 25/12 Q1010 NOSIG RMK R30R/CLRD70

2010/08/09 19:00
UTTT 091900Z 06004MPS CAVOK 27/06 Q1006 R08R/CLRD70 TEMPO 03005G10MPS

2010/08/09 19:00
SOCA 091900Z 08009KT 9999 FEW023 30/24 Q1012 NOSIG

2010/08/09 19:00
SPIM 091900Z 18007KT 6000 FEW013 BKN018 18/13 Q1016 NOSIG RMK BIRD HAZARD RWY 15 PP000

2010/08/09 19:00
SPQT 091900Z /////KT 8000 FEW020 32/22 Q1013 NOSIG RMK BRUMOSO BIRD HAZARD RWY 06/24 PP000

2010/08/09 19:00
SPQU 091900Z 24011KT CAVOK 19/M12 Q1026 NOSIG RMK PP000

2010/08/09 19:00
SPSO 091900Z 29009KT 6000 FEW012 19/14 Q1017 RMK BIRDS HAZARD RWY 22/04 W PP000

2010/08/09 19:00
SPTN 091900Z 23006KT CAVOK 20/09 Q1012 RMK PP000

2010/08/09 19:00
SPZO 091900Z 03007KT 300V050 9999 SKC 20/M19 Q1031 NOSIG RMK PP000

2010/08/09 19:00
SVMC 091900Z 16011KT 9999 -TS FEW010 CB BKN013 31/23 Q1010

2010/08/09 19:00
SVMI 091900Z 36003KT 9999 FEW016 BKN100 31/27 Q1011 NOSIG

2010/08/09 18:56
KABQ 091856Z 00000KT 10SM FEW070 28/12 A3015

2010/08/09 18:52
KATL 091852Z 11005KT 10SM FEW055 SCT250 34/20 A3002

2010/08/09 18:53
KBGR 091853Z 24006KT 10SM SCT041 BKN060 28/18 A2989

2010/08/09 18:53
KBHM 091853Z VRB04KT 10SM BKN060 35/20 A3000

2010/08/09 18:53
KBNA 091853Z 30005KT 10SM SCT055 BKN240 36/22 A2997

2010/08/09 18:54
KBOS 091854Z 23011G23KT 10SM SCT065 SCT100 33/17 A2991

2010/08/09 18:54
KBWI 091854Z 20007KT 9SM SCT055 BKN180 BKN250 34/19 A2998

2010/08/09 18:56
KCHS 091856Z COR 09007KT 10SM FEW010 BKN032CB OVC060 30/25 A2998

2010/08/09 18:56
KCHS 091856Z 09007KT 10SM FEW010 BKN032 OVC060 30/25 A2998

2010/08/09 18:51
KCLE 091851Z 21005KT 10SM FEW050 BKN250 31/18 A3000

2010/08/09 18:52
KCLT 091852Z 00000KT 10SM SCT045 BKN250 33/20 A3003

2010/08/09 18:52
KCVG 091852Z 22004KT 8SM FEW055 SCT150 BKN220 33/19 A2999

2010/08/09 18:53
KDEN 091853Z 12007KT 10SM SCT060 SCT075 BKN140 27/12 A3009

2010/08/09 18:53
KDFW 091853Z COR 14008KT 10SM SCT075 35/21 A2992

2010/08/09 18:53
KDFW 091853Z 14008KT 10SM SCT060 35/21 A2992

2010/08/09 18:53
KDTW 091853Z 27009KT 9SM FEW010 SCT040 OVC130 27/20 A2997

2010/08/09 18:51
KEWR 091851Z 15011G14KT 9SM BKN065 BKN140 BKN250 33/19 A2995

2010/08/09 18:53
KFLL 091853Z 19013KT 10SM SCT028 BKN041 BKN049 29/24 A2990

2010/08/09 18:52
KIAD 091852Z 19007KT 9SM SCT055 BKN250 32/21 A2999

2010/08/09 18:53
KIAH 091853Z VRB03KT 10SM SCT045 36/23 A2994

2010/08/09 18:54
KIND 091854Z COR 26007KT 10SM FEW055 SCT140 SCT250 34/20 A2995

2010/08/09 18:54
KIND 091854Z 26007KT 10SM FEW055 BKN140 BKN250 34/20 A2995

2010/08/09 18:56
KJAX 091856Z 09014G21KT 9SM -RA FEW024 BKN035 BKN200 29/25 A2995

2010/08/09 18:51
KJFK 091851Z 18012KT 5SM HZ FEW050 SCT140 BKN250 29/22 A2999

2010/08/09 18:56
KLAS 091856Z 13005KT 10SM CLR 33/06 A2991

2010/08/09 18:53
KLAX 091853Z 26009KT 10SM FEW015 19/12 A2994

2010/08/09 18:51
KLGA 091851Z 17013G18KT 10SM FEW060 SCT250 33/19 A2996

2010/08/09 18:53
KLIT 091853Z 08008KT 10SM BKN060TCU BKN250 37/23 A2993

2010/08/09 19:00
SMJP 091900Z 140/03KT 8000 -SHRA FEW020CB SCT030 32/21 Q1012 TEMPO 5000 -TSRA

2010/08/09 19:00
SCSE 091900Z 27007KT 9999 BKN018 13/09 Q1018 NEFO PLAYA 2400FT

2010/08/09 19:00
SCTC 091900Z 22007KT 170V260 CAVOK 14/05 Q1019

2010/08/09 19:00
SCVD 091900Z 12006KT 9999 FEW028 15/08 Q1021 RMK HR67

2010/08/09 19:00
SUDU 091900Z 00000KT CAVOK 19/02 Q1022

2010/08/09 19:00
SCAR 091900Z 22011KT CAVOK 16/08 Q1015

2010/08/09 19:00
SCBA 091900Z 31027G38KT 9999 SCT030 SCT070 04/M01 Q1018

2010/08/09 19:00
SCCF 091900Z 24019KT CAVOK 22/M12 Q1024

2010/08/09 19:00
SCCH 091900Z 21007KT CAVOK 15/02 Q1016

2010/08/09 19:00
SCCI 091900Z 26030G44KT 8000 SCT013 03/M01 Q1006 NOSIG RMK -SHSN

2010/08/09 19:00
SCDA 091900Z 24007KT 8000 OVC020 15/09 Q1016

2010/08/09 19:00
SCEL 091900Z 14007KT CAVOK 21/01 Q1015 NOSIG

2010/08/09 19:00
SCFA 091900Z 18009KT 9999 FEW020 SCT200 16/08 Q1016 NOSIG

2010/08/09 19:00
SCGE 091900Z 18012KT CAVOK 15/06 Q1017

2010/08/09 19:00
SCIE 091900Z 21009KT CAVOK 15/02 Q1017

2010/08/09 19:00
SCIP 091900Z 02011KT 9999 SCT013 SCT025 19/15 Q1023 NOSIG

2010/08/09 19:00
SCTE 091900Z 23004KT 9999 SCT015 BKN040 11/10 Q1024 NOSIG

2010/08/09 19:00
SGAS 091900Z 17006KT CAVOK 18/09 Q1019

2010/08/09 19:00
SGES 091900Z 21004KT CAVOK 23/14 Q1016

2010/08/09 19:00
SLCB 091900Z 32004KT 9999 SKC 25/01 Q1023

2010/08/09 19:00
SLLP 091900Z 13009KT 080V180 9999 SKC 15/M07 Q1036

2010/08/09 19:00
SLTJ 091900Z 13005KT 9999 SKC 19/07 Q1019

2010/08/09 19:00
SLVR 091900Z 15008KT 8000 SKC 26/10 Q1016

2010/08/09 19:00
SUAA 091900Z 25010KT 9999 FEW026 BKN200 15/06 Q1023

2010/08/09 19:00
SUCA 091900Z 26005KT CAVOK 17/02 Q1022

2010/08/09 19:00
SULS 091900Z 21006KT CAVOK 13/04 Q1023

2010/08/09 19:00
SUMU 091900Z 25007KT 8000 NSC 16/03 Q1023 NOSIG

2010/08/09 19:00
SUSO 091900Z 0000KT CAVOK 19/02 Q1023

2010/08/09 19:00
OERY 091900Z 08010KT CAVOK 39/05 Q1006 NOSIG

2010/08/09 19:00
LEAL 091900Z 07004KT 040V100 CAVOK 29/16 Q1014 NOSIG

2010/08/09 19:00
LEAM 091900Z 23004KT 200V260 CAVOK 25/22 Q1014

2010/08/09 19:00
LEAS 091900Z 09007KT 060V120 9999 SCT020 BKN030 20/16 Q1020 NOSIG

2010/08/09 19:00
LEBB 091900Z 35004KT 310V020 9999 SCT030 BKN040 21/15 Q1020 NOSIG

2010/08/09 19:00
LEBL 091900Z 10007KT 9999 FEW013 26/22 Q1016 NOSIG

2010/08/09 19:00
LECO 091900Z 35005KT 320V020 CAVOK 23/17 Q1018

2010/08/09 19:00
LEGE 091900Z 20006KT 180V240 3000 TSRA SCT010 FEW028CB BKN034 21/20 Q1017

2010/08/09 19:00
LEGR 091900Z 29009KT 260V330 9999 FEW090 34/10 Q1016

2010/08/09 19:00
LEIB 091900Z VRB02KT CAVOK 26/22 Q1014 NOSIG

2010/08/09 19:00
LEJR 091900Z 25003KT 240V310 CAVOK 32/14 Q1013

2010/08/09 19:00
LELC 091900Z 06003KT 030V100 CAVOK 26/19 Q1014 NOSIG

2010/08/09 19:00
LELL 091900Z 09006KT 040V130 9999 FEW011 24/18 Q1016

2010/08/09 19:00
LEMD 091900Z 18011G21KT 130V220 CAVOK 33/12 Q1016 NOSIG

2010/08/09 19:00
LEMG 091900Z 15008KT 130V190 CAVOK 28/14 Q1015 NOSIG

2010/08/09 19:00
LEMH 091900Z VRB01KT CAVOK 24/20 Q1016

2010/08/09 19:00
LEPA 091900Z 27005KT CAVOK 26/18 Q1015 NOSIG

2010/08/09 19:00
LEPP 091900Z 01010KT 9999 FEW029 19/14 Q1020

2010/08/09 19:00
LERS 091900Z 19004KT 160V220 9999 FEW030 26/19 Q1015

2010/08/09 19:00
LESO 091900Z 03003KT 330V060 9999 BKN030 21/16 Q1020

2010/08/09 19:00
LEST 091900Z 32004KT 280V010 CAVOK 21/15 Q1018 NOSIG

2010/08/09 19:00
LETO 091900Z 20009KT 9999 FEW050 32/12 Q1016 NOSIG

2010/08/09 19:00
LEVC 091900Z 06007KT 020V080 9999 FEW035 29/20 Q1014 NOSIG

2010/08/09 19:00
LEVD 091900Z 29009KT 9999 FEW035TCU 29/07 Q1018

2010/08/09 19:00
LEVS 091900Z 24007KT 200V270 9999 FEW050 31/10 Q1017

2010/08/09 19:00
LEVT 091900Z 03009KT 9999 FEW018 SCT027 18/15 Q1020

2010/08/09 19:00
LEVX 091900Z 27008KT 250V310 CAVOK 25/15 Q1016

2010/08/09 19:00
LEXJ 091900Z 06004KT 030V090 9999 SCT028 SCT038 21/15 Q1020

2010/08/09 19:00
LEZG 091900Z 30014KT 9999 FEW040 26/15 Q1016

2010/08/09 19:00
LEZL 091900Z 35004KT 320V020 CAVOK 36/12 Q1012 NOSIG

2010/08/09 19:00
DTMB 091900Z 06007KT CAVOK 25/18 Q1015 NOSIG

2010/08/09 19:00
DTTA 091900Z 36004KT 9999 FEW033 25/17 Q1015 NOSIG

2010/08/09 19:00
DTTB 091900Z 09006KT CAVOK 23/17 Q1016

2010/08/09 19:00
DTTG 091900Z 09012KT CAVOK 27/11 Q1014 NOSIG

2010/08/09 19:00
DTTJ 091900Z 11008KT CAVOK 27/22 Q1015 NOSIG

2010/08/09 19:00
DTTK 091900Z 07002KT CAVOK 29/10 Q1015

2010/08/09 19:00
DTTN 091900Z 06004KT 9999 FEW020 SCT200 29/09 Q1014

2010/08/09 19:00
DTTX 091900Z 07006KT CAVOK 26/20 Q1015 NOSIG

2010/08/09 19:00
DTTZ 091900Z 10012KT CAVOK 33/18 Q1013 NOSIG

2010/08/09 18:50
EGDM 091850Z 22012KT 9999 -DZ OVC004 17/15 Q1013

2010/08/09 18:50
EGOV 091850Z 24005KT 9999 FEW018 SCT060 16/14 Q1009 NOSIG

2010/08/09 19:00
UKBB 091900Z 32002MPS CAVOK 24/18 Q1014 86190095 36CLRD95 NOSIG

2010/08/09 19:00
UKCC 091900Z 12003MPS CAVOK 29/10 Q1012 08090070 NOSIG

2010/08/09 19:00
UKDD 091900Z 04003MPS CAVOK 27/12 Q1012 08090070 NOSIG

2010/08/09 19:00
UKDE 091900Z 05004MPS CAVOK 32/10 Q1011 02CLRD70 NOSIG

2010/08/09 19:00
UKDR 091900Z 06003MPS CAVOK 28/13 Q1012 1809//70 NOSIG

2010/08/09 19:00
UKFF 091900Z 09003MPS CAVOK 26/14 Q1010 01010070 NOSIG

2010/08/09 19:00
UKHH 091900Z 02002MPS 4100 DU SKC 31/11 Q1013 080///65 NOSIG

2010/08/09 19:00
UKLL 091900Z 29005G10MPS 220V360 0550 R31/P2000N VCTS +SHRA BKN005 SCT020CB 22/17 Q1016 31220355 TEMPO -TSRA

2010/08/09 19:00
UKOO 091900Z 01004MPS CAVOK 29/16 Q1012 34090070 NOSIG

2010/08/09 19:00
SVSA 091900Z 17015KT 9999 SCT020 32/19 Q1012

2010/08/09 19:00
SVSZ 091900Z 00000KT 9999 BKN020 XX/XX Q1010

2010/08/09 19:00
SVVA 091900Z 23009KT 9999 BKN016 30/22 Q1014

2010/08/09 18:50
EDDS 091850Z 36004KT CAVOK 20/11 Q1017 NOSIG

2010/08/09 18:50
EDMA 091850Z 04003KT 9999 FEW040 17/14 Q1017

2010/08/09 18:50
EGPK 091850Z 23006KT 9999 FEW020 SCT035 14/11 Q1008

2010/08/09 18:55
EGUL 091855Z AUTO 25006KT 9999 BKN050 BKN060 22/12 A2986 RMK AO2 SLP113 T02200122

2010/08/09 18:55
EGUN 091855Z AUTO 25007KT 9999 BKN050 OVC095 22/13 A2987 RMK AO2 SLP103 T02230127

2010/08/09 18:55
EGVA 091855Z AUTO 21010KT 9999 BKN015 BKN025 OVC032 18/16 A2989 RMK AO2 RAB1756E1757DZB1757E1807 BKN015 V SCT SLP122 P0000 T01810163 $

2010/08/09 18:55
ETAD 091855Z AUTO 20003KT 9999 BKN080 19/10 A3003 RMK AO2 SLP163 T01950101 $

2010/08/09 18:55
ETAR 091855Z AUTO 00000KT 9999 OVC080 18/16 A3002 RMK AO2 DZB1759E1802 SLP162 P0000 T01790159 $

2010/08/09 18:55
KQIR 091855Z 08003KT 9000 HZ FEW150 33/29 A2949 RMK AO2A SLP983 T03340286

2010/08/09 19:00
LEMO 091900Z 36009KT 320V030 CAVOK 37/16 Q1012 NOSIG

2010/08/09 18:50
LIRN 091850Z 31004KT CAVOK 24/18 Q1015

2010/08/09 18:55
LIYW 091855Z AUTO 00000KT 9999 CLR 24/19 A2998 RMK AO2 SLP149 T02420193

2010/08/09 19:00
LPLA 091900Z 03006KT 9999 FEW025 23/18 Q1022

2010/08/09 18:50
LTAC 091850Z 02009KT CAVOK 26/10 Q1012 NOSIG

2010/08/09 18:50
LTAG 091850Z 22004KT CAVOK 28/23 Q1006 NOSIG

2010/08/09 18:56
PHBK 091856Z AUTO 30003KT 10SM BKN055 27/18 A3010 RMK AO2 SLP196 T02720178 TSNO $

2010/08/09 18:55
PHHI 091855Z AUTO 10007KT 10SM OVC036 24/18 A3012 RMK AO2 SLP189 T02400179 $

2010/08/09 18:55
PHSF 091855Z VRB04KT 7SM FEW200 23/M04 A3031 RMK SLPNO

2010/08/09 19:00
PKWA 091900Z AUTO 05011KT 10SM SCT021 28/23 A2986 RMK AO2 T02770232

2010/08/09 18:56
PMDY 091856Z AUTO 08012KT 10SM CLR 27/22 A3024 RMK AO2 TSNO T02720216 SLP549

2010/08/09 18:55
RJTY 091855Z AUTO 28003KT 9999 BKN050 OVC060 24/23 A3004 RMK AO2 SLP166 T02440228

2010/08/09 18:55
RKSO 091855Z 09004KT 9999 SCT110 25/25 A2976 RMK AO2A SLP077 T0251 $

2010/08/09 18:55
RODN 091855Z 15016G30KT 9999 BKN017 BKN023 BKN029 OVC065 28/26 A2973 RMK AO2A PK WND 17030/1847 CIG 015V022 BKN029 V OVC SLP066 T02790256

2010/08/09 18:50
BGAA 091850Z 20007KT 140V260 9999 BKN110 12/07 Q1008

2010/08/09 18:50
BGQQ 091850Z AUTO 27006KT 9999NDV NCD 06/01 Q1013

2010/08/09 18:50
BGSS 091850Z 26005KT 9999 FEW011 SCT130 13/10 Q1008 RMK LAST OBS

2010/08/09 18:50
BGUK 091850Z AUTO 33011KT 0600NDV FG NCD 06/05 Q1008

2010/08/09 18:50
BGUQ 091850Z 29007KT 9999 FEW200 11/05 Q1007 RMK LAST OBS

2010/08/09 19:00
BKPR 091900Z 32005KT CAVOK 21/14 Q1018 NOSIG RMK BLU

2010/08/09 18:53
KLOU 091853Z 00000KT 10SM CLR 35/19 A2996

2010/08/09 18:53
KMCI 091853Z 20014KT 10SM BKN250 36/24 A2988

2010/08/09 18:53
KMCO 091853Z 15009KT 10SM SCT033TCU BKN060 BKN190 32/23 A2990

2010/08/09 18:53
KMEM 091853Z 03006KT 10SM BKN047CB BKN250 36/23 A2995

2010/08/09 18:53
KMIA 091853Z 16007KT 10SM FEW013 SCT075 BKN150 27/24 A2992

2010/08/09 18:53
KMSP 091853Z 11004KT 10SM CLR 33/20 A2991

2010/08/09 18:53
KMSY 091853Z 00000KT 10SM FEW040CB SCT060 SCT150 BKN250 34/25 A2995

2010/08/09 18:53
KOAK 091853Z 30006KT 10SM FEW016 19/12 A2994

2010/08/09 18:52
KOKC 091852Z 17010G18KT 10SM FEW060 36/22 A2992

2010/08/09 18:53
KONT 091853Z 22006KT 9SM CLR 26/11 A2991

2010/08/09 18:51
KORD 091851Z 29005KT 10SM FEW070 SCT150 SCT200 BKN250 30/21 A2992

2010/08/09 18:51
KORF 091851Z 09007KT 10SM FEW035 31/20 A3002

2010/08/09 18:53
KPBI 091853Z 13015KT 10SM SCT024CB SCT085 BKN250 30/23 A2990

2010/08/09 18:54
KPHF 091854Z 14007KT 10SM FEW095 32/19 A3002

2010/08/09 18:54
KPHL 091854Z 21009G16KT 10SM FEW060 SCT250 34/17 A2998

2010/08/09 18:51
KPHX 091851Z 21005KT 10SM FEW120 SCT150 SCT180 37/05 A2986

2010/08/09 18:51
KPIT 091851Z 23006KT 10SM FEW042 SCT150 BKN250 31/14 A3002

2010/08/09 18:51
KRDU 091851Z 18004KT 10SM SCT050 BKN250 34/20 A3003

2010/08/09 18:51
KSAN 091851Z 27006KT 10SM FEW020 21/14 A2995

2010/08/09 18:53
KSEA 091853Z 18005KT 10SM SCT014 OVC022 16/12 A2999

2010/08/09 18:56
KSFO 091856Z 03007KT 10SM FEW010 19/12 A2993

2010/08/09 18:51
KSTL 091851Z VRB04KT 9SM FEW050 BKN130 BKN200 36/24 A2991

2010/08/09 18:51
KTEB 091851Z 18010G17KT 10SM FEW070 33/18 A2994

2010/08/09 18:53
KTPA 091853Z 25005KT 6SM -RA FEW012 BKN028CB OVC250 28/25 A2989

2010/08/09 19:00
VTBS 091900Z 19004KT 9999 -RA FEW020 SCT035 BKN120 26/23 Q1004 NOSIG

2010/08/09 19:00
VTBD 091900Z 17003KT 9999 FEW020 SCT120 BKN300 25/24 Q1004 NOSIG

2010/08/09 19:00
VTCC 091900Z 19004KT 9999 BKN035 SCT110 26/24 Q1006 A2970

2010/08/09 19:00
VTBU 091900Z 24002KT 9999 FEW020 SCT120 BKN300 29/25 Q1005 A2968

2010/08/09 19:00
VVTS 091900Z 18005KT 9999 FEW017 BKN040 26/24 Q1006 NOSIG

2010/08/09 19:00
VVNB 091900Z 04003KT 6000 NSC 26/26 Q1003 NOSIG

2010/08/09 19:00
VVDN 091900Z 20003KT 8000 FEW013 SCT060 25/23 Q1004 NOSIG

2010/08/09 19:00
VVPB 091900Z VRB02KT 9999 FEW015 BKN060 26/24 Q1003 NOSIG

2010/08/09 19:00
DTKA 091900Z 00000KT 9999 FEW026 25/22 Q1015 NOSIG

2010/08/09 19:00
DTTF 091900Z 14012KT CAVOK 30/13 Q1013 NOSIG

2010/08/09 18:50
EDDE 091850Z 28006KT 9999 FEW044 BKN080 19/12 Q1017 NOSIG

2010/08/09 18:50
EDFH 091850Z 23002KT CAVOK 18/09 Q1017

2010/08/09 18:50
EDGS 091850Z 26002KT 9999 FEW035 SCT054 16/12 Q1017

2010/08/09 18:50
EDLV 091850Z VRB02KT CAVOK 18/15 Q1016

2010/08/09 18:50
EDRZ 091850Z 08003KT CAVOK 20/11 Q1017

2010/08/09 18:50
EDSB 091850Z VRB01KT CAVOK 21/15 Q1016

2010/08/09 18:50
EDTL 091850Z 03003KT CAVOK 21/13 Q1016

2010/08/09 18:50
EETU 091850Z AUTO 17006KT 9999NDV OVC110/// 20/17 Q1014

2010/08/09 18:50
EFET 091850Z AUTO 05006KT 9999 OVC024 12/09 Q1013

2010/08/09 18:50
EFHA 091850Z AUTO 15003KT 9999 FEW038 19/15 Q1010

2010/08/09 18:50
EFJO 091850Z AUTO 20006KT CAVOK 23/16 Q1011

2010/08/09 18:50
EFKA 091850Z AUTO 18003KT 8000 -SHRA BKN075 OVC105 18/18 Q1008

2010/08/09 18:50
EFKI 091850Z AUTO 29001KT //// FEW046 SCT074 BKN117 21/19 Q1008

2010/08/09 18:50
EFKS 091850Z AUTO 24003KT 9999 -RA SCT014 BKN048 BKN086 19/17 Q1007

2010/08/09 18:50
EFKT 091850Z AUTO 01005KT 330V090 9999 OVC016 13/10 Q1011

2010/08/09 18:50
EFLP 091850Z 19003KT CAVOK 21/15 Q1013

2010/08/09 18:50
EFMI 091850Z AUTO 21004KT 170V260 CAVOK 21/14 Q1011

2010/08/09 18:50
EFSA 091850Z AUTO 18007KT 140V230 CAVOK 22/15 Q1012

2010/08/09 18:50
EFSI 091850Z AUTO 15003KT 6000 SCT080 18/17 Q1009

2010/08/09 18:50
EFUT 091850Z AUTO 19005KT 150V230 CAVOK 20/15 Q1012

2010/08/09 18:50
EFVR 091850Z AUTO 22004KT 170V280 CAVOK 22/15 Q1011

2010/08/09 18:50
EGCN 091850Z 27007KT 9999 SCT041 20/15 Q1010

2010/08/09 18:50
EGDX 091850Z AUTO 25008KT 9999NDV // FEW018/// SCT031/// BKN045/// 18/16 Q1012

2010/08/09 18:50
EGEC 091850Z AUTO 22004KT 9999NDV // NSC 14/11 Q1007

2010/08/09 18:50
EGOM 091850Z AUTO 23008KT 9999NDV // SCT060/// 14/11 Q1008

2010/08/09 18:50
EGOP 091850Z AUTO 28011KT 1500NDV BR FEW003/// BKN013/// 16/16 Q1011

2010/08/09 18:50
EGPI 091850Z AUTO 24005KT 200V270 9999NDV -SHRA SCT014/// SCT026/// 14/12 Q1007

2010/08/09 18:50
EGUB 091850Z 21010KT 9999 SCT020 BKN035 BKN090 19/14 Q1012 TEMPO FEW020 BKN035

2010/08/09 18:50
EGUB 091850Z 21010KT 9999 SCT020 BKN035 BKN090 19/14 Q1012 WHT TEMPO FEW020 BKN035 BLU

2010/08/09 18:50
EGUW 091850Z 22008KT CAVOK 21/09 Q1012 BLU NOSIG

2010/08/09 18:50
EGVN 091850Z 21005KT 9999 BKN019 BKN044 18/16 Q1012 TEMPO 6000 -RADZ

2010/08/09 18:50
EGVN 091850Z 21005KT 9999 BKN019 BKN044 18/16 Q1012 WHT TEMPO 6000 -RADZ WHT

2010/08/09 18:50
EGVO 091850Z 21012KT 9999 FEW012 BKN017 18/14 Q1014 WHT BECMG BKN008 GRN

2010/08/09 18:50
EGVP 091850Z AUTO 22008KT 9999NDV // OVC010/// 17/15 Q1013

2010/08/09 18:50
EGWU 091850Z 23011KT 9999 FEW026 BKN060 20/14 Q1013 BLU BECMG SCT024 WHT

2010/08/09 18:50
EGWU 091850Z 23011KT 9999 FEW026 BKN060 20/14 Q1013 BECMG SCT024

2010/08/09 18:50
EGXC 091850Z 22013KT 9999 FEW040 BKN100 21/13 Q1010 NOSIG

2010/08/09 18:50
EGXC 091850Z 22013KT 9999 FEW040 BKN100 21/13 Q1010 BLU NOSIG

2010/08/09 18:50
EGXD 091850Z 26008KT 9999 FEW026 18/13 Q1009 BLU NOSIG

2010/08/09 18:50
EGXE 091850Z 25011KT 9999 FEW020 17/13 Q1008 BLU NOSIG

2010/08/09 18:50
EGXG 091850Z AUTO 19005KT 9999NDV FEW032/// 18/15 Q1009

2010/08/09 18:50
EGXJ 091850Z AUTO 22014KT 9999NDV // SCT037/// BKN080/// 20/13 Q1010

2010/08/09 18:50
EGXT 091850Z AUTO 22012KT 9999NDV FEW031/// BKN080/// 21/13 Q1011

2010/08/09 18:50
EGXU 091850Z AUTO 19004KT 9999NDV // NCD 18/16 Q1009

2010/08/09 18:50
EGXW 091850Z 24015KT 9999 FEW035 BKN090 21/13 Q1010 BLU NOSIG

2010/08/09 18:50
EGXX 091850Z AUTO 22014KT 9999NDV // BKN050/// 21/13 Q1010

2010/08/09 18:50
EGXZ 091850Z AUTO 25006KT 9999NDV FEW027/// 18/13 Q1009

2010/08/09 18:50
EGYD 091850Z AUTO 23016KT 9999NDV // FEW038/// BKN090/// 21/13 Q1010

2010/08/09 18:50
EGYM 091850Z 23010KT CAVOK 22/12 Q1011 BLU NOSIG

2010/08/09 18:50
EKGF 091850Z 19021KT 9999 FEW012 17/16 Q1012

2010/08/09 18:50
ENHE 091850Z 05021KT 9999 BKN015 11/08 Q1012

2010/08/09 18:50
ENSS 091850Z 05011KT 9999 BKN006 08/07 Q1015

2010/08/09 19:00
EPWR 091900Z 24005KT CAVOK 19/17 Q1016

2010/08/09 18:50
ESGR 091850Z AUTO 25009KT 210V290 9999NDV OVC010/// 16/15 Q1010

2010/08/09 18:50
ESMQ 091850Z AUTO 25008KT 9999NDV OVC028/// 17/14 Q1012

2010/08/09 18:50
ESMT 091850Z AUTO 26009KT 9999NDV OVC038/// 16/12 Q1013

2010/08/09 18:50
ESNG 091850Z 06006KT 030V090 9999 FEW034 SCT046 14/11 Q1012

2010/08/09 18:50
ESNK 091850Z AUTO 00000KT 9999NDV OVC014/// 17/16 Q1008

2010/08/09 18:50
ESNL 091850Z AUTO 05004KT 9999NDV FEW023/// OVC027/// 16/13 Q1010

2010/08/09 18:50
ESNX 091850Z AUTO 01006KT 9999NDV FEW015/// OVC024/// 15/12 Q1011

2010/08/09 18:50
ESNY 091850Z AUTO 00000KT 9999 OVC002 17/17 Q1007

2010/08/09 18:50
ESOE 091850Z 24005KT 9999 FEW013 SCT038 18/17 Q1008

2010/08/09 18:50
ESSL 091850Z 24009KT 6000 +DZ BR FEW008 SCT010 BKN013 16/16 Q1009 RERA

2010/08/09 18:50
ESTA 091850Z 26009KT 9999 FEW029 OVC043 17/10 Q1013

2010/08/09 18:50
ESTL 091850Z AUTO 22004KT 9999NDV BKN040/// 15/12 Q1014

2010/08/09 18:50
ESUT 091850Z AUTO 17006KT 9999NDV NCD 17/12 Q1010

2010/08/09 18:55
ETOU 091855Z AUTO 00000KT 9999 CLR 20/12 A3002 RMK AO2 SLP163 T01950124

2010/08/09 18:50
ETUO 091850Z AUTO 00000KT 9999NDV // BKN060/// 19/14 Q1016

2010/08/09 18:50
EVLA 091850Z AUTO 22007KT 9999 NCD 18/16 Q1014

2010/08/09 18:50
EVVA 091850Z AUTO 21009KT 9999 FEW017 SCT024 BKN033 18/16 Q1013

2010/08/09 18:50
EYKA 091850Z 15003KT CAVOK 18/18 Q1016

2010/08/09 18:50
EYPA 091850Z 22003KT 190V280 CAVOK 18/16 Q1014

2010/08/09 19:00
FAGC 091900Z AUTO 19013KT //// // ////// 07/M11 Q1027

2010/08/09 19:00
FAJB 091900Z AUTO 20003KT //// // ////// 07/M10 Q1027

2010/08/09 19:00
FASI 091900Z AUTO 20003KT //// // ////// 07/M10 Q1027

2010/08/09 19:00
FAVV 091900Z AUTO 22004KT //// // ////// 07/M09 Q1026

2010/08/09 19:00
FKYS 091900Z 23003KT 9999 BKN013 22/19 Q1017 NOSIG

2010/08/09 19:00
FQNP 091900Z 07012KT 9999 FEW020 BKN100 22/18 Q1020

2010/08/09 19:00
GMAD 091900Z 27007KT 6000 NSC 25/19 Q1012 NOSIG

2010/08/09 19:00
GMFM 091900Z 31007KT 8000 FEW026 37/13 Q1015

2010/08/09 19:00
GMML 091900Z 30010KT CAVOK 26/19 Q1012

2010/08/09 19:00
GMMW 091900Z 02004KT 8000 FEW016 SCT100 26/21 Q1014

2010/08/09 19:00
GMMZ 091900Z 25021KT CAVOK 30/08 Q1021

2010/08/09 18:50
HLLM 091850Z 05007KT 7000 SKC 26/19 Q1016

2010/08/09 18:55
KCBE 091855Z AUTO 00000KT 10SM CLR 33/16 A3002 RMK AO1

2010/08/09 18:55
KEGI 091855Z 11007KT 10SM SCT030 35/23 A2996 RMK AO2A SLP145 T03470228 $

2010/08/09 18:50
KESN 091850Z 24008KT 6SM HZ SCT070 33/22 A3004

2010/08/09 18:57
KFME 091857Z AUTO 18005KT 10SM SCT055 SCT075 SCT085 31/20 A3001 RMK AO1

2010/08/09 18:50
KGYH 091850Z 32004KT 10SM SCT050 34/19 A3003

2010/08/09 19:00
LBGO 091900Z 27002MPS CAVOK 23/20 Q1013 NOSIG

2010/08/09 19:00
LEAB 091900Z 19003KT CAVOK 30/12 Q1018 NOSIG

2010/08/09 19:00
LELN 091900Z 26010KT CAVOK 26/02 Q1019

2010/08/09 19:00
LESA 091900Z 26003KT 230V290 8000 FEW040TCU SCT045 27/16 Q1018

2010/08/09 19:00
LETO 091900Z 20009KT 9999 FEW050 32/12 Q1016 NOSIG

2010/08/09 19:00
LFBE 091900Z AUTO 25003KT 210V290 9999NDV OVC040 22/16 Q1018

2010/08/09 19:00
LFBG 091900Z AUTO 26008KT 9999NDV FEW038 22/14 Q1018

2010/08/09 19:00
LFCR 091900Z AUTO 27010KT 9999NDV BKN033 20/15 Q1019

2010/08/09 19:00
LFJL 091900Z AUTO 30002KT 9999NDV NSC 22/09 Q1016

2010/08/09 19:00
LFLX 091900Z AUTO 32002KT 9999NDV NSC 25/09 Q1015

2010/08/09 19:00
LFMI 091900Z AUTO 21005KT 160V240 9999NDV NSC 22/19 Q1015

2010/08/09 19:00
LFMK 091900Z AUTO 28010KT 9999NDV NSC 23/16 Q1018

2010/08/09 19:00
LFMO 091900Z AUTO 20007KT 9999NDV NSC 27/18 Q1014

2010/08/09 19:00
LFMU 091900Z AUTO 31009KT 9999NDV

2010/08/09 19:00
LFMU 091900Z AUTO 31009KT 9999NDV VCTS //////CB 27/19 Q1015

2010/08/09 19:00
LFMV 091900Z AUTO 21008KT 9999NDV NSC 26/19 Q1014

2010/08/09 19:00
LFOA 091900Z AUTO 36005KT 9999NDV NSC 25/10 Q1015

2010/08/09 19:00
LFOJ 091900Z AUTO VRB01KT 9999NDV NSC 25/09 Q1015

2010/08/09 19:00
LFOK 091900Z AUTO VRB01KT 9999NDV NSC 22/09 Q1016

2010/08/09 19:00
LFQI 091900Z AUTO 32006KT 9999NDV NSC 22/13 Q1015

2010/08/09 19:00
LKCV 091900Z 11001KT CAVOK 18/16 Q1017 NOSIG RMK BLU+ BLU+

2010/08/09 19:00
LKKV 091900Z 00000KT CAVOK 16/13 Q1018

2010/08/09 19:00
LKNA 091900Z 01005KT CAVOK 18/12 Q1018 NOSIG RMK BLU+ BLU+

2010/08/09 19:00
LKPD 091900Z 00000KT CAVOK 18/16 Q1017 NOSIG RMK BLU+ BLU+

2010/08/09 19:00
LKPO 091900Z 27002KT 9999 FEW043 18/14 Q1017 NOSIG RMK BLU+ BLU+

2010/08/09 18:50
LLSD 091850Z 30005KT 9999 SCT026 28/22 Q1006

2010/08/09 18:50
LOXT 091850Z 19002KT 50KM FEW050CU 19/15 Q1017 RMK FEW

2010/08/09 18:50
LOXZ 091850Z 34003KT 30KM FEW040CU BKN050SC 18/15 Q1018 RMK BKN

2010/08/09 19:00
LQBK 091900Z 29003KT CAVOK 20/18 Q1016 NOSIG

2010/08/09 19:00
LQMO 091900Z VRB02KT CAVOK 27/14 Q1011

2010/08/09 18:50
LTAB 091850Z 05004KT 010V070 CAVOK 29/10 Q1011 NOSIG RMK RWY06 VRB05KT

2010/08/09 18:50
LTAE 091850Z 33007KT CAVOK 28/10 Q1011 NOSIG RMK RWY21 36009KT

2010/08/09 18:50
LTAZ 091850Z 12005KT 080V160 CAVOK 28/03 Q1011

2010/08/09 18:50
LTBR 091850Z 16003KT CAVOK 28/22 Q1010 NOSIG

2010/08/09 18:50
LTBR 091850Z 16003KT CAVOK 28/22 Q1010 NOSIG RMK RWY07 22003KT

2010/08/09 18:50
LTBU 091850Z 01012KT CAVOK 27/19 Q1010

2010/08/09 18:50
LTBU 091850Z 01012KT CAVOK 27/19 Q1010 RMK RWY23 35011KT

2010/08/09 18:50
LTCF 091850Z 03010KT 9999 TS FEW025CB SCT030 19/10 Q1021

2010/08/09 18:50
LTFH 091850Z 29009KT 9999 SCT027 28/26 Q1006 NOSIG

2010/08/09 18:50
LTFJ 091850Z 01005KT 9999 SCT035 27/24 Q1009 NOSIG

2010/08/09 19:00
LZKC 091900Z 18003KT CAVOK 19/17 Q1016

2010/08/09 19:00
LZLU 091900Z 19003KT 150V210 CAVOK 19/16 Q1016

2010/08/09 19:00
LZNI 091900Z 13003KT 9999 FEW040CB BKN120 20/15 Q1017

2010/08/09 19:00
LZPE 091900Z VRB02KT 9999 FEW036CB BKN050 19/15 Q1017

2010/08/09 19:00
LZPP 091900Z 11002KT 9999 FEW033 SCT100 18/15 Q1017

2010/08/09 19:00
LZSL 091900Z 26002KT 9999 FEW050 SCT100 19/15 Q1016

2010/08/09 19:00
LZZI 091900Z VRB02KT CAVOK 16/14 Q1018

2010/08/09 19:00
UHHH 091900Z 11003MPS 9999 -SHRA FEW005 BKN019CB OVC100 20/20 Q1006 NOSIG

2010/08/09 19:00
MHTR 091900Z 08012KT 9999 FEW026TCU BKN250 33/26 TCU W HZ

2010/08/09 18:53
MMEP 091853Z 00000KT 12SM SCT030 BKN250 29/16 A3005 RMK 8/108

2010/08/09 19:00
MMIT 091900Z 36005KT 6SM HZ FEW020 OVC180 33/30 A2977 RMK 8/106

2010/08/09 19:00
MMTB 091900Z VRB02KT 7SM BKN025 BKN180 30/22 A2986 RMK 8/404

2010/08/09 18:50
MMVA 091850Z 09008KT 4SM BKN020 OVC080 33/26 A2981 RMK 8/41/ HZY

2010/08/09 19:00
MNBL 091900Z 09008KT 9999 SCT020 SCT080 30/27 Q1011

2010/08/09 19:00
MNCH 091900Z 09006KT 9999 FEW024CB SCT025TCU 32/25 Q1010 CB/N/NE/NW TCU/E/SE/S

2010/08/09 19:00
MNJG 091900Z 00000KT 9999 BKN020 25/18 Q1011

2010/08/09 19:00
MNJU 091900Z 09006KT 9999 SCT020 SCT080 29/26 Q1011

2010/08/09 19:00
MNRS 091900Z 08006KT 9999 FEW015CB BKN016 29/25 Q1011 CB/4C

2010/08/09 18:50
MSLU 091850Z 10007KT CAVOK 33/27 Q1009

2010/08/09 18:50
MSSA 091850Z 06006KT 9999 FEW037 30/21 Q1014

2010/08/09 18:50
MSSM 091850Z 00000KT CAVOK 33/25 Q1009

2010/08/09 18:54
MUCF 091854Z 25015KT 9000 BKN018 29/24 Q1014

2010/08/09 18:51
MUHG 091851Z VRB02KT 9999 SCT020TCU BKN100 33/23 Q1012

2010/08/09 18:54
OAHR 091854Z AUTO /////KT //// // ////// 29/M02 Q1010

2010/08/09 19:00
OIIE 091900Z 04008KT CAVOK 28/03 Q1011 A2987

2010/08/09 19:00
OYDM 091900Z 00000KT CAVOK 17/14 Q////

2010/08/09 19:00
OYRN 091900Z 01007KT 270V040 CAVOK 29/20 Q1003

2010/08/09 19:00
OYSQ 091900Z 18030KT 9999 FEW018 28/24 Q1007

2010/08/09 19:00
OYSY 091900Z 22004KT 9999 FEW040 BKN080 35/13 Q1005

2010/08/09 19:00
RJBB 091900Z 21009KT 9999 FEW005 BKN060 27/25 Q1013 NOSIG

2010/08/09 19:00
RJFS 091900Z VRB03KT 9999 -RA FEW035 SCT130 BKN170 26/24 Q1010

2010/08/09 19:00
RJGG 091900Z 12008KT 9999 FEW006 SCT050 BKN070 26/25 Q1013 NOSIG

2010/08/09 18:58
ROTM 091858Z 18014G28KT 9999 BKN010 OVC040 28/26 A2974 RMK PK WND 16028/46 SLP055 WND WRNG XWND ADV T02780256

2010/08/09 19:00
SCJO 091900Z 17014KT 9999 SCT020 14/07 Q1023

2010/08/09 19:00
SVVG 091900Z 00000KT 9999 SCT020 32/XX Q1011

2010/08/09 19:00
UBBN 091900Z 13010KT 9999 SCT050CB BKN100 29/09 Q1010 R14R/CLRD60 NOSIG RMK G/O QFE683

2010/08/09 19:00
YSTW 091900Z AUTO 12010KT 9999NDV // SCT076 OVC098 12/10 Q1017

2010/08/09 19:00
YSWG 091900Z AUTO 09016KT 9999NDV // SCT040 OVC047 10/07 Q1014

2010/08/09 19:00
YTEF 091900Z AUTO 13009KT //// // ////// 09/M06 Q1021

2010/08/09 19:00
YTNK 091900Z AUTO 16007KT 9999NDV // NCD 12/00 Q1017

2010/08/09 19:00
YTRE 091900Z AUTO 01007KT //// // ////// 17/13 Q1019

2010/08/09 19:00
YWGT 091900Z AUTO 17001KT //// // ////// 07/06 Q1015

2010/08/09 19:00
YWHA 091900Z AUTO 23008KT 9999NDV // SCT070 BKN094 08/07 Q1012

2010/08/09 19:00
YWLM 091900Z AUTO 02008KT 9999NDV // SCT079 OVC096 13/11 Q1018

2010/08/09 19:00
ZBHH 091900Z 03002MPS CAVOK 14/08 Q1012 NOSIG

2010/08/09 19:00
ZBSJ 091900Z 02001MPS 1100 R33/1100N BR -RA OVC046 26/24 Q1006 NOSIG

2010/08/09 19:00
ZGHA 091900Z 19001MPS 3500 BR SKC 28/28 Q1002 NOSIG

2010/08/09 19:00
ZGKL 091900Z AUTO 00000MPS 3000 BR //// 27/25 Q1004

2010/08/09 19:00
ZJHK 091900Z 00000MPS 8000 NSC 25/25 Q1003 NOSIG

2010/08/09 19:00
ZLXY 091900Z 03003MPS 4000 BR NSC 26/23 Q1004 NOSIG

2010/08/09 19:00
ZSQD 091900Z VRB01MPS 9999 FEW012 25/23 Q1006 NOSIG

2010/08/09 19:00
ZWSH 091900Z AUTO VRB03MPS CAVOK 27/07 Q1010

2010/08/09 19:00
ZYCC 091900Z 21004MPS 3000 BR SCT003 19/18 Q1007 NOSIG

2010/08/09 19:00
ZYTX 091900Z VRB01MPS 7000 BKN030 21/20 Q1006 NOSIG

2010/08/09 18:51
KABE 091851Z 25008KT 10SM FEW060 SCT080 33/19 A2998

2010/08/09 18:53
KAGC 091853Z VRB03KT 10SM CLR 31/14 A3002

2010/08/09 18:54
KAKR 091854Z AUTO 21010KT 10SM CLR 31/17 A3001

2010/08/09 18:51
KALB 091851Z 26010G15KT 9SM SCT065 SCT100 32/18 A2993

2010/08/09 18:56
KART 091856Z AUTO 24009KT 8SM BKN080 27/20 A2991

2010/08/09 18:54
KAVP 091854Z 24007KT 10SM CLR 32/13 A2998

2010/08/09 18:53
KBAF 091853Z VRB03KT 10SM BKN070 BKN080 33/16 A2993

2010/08/09 18:51
KBDL 091851Z 24010G15KT 10SM FEW070 SCT100 SCT250 33/15 A2993

2010/08/09 18:52
KBDR 091852Z 18010KT 8SM CLR 31/21 A2995

2010/08/09 18:56
KBED 091856Z 27008KT 9SM CLR 34/17 A2990

2010/08/09 18:54
KBTV 091854Z 00000KT 10SM -RA SCT031CB BKN065 BKN100 26/20 A2989

2010/08/09 18:54
KBUF 091854Z 23008KT 9SM SCT060 SCT110 BKN130 OVC180 27/18 A2994

2010/08/09 18:53
KBVY 091853Z 25009G16KT 10SM FEW065 32/16 A2990

2010/08/09 18:56
KCAE 091856Z 13007KT 10SM SCT050 SCT070 33/22 A3000

2010/08/09 18:51
KCAK 091851Z 24009G19KT 10SM FEW065 SCT250 30/17 A3002

2010/08/09 18:55
KCEF 091855Z AUTO 22008KT 10SM BKN070 33/17 A2993

2010/08/09 18:51
KCMH 091851Z 00000KT 10SM SCT065 SCT110 BKN200 31/17 A3000

2010/08/09 18:53
KCRQ 091853Z 26007KT 220V290 10SM CLR 21/13 A2993

2010/08/09 18:54
KCRW 091854Z 28004KT 8SM FEW050 32/18 A3003

2010/08/09 18:56
KDAY 091856Z VRB05KT 10SM FEW050 BKN130 BKN190 32/18 A3001

2010/08/09 18:55
KDOV 091855Z AUTO 12011KT 10SM FEW150 31/21 A2999

2010/08/09 18:51
KERI 091851Z 27008KT 7SM BKN075 28/19 A2999

2010/08/09 18:53
KEWB 091853Z 20009KT 8SM FEW050 SCT100 30/21 A2995

2010/08/09 18:56
KFDK 091856Z AUTO 21006KT 10SM SCT075 36/18 A3000

2010/08/09 18:53
KFVE 091853Z AUTO 31004KT 1/2SM +RA FG SCT017 BKN032 OVC039 17/16 A2985

2010/08/09 18:54
KGSO 091854Z VRB03KT 10SM SCT049 32/19 A3004

2010/08/09 18:53
KGSP 091853Z 20003KT 10SM CLR 33/22 A3002

2010/08/09 18:56
KHPN 091856Z 16011KT 8SM SCT060 32/19 A2997

2010/08/09 18:51
KHTS 091851Z VRB03KT 9SM CLR 31/18 A3002

2010/08/09 18:53
KHUL 091853Z AUTO 27006KT 10SM SCT049 OVC060 24/18 A2986

2010/08/09 18:53
KHVN 091853Z 20008KT 10SM CLR 32/19 A2995

2010/08/09 18:53
KIAG 091853Z 22013KT 10SM VCTS FEW030 BKN060CB BKN085 OVC130 27/19 A2993

2010/08/09 18:51
KILG 091851Z 15013KT 9SM SCT049 BKN060 32/22 A2999

2010/08/09 18:53
KILM 091853Z AUTO 11008KT 080V150 10SM CLR 31/23 A3001

2010/08/09 18:54
KINT 091854Z 15007KT 10SM SCT049 BKN075 32/21 A3005

2010/08/09 18:55
KLSV 091855Z AUTO VRB03KT 10SM CLR 32/05 A2993

2010/08/09 18:53
KLUK 091853Z 20004KT 8SM FEW060 33/21 A2997

2010/08/09 18:54
KLWM 091854Z 22012G19KT 10SM BKN065 33/16 A2991

2010/08/09 18:56
KMDT 091856Z 00000KT 8SM FEW050 BKN250 33/20 A2997

2010/08/09 18:53
KMSS 091853Z AUTO 29004KT 10SM FEW034 26/21 A2990

2010/08/09 18:54
KORH 091854Z 25011G17KT 10SM CLR 31/16 A2998

2010/08/09 18:55
KPQI 091855Z AUTO 20005KT 10SM SCT060 BKN100 23/18 A2982

2010/08/09 18:55
KPSM 091855Z 24009KT 10SM SCT060 SCT130 33/17 A2989

2010/08/09 18:51
KPVD 091851Z 24010G17KT 10SM FEW049TCU SCT065 32/19 A2995

2010/08/09 18:51
KPWM 091851Z 16007KT 10SM SCT065 BKN080 BKN090 30/19 A2989

2010/08/09 18:54
KRIC 091854Z 18008G14KT 10SM SCT049 BKN250 33/19 A3001

2010/08/09 18:54
KROC 091854Z 22007KT 9SM BKN070 OVC130 27/21 A2994

2010/08/09 18:54
KSYR 091854Z 28011G18KT 10SM SCT050 BKN120 BKN200 31/18 A2993

2010/08/09 18:55
KWRI 091855Z AUTO 21006KT 10SM CLR 34/18 A2996

2010/08/09 18:53
KAMA 091853Z 18011G18KT 10SM CLR 32/15 A3002

2010/08/09 18:53
KAUS 091853Z 15007KT 120V190 10SM FEW055 36/20 A2994

2010/08/09 18:53
KBPT 091853Z COR 18004KT 10SM BKN035 35/23 A2995

2010/08/09 18:53
KBPT 091853Z 18004KT 10SM CLR 35/23 A2995

2010/08/09 19:00
KBQK 091900Z AUTO 07013G17KT 10SM SCT027 SCT035 SCT041 33/25 A2997

2010/08/09 18:53
KBRO 091853Z 13015G18KT 10SM SCT039 BKN050 BKN065 36/24 A2989

2010/08/09 18:53
KBTR 091853Z VRB04KT 10SM SCT040 SCT080 SCT120 35/24 A2993

2010/08/09 18:53
KCHA 091853Z 00000KT 10SM FEW050 SCT120 BKN250 35/21 A2999

2010/08/09 18:51
KCRP 091851Z 12014KT 10SM BKN040 33/25 A2992

2010/08/09 18:53
KDAL 091853Z COR 24005KT 10SM BKN060TCU 35/21 A2992

2010/08/09 18:53
KDAL 091853Z 24005KT 10SM BKN060 35/21 A2992

2010/08/09 18:53
KDRT 091853Z AUTO 14010G20KT 10SM CLR 34/21 A2991

2010/08/09 18:51
KELP 091851Z VRB04KT 10SM FEW075 32/12 A3006

2010/08/09 18:53
KEYW 091853Z 24013G19KT 10SM FEW024 BKN075 28/24 A2991

2010/08/09 18:53
KFPR 091853Z 12014KT 10SM SCT020 31/23 A2991

2010/08/09 18:53
KFTW 091853Z 20010G14KT 10SM CLR 37/21 A2991

2010/08/09 18:53
KFTY 091853Z 00000KT 8SM CLR 34/20 A3001

2010/08/09 18:53
KFXE 091853Z 15008KT 10SM SCT028 BKN034 BKN041 30/23 A2990

2010/08/09 18:52
KGLS 091852Z 15011KT 10SM CLR 33/24 A2996

2010/08/09 18:53
KGPT 091853Z 16009KT 10SM FEW037 SCT070 34/26 A2994

2010/08/09 18:53
KHOU 091853Z 00000KT 10SM SCT045 34/23 A2994

2010/08/09 18:52
KHRL 091852Z 19006KT 10SM SCT044 36/24 A2987

2010/08/09 18:53
KHSV 091853Z 15006KT 10SM SCT055TCU BKN070 35/22 A2997

2010/08/09 18:53
KLCH 091853Z 00000KT 10SM FEW050 35/23 A2995

2010/08/09 18:56
KLRD 091856Z 14010G15KT 100V170 10SM CLR 37/20 A2992

2010/08/09 18:53
KMAF 091853Z 17009G18KT 5SM HZ FEW055 34/17 A3001

2010/08/09 18:53
KMFE 091853Z 09007KT 10SM SCT040 34/24 A2988

2010/08/09 18:53
KMGM 091853Z 13007G14KT 10SM CLR 36/20 A2996

2010/08/09 18:56
KMOB 091856Z 13012G17KT 10SM SCT039 BKN200 34/23 A2997

2010/08/09 18:53
KNEW 091853Z 10023G33KT 1/2SM +TSRA FG BKN017 BKN027 BKN070 27/25 A2999

2010/08/09 18:53
KOPF 091853Z 20009KT 10SM -RA SCT013 BKN021 27/24 A2992

2010/08/09 18:53
KPDK 091853Z 00000KT 10SM FEW060 34/18 A3002

2010/08/09 18:53
KPIE 091853Z 00000KT 10SM -RA BKN028 28/24 A2989

2010/08/09 18:53
KPNS 091853Z AUTO 15010KT 10SM CLR 33/24 A2996

2010/08/09 18:53
KRSW 091853Z AUTO VRB06KT 10SM FEW035 32/23 A2986

2010/08/09 18:53
KSAT 091853Z 00000KT 10SM FEW050 33/21 A2995

2010/08/09 18:53
KSAV 091853Z 07008KT 040V110 10SM SCT049 34/21 A2997

2010/08/09 18:56
KSHV 091856Z 15005KT 10SM BKN060 36/21 A2993

2010/08/09 18:53
KSSI 091853Z AUTO 06013KT 10SM CLR 32/25 A2997

2010/08/09 18:53
KTMB 091853Z 17007KT 10SM -RA BR SCT010 SCT020 SCT048 28/25 A2992

2010/08/09 18:53
KTUL 091853Z 16011G14KT 10SM FEW060 37/21 A2990

2010/08/09 18:53
KTYS 091853Z 31004KT 10SM FEW045 34/22 A3000

2010/08/09 19:03
KNEW 091903Z 11011G27KT 3SM TSRA BR FEW017 BKN026 OVC060 26/25 A2998

2010/08/09 19:03
KMSY 091903Z 01007KT 10SM TS SCT037CB SCT060 BKN150 BKN250 33/24 A2995

2010/08/09 19:04
CWLY 091904Z AUTO 34013G21KT 1 3/8SM FEW012 FEW017 BKN023 OVC057 14/13 A2990

2010/08/09 18:55
ETIH 091855Z AUTO 27003KT 9999 CLR 16/16 A3007 RMK AO2 SLP174 T01580158 $

2010/08/09 19:00
LELO 091900Z VRB02KT 9999 FEW030 23/14 Q1018

2010/08/09 19:00
LERT 091900Z VRB01KT CAVOK 31/17 Q1013 NOSIG

2010/08/09 19:00
LFBY 091900Z AUTO 28003KT 9999 // ////// 21/15 Q1019

2010/08/09 19:00
LFRJ 091900Z AUTO 22010KT 9999NDV OVC004/// 17/17 Q1017

2010/08/09 19:00
LFRL 091900Z 23007KT 180V260 9999 FEW002 BKN003 BKN006 17/17 Q1017 REDZ

2010/08/09 19:00
LFRT 091900Z AUTO VRB02KT 9999NDV SCT031 BKN037 OVC044 18/14 Q1017

2010/08/09 19:00
LFTW 091900Z AUTO 20004KT 170V230 9999NDV //////CB 24/17 Q1015

2010/08/09 19:00
LJLJ 091900Z 12003KT 080V160 9999 SCT035 21/17 Q1017 NOSIG

2010/08/09 19:00
LJMB 091900Z VRB02KT CAVOK 19/18 Q1018

2010/08/09 19:00
LJPZ 091900Z 12004KT CAVOK 22/19 Q1015

2010/08/09 19:00
LPFR 091900Z 26004KT CAVOK 30/18 Q1012

2010/08/09 19:00
LPPR 091900Z 00000KT CAVOK 27/17 Q1015

2010/08/09 19:00
LPPS 091900Z 36010KT 9999 SCT013 SCT030 23/19 Q1014

2010/08/09 19:00
LPPT 091900Z 30009KT CAVOK 35/12 Q1013 NOSIG

2010/08/09 19:00
LRAR 091900Z 34004KT CAVOK 20/18 Q1016

2010/08/09 19:00
LRBC 091900Z 35004KT CAVOK 22/20 Q1015

2010/08/09 19:00
LRBM 091900Z 00000KT CAVOK 18/16 Q1016

2010/08/09 19:00
LRCL 091900Z 27004KT 9999 FEW053 SCT075 20/17 Q1017

2010/08/09 19:00
LRCV 091900Z 26008KT CAVOK 24/17 Q1014

2010/08/09 19:00
LRIA 091900Z 28004KT CAVOK 22/20 Q1015

2010/08/09 19:00
LROD 091900Z 33004KT CAVOK 19/17 Q1017

2010/08/09 19:00
LRSM 091900Z AUTO 00000KT 9999 SCT230 20/19 Q1016

2010/08/09 19:00
LRSV 091900Z 16004KT 8000 -TSRA SCT040CB 20/19 Q1017

2010/08/09 19:00
LRTC 091900Z AUTO 34012KT 9999 BKN170 26/19 Q1011

2010/08/09 19:00
LRTM 091900Z VRB02KT 9999 FEW040 22/19 Q1016

2010/08/09 19:00
LYTV 091900Z VRB01KT CAVOK 22/17 Q1012

2010/08/09 18:53
KAZO 091853Z 17005KT 10SM SCT007 BKN070 24/22 A2997

2010/08/09 18:53
KBDE 091853Z AUTO 00000KT 10SM CLR 31/19 A2989

2010/08/09 18:53
KBTL 091853Z 17005KT 10SM BKN065 23/22 A2997

2010/08/09 18:53
KBTM 091853Z AUTO 00000KT 10SM CLR 20/08 A3002

2010/08/09 18:55
KCIU 091855Z AUTO 15006KT 10SM BKN026 BKN060 26/19 A2990

2010/08/09 18:53
KCMX 091853Z AUTO 28009KT 10SM FEW016 25/20 A2990

2010/08/09 18:54
KCOS 091854Z AUTO 10004KT 10SM CLR 23/13 A3019

2010/08/09 18:53
KCPR 091853Z 20017G22KT 10SM FEW110 28/03 A3005

2010/08/09 18:53
KDET 091853Z 31007KT 10SM CLR 28/20 A2997

2010/08/09 18:55
KDLH 091855Z 27005KT 10SM FEW030 30/18 A2993

2010/08/09 18:54
KDSM 091854Z 16004KT 10SM FEW024 SCT250 31/24 A2987

2010/08/09 18:53
KELO 091853Z AUTO 29006KT 10SM SCT090 28/18 A2992

2010/08/09 18:53
KFAR 091853Z 21009KT 10SM CLR 32/21 A2988

2010/08/09 18:53
KFNT 091853Z AUTO 21006G17KT 4SM -RA BR SCT028 BKN075 23/22 A2995

2010/08/09 18:53
KGFK 091853Z 19013G19KT 10SM FEW250 34/18 A2984

2010/08/09 18:53
KGRB 091853Z 20008KT 10SM FEW025 BKN038 BKN045 29/23 A2988

2010/08/09 18:53
KGRR 091853Z 24007KT 10SM BKN019 BKN200 28/22 A2995

2010/08/09 18:53
KICT 091853Z 16011G18KT 10SM SCT075 SCT200 SCT250 38/19 A2989

2010/08/09 18:55
KINL 091855Z AUTO 00000KT 10SM FEW095 29/21 A2990

2010/08/09 18:52
KISN 091852Z 05008KT 10SM CLR 28/16 A2986

2010/08/09 18:54
KLEX 091854Z 29003KT 10SM FEW060 34/18 A3001

2010/08/09 18:53
KMBS 091853Z 17010KT 2 1/2SM -RA BR SCT018 BKN030 OVC060 24/23 A2994

2010/08/09 18:51
KMDW 091851Z 28008KT 10SM FEW035 SCT070 BKN200 BKN250 30/20 A2991

2010/08/09 18:54
KMKC 091854Z 18008G17KT 10SM CLR 36/24 A2986

2010/08/09 18:52
KMKE 091852Z 27005KT 10SM SCT027 BKN140 BKN250 29/21 A2990

2010/08/09 18:52
KMLI 091852Z 08005KT 10SM CLR 28/23 A2991

2010/08/09 18:54
KAPN 091854Z VRB04KT 10SM FEW020 26/19 A2988

2010/08/09 18:54
KMOT 091854Z 00000KT 10SM CLR 29/18 A2984

2010/08/09 18:50
KMWA 091850Z 31004KT 15SM BKN060 BKN075 37/20 A2993

2010/08/09 18:52
KOMA 091852Z 36003KT 10SM SCT035 SCT160 SCT250 33/25 A2984

2010/08/09 18:55
KPHN 091855Z AUTO 20003KT 10SM CLR 25/21 A2995

2010/08/09 18:54
KPIA 091854Z VRB04KT 10SM CLR 31/23 A2992

2010/08/09 18:53
KPTK 091853Z 23008KT 9SM -RA BKN017 OVC130 24/22 A2997

2010/08/09 18:53
KPUB 091853Z 18003KT 10SM CLR 26/15 A3007

2010/08/09 18:50
KSAW 091850Z 04011KT 10SM SKC 27/21 A2988

2010/08/09 18:56
KSDF 091856Z 15004KT 9SM FEW055 SCT200 BKN250 35/21 A2995

2010/08/09 18:52
KSGF 091852Z 24004KT 10SM CLR 35/22 A2996

2010/08/09 18:53
KSTP 091853Z 00000KT 10SM CLR 33/21 A2991

2010/08/09 18:54
KSUS 091854Z VRB03KT 10SM BKN150 34/25 A2989

2010/08/09 18:52
KTOL 091852Z 00000KT 9SM CLR 31/21 A2997

2010/08/09 18:53
KBFI 091853Z 17003KT 10SM OVC023 17/12 A2998

2010/08/09 18:53
KBIL 091853Z 00000KT 10SM FEW090 28/11 A2990

2010/08/09 18:53
KBKE 091853Z AUTO 31004KT 10SM CLR 23/07 A2991

2010/08/09 18:53
KBLI 091853Z 19006KT 10SM SCT010 BKN041 OVC100 16/13 A2996

2010/08/09 18:53
KBOI 091853Z 29007KT 10SM CLR 26/09 A2989

2010/08/09 18:53
KCLM 091853Z AUTO 30006KT 10SM BKN025 BKN060 15/11 A3000

2010/08/09 18:56
KCTB 091856Z AUTO 21009G17KT 10SM FEW075 26/07 A2989

2010/08/09 18:56
KDUG 091856Z AUTO 00000KT 10SM CLR 30/16 A3009

2010/08/09 18:53
KFAT 091853Z 22005KT 10SM FEW080 28/13 A2988

2010/08/09 18:55
KGDV 091855Z AUTO 09008KT 10SM CLR 31/11 A2987

2010/08/09 18:53
KGEG 091853Z 18008KT 10SM FEW065 SCT100 BKN200 24/08 A2986

2010/08/09 18:53
KGGW 091853Z AUTO VRB03KT 10SM CLR 29/09 A2986

2010/08/09 18:53
KGLH 091853Z 00000KT 10SM CLR 37/22 A2993

2010/08/09 18:55
KGPI 091855Z 11003KT 10SM CLR 24/08 A2987

2010/08/09 18:53
KGTF 091853Z 13004KT 10SM -RA FEW075 SCT110 24/07 A2988

2010/08/09 18:53
KGWO 091853Z AUTO 11007KT 10SM CLR 37/25 A2994

2010/08/09 18:53
KHLN 091853Z 10004KT 10SM CLR 22/09 A2991

2010/08/09 18:53
KHQM 091853Z AUTO 23008KT 10SM SCT013 OVC025 15/12 A3001

2010/08/09 18:53
KHVR 091853Z AUTO 09005KT 10SM CLR 29/10 A2985

2010/08/09 18:53
KIPL 091853Z AUTO VRB04KT 10SM CLR 36/07 A2978

2010/08/09 18:53
KLBB 091853Z 21010G16KT 10SM FEW060 SCT180 SCT250 33/17 A3003

2010/08/09 18:53
KMSO 091853Z VRB03KT 10SM CLR 26/09 A2987

2010/08/09 18:52
KMWH 091852Z AUTO 19011G15KT 140V220 10SM CLR 26/10 A2982

2010/08/09 18:53
KOLF 091853Z AUTO 14005KT 10SM CLR 30/13 A2986

2010/08/09 18:54
KOLM 091854Z 16005KT 10SM OVC019 17/12 A2999

2010/08/09 18:54
KOLS 091854Z AUTO 19007KT 10SM CLR 31/14 A3007

2010/08/09 18:50
KOLV 091850Z 07008KT 4SM TSRA BKN008 OVC011 26/26 A2999

2010/08/09 18:53
KPAE 091853Z 29005KT 10SM BKN012 OVC022 17/13 A2999

2010/08/09 18:53
KPDX 091853Z 00000KT 10SM SCT025 OVC031 16/08 A3001

2010/08/09 18:53
KPMD 091853Z 00000KT 10SM CLR 30/00 A2995

2010/08/09 18:55
KRNO 091855Z 30003KT 10SM FEW080 26/04 A3000

2010/08/09 18:53
KRNT 091853Z 00000KT 9SM OVC018 16/12 A2998

2010/08/09 18:53
KSAC 091853Z 22005KT 10SM CLR 23/13 A2988

2010/08/09 18:55
KSCK 091855Z 31005KT 10SM CLR 24/13 A2988

2010/08/09 18:53
KSDM 091853Z VRB05KT 10SM CLR 22/13 A2993

2010/08/09 18:53
KSFF 091853Z 21007KT 10SM FEW070 25/09 A2985

2010/08/09 18:53
KSJC 091853Z 06005KT 10SM FEW007 23/11 A2991

2010/08/09 18:53
KSLC 091853Z 17011KT 140V200 10SM SCT080TCU SCT120 SCT200 28/04 A3001

2010/08/09 18:53
KSMF 091853Z VRB03KT 10SM CLR 23/15 A2987

2010/08/09 18:53
KTIW 091853Z VRB03KT 10SM OVC014 17/12 A2999

2010/08/09 18:53
KTUS 091853Z 21005KT 10SM CLR 34/15 A2998

2010/08/09 18:56
KNUW 091856Z 23003KT 6SM -RA BR FEW006 SCT012 OVC018 14/12 A2999

2010/08/09 19:02
PAKT 091902Z 14005KT 10SM SCT010 OVC019 14/12 A3002

2010/08/09 18:54
KACY 091854Z 16013G19KT 10SM CLR 31/20 A3001

2010/08/09 18:53
KAUG 091853Z AUTO 26004KT 10SM FEW100 29/18 A2991

2010/08/09 18:54
KAVL 091854Z 36003KT 10SM CLR 31/18 A3010

2010/08/09 18:53
KBGM 091853Z AUTO 26008KT 10SM CLR 29/14 A3003

2010/08/09 18:51
KBKW 091851Z AUTO 26005KT 6SM HZ CLR 28/17 A3013

2010/08/09 18:55
KCBE 091855Z AUTO 00000KT 10SM CLR 33/16 A3002

2010/08/09 18:51
KCON 091851Z AUTO 29009KT 10SM FEW065 33/16 A2991

2010/08/09 18:52
KDCA 091852Z 17011KT 8SM SCT055 BKN250 33/21 A2999

2010/08/09 18:51
KEKN 091851Z AUTO VRB03KT 9SM CLR 30/18 A3009

2010/08/09 18:50
KESN 091850Z 24008KT 6SM HZ SCT070 33/22 A3004

2010/08/09 18:53
KGFL 091853Z AUTO 22010KT 190V260 10SM BKN055 BKN070 31/19 A2990

2010/08/09 18:53
KGSP 091853Z 20003KT 10SM CLR 33/22 A3002

2010/08/09 19:00
KIPJ 091900Z AUTO 00000KT 10SM SCT050 35/19 A3003

2010/08/09 18:54
KIPT 091854Z 33006KT 10SM CLR 32/14 A2996

2010/08/09 18:54
KLYH 091854Z 18004KT 10SM CLR 32/21 A3005

2010/08/09 18:53
KMHT 091853Z 25008G15KT 10SM SCT065 BKN080 33/17 A2989

2010/08/09 18:51
KMPV 091851Z AUTO 25006KT 10SM FEW041 SCT060 27/17 A2997

2010/08/09 18:51
KNYC 091851Z AUTO VRB04KT 10SM CLR 34/19 A2999

2010/08/09 18:54
KPNE 091854Z AUTO 22009G14KT 10SM FEW060 33/19 A2999

2010/08/09 18:54
KROA 091854Z 13007KT 10SM BKN048 32/21 A3005

2010/08/09 18:53
KSMQ 091853Z AUTO VRB05KT 10SM CLR 33/19 A2994

2010/08/09 18:54
KWAL 091854Z 17008KT 10SM FEW030 SCT100 SCT250 29/22 A3004

2010/08/09 19:00
GOGG 091900Z 27006KT 9999 BKN016 TCU SCT130 28/25 Q1012

2010/08/09 19:00
GOTT 091900Z 22012KT 9999 SCT013 SCT020 TCU FEW120 SCT230 30/25 Q1010

2010/08/09 19:00
GOSS 091900Z 30008KT 270V360 9999 FEW016 BKN230 29/25 Q1010

2010/08/09 19:06
LEGE 091906Z 24003KT 170V300 6000 TSRA SCT010 FEW028CB BKN034 21/20 Q1017

2010/08/09 19:00
RJAA 091900Z 16003KT 9999 FEW020 SCT140 22/22 Q1015 NOSIG

2010/08/09 19:00
RJBB 091900Z 21009KT 9999 FEW005 BKN060 27/25 Q1013 NOSIG

2010/08/09 19:00
RJTT 091900Z 17007KT 9999 FEW010 SCT015 BKN090 26/23 Q1015

2010/08/09 19:00
RJFF 091900Z 15005KT 9999 -RA FEW020 SCT090 BKN150 26/23 Q1010

2010/08/09 19:00
RJGG 091900Z 12008KT 9999 FEW006 SCT050 BKN070 26/25 Q1013 NOSIG

2010/08/09 19:00
RJFR 091900Z 09007KT 050V110 9999 FEW007 SCT010 BKN150 27/24 Q1010

2010/08/09 19:00
RJAA 091900Z 16003KT 9999 FEW020 SCT140 22/22 Q1015 NOSIG

2010/08/09 19:00
RJBB 091900Z 21009KT 9999 FEW005 BKN060 27/25 Q1013 NOSIG

2010/08/09 19:00
RJTT 091900Z 17007KT 9999 FEW010 SCT015 BKN090 26/23 Q1015

2010/08/09 19:00
RJGG 091900Z 12008KT 9999 FEW006 SCT050 BKN070 26/25 Q1013 NOSIG

2010/08/09 19:00
RJAA 091900Z 16003KT 9999 FEW020 SCT140 22/22 Q1015 NOSIG

2010/08/09 19:00
RJBB 091900Z 21009KT 9999 FEW005 BKN060 27/25 Q1013 NOSIG

2010/08/09 19:00
RJTT 091900Z 17007KT 9999 FEW010 SCT015 BKN090 26/23 Q1015

2010/08/09 19:00
ROAH 091900Z 17022G32KT 9999 -SHRA SCT012 FEW025TCU BKN035 28/25 Q1006

2010/08/09 19:00
RJGG 091900Z 12008KT 9999 FEW006 SCT050 BKN070 26/25 Q1013 NOSIG

2010/08/09 19:00
RJFF 091900Z 15005KT 9999 -RA FEW020 SCT090 BKN150 26/23 Q1010

2010/08/09 19:00
RJCC 091900Z 18003KT 1500 R01R/P1800N -DZ BR SCT001 BKN002 21/20 Q1014

2010/08/09 19:00
SACO 091900Z 05013KT CAVOK 17/01 Q1023

2010/08/09 19:00
SAEZ 091900Z 29006KT 240V330 CAVOK 18/06 Q1024

2010/08/09 19:00
SARE 091900Z 16003KT CAVOK 19/06 Q1021

2010/08/09 19:00
SARF 091900Z 18006KT 9999 FEW020 18/09 Q1020

2010/08/09 19:00
SAVC 091900Z 27007KT CAVOK 15/01 Q1016

2010/08/09 19:00
SAWE 091900Z 27024G43KT 9999 FEW012 03/M02 Q1000

2010/08/09 19:00
SAZM 091900Z 27003KT CAVOK 16/04 Q1023

2010/08/09 19:00
SAZS 091900Z 28005KT CAVOK 08/M04 Q1022

2010/08/09 19:00
SBBV 091900Z 14017KT 9999 VCSH BKN020 FEW027TCU BKN070 29/20 Q1011

2010/08/09 19:00
SBCB 091900Z 25018KT 9999 SCT025 SCT080 24/17 Q1019

2010/08/09 19:00
SBFI 091900Z 24006KT CAVOK 20/12 Q1018

2010/08/09 19:00
SBNT 091900Z 12017KT 9999 VCSH SCT027 FEW030TCU BKN100 26/22 Q1014

2010/08/09 19:00
SBPA 091900Z 15006KT 9999 FEW040 16/04 Q1024

2010/08/09 19:00
SPHI 091900Z 20010KT CAVOK 24/15 Q1016 RMK PP000

2010/08/09 19:00
SPQU 091900Z 24011KT CAVOK 19/M12 Q1026 NOSIG RMK PP000

2010/08/09 19:00
SPRU 091900Z 18010KT 9000 FEW012 17/13 Q1015 RMK BIRD HAZARD RWY20 PP000

2010/08/09 19:00
SPSO 091900Z 29009KT 6000 FEW012 19/14 Q1017 RMK BIRDS HAZARD RWY 22/04 W PP000

2010/08/09 19:00
SPTN 091900Z 23006KT CAVOK 20/09 Q1012 RMK PP000

2010/08/09 19:00
SPZO 091900Z 03007KT 300V050 9999 SKC 20/M19 Q1031 NOSIG RMK PP000

2010/08/09 19:00
SUAA 091900Z 25010KT 9999 FEW026 BKN200 15/06 Q1023

2010/08/09 19:00
SUCA 091900Z 26005KT CAVOK 17/02 Q1022

2010/08/09 19:00
SUDU 091900Z 00000KT CAVOK 19/02 Q1022

2010/08/09 19:00
SULS 091900Z 21006KT CAVOK 13/04 Q1023

2010/08/09 19:00
SUMU 091900Z 25007KT 8000 NSC 16/03 Q1023 NOSIG

2010/08/09 19:00
SUSO 091900Z 0000KT CAVOK 19/02 Q1023

2010/08/09 18:53
KAAF 091853Z AUTO 12009G16KT 10SM CLR 33/24 A2994

2010/08/09 18:53
KABR 091853Z AUTO 12008KT 10SM CLR 32/19 A2990

2010/08/09 18:51
KACT 091851Z 16008KT 10SM FEW049 37/21 A2993

2010/08/09 18:53
KAGS 091853Z 11006KT 10SM FEW065 34/22 A2998

2010/08/09 18:51
KAHN 091851Z 00000KT 6SM HZ SCT050 SCT065 33/20 A3002

2010/08/09 18:53
KALI 091853Z AUTO VRB04KT 10SM SCT045 35/23 A2990

2010/08/09 18:53
KAUS 091853Z 15007KT 120V190 10SM FEW055 36/20 A2994

2010/08/09 19:00
KAYS 091900Z AUTO 06007KT 10SM SCT050 34/23 A2995

2010/08/09 18:51
KBVE 091851Z AUTO 22003KT -RA BKN026 24/24 A2998

2010/08/09 18:55
KCAO 091855Z AUTO 15011G18KT 10SM CLR 33/13 A3007

2010/08/09 18:53
KCDS 091853Z AUTO 22007G17KT 10SM CLR 36/19 A2995

2010/08/09 18:53
KCLL 091853Z 23006KT 10SM CLR 36/21 A2994

2010/08/09 18:53
KCNM 091853Z AUTO 10006KT 10SM CLR 32/19 A3002

2010/08/09 18:53
KCOT 091853Z AUTO 10005KT 10SM CLR 36/19 A2991

2010/08/09 18:51
KCSG 091851Z 05005KT 9SM SCT070 SCT085 36/18 A2997

2010/08/09 18:53
KCTY 091853Z AUTO 08006KT 34/23 A2992

2010/08/09 18:53
KDAB 091853Z 09008G14KT 10SM FEW024 SCT110 31/23 A2993

2010/08/09 18:53
KDHT 091853Z AUTO 20010G17KT 10SM CLR 33/14 A3003

2010/08/09 18:53
KECP 091853Z 06007G14KT 10SM FEW050 34/22 A2994

2010/08/09 18:53
KELD 091853Z AUTO 20004KT 10SM FEW050 36/23 A2994

2010/08/09 18:51
KELP 091851Z VRB04KT 10SM FEW075 32/12 A3006

2010/08/09 18:53
KESF 091853Z AUTO VRB03KT 10SM CLR 37/22 A2995

2010/08/09 18:53
KFSM 091853Z 32006KT 10SM CLR 36/22 A2992

2010/08/09 18:53
KFYV 091853Z 22005KT 10SM CLR 35/21 A2997

2010/08/09 18:53
KGAG 091853Z AUTO 17013G20KT 10SM CLR 36/18 A2992

2010/08/09 18:51
KGDP 091851Z AUTO 25009G19KT 10SM CLR 28/13 A3019

2010/08/09 18:53
KHBR 091853Z AUTO 18010KT 10SM CLR 38/16 A2991

2010/08/09 18:51
KHDO 091851Z AUTO 16007KT 100V200 10SM CLR 36/20 A2996

2010/08/09 18:53
KHOT 091853Z AUTO 16006KT 10SM CLR 36/22 A2995

2010/08/09 18:53
KHRO 091853Z AUTO 23005KT 10SM CLR 31/23 A2999

2010/08/09 18:54
KIPT 091854Z 33006KT 10SM CLR 32/14 A2996

2010/08/09 18:54
KJAN 091854Z 00000KT 10SM SCT049 36/23 A2994

2010/08/09 18:53
KJBR 091853Z AUTO 13006KT 10SM CLR 36/23 A2991

2010/08/09 18:51
KJCT 091851Z AUTO 17005KT 10SM FEW065 35/17 A2996

2010/08/09 18:55
KJQF 091855Z 14005KT 7SM SCT046 BKN090 33/20 A3002

2010/08/09 18:53
KLFK 091853Z AUTO 17004KT 10SM CLR 36/22 A2995

2010/08/09 18:53
KLFT 091853Z VRB04KT 10SM CLR 35/23 A2996

2010/08/09 18:53
KMCN 091853Z 08010G14KT 040V110 9SM CLR 34/21 A2999

2010/08/09 18:58
KMEI 091858Z 11006KT 10SM FEW041 34/23 A2997

2010/08/09 18:53
KMLC 091853Z AUTO VRB05G19KT 10SM FEW065 36/19 A2993

2010/08/09 18:53
KMLU 091853Z 15003KT 10SM CLR 37/23 A2994

2010/08/09 18:53
KMWL 091853Z AUTO 16011G16KT 120V220 10SM FEW060 37/20 A2991

2010/08/09 18:53
KPBF 091853Z AUTO 00000KT 10SM FEW060 36/23 A2994

2010/08/09 18:53
KPNC 091853Z AUTO 15007G16KT 10SM CLR 37/22 A2989

2010/08/09 18:53
KPSX 091853Z AUTO 20011G18KT 10SM CLR 35/26 A2994

2010/08/09 18:53
KPWA 091853Z 17014G19KT 140V200 10SM CLR 37/21 A2991

2010/08/09 18:53
KRMG 091853Z AUTO 12005KT 10SM FEW055 35/21 A2999

2010/08/09 18:53
KRSL 091853Z AUTO 17010KT 10SM CLR 38/19 A2986

2010/08/09 18:56
KSHV 091856Z 15005KT 10SM BKN060 36/21 A2993

2010/08/09 18:52
KSPS 091852Z COR 20011G15KT 10SM SCT075 38/17 A2989

2010/08/09 18:52
KSPS 091852Z AUTO 20011G15KT 10SM FEW075 38/17 A2989

2010/08/09 18:53
KTLH 091853Z 07008G16KT 10SM FEW050 35/20 A2995

2010/08/09 18:53
KTOP 091853Z 18010KT 10SM CLR 39/22 A2986

2010/08/09 18:53
KTRI 091853Z 30006KT 10SM SCT045 BKN150 33/18 A3005

2010/08/09 18:53
KTUP 091853Z 27004KT 10SM BKN034 BKN050 35/25 A2995

2010/08/09 18:51
KVCT 091851Z VRB05KT 10SM BKN047 36/23 A2993

2010/08/09 18:53
KVGT 091853Z 16008KT 10SM CLR 32/06 A2993

2010/08/09 18:58
KVUJ 091858Z AUTO 00000KT 10SM SCT050 SCT065 BKN100 33/21 A3002

2010/08/09 18:55
KWRB 091855Z 09007KT 10SM FEW020 35/23 A2999

2010/08/09 19:00
WBGR 091900Z 32003KT 9999 SCT014 BKN150 27/25 Q1008

2010/08/09 19:00
WBGS 091900Z 14003KT 9999 FEW008 SCT018 BKN150 23/22 Q1010

2010/08/09 19:00
WBGY 091900Z 10002KT 9999 SCT022 BKN150 24/22 Q1009

2010/08/09 19:00
WBKL 091900Z 16003KT 2000 +TSRA SCT008 FEW013CB SCT030 BKN130 23/22 Q1010

2010/08/09 19:00
WBKS 091900Z 20003KT 9999 FEW015 SCT140 BKN270 26/24 Q1009

2010/08/09 19:00
WBKT 091900Z 24001KT 9999 FEW016 BKN280 25/24 Q1008

2010/08/09 19:00
WBKW 091900Z 00000KT 9999 FEW017 BKN140 24/23 Q1010

2010/08/09 19:02
PABE 091902Z 17016G26KT 7SM -RA SCT007 BKN011 OVC016 10/09 A2936

2010/08/09 18:53
KAIA 091853Z AUTO 24016KT 10SM FEW095 33/13 A3000

2010/08/09 18:50
KAID 091850Z 16006KT 10SM CLR 31/22 A2987

2010/08/09 18:54
KALO 091854Z AUTO 10007KT 10SM CLR 31/23 A2990

2010/08/09 18:52
KALS 091852Z AUTO A3026

2010/08/09 18:50
KANW 091850Z AUTO 00000KT 10SM CLR 30/18 A2997

2010/08/09 18:53
KBBW 091853Z AUTO 30003KT 10SM CLR 28/21 A2996

2010/08/09 18:53
KBFF 091853Z AUTO 27005KT 10SM CLR 27/12 A3003

2010/08/09 18:50
KBIE 091850Z AUTO 15006KT 10SM CLR 33/21 A2986

2010/08/09 18:52
KBIS 091852Z 19007KT 10SM CLR 34/17 A2988

2010/08/09 18:53
KBPI 091853Z AUTO 21017G21KT 10SM CLR 23/02 A3016

2010/08/09 18:53
KBRL 091853Z AUTO 16006KT 10SM CLR 32/24 A2989

2010/08/09 18:53
KCAG 091853Z AUTO VRB03KT 10SM BKN085 20/12 A3023

2010/08/09 18:53
KCGI 091853Z 00000KT 10SM CLR 35/24 A2992

2010/08/09 18:52
KCID 091852Z 07004KT 10SM CLR 30/24 A2991

2010/08/09 18:55
KCNK 091855Z AUTO 21009KT 10SM CLR 37/22 A2986

2010/08/09 18:52
KCNU 091852Z AUTO 18011G17KT 10SM CLR 37/22 A2991

2010/08/09 18:54
KCOU 091854Z 18005KT 10SM FEW080 32/27 A2992

2010/08/09 18:53
KCYS 091853Z VRB04KT 10SM BKN100 24/09 A3017

2010/08/09 18:53
KDBQ 091853Z 03005KT 10SM FEW080 29/24 A2994

2010/08/09 18:52
KDDC 091852Z AUTO 19011G20KT 10SM CLR 38/16 A2991

2010/08/09 18:55
KDVL 091855Z AUTO 21013KT 10SM CLR 33/19 A2985

2010/08/09 18:55
KEAR 091855Z AUTO 10006KT 10SM CLR 30/23 A2995

2010/08/09 18:54
KEVV 091854Z VRB03KT 10SM SCT060 36/22 A2994

2010/08/09 18:53
KFNB 091853Z AUTO 17010G14KT 10SM CLR 35/24 A2984

2010/08/09 18:56
KFSD 091856Z 09006KT 10SM SCT025 29/23 A2991

2010/08/09 18:54
KFWA 091854Z 22005KT 9SM FEW055 BKN140 30/22 A2998

2010/08/09 18:53
KGCC 091853Z AUTO 22007G17KT 10SM CLR 31/08 A2995

2010/08/09 18:54
KGCK 091854Z 19013G20KT 10SM CLR 36/16 A2993

2010/08/09 18:53
KGJT 091853Z 13003KT 10SM SCT090 SCT110 26/11 A3012

2010/08/09 18:53
KGLD 091853Z AUTO 09010G19KT 10SM CLR 32/17 A3000

2010/08/09 18:55
KGPZ 091855Z AUTO 27005KT 10SM CLR 29/21 A2993

2010/08/09 18:53
KGRI 091853Z VRB03KT 10SM CLR 32/22 A2991

2010/08/09 18:55
KHON 091855Z AUTO 13008KT 10SM CLR 32/22 A2989

2010/08/09 18:53
KHSI 091853Z AUTO 01005KT 10SM CLR 31/23 A2991

2010/08/09 18:53
KHTL 091853Z AUTO 36005KT 9SM VCTS -RA BKN035 OVC043 24/22 A2993

2010/08/09 18:53
KIML 091853Z AUTO 10005KT 10SM SCT120 29/17 A3000

2010/08/09 18:55
KIRK 091855Z AUTO 15008KT 10SM CLR 29/24 A2990

2010/08/09 18:53
KJKL 091853Z AUTO VRB03KT 10SM CLR 32/18 A3005

2010/08/09 18:53
KJLN 091853Z 19007KT 10SM CLR 35/23 A2994

2010/08/09 19:00
KJNX 091900Z AUTO 12003KT 10SM SCT045 SCT050 SCT070 31/21 A3002

2010/08/09 18:53
KLAN 091853Z 19006KT 10SM FEW011 SCT055 OVC120 23/22 A2995

2010/08/09 18:53
KLBF 091853Z AUTO 08005KT 10SM CLR 29/21 A2996

2010/08/09 18:53
KLND 091853Z AUTO 00000KT 10SM FEW120 27/07 A3002

2010/08/09 18:54
KLNK 091854Z VRB05KT 10SM CLR 34/25 A2985

2010/08/09 18:53
KLXV 091853Z AUTO 01009G14KT 10SM SCT060 BKN110 13/08 A3043

2010/08/09 18:53
KMCK 091853Z AUTO 11011KT 10SM CLR 32/22 A2995

2010/08/09 18:53
KMCW 091853Z AUTO 15005KT 10SM FEW026 28/23 A2995

2010/08/09 18:52
KMFD 091852Z 24008KT 8SM CLR 31/16 A3003

2010/08/09 18:52
KMHK 091852Z 21013KT 10SM CLR 39/19 A2983

2010/08/09 18:55
KMKG 091855Z 22009G17KT 10SM BKN012 OVC017 27/23 A2993

2010/08/09 18:53
KMSN 091853Z VRB04KT 10SM BKN025 28/22 A2992

2010/08/09 18:53
KODX 091853Z AUTO 08003KT 10SM CLR 29/22 A2991

2010/08/09 18:50
KONL 091850Z AUTO 00000KT 10SM CLR 26/21 A2994

2010/08/09 18:53
KOTM 091853Z AUTO 19008KT 10SM CLR 29/23 A2989

2010/08/09 18:53
KPAH 091853Z 21005KT 10SM FEW037 34/25 A2992

2010/08/09 18:53
KPKD 091853Z AUTO 24005KT 10SM CLR 31/18 A2994

2010/08/09 18:52
KRAP 091852Z 18016G20KT 10SM CLR 33/16 A2994

2010/08/09 18:54
KRFD 091854Z 31010KT 10SM FEW030 SCT150 BKN250 30/22 A2993

2010/08/09 18:53
KRIW 091853Z AUTO 13005KT 10SM CLR 27/07 A3003

2010/08/09 18:54
KRST 091854Z 24004KT 10SM SCT023 SCT030 30/23 A2995

2010/08/09 18:53
KSHR 091853Z AUTO 00000KT 10SM CLR 31/08 A2992

2010/08/09 18:53
KSLN 091853Z 17011KT 10SM CLR 39/19 A2984

2010/08/09 18:52
KSPI 091852Z 20004KT 10SM CLR 32/26 A2991

2010/08/09 18:54
KSBN 091854Z 19006KT 6SM HZ FEW060 SCT080 27/22 A2997

2010/08/09 18:53
KSTC 091853Z 00000KT 10SM CLR 32/19 A2992

2010/08/09 18:52
KSUX 091852Z 04005KT 10SM OVC013 28/23 A2987

2010/08/09 18:53
KTCS 091853Z AUTO 00000KT 10SM CLR 29/12 A3011

2010/08/09 19:01
KTDF 091901Z AUTO 20003KT 32/20 A3004

2010/08/09 18:55
KUDG 091855Z 14006KT 4SM FEW075 32/23 A3003

2010/08/09 18:54
KUIN 091854Z AUTO 18008KT 10SM CLR 31/25 A2990

2010/08/09 18:53
KVIH 091853Z AUTO 00000KT 10SM FEW038 33/24 A2994

2010/08/09 18:52
KVTN 091852Z AUTO 00000KT 10SM CLR 32/16 A2996

2010/08/09 18:51
KYNG 091851Z 19007KT 10SM FEW050 SCT100 BKN250 29/17 A3002

2010/08/09 18:55
KAST 091855Z AUTO 30005KT 10SM OVC008 15/13 A3002

2010/08/09 18:54
KBFL 091854Z 32008KT 10SM CLR 29/13 A2986

2010/08/09 18:52
KBLU 091852Z AUTO 20007KT 190V270 10SM CLR 21/07 A3010

2010/08/09 18:56
KBZN 091856Z 31005KT 10SM SCT100 BKN110 23/11 A2998

2010/08/09 18:53
KCNY 091853Z AUTO 23011G17KT 10SM BKN085 29/04 A3007

2010/08/09 18:52
KCZZ 091852Z AUTO VRB04G15KT 27/M04 A2993

2010/08/09 18:55
KDRA 091855Z AUTO 08006KT 10SM FEW070 31/01 A2997

2010/08/09 18:53
KELY 091853Z AUTO 21008KT 10SM CLR 24/M02 A3013

2010/08/09 18:54
KEUG 091854Z 32006KT 10SM OVC013 16/12 A3001

2010/08/09 18:56
KFLG 091856Z 22011G17KT 10SM FEW065 SCT100 22/09 A3030

2010/08/09 18:50
KHMS 091850Z 15007KT 15SM FEW250 27/09 A2979

2010/08/09 18:56
KINW 091856Z AUTO 09004KT 10SM CLR 28/11 A3014

2010/08/09 19:00
KJNX 091900Z AUTO 12003KT 10SM SCT045 SCT050 SCT070 31/21 A3002

2010/08/09 18:53
KLGB 091853Z 18008KT 9SM CLR 21/13 A2993

2010/08/09 18:56
KLWS 091856Z 28004KT 10SM FEW100 27/09 A2982

2010/08/09 18:53
KMFR 091853Z 31005KT 10SM FEW070 25/11 A2990

2010/08/09 18:56
KMHS 091856Z AUTO 14004KT 10SM CLR 25/06 A2996

2010/08/09 18:56
KNUQ 091856Z 35008KT 10SM CLR 20/13 A2992

2010/08/09 18:54
KOLM 091854Z 16005KT 10SM OVC019 17/12 A2999

2010/08/09 18:53
KPDT 091853Z 29011KT 10SM CLR 25/06 A2985

2010/08/09 18:53
KPGA 091853Z AUTO 03005KT 10SM CLR 28/11 A3008

2010/08/09 18:53
KPIH 091853Z 27015KT 10SM BKN090 24/11 A3004

2010/08/09 18:53
KPUC 091853Z AUTO VRB05KT 10SM CLR 24/07 A3017

2010/08/09 18:54
KRBL 091854Z AUTO 16005KT 10SM CLR 28/13 A2986

2010/08/09 18:53
KRDD 091853Z 00000KT 10SM CLR 28/12 A2984

2010/08/09 18:52
KSDB 091852Z AUTO 17008KT 10SM CLR 24/02 A3006

2010/08/09 18:53
KSHN 091853Z AUTO 21012KT 10SM FEW017 17/12 A2997

2010/08/09 18:54
KSJN 091854Z AUTO 31003KT 10SM SCT100 26/10 A3020

2010/08/09 18:56
KBIH 091856Z AUTO 16018G23KT 10SM CLR 30/M07 A2997

2010/08/09 18:56
KMEH 091856Z AUTO VRB04KT 10SM CLR 22/06 A2993

2010/08/09 18:52
KMLF 091852Z AUTO 20018G24KT 10SM CLR 27/01 A3010

2010/08/09 18:56
KSMP 091856Z AUTO 25005KT 1/4SM FG VV002 10/09 A2999

2010/08/09 18:53
KUIL 091853Z AUTO 17004KT 10SM OVC011 15/12 A2999

2010/08/09 18:53
KSLC 091853Z 17011KT 140V200 10SM SCT080TCU SCT120 SCT200 28/04 A3001

2010/08/09 18:51
KSMX 091851Z VRB03KT 10SM FEW015 18/11 A2994

2010/08/09 18:50
KSOW 091850Z AUTO 26006KT 10SM BKN050 24/09 A3028

2010/08/09 18:50
KTRK 091850Z 00000KT 10SM FEW050 20/08 A3010 NOSPECI

2010/08/09 18:56
KWMC 091856Z AUTO 26007G15KT 10SM CLR 28/04 A2997

2010/08/09 18:53
KYKM 091853Z VRB04KT 10SM FEW080 26/08 A2982

2010/08/09 18:51
KABE 091851Z 25008KT 10SM FEW060 SCT080 33/19 A2998

2010/08/09 18:53
KACK 091853Z 22010KT 10SM CLR 25/22 A2999

2010/08/09 18:54
KACY 091854Z 16013G19KT 10SM CLR 31/20 A3001

2010/08/09 18:53
KAGC 091853Z VRB03KT 10SM CLR 31/14 A3002

2010/08/09 18:53
KAGS 091853Z 11006KT 10SM FEW065 34/22 A2998

2010/08/09 18:54
KAKR 091854Z AUTO 21010KT 10SM CLR 31/17 A3001

2010/08/09 18:51
KALB 091851Z 26010G15KT 9SM SCT065 SCT100 32/18 A2993

2010/08/09 18:56
KAND 091856Z AUTO 03005KT 10SM BKN050 34/21 A3001

2010/08/09 18:53
KAOO 091853Z AUTO 21006KT 10SM CLR 31/14 A3005

2010/08/09 18:50
KAPG 091850Z 19008KT 7SM FEW030 SCT200 33/21 A3000

2010/08/09 18:56
KART 091856Z AUTO 24009KT 8SM BKN080 27/20 A2991

2010/08/09 18:54
KAVL 091854Z 36003KT 10SM CLR 31/18 A3010

2010/08/09 18:54
KAVP 091854Z 24007KT 10SM CLR 32/13 A2998

2010/08/09 18:53
KBAF 091853Z VRB03KT 10SM BKN070 BKN080 33/16 A2993

2010/08/09 18:51
KBDL 091851Z 24010G15KT 10SM FEW070 SCT100 SCT250 33/15 A2993

2010/08/09 18:52
KBDR 091852Z 18010KT 8SM CLR 31/21 A2995

2010/08/09 18:56
KBED 091856Z 27008KT 9SM CLR 34/17 A2990

2010/08/09 18:53
KBFD 091853Z AUTO 20008KT 10SM CLR 27/15 A3006

2010/08/09 18:53
KBGM 091853Z AUTO 26008KT 10SM CLR 29/14 A3003

2010/08/09 18:53
KBGR 091853Z 24006KT 10SM SCT041 BKN060 28/18 A2989

2010/08/09 18:53
KBKL 091853Z 33005KT 4SM HZ CLR 30/22 A2997

2010/08/09 18:51
KBKW 091851Z AUTO 26005KT 6SM HZ CLR 28/17 A3013

2010/08/09 18:54
KBOS 091854Z 23011G23KT 10SM SCT065 SCT100 33/17 A2991

2010/08/09 18:54
KBTV 091854Z 00000KT 10SM -RA SCT031CB BKN065 BKN100 26/20 A2989

2010/08/09 18:54
KBUF 091854Z 23008KT 9SM SCT060 SCT110 BKN130 OVC180 27/18 A2994

2010/08/09 18:53
KBVY 091853Z 25009G16KT 10SM FEW065 32/16 A2990

2010/08/09 18:54
KBWI 091854Z 20007KT 9SM SCT055 BKN180 BKN250 34/19 A2998

2010/08/09 18:56
KCAE 091856Z 13007KT 10SM SCT050 SCT070 33/22 A3000

2010/08/09 18:51
KCAK 091851Z 24009G19KT 10SM FEW065 SCT250 30/17 A3002

2010/08/09 18:54
KCAR 091854Z AUTO 21006KT 10SM FEW032 BKN100 23/18 A2984

2010/08/09 18:55
KCEF 091855Z AUTO 22008KT 10SM BKN070 33/17 A2993

2010/08/09 18:53
KCHO 091853Z 17009KT 9SM FEW055 33/20 A3000

2010/08/09 18:56
KCHS 091856Z COR 09007KT 10SM FEW010 BKN032CB OVC060 30/25 A2998

2010/08/09 18:56
KCHS 091856Z 09007KT 10SM FEW010 BKN032 OVC060 30/25 A2998

2010/08/09 18:53
KCKB 091853Z VRB05KT 9SM CLR 31/17 A3004

2010/08/09 18:51
KCLE 091851Z 21005KT 10SM FEW050 BKN250 31/18 A3000

2010/08/09 18:52
KCLT 091852Z 00000KT 10SM SCT045 BKN250 33/20 A3003

2010/08/09 18:51
KCMH 091851Z 00000KT 10SM SCT065 SCT110 BKN200 31/17 A3000

2010/08/09 18:54
KCRW 091854Z 28004KT 8SM FEW050 32/18 A3003

2010/08/09 18:52
KCVG 091852Z 22004KT 8SM FEW055 SCT150 BKN220 33/19 A2999

2010/08/09 18:53
KDAN 091853Z AUTO 18007KT 8SM SCT050 SCT070 35/20 A3002

2010/08/09 18:56
KDAY 091856Z VRB05KT 10SM FEW050 BKN130 BKN190 32/18 A3001

2010/08/09 18:52
KDCA 091852Z 17011KT 8SM SCT055 BKN250 33/21 A2999

2010/08/09 18:56
KDUJ 091856Z AUTO VRB04KT 10SM CLR 29/15 A3005

2010/08/09 18:54
KECG 091854Z 11007KT 10SM CLR 31/21 A3003

2010/08/09 18:51
KEKN 091851Z AUTO VRB03KT 9SM CLR 30/18 A3009

2010/08/09 18:53
KELM 091853Z 24007KT 10SM CLR 31/17 A2996

2010/08/09 18:51
KERI 091851Z 27008KT 7SM BKN075 28/19 A2999

2010/08/09 18:53
KEWB 091853Z 20009KT 8SM FEW050 SCT100 30/21 A2995

2010/08/09 18:54
KEWN 091854Z 14007KT 10SM SCT075 31/22 A3003

2010/08/09 18:51
KEWR 091851Z 15011G14KT 9SM BKN065 BKN140 BKN250 33/19 A2995

2010/08/09 18:53
KFAY 091853Z AUTO VRB05KT 10SM CLR 34/18 A3000

2010/08/09 18:53
KFLO 091853Z 10007KT 10SM CLR 33/21 A3001

2010/08/09 18:53
KFRG 091853Z 20013KT 10SM CLR 30/21 A2998

2010/08/09 18:53
KFVE 091853Z AUTO 31004KT 1/2SM +RA FG SCT017 BKN032 OVC039 17/16 A2985

2010/08/09 18:53
KGFL 091853Z AUTO 22010KT 190V260 10SM BKN055 BKN070 31/19 A2990

2010/08/09 18:54
KGSO 091854Z VRB03KT 10SM SCT049 32/19 A3004

2010/08/09 18:53
KGSP 091853Z 20003KT 10SM CLR 33/22 A3002

2010/08/09 18:53
KHFD 091853Z 27010G15KT 10SM FEW090 34/15 A2992

2010/08/09 18:53
KHKY 091853Z 00000KT 10SM BKN050 32/20 A3005

2010/08/09 18:56
KHPN 091856Z 16011KT 8SM SCT060 32/19 A2997

2010/08/09 18:50
PFYU 091850Z 01008G13KT 340V040 10SM BKN050 BKN080 15/ A2956 RMK VIRGA S W

2010/08/09 18:55
KADM 091855Z 16005KT 10SM SCT055 37/23 A2991

2010/08/09 19:03
KDQH 091903Z AUTO 06010KT 10SM BKN050 BKN065 34/18 A2995 RMK AO1

2010/08/09 18:50
KEFD 091850Z 07006KT 10SM BKN030 35/25 A2997

2010/08/09 18:58
KEZF 091858Z AUTO 20005KT 10SM CLR 35/23 A2998 RMK AO2 T03480234

2010/08/09 18:50
KHUM 091850Z 35004KT 7SM SCT060 35/23 A2996

2010/08/09 19:00
KJFZ 091900Z AUTO VRB04KT 10SM CLR 30/19 A3013 RMK

2010/08/09 18:56
KNMM 091856Z 19004KT 10SM SCT040 34/24 A2997 RMK AO2 SLP154 T03390239 $

2010/08/09 19:00
KW22 091900Z AUTO 25007KT 10SM CLR 29/18 A3008 RMK AO2

2010/08/09 19:00
KWDR 091900Z AUTO 00000KT 10SM CLR 33/20 A3006 RMK AO1

2010/08/09 19:00
KXLL 091900Z AUTO 22007KT 7SM CLR 34/20 A2998 RMK AO2 T03400199

2010/08/09 19:00
KXSA 091900Z AUTO 17007KT 10SM SCT060 BKN070 OVC095 35/18 A3000 RMK AO2

2010/08/09 19:00
PAER 091900Z 02010KT 11SM BKN070 14/08 A2951 RMK EPO

2010/08/09 19:04
KEUG 091904Z 01007KT 10SM OVC015 16/12 A3001 RMK AO2

2010/08/09 19:04
KFLD 091904Z AUTO 29008KT 10SM FEW023 SCT030 BKN035 28/22 A2992 RMK AO2

2010/08/09 19:04
KLEE 091904Z 10006KT 9SM -RA FEW022 SCT033 27/24 A2991 RMK AO2 WSHFT 1844 P0000

2010/08/09 19:04
KPBG 091904Z AUTO 09003KT 10SM SCT016 SCT047 BKN070 23/22 A2988 RMK AO2 RAE03 P0000

2010/08/09 19:04
KRAC 091904Z AUTO 31005KT 10SM BKN028 29/22 A2992 RMK AO2

2010/08/09 18:51
KHTS 091851Z VRB03KT 9SM CLR 31/18 A3002

2010/08/09 18:53
KHVN 091853Z 20008KT 10SM CLR 32/19 A2995

2010/08/09 18:56
KHYA 091856Z 22013KT 10SM CLR 28/21 A2997

2010/08/09 18:52
KIAD 091852Z 19007KT 9SM SCT055 BKN250 32/21 A2999

2010/08/09 18:53
KIAG 091853Z 22013KT 10SM VCTS FEW030 BKN060CB BKN085 OVC130 27/19 A2993

2010/08/09 18:51
KILG 091851Z 15013KT 9SM SCT049 BKN060 32/22 A2999

2010/08/09 18:53
KILM 091853Z AUTO 11008KT 080V150 10SM CLR 31/23 A3001

2010/08/09 18:54
KINT 091854Z 15007KT 10SM SCT049 BKN075 32/21 A3005

2010/08/09 18:54
KIPT 091854Z 33006KT 10SM CLR 32/14 A2996

2010/08/09 18:56
KISP 091856Z 20009G17KT 10SM FEW055 SCT100 BKN250 29/19 A2997

2010/08/09 18:51
KJFK 091851Z 18012KT 5SM HZ FEW050 SCT140 BKN250 29/22 A2999

2010/08/09 18:54
KJST 091854Z AUTO 28005KT 10SM FEW075 28/13 A3009

2010/08/09 18:55
KLCK 091855Z AUTO 21004KT 10SM CLR 32/18 A3001

2010/08/09 18:53
KLEB 091853Z 00000KT 10SM FEW065 SCT090 31/17 A2990

2010/08/09 18:51
KLGA 091851Z 17013G18KT 10SM FEW060 SCT250 33/19 A2996

2010/08/09 18:53
KLUK 091853Z 20004KT 8SM FEW060 33/21 A2997

2010/08/09 18:54
KLWM 091854Z 22012G19KT 10SM BKN065 33/16 A2991

2010/08/09 18:54
KLYH 091854Z 18004KT 10SM CLR 32/21 A3005

2010/08/09 18:56
KMDT 091856Z 00000KT 8SM FEW050 BKN250 33/20 A2997

2010/08/09 18:52
KMFD 091852Z 24008KT 8SM CLR 31/16 A3003

2010/08/09 18:53
KMGW 091853Z 00000KT 10SM CLR 31/18 A3005

2010/08/09 18:53
KMHT 091853Z 25008G15KT 10SM SCT065 BKN080 33/17 A2989

2010/08/09 18:54
KMIV 091854Z AUTO VRB05KT 10SM CLR 32/16 A2999

2010/08/09 18:53
KMRB 091853Z 00000KT 8SM SCT070 33/17 A2998

2010/08/09 18:53
KMSS 091853Z AUTO 29004KT 10SM FEW034 26/21 A2990

2010/08/09 18:54
KNKT 091854Z COR 14005KT 10SM SCT030 BKN150 29/23 A3003

2010/08/09 18:54
KNKT 091854Z 14005KT 10SM FEW015 SCT080 29/23 A3003

2010/08/09 18:51
KORF 091851Z 09007KT 10SM FEW035 31/20 A3002

2010/08/09 18:54
KORH 091854Z 25011G17KT 10SM CLR 31/16 A2998

2010/08/09 18:54
KPHF 091854Z 14007KT 10SM FEW095 32/19 A3002

2010/08/09 19:00
OPPS 091900Z NW-04KTS 4000 BR SCT040 BKN100 28/27 Q1003.2

2010/08/09 19:00
EIDW 091900Z 27014KT 9999 FEW028 16/09 Q1009 NOSIG

2010/08/09 19:00
EINN 091900Z 25010KT 9999 FEW025 SCT050 16/09 Q1011 NOSIG

2010/08/09 19:00
EICK 091900Z 31007KT 9999 BKN036 16/08 Q1012 NOSIG

2010/08/09 19:00
EIKN 091900Z 25014KT 210V270 9999 FEW018CB SCT022 13/09 Q1009 NOSIG

2010/08/09 19:00
LFLL 091900Z 01008KT CAVOK 25/15 Q1015 NOSIG

2010/08/09 19:00
LFMN 091900Z 20004KT 9999 FEW015 BKN036 24/20 Q1016 NOSIG

2010/08/09 19:00
LFPG 091900Z 36005KT 290V030 CAVOK 24/11 Q1015 NOSIG

2010/08/09 19:00
LFPO 091900Z 25003KT CAVOK 23/11 Q1015 NOSIG

2010/08/09 19:00
LFQQ 091900Z 30009KT CAVOK 21/13 Q1015 NOSIG

2010/08/09 19:00
LFRB 091900Z 23010KT 8000 BKN003 BKN008 17/16 Q1017 NOSIG

2010/08/09 19:00
LFRS 091900Z 27007KT CAVOK 20/13 Q1017 NOSIG

2010/08/09 19:00
SKBQ 091900Z 14004KT 9000 TS FEW012CB SCT080 31/27 A2984 TS/CB/N

2010/08/09 19:00
SKCL 091900Z 03006KT 9999 FEW023 30/18 A2993

2010/08/09 19:00
SKCG 091900Z 25006KT 9999 VCSH SCT015CB SCT200 31/25 A2984 RMK VCSH/E/CB/E/S

2010/08/09 19:00
SKCC 091900Z 36008KT 9999 SCT020 SCT200 32/22 A2989

2010/08/09 19:00
SKLT 091900Z 23003KT 6000 SCT020 32/24 A2993 RMK/HZ APCLO

2010/08/09 19:00
SKRG 091900Z 04012KT 9999 SCT020TCU SCT200 22/13 A3028

2010/08/09 19:00
SKSP 091900Z 08008KT 9999 FEW015 BKN080 28/25 A2985 RERA

2010/08/09 19:00
SKBG 091900Z 28005KT 9000 -DZ SCT010 BKN080 21/20 A3000 RERA

2010/08/09 19:02
YSDU 091902Z AUTO 07010KT 4900NDV // SCT010 BKN017 OVC074 11/11 Q1015

2010/08/09 19:00
SKBQ 091900Z 14004KT 9000 TS FEW012CB SCT080 31/27 A2984 TS/CB/N

2010/08/09 19:00
FMMI 091900Z 08003KT 9999 FEW016 BKN020 14/14 Q1026 NOSIG

2010/08/09 19:00
LQBK 091900Z 29003KT CAVOK 20/18 Q1016 NOSIG

2010/08/09 19:00
YPXM 091900Z AUTO 08007KT 9999NDV // BKN013 BKN020 BKN029 24/21 Q////

2010/08/09 19:00
LFAQ 091900Z AUTO 32009KT 9999NDV NSC 19/12 Q1016

2010/08/09 19:00
LFBU 091900Z AUTO 26009KT 9999NDV NSC 22/13 Q1018

2010/08/09 19:00
LFLN 091900Z AUTO 01003KT 9999NDV NSC 24/15 Q1016

2010/08/09 19:00
LFPM 091900Z AUTO 11001KT 9999NDV NSC 23/12 Q1015

2010/08/09 19:00
LFRH 091900Z 27009KT 9999 SCT027 BKN034 17/15 Q1018

2010/08/09 19:00
LFRQ 091900Z AUTO 25004KT 210V280 9999NDV OVC005 17/16 Q1018

2010/08/09 19:00
LFRT 091900Z AUTO VRB02KT 9999NDV SCT031 BKN037 OVC044 18/14 Q1017

2010/08/09 19:00
LFSD 091900Z AUTO VRB01KT 9999NDV NSC 22/13 Q1016

2010/08/09 19:00
LFTW 091900Z AUTO 20004KT 170V230 9999NDV //////CB 24/17 Q1015

2010/08/09 19:00
LRBS 091900Z 08003KT CAVOK 25/19 Q1013 NOSIG

2010/08/09 19:00
LRCK 091900Z 35006KT 320V020 CAVOK 27/20 Q1012 NOSIG

2010/08/09 19:00
LROP 091900Z 10002KT CAVOK 24/20 Q1013 880///95 NOSIG

2010/08/09 19:00
LRSB 091900Z 27006KT 9999 FEW041 BKN066 20/18 Q1017

2010/08/09 19:00
LRTR 091900Z 02004KT CAVOK 20/17 Q1016

2010/08/09 18:50
EGDY 091850Z 20010KT 9999 FEW010 SCT035 BKN080 18/17 Q1013

2010/08/09 19:00
YBCS 091900Z 12005KT 9999 VCSH FEW005 BKN017 22/21 Q1014 FM1900 12008KT 9999 -SHRA SCT018 BKN040 TEMPO 1900/2200 3000 SHRA BKN014

2010/08/09 19:00
RKSI 091900Z 06004KT 9999 FEW040 SCT120 26/22 Q1008 NOSIG

2010/08/09 19:00
RKSS 091900Z 36003KT 330V060 9999 FEW030 SCT120 25/22 Q1008 NOSIG 

2010/08/09 19:00
RKPC 091900Z 08011G025KT 050V110 7000 -SHRA BKN020 BKN110 28/23 Q1005 BECMG TL1920 NSW 

2010/08/09 19:00
RKJB 091900Z AUTO 05005KT3000NDV NCD 27/23 Q1008 

2010/08/09 19:00
RKNY 091900Z AUTO 27003KT3000NDV NCD 23/20 Q1008 

2010/08/09 19:00
LFBA 091900Z AUTO 31002KT 9999NDV OVC048 22/15 Q1018

2010/08/09 19:00
LFBE 091900Z AUTO 25003KT 210V290 9999NDV OVC040 22/16 Q1018

2010/08/09 19:00
LFGJ 091900Z AUTO 10004KT 9999NDV NSC 23/14 Q1015

2010/08/09 19:00
LFJR 091900Z AUTO 32004KT 290V010 9999NDV NSC 24/11 Q1016

2010/08/09 19:00
LFMD 091900Z AUTO VRB02KT 9999NDV OVC039 24/20 Q1015

2010/08/09 19:00
LFMH 091900Z AUTO 31007KT 290V350 9999NDV NSC 25/14 Q1016

2010/08/09 19:00
LFOT 091900Z 27005KT CAVOK 26/10 Q1015 NOSIG

2010/08/09 19:00
LFPN 091900Z AUTO VRB02KT 9999NDV NSC 24/10 Q1015

2010/08/09 19:00
LFRC 091900Z AUTO 22009KT 9999NDV NSC 18/13 Q1016

2010/08/09 19:00
LFRG 091900Z AUTO VRB02KT 9999NDV NSC 17/12 Q1017

2010/08/09 19:00
LFRK 091900Z AUTO 36002KT 9999NDV ///////// 19/12 Q1016

2010/08/09 19:03
PASI 091903Z 22003KT 10SM FEW007 OVC028 14/11 A2998

2010/08/09 18:54
KPHL 091854Z 21009G16KT 10SM FEW060 SCT250 34/17 A2998

2010/08/09 18:51
KPIT 091851Z 23006KT 10SM FEW042 SCT150 BKN250 31/14 A3002

2010/08/09 18:53
KPKB 091853Z VRB03KT 7SM CLR 31/17 A3005

2010/08/09 18:53
KPOU 091853Z 21007KT 180V240 10SM CLR 33/14 A2993

2010/08/09 18:55
KPQI 091855Z AUTO 20005KT 10SM SCT060 BKN100 23/18 A2982

2010/08/09 18:55
KPSM 091855Z 24009KT 10SM SCT060 SCT130 33/17 A2989

2010/08/09 18:51
KPVD 091851Z 24010G17KT 10SM FEW049TCU SCT065 32/19 A2995

2010/08/09 18:51
KPWM 091851Z 16007KT 10SM SCT065 BKN080 BKN090 30/19 A2989

2010/08/09 18:54
KRDG 091854Z 25005KT CLR 34/19 A2997

2010/08/09 18:51
KRDU 091851Z 18004KT 10SM SCT050 BKN250 34/20 A3003

2010/08/09 18:54
KRIC 091854Z 18008G14KT 10SM SCT049 BKN250 33/19 A3001

2010/08/09 18:54
KROA 091854Z 13007KT 10SM BKN048 32/21 A3005

2010/08/09 18:54
KROC 091854Z 22007KT 9SM BKN070 OVC130 27/21 A2994

2010/08/09 18:53
KRWI 091853Z AUTO 11005KT 10SM CLR 32/20 A3002

2010/08/09 18:53
KSAV 091853Z 07008KT 040V110 10SM SCT049 34/21 A2997

2010/08/09 18:54
KSBY 091854Z 17009G16KT 10SM SCT060 33/19 A3001

2010/08/09 18:51
KSLK 091851Z AUTO 25009KT 7SM SCT037 SCT050 BKN085 27/19 A2995

2010/08/09 18:54
KSYR 091854Z 28011G18KT 10SM SCT050 BKN120 BKN200 31/18 A2993

2010/08/09 18:51
KTEB 091851Z 18010G17KT 10SM FEW070 33/18 A2994

2010/08/09 18:52
KTOL 091852Z 00000KT 9SM CLR 31/21 A2997

2010/08/09 18:53
KTTN 091853Z 24008KT 8SM FEW060 34/18 A2997

2010/08/09 18:55
KWRI 091855Z AUTO 21006KT 10SM CLR 34/18 A2996

2010/08/09 18:51
KYNG 091851Z 19007KT 10SM FEW050 SCT100 BKN250 29/17 A3002

2010/08/09 18:53
KZZV 091853Z AUTO VRB06KT 10SM CLR 31/18 A3002

2010/08/09 18:55
LIMU 091855Z 23009KT 9999 FEW026 23/23 Q1017 RMK SCT QUK 2 QUL 1 S VIS MAR 25 KM VIS MIN 9999

2010/08/09 18:55
LIVD 091855Z 00000KT CAVOK 19/13 Q1019 RMK SKC VIS MIN 9999

2010/08/09 18:55
LIVE 091855Z 00000KT CAVOK 15/09 Q1019 RMK SKC VIS MIN 9999

2010/08/09 18:55
LIVT 091855Z 04003KT CAVOK 23/18 Q1014 RMK FEW FEW100 QUK / QUL / VIS MAR 20 KM VIS MIN 9999

2010/08/09 19:00
SAAR 091900Z 05005KT CAVOK 17/03 Q1024

2010/08/09 19:00
SADF 091900Z 32003KT CAVOK 19/06 Q1023

2010/08/09 19:00
UTAA 091900Z 21003MPS 9999 SKC 30/03 Q1009 NOSIG

2010/08/09 19:00
UTAM 091900Z 30005MPS 6300 SKC 29/05 Q1005 NOSIG

2010/08/09 19:00
UTAT 091900Z 33004MPS P5000 FEW200 26/16 Q1008 NOSIG

2010/08/09 18:50
LIMG 091850Z 00000KT 9999 SCT030 23/16 Q1015 RMK VIS MIN 9999

2010/08/09 18:50
LIMP 091850Z VRB03KT CAVOK 26/18 Q1014 RMK VIS MIN 9999

2010/08/09 18:50
LIMZ 091850Z VRB03KT 9999 SCT080 23/18 Q1016 RMK VIS MIN 9999

2010/08/09 18:55
LIPA 091855Z 26001KT 9999 FEW040 24/21 Q1014 RMK FEW VIS MIN 9999 A2997 BLU

2010/08/09 18:50
LIPB 091850Z 17009KT 9999 FEW100 25/14 Q1014 RMK MON LIB VIS MIN 9999

2010/08/09 18:55
LIPC 091855Z 15005KT CAVOK 25/18 Q1014 RMK SCT SCT200 VIS MIN 9999 WIND THR12 13004KT BLU

2010/08/09 18:45
LIPH 091845Z 16002KT 9999 FEW080 25/19 Q1014 RMK FEW VIS MIN 9999 WIND THR07 /////KT BLU

2010/08/09 18:50
LIPO 091850Z 00000KT CAVOK 26/17 Q1014 RMK VIS MIN 9999

2010/08/09 18:50
LIPQ 091850Z VRB02KT CAVOK 24/19 Q1014

2010/08/09 18:45
LIPR 091845Z 11003KT CAVOK 26/21 Q1014 RMK SKC VIS MIN 9999 WIND THR31 12002KT BLU

2010/08/09 18:55
LIPS 091855Z 00000KT 9999 FEW025 25/17 Q1014 RMK FEW VIS MIN 9999 BLU

2010/08/09 18:45
LIPX 091845Z 00000KT CAVOK 28/19 Q1014 RMK SKC VIS MIN 9999 BLU

2010/08/09 18:50
LIPY 091850Z VRB02KT 9999 FEW040 23/20 Q1014 RMK VIS MIN 9999

2010/08/09 18:55
LIVC 091855Z 29008KT 8000 SCT001 12/10 Q1025 RMK SCT MON LIB VAL CLD SCT DIM ABB VIS MIN 8000

2010/08/09 18:55
LIVP 091855Z 20012KT 9999 FEW005 10/08 Q1023 RMK FEW MON CLD SCT VAL S FOSCHIA SKC SUP VIS MIN 9999

2010/08/09 18:50
LIBF 091850Z VRB02KT CAVOK 25/14 Q1014 RMK VIS MIN 9999

2010/08/09 18:50
LIEA 091850Z VRB02KT CAVOK 23/18 Q1016 RMK VIS MIN 9999

2010/08/09 18:55
LIED 091855Z 32010KT 9999 BKN060 28/07 Q1015 RMK BKN VIS MIN 9999 BLU

2010/08/09 18:50
LIEO 091850Z 02003KT CAVOK 26/21 Q1016 RMK VIS MIN 9999

2010/08/09 18:55
LIRE 091855Z 00000KT CAVOK 24/22 Q1015 RMK SKC VIS MIN 9999 WIND THR31 30002KT BLU

2010/08/09 18:50
LIRI 091850Z 12005KT CAVOK 26/20 Q1014 RMK VIS MIN 9999

2010/08/09 18:55
LIRM 091855Z 24007KT 9999 FEW040 27/25 Q1016 RMK FEW VIS MIN 9999 WIND THR06 22005KT BLU

2010/08/09 18:55
LIRS 091855Z 33010KT 9999 FEW025 26/15 Q1015 RMK SCT SCT200 VIS MIN 9999 WIND THR21 /////KT BLU

2010/08/09 18:50
LIRU 091850Z VRB02KT CAVOK 26/19 Q1014

2010/08/09 18:50
LIRZ 091850Z VRB02KT 9999 FEW035 27/16 Q1015 RMK VIS MIN 9999

2010/08/09 19:00
UKLI 091900Z 18002MPS 9999 VCTS BKN023CB BKN033 20/19 Q1016 28090070 TEMPO VRB12MPS 3100 -TSRA

2010/08/09 19:00
UKCM 091900Z 02003MPS CAVOK 29/12 Q1010 02010065 NOSIG

2010/08/09 19:00
UKCW 091900Z 07003MPS CAVOK 29/06 Q1013 0909//70 NOSIG

2010/08/09 19:00
UKLU 091900Z 28001MPS 9999 SCT044 19/17 Q1016 10090070 NOSIG

2010/08/09 19:00
UKKK 091900Z 00000MPS 9999 SCT030CB BKN050 24/18 Q1015 08CLRD70 TEMPO 2100 -TSRAGR SCT005 BKN020CB

2010/08/09 19:00
UKKM 091900Z VRB01MPS 9999 TS FEW030CB BKN100 24/20 Q1015

2010/08/09 19:00
OOMS 091900Z 29005KT 8000 NSC 31/27 Q0998 NOSIG

2010/08/09 18:50
OOSA 091850Z 15007KT 6000 SCT012 BKN025 26/22 Q1004 NOSIG RMK05 RH83

2010/08/09 19:00
UAFM 091900Z 10004MPS 040V190 CAVOK 20/09 Q1009 NOSIG

2010/08/09 19:00
UTDD 091900Z 10002MPS 9999 FEW200 23/11 Q1006 09CLRD70 NOSIG RMK QFE687/0916

2010/08/09 19:00
UTDL 091900Z 23005MPS 9999 BKN170 28/08 Q1005 NOSIG RMK QFE716 8809//70

2010/08/09 19:00
UAAA 091900Z 17003MPS 9999 SCT050CB BKN100 22/08 Q1009 88CLRD65 NOSIG

2010/08/09 19:00
UACC 091900Z 02005MPS CAVOK 13/06 Q1014 040/0070 NOSIG RMK QFE729/0972

2010/08/09 19:00
UAKK 091900Z 01005MPS CAVOK 13/06 Q1011 050///70 NOSIG RMK QFE712/0949

2010/08/09 19:00
UARR 091900Z 01006MPS CAVOK 27/08 Q1016 04CLRD70 NOSIG RMK QFE758/1011

2010/08/09 19:00
UATE 091900Z 10004MPS CAVOK 29/07 Q1010 120///70 NOSIG RMK QFE755/1007

2010/08/09 19:00
UATG 091900Z 00000MPS CAVOK 28/08 Q1012 14CLRD70 NOSIG RMK QFE761/1014 

2010/08/09 19:00
UATT 091900Z 07005MPS CAVOK 25/03 Q1017 31CLRD70 NOSIG RMK QFE743/0990

2010/08/09 19:00
UAUU 091900Z 07003MPS CAVOK 17/03 Q1020 33CLRD70 NOSIG RMK QFE749/0999

2010/08/09 19:00
UDYZ 091900Z 05005G11MPS 9999 SKC 29/10 Q1010 09010070 TEMPO 04014MPS

2010/08/09 19:00
UDSG 091900Z 07007MPS 9999 FEW050 22/09 Q1017 02CLRD70 NOSIG

2010/08/09 18:50
EGPN 091850Z 24014KT 9999 FEW022 17/12 Q1005

2010/08/09 18:50
LIMG 091850Z 00000KT 9999 SCT030 23/16 Q1015 RMK VIS MIN 9999

2010/08/09 18:55
LIPA 091855Z 26001KT 9999 FEW040 24/21 Q1014 RMK FEW VIS MIN 9999 A2997 BLU

2010/08/09 18:50
LIPB 091850Z 17009KT 9999 FEW100 25/14 Q1014 RMK MON LIB VIS MIN 9999

2010/08/09 18:55
LIPC 091855Z 15005KT CAVOK 25/18 Q1014 RMK SCT SCT200 VIS MIN 9999 WIND THR12 13004KT BLU

2010/08/09 18:45
LIPH 091845Z 16002KT 9999 FEW080 25/19 Q1014 RMK FEW VIS MIN 9999 WIND THR07 /////KT BLU

2010/08/09 18:45
LIPR 091845Z 11003KT CAVOK 26/21 Q1014 RMK SKC VIS MIN 9999 WIND THR31 12002KT BLU

2010/08/09 18:55
LIPS 091855Z 00000KT 9999 FEW025 25/17 Q1014 RMK FEW VIS MIN 9999 BLU

2010/08/09 18:45
LIPX 091845Z 00000KT CAVOK 28/19 Q1014 RMK SKC VIS MIN 9999 BLU

2010/08/09 18:50
LIPY 091850Z VRB02KT 9999 FEW040 23/20 Q1014 RMK VIS MIN 9999

2010/08/09 18:55
LIVC 091855Z 29008KT 8000 SCT001 12/10 Q1025 RMK SCT MON LIB VAL CLD SCT DIM ABB VIS MIN 8000

2010/08/09 18:55
LIVE 091855Z 00000KT CAVOK 15/09 Q1019 RMK SKC VIS MIN 9999

2010/08/09 18:55
LIVP 091855Z 20012KT 9999 FEW005 10/08 Q1023 RMK FEW MON CLD SCT VAL S FOSCHIA SKC SUP VIS MIN 9999

2010/08/09 19:00
LKKV 091900Z 00000KT CAVOK 16/13 Q1018 RMK REG QNH 1014

2010/08/09 19:00
LKMT 091900Z 00000KT CAVOK 17/15 Q1016 NOSIG RMK REG QNH 1014

2010/08/09 19:00
LKPR 091900Z 30003KT CAVOK 17/13 Q1017 NOSIG RMK REG QNH 1014

2010/08/09 19:00
LKTB 091900Z 02005KT 9999 FEW024 19/14 Q1017 NOSIG RMK REG QNH 1014

2010/08/09 19:00
LPAZ 091900Z 05010KT 9999 SCT018 BKN036 21/16 Q1020

2010/08/09 19:00
LPHR 091900Z 01007KT 340V050 9999 FEW016 BKN040 24/15 Q1021

2010/08/09 19:00
LPPD 091900Z 04007KT 360V080 9999 FEW022 BKN040 22/15 Q1020

2010/08/09 19:06
LEGE 091906Z 24003KT 170V300 6000 TSRA SCT010 FEW028CB BKN034 21/20 Q1017

2010/08/09 18:52
KABI 091852Z VRB04KT 10SM FEW060 34/19 A2997

2010/08/09 18:56
KABQ 091856Z 00000KT 10SM FEW070 28/12 A3015

2010/08/09 18:53
KABY 091853Z 09009G18KT 10SM BKN060 35/20 A2998

2010/08/09 18:51
KACT 091851Z 16008KT 10SM FEW049 37/21 A2993

2010/08/09 18:53
KAEX 091853Z 00000KT 10SM CLR 36/20 A2993

2010/08/09 18:53
KAFW 091853Z 17009KT 10SM FEW070 38/21 A2991

2010/08/09 18:51
KAHN 091851Z 00000KT 6SM HZ SCT050 SCT065 33/20 A3002

2010/08/09 18:53
KALI 091853Z AUTO VRB04KT 10SM SCT045 35/23 A2990

2010/08/09 18:53
KAMA 091853Z 18011G18KT 10SM CLR 32/15 A3002

2010/08/09 18:53
KANB 091853Z AUTO 15008KT 10SM CLR 34/21 A3000

2010/08/09 18:53
KAPF 091853Z 22007KT 5SM -TSRA BR FEW011 BKN044 OVC050 26/24 A2990

2010/08/09 18:52
KATL 091852Z 11005KT 10SM FEW055 SCT250 34/20 A3002

2010/08/09 18:53
KAUS 091853Z 15007KT 120V190 10SM FEW055 36/20 A2994

2010/08/09 18:53
KBFM 091853Z 16005KT 10SM SCT041 33/24 A2997

2010/08/09 18:53
KBHM 091853Z VRB04KT 10SM BKN060 35/20 A3000

2010/08/09 18:53
KBNA 091853Z 30005KT 10SM SCT055 BKN240 36/22 A2997

2010/08/09 18:53
KBPT 091853Z COR 18004KT 10SM BKN035 35/23 A2995

2010/08/09 18:53
KBPT 091853Z 18004KT 10SM CLR 35/23 A2995

2010/08/09 19:00
KBQK 091900Z AUTO 07013G17KT 10SM SCT027 SCT035 SCT041 33/25 A2997

2010/08/09 18:53
KBRO 091853Z 13015G18KT 10SM SCT039 BKN050 BKN065 36/24 A2989

2010/08/09 18:53
KBTR 091853Z VRB04KT 10SM SCT040 SCT080 SCT120 35/24 A2993

2010/08/09 18:53
KCEW 091853Z AUTO 00000KT 10SM BKN046 34/24 A2997

2010/08/09 18:53
KCHA 091853Z 00000KT 10SM FEW050 SCT120 BKN250 35/21 A2999

2010/08/09 18:53
KCLL 091853Z 23006KT 10SM CLR 36/21 A2994

2010/08/09 18:53
KCNM 091853Z AUTO 10006KT 10SM CLR 32/19 A3002

2010/08/09 18:51
KCRP 091851Z 12014KT 10SM BKN040 33/25 A2992

2010/08/09 18:51
KCSG 091851Z 05005KT 9SM SCT070 SCT085 36/18 A2997

2010/08/09 18:53
KCSV 091853Z AUTO 18004KT 10SM CLR 31/22 A3008

2010/08/09 18:53
KDAB 091853Z 09008G14KT 10SM FEW024 SCT110 31/23 A2993

2010/08/09 18:53
KDAL 091853Z COR 24005KT 10SM BKN060TCU 35/21 A2992

2010/08/09 18:53
KDAL 091853Z 24005KT 10SM BKN060 35/21 A2992

2010/08/09 19:00
LEGE 091900Z 24003KT 170V300 6000 TSRA SCT010 FEW028CB BKN034 21/20 Q1017

2010/08/09 18:53
KDFW 091853Z COR 14008KT 10SM SCT075 35/21 A2992

2010/08/09 18:53
KDFW 091853Z 14008KT 10SM SCT060 35/21 A2992

2010/08/09 18:53
KDHN 091853Z 03008KT 10SM SCT055 33/23 A3001

2010/08/09 18:55
KDLF 091855Z AUTO 12011G18KT 10SM FEW170 34/21 A2992

2010/08/09 18:53
KDMN 091853Z AUTO 00000KT 10SM CLR 31/09 A3008

2010/08/09 18:51
KELP 091851Z VRB04KT 10SM FEW075 32/12 A3006

2010/08/09 18:53
KESF 091853Z AUTO VRB03KT 10SM CLR 37/22 A2995

2010/08/09 18:53
KEYW 091853Z 24013G19KT 10SM FEW024 BKN075 28/24 A2991

2010/08/09 18:53
KFLL 091853Z 19013KT 10SM SCT028 BKN041 BKN049 29/24 A2990

2010/08/09 18:53
KFSM 091853Z 32006KT 10SM CLR 36/22 A2992

2010/08/09 18:53
KFTW 091853Z 20010G14KT 10SM CLR 37/21 A2991

2010/08/09 18:53
KFTY 091853Z 00000KT 8SM CLR 34/20 A3001

2010/08/09 18:53
KGGG 091853Z 09004KT 10SM CLR 35/22 A2995

2010/08/09 18:52
KGLS 091852Z 15011KT 10SM CLR 33/24 A2996

2010/08/09 18:53
KGNV 091853Z 11010KT 10SM FEW040 31/24 A2992

2010/08/09 18:53
KGPT 091853Z 16009KT 10SM FEW037 SCT070 34/26 A2994

2010/08/09 18:53
KGUP 091853Z AUTO 06004KT 10SM FEW070 26/09 A3025

2010/08/09 18:53
KGWO 091853Z AUTO 11007KT 10SM CLR 37/25 A2994

2010/08/09 18:53
KHOT 091853Z AUTO 16006KT 10SM CLR 36/22 A2995

2010/08/09 18:53
KHOU 091853Z 00000KT 10SM SCT045 34/23 A2994

2010/08/09 18:52
KHRL 091852Z 19006KT 10SM SCT044 36/24 A2987

2010/08/09 18:53
KHRO 091853Z AUTO 23005KT 10SM CLR 31/23 A2999

2010/08/09 18:53
KHSV 091853Z 15006KT 10SM SCT055TCU BKN070 35/22 A2997

2010/08/09 18:53
KIAH 091853Z VRB03KT 10SM SCT045 36/23 A2994

2010/08/09 18:54
KJAN 091854Z 00000KT 10SM SCT049 36/23 A2994

2010/08/09 18:56
KJAX 091856Z 09014G21KT 9SM -RA FEW024 BKN035 BKN200 29/25 A2995

2010/08/09 18:53
KJBR 091853Z AUTO 13006KT 10SM CLR 36/23 A2991

2010/08/09 18:53
KLBB 091853Z 21010G16KT 10SM FEW060 SCT180 SCT250 33/17 A3003

2010/08/09 18:53
KLCH 091853Z 00000KT 10SM FEW050 35/23 A2995

2010/08/09 18:53
KLFT 091853Z VRB04KT 10SM CLR 35/23 A2996

2010/08/09 18:53
KLIT 091853Z 08008KT 10SM BKN060TCU BKN250 37/23 A2993

2010/08/09 18:56
KLRD 091856Z 14010G15KT 100V170 10SM CLR 37/20 A2992

2010/08/09 19:00
DNMM 091900Z 00000KT 8000 BKN009 25/23 Q1013 NOSIG

2010/08/09 19:00
FYGB 091900Z AUTO 14002KT //// // ////// 10/M06 Q1029

2010/08/09 19:00
FYGF 091900Z AUTO 13006KT //// // ////// 17/M03 Q1025

2010/08/09 19:00
FYKT 091900Z AUTO 09009KT //// // ////// 11/M09 Q1031

2010/08/09 19:00
FYLZ 091900Z AUTO 18008KT //// // ////// 13/00 Q1023

2010/08/09 19:00
FYML 091900Z AUTO 13003KT //// // ////// ///// Q1031

2010/08/09 19:00
FYOA 091900Z AUTO 10002KT //// // ////// 21/M03 Q1018

2010/08/09 19:00
FYOJ 091900Z AUTO 07005KT //// // ////// 20/M05 Q1021

2010/08/09 19:00
FYOW 091900Z AUTO 12006KT //// // ////// 20/M04 Q1024

2010/08/09 19:00
FYWB 091900Z 07006KT 3400 VV/// 15/08 Q1015 

2010/08/09 19:00
FYWH 091900Z AUTO 13006KT //// // ////// 10/M05 Q1031

2010/08/09 19:00
FYWW 091900Z AUTO 11005KT //// // ////// 12/M05 Q1028

2010/08/09 19:00
FBFT 091900Z 26003KT CAVOK 20/09 Q1022

2010/08/09 19:00
FBMN 091900Z 19006KT CAVOK 20/02 Q1022

2010/08/09 19:00
FABL 091900Z 21009KT CAVOK 04/M10 Q1029 NOSIG

2010/08/09 19:00
FACT 091900Z 15006KT 9999 BKN035 10/08 Q1035 NOSIG

2010/08/09 19:00
FAEL 091900Z 25024G37KT 9999 FEW048 SCT060 13/01 Q1027

2010/08/09 19:00
FAGG 091900Z AUTO 30011KT 9999 R29/M0050N R11/M0050N FEW024 SCT050 BKN063 09/07 Q1033

2010/08/09 19:00
FAJS 091900Z 21016KT CAVOK 06/M10 Q1028 NOSIG

2010/08/09 19:00
FAKN 091900Z AUTO 07007KT //// // ////// 15/14 Q1023

2010/08/09 19:00
FALA 091900Z 19012KT CAVOK 09/M11 Q1028 NOSIG

2010/08/09 19:00
FALE 091900Z 20003KT 170V250 CAVOK 12/09 Q1025 NOSIG

2010/08/09 19:00
FAMM 091900Z AUTO 17011KT //// // ////// 08/M13 Q1028

2010/08/09 19:00
FAPE 091900Z 25026G37KT 9999 -RA FEW009 SCT028 10/08 Q1028 TEMPO 5000 -SHRA

2010/08/09 19:00
FAPN 091900Z AUTO 20003KT //// // ////// 09/M09 Q1027

2010/08/09 19:00
FAPP 091900Z AUTO 19009KT //// // ////// 18/M02 Q1023

2010/08/09 19:00
FAUP 091900Z AUTO 21002KT //// // ////// 06/M09 Q1031

2010/08/09 18:50
KLRU 091850Z AUTO 00000KT 10SM CLR 30/13 A3011

2010/08/09 18:53
KMAF 091853Z 17009G18KT 5SM HZ FEW055 34/17 A3001

2010/08/09 18:53
KMCN 091853Z 08010G14KT 040V110 9SM CLR 34/21 A2999

2010/08/09 18:53
KMCO 091853Z 15009KT 10SM SCT033TCU BKN060 BKN190 32/23 A2990

2010/08/09 18:58
KMEI 091858Z 11006KT 10SM FEW041 34/23 A2997

2010/08/09 18:53
KMEM 091853Z 03006KT 10SM BKN047CB BKN250 36/23 A2995

2010/08/09 18:53
KMFE 091853Z 09007KT 10SM SCT040 34/24 A2988

2010/08/09 18:53
KMGM 091853Z 13007G14KT 10SM CLR 36/20 A2996

2010/08/09 18:53
KMIA 091853Z 16007KT 10SM FEW013 SCT075 BKN150 27/24 A2992

2010/08/09 18:53
KMKL 091853Z 25010KT 10SM CLR 34/25 A2995

2010/08/09 18:53
KMLB 091853Z 11010KT 10SM SCT015CB 31/24 A2991

2010/08/09 18:53
KMLC 091853Z AUTO VRB05G19KT 10SM FEW065 36/19 A2993

2010/08/09 18:53
KMLU 091853Z 15003KT 10SM CLR 37/23 A2994

2010/08/09 18:56
KMOB 091856Z 13012G17KT 10SM SCT039 BKN200 34/23 A2997

2010/08/09 18:53
KMSL 091853Z AUTO 34004KT 10SM FEW065 34/24 A2998

2010/08/09 18:53
KMSY 091853Z 00000KT 10SM FEW040CB SCT060 SCT150 BKN250 34/25 A2995

2010/08/09 18:53
KNEW 091853Z 10023G33KT 1/2SM +TSRA FG BKN017 BKN027 BKN070 27/25 A2999

2010/08/09 18:56
KNGP 091856Z 15009KT 10SM FEW025 SCT040TCU SCT250 32/26 A2992

2010/08/09 18:52
KOKC 091852Z 17010G18KT 10SM FEW060 36/22 A2992

2010/08/09 18:53
KPBI 091853Z 13015KT 10SM SCT024CB SCT085 BKN250 30/23 A2990

2010/08/09 18:53
KPDK 091853Z 00000KT 10SM FEW060 34/18 A3002

2010/08/09 18:53
KPIE 091853Z 00000KT 10SM -RA BKN028 28/24 A2989

2010/08/09 18:53
KPNS 091853Z AUTO 15010KT 10SM CLR 33/24 A2996

2010/08/09 18:51
KROW 091851Z 16006KT 10SM CLR 31/15 A3004

2010/08/09 18:53
KRSW 091853Z AUTO VRB06KT 10SM FEW035 32/23 A2986

2010/08/09 18:53
KSAT 091853Z 00000KT 10SM FEW050 33/21 A2995

2010/08/09 18:56
KSHV 091856Z 15005KT 10SM BKN060 36/21 A2993

2010/08/09 18:51
KSJT 091851Z VRB05KT 10SM FEW070 36/19 A2996

2010/08/09 18:53
KSRQ 091853Z VRB04KT 10SM SCT026 31/23 A2987

2010/08/09 18:53
KSSI 091853Z AUTO 06013KT 10SM CLR 32/25 A2997

2010/08/09 18:53
KTCC 091853Z AUTO 18009G15KT 10SM CLR 33/14 A3001

2010/08/09 18:53
KTCL 091853Z 11008KT 9SM CLR 35/21 A2997

2010/08/09 18:53
KTCS 091853Z AUTO 00000KT 10SM CLR 29/12 A3011

2010/08/09 18:53
KTLH 091853Z 07008G16KT 10SM FEW050 35/20 A2995

2010/08/09 18:53
KTPA 091853Z 25005KT 6SM -RA FEW012 BKN028CB OVC250 28/25 A2989

2010/08/09 18:53
KTRI 091853Z 30006KT 10SM SCT045 BKN150 33/18 A3005

2010/08/09 18:53
KTUL 091853Z 16011G14KT 10SM FEW060 37/21 A2990

2010/08/09 18:53
KTUP 091853Z 27004KT 10SM BKN034 BKN050 35/25 A2995

2010/08/09 18:53
KTXK 091853Z VRB05KT 10SM CLR 36/23 A2994

2010/08/09 18:53
KTYR 091853Z 16005KT 10SM CLR 36/21 A2997

2010/08/09 18:53
KTYS 091853Z 31004KT 10SM FEW045 34/22 A3000

2010/08/09 18:51
KVCT 091851Z VRB05KT 10SM BKN047 36/23 A2993

2010/08/09 18:53
KVLD 091853Z VRB06KT 10SM SCT049 34/22 A2995

2010/08/09 18:53
KVRB 091853Z 12014KT 10SM CLR 31/23 A2991

2010/08/09 18:53
TIST 091853Z 08004KT 10SM -RA FEW080 29/ A2995

2010/08/09 18:53
TISX 091853Z 10011KT 10SM SCT023 BKN100 29/25 A2995

2010/08/09 18:50
TJBQ 091850Z 07005KT 10SM SCT020 BKN040 27/ A2994

2010/08/09 18:50
TJPS 091850Z 16008KT 10SM FEW030 BKN060 31/26 A2993 DSNT SHRA SE-SW

2010/08/09 18:56
TJSJ 091856Z VRB04KT 10SM -RA FEW017 SCT030 BKN065 28/25 A2995

2010/08/09 19:00
TKPK 091900Z 01005KT 9999 FEW015 SCT019 30/26 Q1014

2010/08/09 18:55
LIMU 091855Z 23009KT 9999 FEW026 23/23 Q1017 RMK SCT QUK 2 QUL 1 S VIS MAR 25 KM VIS MIN 9999

2010/08/09 18:55
LIVD 091855Z 00000KT CAVOK 19/13 Q1019 RMK SKC VIS MIN 9999

2010/08/09 18:55
LIVE 091855Z 00000KT CAVOK 15/09 Q1019 RMK SKC VIS MIN 9999

2010/08/09 18:55
LIVT 091855Z 04003KT CAVOK 23/18 Q1014 RMK FEW FEW100 QUK / QUL / VIS MAR 20 KM VIS MIN 9999

2010/08/09 18:50
LIBF 091850Z VRB02KT CAVOK 25/14 Q1014 RMK VIS MIN 9999

2010/08/09 18:50
LIEA 091850Z VRB02KT CAVOK 23/18 Q1016 RMK VIS MIN 9999

2010/08/09 18:55
LIED 091855Z 32010KT 9999 BKN060 28/07 Q1015 RMK BKN VIS MIN 9999 BLU

2010/08/09 18:50
LIEO 091850Z 02003KT CAVOK 26/21 Q1016 RMK VIS MIN 9999

2010/08/09 18:55
LIRE 091855Z 00000KT CAVOK 24/22 Q1015 RMK SKC VIS MIN 9999 WIND THR31 30002KT BLU

2010/08/09 18:50
LIRI 091850Z 12005KT CAVOK 26/20 Q1014 RMK VIS MIN 9999

2010/08/09 18:55
LIRM 091855Z 24007KT 9999 FEW040 27/25 Q1016 RMK FEW VIS MIN 9999 WIND THR06 22005KT BLU

2010/08/09 18:55
LIRS 091855Z 33010KT 9999 FEW025 26/15 Q1015 RMK SCT SCT200 VIS MIN 9999 WIND THR21 /////KT BLU

2010/08/09 18:50
LIRU 091850Z VRB02KT CAVOK 26/19 Q1014

2010/08/09 18:50
LIRZ 091850Z VRB02KT 9999 FEW035 27/16 Q1015 RMK VIS MIN 9999

2010/08/09 18:50
LIMG 091850Z 00000KT 9999 SCT030 23/16 Q1015 RMK VIS MIN 9999

2010/08/09 18:50
LIMP 091850Z VRB03KT CAVOK 26/18 Q1014 RMK VIS MIN 9999

2010/08/09 18:50
LIMZ 091850Z VRB03KT 9999 SCT080 23/18 Q1016 RMK VIS MIN 9999

2010/08/09 18:55
LIPA 091855Z 26001KT 9999 FEW040 24/21 Q1014 RMK FEW VIS MIN 9999 A2997 BLU

2010/08/09 18:50
LIPB 091850Z 17009KT 9999 FEW100 25/14 Q1014 RMK MON LIB VIS MIN 9999

2010/08/09 18:55
LIPC 091855Z 15005KT CAVOK 25/18 Q1014 RMK SCT SCT200 VIS MIN 9999 WIND THR12 13004KT BLU

2010/08/09 18:45
LIPH 091845Z 16002KT 9999 FEW080 25/19 Q1014 RMK FEW VIS MIN 9999 WIND THR07 /////KT BLU

2010/08/09 18:50
LIPO 091850Z 00000KT CAVOK 26/17 Q1014 RMK VIS MIN 9999

2010/08/09 18:50
LIPQ 091850Z VRB02KT CAVOK 24/19 Q1014

2010/08/09 18:45
LIPR 091845Z 11003KT CAVOK 26/21 Q1014 RMK SKC VIS MIN 9999 WIND THR31 12002KT BLU

2010/08/09 18:55
LIPS 091855Z 00000KT 9999 FEW025 25/17 Q1014 RMK FEW VIS MIN 9999 BLU

2010/08/09 18:45
LIPX 091845Z 00000KT CAVOK 28/19 Q1014 RMK SKC VIS MIN 9999 BLU

2010/08/09 18:50
LIPY 091850Z VRB02KT 9999 FEW040 23/20 Q1014 RMK VIS MIN 9999

2010/08/09 18:55
LIVC 091855Z 29008KT 8000 SCT001 12/10 Q1025 RMK SCT MON LIB VAL CLD SCT DIM ABB VIS MIN 8000

2010/08/09 18:55
LIVP 091855Z 20012KT 9999 FEW005 10/08 Q1023 RMK FEW MON CLD SCT VAL S FOSCHIA SKC SUP VIS MIN 9999

2010/08/09 18:50
LIBC 091850Z VRB03KT CAVOK 26/16 Q1014 RMK VIS MIN 9999

2010/08/09 18:50
LIBD 091850Z VRB01KT CAVOK 24/17 Q1014 RMK VIS MIN 9999

2010/08/09 18:50
LIBP 091850Z 00000KT 9999 SCT080 24/18 Q1015 RMK VIS MIN 9999

2010/08/09 18:45
LIBR 091845Z 32013KT CAVOK 25/21 Q1014 NOSIG RMK SKC VIS MIN 9999 WIND THR13 WIND THR31 30008KT BLU

2010/08/09 18:55
LIBV 091855Z 02006KT CAVOK 24/16 Q1013 RMK SKC VIS MIN 9999 WIND THR14 01005KT BLU

2010/08/09 18:50
LICA 091850Z 27009KT 9999 SCT020 25/21 Q1015 RMK VIS MIN 9999

2010/08/09 18:50
LICC 091850Z VRB02KT CAVOK 27/20 Q1013 RMK VIS MIN 9999

2010/08/09 18:50
LICD 091850Z 35004KT CAVOK 26/22 Q1015 RMK VIS MIN 9999

2010/08/09 18:50
LICJ 091850Z 05008KT CAVOK 26/19 Q1016 RMK VIS MIN 9999

2010/08/09 18:50
LICR 091850Z 01011KT 9999 FEW030 25/18 Q1015 RMK VIS MIN 9999

2010/08/09 18:55
LICT 091855Z 35005KT CAVOK 27/23 Q1016 RMK FEW FEW080 VIS MIN 9999 WIND THR13 33008KT BLU

2010/08/09 18:55
LICZ 091855Z 16006KT CAVOK 25/23 Q1013 RMK SKC VIS MIN 9999 WIND THR28 /////KT BLU

2010/08/09 19:00
YSCB 091900Z 10010KT 6000 -RA FEW035 OVC070 08/07 Q1018 FM1910 09010KT 8000 -RA SCT030 BKN070 TEMPO 1900/2200 4000 RA BKN020

2010/08/09 19:00
YSCB 091900Z 10010KT 6000 -RA FEW035 OVC070 08/07 Q1018 FM1910 09010KT 8000 -RA SCT030 BKN070 TEMPO 1900/2200 4000 RA BKN020

2010/08/09 18:53
KABR 091853Z AUTO 12008KT 10SM CLR 32/19 A2990

2010/08/09 18:50
KALN 091850Z 15006KT 7SM FEW050 BKN200 34/27 A2991

2010/08/09 18:54
KALO 091854Z AUTO 10007KT 10SM CLR 31/23 A2990

2010/08/09 18:53
KASE 091853Z 12007KT 10SM -RA SCT040 BKN080 14/11 A3034

2010/08/09 18:53
KATY 091853Z AUTO 11006KT 10SM CLR 31/16 A2994

2010/08/09 18:53
KAXN 091853Z AUTO 03003KT 10SM CLR 31/16 A2995

2010/08/09 18:53
KAZO 091853Z 17005KT 10SM SCT007 BKN070 24/22 A2997

2010/08/09 18:53
KBDE 091853Z AUTO 00000KT 10SM CLR 31/19 A2989

2010/08/09 18:53
KBFF 091853Z AUTO 27005KT 10SM CLR 27/12 A3003

2010/08/09 18:52
KBIS 091852Z 19007KT 10SM CLR 34/17 A2988

2010/08/09 18:55
KBKF 091855Z 13007KT 70SM FEW080 BKN180 28/12 A3011

2010/08/09 18:53
KBRL 091853Z AUTO 16006KT 10SM CLR 32/24 A2989

2010/08/09 18:53
KBTL 091853Z 17005KT 10SM BKN065 23/22 A2997

2010/08/09 18:53
KCGI 091853Z 00000KT 10SM CLR 35/24 A2992

2010/08/09 18:52
KCID 091852Z 07004KT 10SM CLR 30/24 A2991

2010/08/09 18:55
KCIU 091855Z AUTO 15006KT 10SM BKN026 BKN060 26/19 A2990

2010/08/09 18:53
KCMI 091853Z COR 19008KT 10SM SCT030 33/25 A2994

2010/08/09 18:53
KCMI 091853Z 19008KT 10SM CLR 33/25 A2994

2010/08/09 18:53
KCMX 091853Z AUTO 28009KT 10SM FEW016 25/20 A2990

2010/08/09 18:54
KCOS 091854Z AUTO 10004KT 10SM CLR 23/13 A3019

2010/08/09 18:54
KCOU 091854Z 18005KT 10SM FEW080 32/27 A2992

2010/08/09 18:53
KCPR 091853Z 20017G22KT 10SM FEW110 28/03 A3005

2010/08/09 18:53
KCYS 091853Z VRB04KT 10SM BKN100 24/09 A3017

2010/08/09 18:52
KDDC 091852Z AUTO 19011G20KT 10SM CLR 38/16 A2991

2010/08/09 18:54
KDEC 091854Z 23006KT 10SM FEW029 34/24 A2993

2010/08/09 18:53
KDEN 091853Z 12007KT 10SM SCT060 SCT075 BKN140 27/12 A3009

2010/08/09 18:53
KDET 091853Z 31007KT 10SM CLR 28/20 A2997

2010/08/09 18:55
KDLH 091855Z 27005KT 10SM FEW030 30/18 A2993

2010/08/09 18:54
KDSM 091854Z 16004KT 10SM FEW024 SCT250 31/24 A2987

2010/08/09 18:53
KDTW 091853Z 27009KT 9SM FEW010 SCT040 OVC130 27/20 A2997

2010/08/09 18:56
KEAU 091856Z 02004KT 10SM CLR 31/23 A2991

2010/08/09 18:53
KEGE 091853Z 24010G15KT 10SM BKN085 21/08 A3025

2010/08/09 18:53
KELO 091853Z AUTO 29006KT 10SM SCT090 28/18 A2992

2010/08/09 18:54
KEVV 091854Z VRB03KT 10SM SCT060 36/22 A2994

2010/08/09 18:53
KFAR 091853Z 21009KT 10SM CLR 32/21 A2988

2010/08/09 18:53
KFNT 091853Z AUTO 21006G17KT 4SM -RA BR SCT028 BKN075 23/22 A2995

2010/08/09 18:56
KFSD 091856Z 09006KT 10SM SCT025 29/23 A2991

2010/08/09 18:54
KFWA 091854Z 22005KT 9SM FEW055 BKN140 30/22 A2998

2010/08/09 18:54
KGCK 091854Z 19013G20KT 10SM CLR 36/16 A2993

2010/08/09 18:53
KGFK 091853Z 19013G19KT 10SM FEW250 34/18 A2984

2010/08/09 18:53
KGJT 091853Z 13003KT 10SM SCT090 SCT110 26/11 A3012

2010/08/09 18:53
KGRB 091853Z 20008KT 10SM FEW025 BKN038 BKN045 29/23 A2988

2010/08/09 18:53
KGRI 091853Z VRB03KT 10SM CLR 32/22 A2991

2010/08/09 18:53
KGRR 091853Z 24007KT 10SM BKN019 BKN200 28/22 A2995

2010/08/09 18:53
KHIB 091853Z AUTO VRB04KT 10SM CLR 30/20 A2993

2010/08/09 18:55
KHON 091855Z AUTO 13008KT 10SM CLR 32/22 A2989

2010/08/09 18:53
KHUF 091853Z 17006KT 10SM CLR 33/22 A2995

2010/08/09 18:52
KHUT 091852Z 14012KT 10SM CLR 39/19 A2989

2010/08/09 18:53
KICT 091853Z 16011G18KT 10SM SCT075 SCT200 SCT250 38/19 A2989

2010/08/09 18:54
KIND 091854Z COR 26007KT 10SM FEW055 SCT140 SCT250 34/20 A2995

2010/08/09 18:54
KIND 091854Z 26007KT 10SM FEW055 BKN140 BKN250 34/20 A2995

2010/08/09 18:55
KINL 091855Z AUTO 00000KT 10SM FEW095 29/21 A2990

2010/08/09 18:55
KIRK 091855Z AUTO 15008KT 10SM CLR 29/24 A2990

2010/08/09 18:53
KJLN 091853Z 19007KT 10SM CLR 35/23 A2994

2010/08/09 18:56
KJMS 091856Z AUTO 20009KT 10SM CLR 33/19 A2989

2010/08/09 18:56
KJXN 091856Z 13005KT 8SM -RA SCT023 BKN050 OVC070 22/21 A2998

2010/08/09 18:53
KLAN 091853Z 19006KT 10SM FEW011 SCT055 OVC120 23/22 A2995

2010/08/09 18:53
KLAR 091853Z AUTO 14008G15KT 10SM CLR 23/07 A3022

2010/08/09 18:53
KLBF 091853Z AUTO 08005KT 10SM CLR 29/21 A2996

2010/08/09 18:55
KLBL 091855Z 19014G20KT 10SM CLR 37/15 A2995

2010/08/09 18:54
KLEX 091854Z 29003KT 10SM FEW060 34/18 A3001

2010/08/09 18:54
KLNK 091854Z VRB05KT 10SM CLR 34/25 A2985

2010/08/09 18:55
EHJR 091855Z AUTO 19022G25KT //// 17/15 Q1013 W17/S3

2010/08/09 19:00
TTPP 091900Z ///11KT 7000 -TSRA SCT008CB BKN260 24/23 Q1012 TEMPO TSRA

2010/08/09 19:00
TTCP 091900Z 15007KT 9999 FEW010CB BKN016 BKN250 29/25 Q1013 NOSIG

2010/08/09 18:55
EHSA 091855Z AUTO 22015G17KT 9999 18/15 Q1014 W19/S3

2010/08/09 19:00
TBPB 091900Z 18015KT 9999 SCT012 SCT032 29/24 Q1013 NOSIG

2010/08/09 19:00
LPFR 091900Z 26004KT CAVOK 30/18 Q1012

2010/08/09 19:00
LPMA 091900Z 16003KT 090V220 9999 FEW013 23/19 Q1013 RS11001KT 0516002KT 2323002KT

2010/08/09 19:00
LPPR 091900Z 00000KT CAVOK 27/17 Q1015

2010/08/09 19:00
LPPS 091900Z 36010KT 9999 SCT013 SCT030 23/19 Q1014

2010/08/09 19:00
LPPT 091900Z 30009KT CAVOK 35/12 Q1013 NOSIG

2010/08/09 19:00
TDPD 091900Z 10004KT 9999 SCT020 SCT270 FEW///CB 30/24 Q1013

2010/08/09 18:55
EHSC 091855Z AUTO 25012G13KT 9999 19/15 Q1014 W///S2

2010/08/09 19:00
TLPL 091900Z 16012KT 9000 -SHRA FEW008 SCT014CB BKN080 27/24 Q1013 CB/ALL QDS

2010/08/09 19:00
WMBA 091900Z 00000KT 8000 FEW005 SCT150 BKN280 25/25 Q1007

2010/08/09 19:00
WMKA 091900Z 08001KT 9999 FEW030 BKN260 26/25 Q1007

2010/08/09 19:00
WMKB 091900Z 09001KT 9000 FEW025 SCT140 BKN270 27/25 Q1007 NOSIG

2010/08/09 19:00
WMKC 091900Z 00000KT 9999 FEW017CB SCT020 BKN220 27/25 Q1007

2010/08/09 19:00
WMKD 091900Z 27001KT 9999 FEW025 SCT160 BKN280 26/24 Q1008 NOSIG

2010/08/09 19:00
WMKI 091900Z 03005KT 9999 FEW027 SCT140 BKN280 25/21 Q1008

2010/08/09 19:00
WMKL 091900Z 07001KT 9999 FEW028 SCT140 BKN270 27/26 Q1007

2010/08/09 19:00
WMKM 091900Z 04002KT 9999 FEW017CB SCT140 BKN270 26/25 Q1008

2010/08/09 19:00
WMKN 091900Z 20002KT 9999 SCT024 BKN220 26/26 Q1007

2010/08/09 19:00
LEBG 091900Z 06012KT 030V090 CAVOK 21/14 Q1020

2010/08/09 18:53
KLOU 091853Z 00000KT 10SM CLR 35/19 A2996

2010/08/09 18:53
KLOZ 091853Z AUTO VRB03KT 10SM FEW040 32/23 A3003

2010/08/09 18:53
KLSE 091853Z 24005KT 10SM FEW028 31/23 A2991

2010/08/09 18:53
KMBS 091853Z 17010KT 2 1/2SM -RA BR SCT018 BKN030 OVC060 24/23 A2994

2010/08/09 18:53
KMCI 091853Z 20014KT 10SM BKN250 36/24 A2988

2010/08/09 18:51
KMDW 091851Z 28008KT 10SM FEW035 SCT070 BKN200 BKN250 30/20 A2991

2010/08/09 18:52
KMHK 091852Z 21013KT 10SM CLR 39/19 A2983

2010/08/09 18:54
KMKC 091854Z 18008G17KT 10SM CLR 36/24 A2986

2010/08/09 18:52
KMKE 091852Z 27005KT 10SM SCT027 BKN140 BKN250 29/21 A2990

2010/08/09 18:55
KMKG 091855Z 22009G17KT 10SM BKN012 OVC017 27/23 A2993

2010/08/09 18:52
KMLI 091852Z 08005KT 10SM CLR 28/23 A2991

2010/08/09 18:54
KMOT 091854Z 00000KT 10SM CLR 29/18 A2984

2010/08/09 18:53
KMSN 091853Z VRB04KT 10SM BKN025 28/22 A2992

2010/08/09 18:53
KMSP 091853Z 11004KT 10SM CLR 33/20 A2991

2010/08/09 18:55
KOFF 091855Z AUTO 19006KT 10SM FEW027 32/25 A2985

2010/08/09 18:52
KOMA 091852Z 36003KT 10SM SCT035 SCT160 SCT250 33/25 A2984

2010/08/09 18:51
KORD 091851Z 29005KT 10SM FEW070 SCT150 SCT200 BKN250 30/21 A2992

2010/08/09 18:53
KOSH 091853Z VRB04KT 10SM SCT032 28/22 A2991

2010/08/09 18:53
KOTM 091853Z AUTO 19008KT 10SM CLR 29/23 A2989

2010/08/09 18:56
KOWB 091856Z 22005KT 10SM CLR 38/23 A2994

2010/08/09 18:53
KPAH 091853Z 21005KT 10SM FEW037 34/25 A2992

2010/08/09 18:54
KPIA 091854Z VRB04KT 10SM CLR 31/23 A2992

2010/08/09 18:53
KPIR 091853Z AUTO 12011G18KT 10SM CLR 32/20 A2989

2010/08/09 18:54
KPLN 091854Z AUTO 12003KT 7SM SCT019 27/22 A2989

2010/08/09 18:53
KPTK 091853Z 23008KT 9SM -RA BKN017 OVC130 24/22 A2997

2010/08/09 18:53
KPUB 091853Z 18003KT 10SM CLR 26/15 A3007

2010/08/09 18:52
KRAP 091852Z 18016G20KT 10SM CLR 33/16 A2994

2010/08/09 18:54
KRFD 091854Z 31010KT 10SM FEW030 SCT150 BKN250 30/22 A2993

2010/08/09 18:54
KRKS 091854Z AUTO 21015G21KT 10SM CLR 26/02 A3015

2010/08/09 18:54
KRST 091854Z 24004KT 10SM SCT023 SCT030 30/23 A2995

2010/08/09 18:50
KSAW 091850Z 04011KT 10SM SKC 27/21 A2988

2010/08/09 18:56
KSDF 091856Z 15004KT 9SM FEW055 SCT200 BKN250 35/21 A2995

2010/08/09 18:53
KSDM 091853Z VRB05KT 10SM CLR 22/13 A2993

2010/08/09 18:52
KSGF 091852Z 24004KT 10SM CLR 35/22 A2996

2010/08/09 18:53
KSLN 091853Z 17011KT 10SM CLR 39/19 A2984

2010/08/09 18:52
KSPI 091852Z 20004KT 10SM CLR 32/26 A2991

2010/08/09 18:53
KSTC 091853Z 00000KT 10SM CLR 32/19 A2992

2010/08/09 18:53
KSTJ 091853Z 19012G17KT 10SM CLR 33/24 A2985

2010/08/09 18:51
KSTL 091851Z VRB04KT 9SM FEW050 BKN130 BKN200 36/24 A2991

2010/08/09 18:53
KSTP 091853Z 00000KT 10SM CLR 33/21 A2991

2010/08/09 18:54
KSUS 091854Z VRB03KT 10SM BKN150 34/25 A2989

2010/08/09 18:52
KSUX 091852Z 04005KT 10SM OVC013 28/23 A2987

2010/08/09 18:53
KTVC 091853Z 24008KT 10SM FEW027 SCT050 SCT075 29/22 A2987

2010/08/09 18:54
KUIN 091854Z AUTO 18008KT 10SM CLR 31/25 A2990

2010/08/09 18:53
KWRL 091853Z AUTO 36005KT 10SM CLR 29/07 A2993

2010/08/09 18:53
KYIP 091853Z AUTO 31009KT 10SM -RA FEW100 27/21 A2998

2010/08/09 18:54
KAPN 091854Z VRB04KT 10SM FEW020 26/19 A2988

2010/08/09 18:54
KSBN 091854Z 19006KT 6SM HZ FEW060 SCT080 27/22 A2997

2010/08/09 19:00
GOGG 091900Z 27006KT 9999 BKN016 TCU SCT130 28/25 Q1012

2010/08/09 19:00
GOTT 091900Z 22012KT 9999 SCT013 SCT020 TCU FEW120 SCT230 30/25 Q1010

2010/08/09 19:00
GOSS 091900Z 30008KT 270V360 9999 FEW016 BKN230 29/25 Q1010

2010/08/09 19:00
CYWH 091900Z 23005KT 15SM SCT015 BKN025 OVC060 15/11 A2998 RMK SC3SC2SC2 SLP153

2010/08/09 19:00
CYAZ 091900Z 14005KT 5SM BR FEW003 BKN007 OVC015 13/12 A2997 RMK SF2SF2SC3 SLP151

2010/08/09 19:00
CYBL 091900Z 05003KT 30SM FEW028 SCT100 18/11 A2995 RMK CU2AC1 SLP143

2010/08/09 19:00
CYBV 091900Z 22006KT 15SM FEW110 FEW160 SCT300 28/21 A2982 RMK AC2AC1CI1 SLP098

2010/08/09 19:00
CYCP 091900Z 00000KT 3SM -RA BR SCT002 BKN012 OVC045 14/13 A2991 RMK SF3SF2SC2 VIS VLY S 11/2 SLP136

2010/08/09 19:00
CYCQ 091900Z 23007KT 35SM OVC045 19/05 A2978 RMK SC8 TCU EMBDD SLP091

2010/08/09 19:00
CYDB 091900Z 12016KT 25SM FEW055 FEW080 BKN110 BKN240 14/05 A2974 RMK SC1AC1AC2CS1 ACSL SLP088

2010/08/09 19:00
CYDC 091900Z 18002KT 15SM OVC050 20/07 A2988 RMK SC7 SLP112

2010/08/09 19:00
CYDQ 091900Z AUTO 25010G16KT 9SM FEW071 20/04 A2978 RMK SLP090 DENSITY ALT 3300FT MAX WND 27018KT AT 1827Z

2010/08/09 19:00
CYEV 091900Z 23006KT 15SM BKN017 13/09 A2977 RMK SC6 SLP084

2010/08/09 19:00
CYFO 091900Z 17006KT 15SM FEW009 BKN014 22/19 A2979 RMK SF1SC5 SLP091

2010/08/09 19:00
CYHE 091900Z AUTO 28006KT 220V330 9SM OVC021 OVC047 OVC051 OVC075 18/14 A2992 RMK SLP134

2010/08/09 19:00
CYIV 091900Z 14006KT 15SM BKN050 BKN250 23/13 A2990 RMK SC5CI0 SLP130

2010/08/09 19:00
CYKY 091900Z 22005KT 12SM FEW050 FEW250 24/14 A2987 RMK CU1CI0 SLP113

2010/08/09 19:00
CYPR 091900Z AUTO 18004KT 130V210 9SM OVC012 14/12 A3002 RMK SLP167

2010/08/09 19:00
CYQD 091900Z 16010G15KT 15SM FEW025 FEW100 BKN220 25/18 A2979 RMK SC1AC1CI1 TCU ASOCTD W-E SLP089

2010/08/09 19:00
CYQZ 091900Z AUTO VRB02KT 9SM OVC066 15/08 A2993 RMK SLP143 DENSITY ALT 2100FT

2010/08/09 19:00
CYRV 091900Z AUTO 00000KT 9SM -RA BKN012 BKN093 17/15 A2984 RMK PCPN 1.0MM PAST HR SLP106

2010/08/09 19:00
CYUA 091900Z AUTO 10009KT 9SM OVC007 OVC050 10/ A2974 RMK SLP074

2010/08/09 19:00
CYXC 091900Z 14005KT 25SM FEW050TCU BKN076 BKN260 21/12 A2987 RMK TCU2AC5CI1 SH ALQDS SLP106

2010/08/09 19:00
CYXE 091900Z 27002KT 15SM FEW040 25/14 A2985 RMK CU1 SLP110

2010/08/09 19:00
CYXQ 091900Z 00000KT 30SM FEW075 SCT120 BKN210 16/10 A2969 RMK AC1AC2CI1 SLP065

2010/08/09 19:00
CYXS 091900Z AUTO 19009KT 130V220 9SM FEW035 SCT044 OVC061 17/07 A2989 RMK SLP130 DENSITY ALT 3000FT

2010/08/09 19:00
CYZP 091900Z AUTO 26009KT 9SM -RA OVC061 15/13 A3003 RMK SLP169

2010/08/09 19:00
CYZT 091900Z 33008KT 20SM FEW034 BKN053 BKN140 17/10 A3002 RMK SC1SC4AC1 SLP164

2010/08/09 19:00
CYAZ 091900Z CCA 14005KT 5SM BR FEW003 BKN007 OVC015 13/12 A2997 RMK SF2SF2SC3 CIG AND VIS LWR E SLP151

2010/08/09 19:00
CYAW 091900Z 18009G15KT 15SM BKN120 BKN300 20/17 A2999 RMK AC5CI1 DA+960FT SLP157

2010/08/09 19:00
CYBG 091900Z 23010KT 20SM FEW050 FEW090 26/13 A2980 RMK CU2AC1 MDT CU SLP093

2010/08/09 19:00
CYEG 091900Z 08005KT 15SM FEW040 FEW160 BKN260 22/13 A2982 RMK CU1AC1CI2 TR AC SLP102

2010/08/09 19:00
CYFB 091900Z 04009KT 30SM -RA BKN030 OVC080 15/09 A2979 RMK SC6AC2 VRY LGT RA SLP090

2010/08/09 19:00
CYFC 091900Z AUTO 18008KT 9SM BKN010 BKN016 BKN045 22/20 A2986 RMK SLP114 DENSITY ALT 900FT RVR MISG

2010/08/09 19:00
CYGL 091900Z 30008KT 15SM OVC005 11/10 A2983 RMK ST8 BLN DSAPRD 689 FT SLP108

2010/08/09 19:00
CYHZ 091900Z 20013G18KT 15SM FEW030 BKN100 22/17 A2999 RMK CU1AC6 SLP154

2010/08/09 19:00
CYJT 091900Z 21017G25KT 15SM -SHRA SCT050 BKN100 OVC220 19/16 A2996 RMK SC3AC4CI1 SLP146

2010/08/09 19:00
CYMX 091900Z 22006KT 25SM FEW040 BKN150 BKN230 26/18 A2990 RMK CU2AC2CI1 SLP124

2010/08/09 19:00
CYOW 091900Z 28005KT 15SM FEW037TCU BKN047 BKN090 26/20 A2991 RMK TCU2SC3AC1 SLP129

2010/08/09 19:00
CYQB 091900Z 25012KT 15SM FEW023 SCT250 26/18 A2986 RMK CU2CI0 SLP111

2010/08/09 19:00
CYQG 091900Z 30009KT 7SM SCT120 OVC240 29/21 A2996 RMK AC3CS4 CC ASOCTD SLP142

2010/08/09 19:00
CYQM 091900Z 20009KT 15SM FEW015 BKN040 OVC100 22/18 A2989 RMK CU2SC4AC2 SH SW-NW SLP122

2010/08/09 19:00
CYQQ 091900Z 01006KT 20SM FEW040 SCT100 17/11 A2996 RMK SC2AC2 SLP147

2010/08/09 19:00
CYQX 091900Z 22014G20KT 15SM FEW030 FEW095 BKN130 BKN260 22/16 A2998 RMK CU1AC2AC3CI1 SLP154

2010/08/09 19:00
CYQY 091900Z 20016G21KT 15SM SCT130 BKN220 OVC240 23/11 A3001 RMK AC3CS2CI1 SLP163

2010/08/09 19:00
CYTR 091900Z 22011KT 6SM HZ OVC080 26/18 A2990 RMK AC8 SLP125

2010/08/09 19:00
CYUL 091900Z 25011KT 15SM FEW025 FEW090 BKN210 26/17 A2989 RMK CF1AC2CI2 SLP122

2010/08/09 19:00
CYVR 091900Z 30010KT 12SM -SHRA FEW012 BKN017 OVC060 16/12 A2996 RMK CU2CU4SC2 SLP146

2010/08/09 19:00
CYWG 091900Z 17007KT 15SM BKN075 30/20 A2982 RMK AC5 SLP096

2010/08/09 19:00
CYXX 091900Z 22007KT 10SM -SHRA SCT020 OVC030 17/11 A2996 RMK SC3SC5 CVCTV CLD EMBD SLP147

2010/08/09 19:00
CYYC 091900Z 16005KT 40SM FEW056 BKN260 23/09 A2985 RMK CU1CI2 SLP104

2010/08/09 19:00
CYYJ 091900Z 13004KT 20SM -RA FEW018 FEW035 SCT055 OVC082 17/13 A2997 RMK SC1SC1SC2AC5 VIS NW 8 SLP148

2010/08/09 19:00
CYYQ 091900Z 07011KT 15SM BKN010 13/10 A3000 RMK SC6 SLP160

2010/08/09 19:00
CYYR 091900Z 28014KT 15SM FEW045 BKN062 BKN090 22/12 A2959 RMK CU2SC3AC1 SH DIST ALQDS SLP023

2010/08/09 19:00
CYYT 091900Z 23013G20KT 15SM FEW035 SCT160 BKN230 22/15 A3010 RMK SC2AC2CI2 SLP194

2010/08/09 19:00
CYYZ 091900Z 23010KT 9SM -SHRA BKN056 OVC070 28/22 A2992 RMK SC7AC1 PCPN VRY LGT SLP129

2010/08/09 19:00
CYZF 091900Z 14008KT 15SM FEW015 FEW034 BKN210 20/14 A2971 RMK CF1SC2CI1 SLP064

2010/08/09 19:00
CYZV 091900Z 20015G20KT 30SM FEW060 BKN250 19/15 A2970 RMK CU2CI2 SLP059

2010/08/09 19:00
CYZX 091900Z 18013KT 15SM FEW040 BKN084 BKN250 26/16 A2992 RMK CU1AC4CI1 WNDY HILL 19010G17KT SLP133

2010/08/09 19:00
CBBC 091900Z AUTO 29004KT 9SM FEW035 FEW080 16/ A3002 RMK SLP166

2010/08/09 19:00
CYBD 091900Z 27005KT 15SM FEW045TCU SCT080TCU BKN130 18/11 A2996 RMK TCU1TCU3AC2 SLP147

2010/08/09 19:00
CYCD 091900Z 00000KT 20SM -RA FEW012 SCT040 OVC100 16/12 A2996 RMK SF1SC3AS3 SLP144

2010/08/09 19:00
CYCG 091900Z 00000KT 15SM FEW055 FEW100 SCT270 25/15 A2980 RMK SC2AC1CI1 SLP085

2010/08/09 19:00
CYDA 091900Z 00000KT 20SM FEW050 FEW080 BKN240 18/10 A2968 RMK CU1AS2CI2 SLP060

2010/08/09 19:00
CYGE 091900Z 13003KT 30SM FEW035 BKN085 BKN140 18/14 A2986 RMK SC2AC3AC2 SLP112

2010/08/09 19:00
CYKA 091900Z 27015KT 15SM -SHRA BKN040 OVC080 14/12 A2990 RMK SC6AC2 SLP125

2010/08/09 19:00
CYLW 091900Z AUTO 13006KT 100V210 9SM CLR 24/08 A2981 RMK SLP090 DENSITY ALT 2800FT

2010/08/09 19:00
CYMA 091900Z 03003KT 20SM FEW045 SCT070 BKN100 BKN230 18/11 A2975 RMK SC2AC2AS1CI1 TCU ASOCTD SLP088

2010/08/09 19:00
CYOC 091900Z 06010KT 35SM FEW025 FEW080 BKN210 14/09 A2967 RMK CF1AC1CI1 SLP059

2010/08/09 19:00
CYPW 091900Z 26005KT 40SM FEW010 FEW030 FEW080 BKN140 BKN280 16/12 A2996 RMK SF1CU1AC1AC6CI1 TCU ASOCTD SLP147

2010/08/09 19:00
CYQH 091900Z 26007KT 30SM SCT040 BKN090 20/09 A2981 RMK SC2AC1 SLP101

2010/08/09 19:00
CYQU 091900Z 26010G15KT 25SM FEW048 BKN210 20/07 A2981 RMK CU2CI2 SLP101

2010/08/09 19:00
CYXJ 091900Z 24008KT 15SM SCT060 BKN220 19/06 A2978 RMK SC3CI1 SLP091

2010/08/09 19:00
CYXT 091900Z 27002KT 20SM SCT030 BKN072 BKN100 17/11 A3000 RMK CU3AC2AC1 TCU SLP163

2010/08/09 19:00
CYXY 091900Z 15012G20KT 40SM FEW030 FEW110 SCT140 BKN200 14/06 A2983 RMK CU1AC2AC2CI2 SLP116

2010/08/09 19:00
CYYD 091900Z 35007G15KT 25SM SCT055 SCT230 19/05 A2993 RMK CU3CI0 SLP136

2010/08/09 19:00
CYYF 091900Z 35005KT 15SM FEW080 FEW180 BKN250 24/10 A2981 RMK CU2AC1CI2 SLP089

2010/08/09 19:00
CYZW 091900Z 13007KT 30SM FEW050 SCT140 SCT190 BKN250 15/06 A2987 RMK SC1AS2AC1CI2 SLP128

2010/08/09 19:00
CYZY 091900Z AUTO 04003KT 9SM OVC061 16/08 A2985 RMK SLP118 DENSITY ALT 2900FT

2010/08/09 19:00
CZFA 091900Z 00000KT 30SM FEW060 SCT120 BKN240 17/05 A2978 RMK SC1AC2CI1 SLP095

2010/08/09 19:00
CZMT 091900Z 32004KT 15SM -SHRA BKN008 OVC012 14/13 A3003 RMK SC7SC1 SLP168

2010/08/09 19:03
PASI 091903Z 22003KT 10SM FEW007 OVC028 14/11 A2998

2010/08/09 18:53
KACV 091853Z AUTO 29005KT 10SM OVC003 12/11 A2995

2010/08/09 18:53
KALW 091853Z 26009G15KT 10SM CLR 26/06 A2985

2010/08/09 18:53
KBFI 091853Z 17003KT 10SM OVC023 17/12 A2998

2010/08/09 18:54
KBFL 091854Z 32008KT 10SM CLR 29/13 A2986

2010/08/09 18:53
KBIL 091853Z 00000KT 10SM FEW090 28/11 A2990

2010/08/09 18:53
KBKE 091853Z AUTO 31004KT 10SM CLR 23/07 A2991

2010/08/09 18:53
KBLI 091853Z 19006KT 10SM SCT010 BKN041 OVC100 16/13 A2996

2010/08/09 18:53
KBOI 091853Z 29007KT 10SM CLR 26/09 A2989

2010/08/09 18:53
KBTM 091853Z AUTO 00000KT 10SM CLR 20/08 A3002

2010/08/09 18:53
KBUR 091853Z 18006KT 10SM CLR 24/13 A2992

2010/08/09 18:53
KBYI 091853Z AUTO 12013KT 10SM -RA FEW045 SCT095 17/12 A3000

2010/08/09 18:56
KBZN 091856Z 31005KT 10SM SCT100 BKN110 23/11 A2998

2010/08/09 18:53
KCDC 091853Z AUTO 23009G15KT 10SM CLR 24/08 A3015

2010/08/09 18:56
KCEC 091856Z AUTO 28007KT 10SM OVC008 14/11 A2996

2010/08/09 18:53
KCLM 091853Z AUTO 30006KT 10SM BKN025 BKN060 15/11 A3000

2010/08/09 18:56
KCTB 091856Z AUTO 21009G17KT 10SM FEW075 26/07 A2989

2010/08/09 18:56
KEKO 091856Z AUTO 17006KT 10SM FEW100 27/02 A3001

2010/08/09 18:54
KEUG 091854Z 32006KT 10SM OVC013 16/12 A3001

2010/08/09 18:53
KFAT 091853Z 22005KT 10SM FEW080 28/13 A2988

2010/08/09 18:56
KFLG 091856Z 22011G17KT 10SM FEW065 SCT100 22/09 A3030

2010/08/09 18:54
KGCN 091854Z 25008G19KT 10SM CLR 24/01 A3026

2010/08/09 18:53
KGEG 091853Z 18008KT 10SM FEW065 SCT100 BKN200 24/08 A2986

2010/08/09 18:53
KGGW 091853Z AUTO VRB03KT 10SM CLR 29/09 A2986

2010/08/09 18:53
KGTF 091853Z 13004KT 10SM -RA FEW075 SCT110 24/07 A2988

2010/08/09 18:53
KHLN 091853Z 10004KT 10SM CLR 22/09 A2991

2010/08/09 18:53
KHQM 091853Z AUTO 23008KT 10SM SCT013 OVC025 15/12 A3001

2010/08/09 18:53
KIDA 091853Z 23009KT 10SM SCT050 BKN085 OVC100 21/12 A3005

2010/08/09 18:56
KLAS 091856Z 13005KT 10SM CLR 33/06 A2991

2010/08/09 18:53
KLAX 091853Z 26009KT 10SM FEW015 19/12 A2994

2010/08/09 18:53
KLGB 091853Z 18008KT 9SM CLR 21/13 A2993

2010/08/09 18:53
KLMT 091853Z 23007KT 10SM FEW050 SCT250 24/06 A2997

2010/08/09 18:53
KLVM 091853Z AUTO 30007G16KT 10SM CLR 28/08 A2994

2010/08/09 18:53
KMFR 091853Z 31005KT 10SM FEW070 25/11 A2990

2010/08/09 18:53
KMLS 091853Z AUTO 00000KT 10SM CLR 32/09 A2986

2010/08/09 18:54
KMRY 091854Z 32003KT 10SM OVC009 14/11 A2996

2010/08/09 18:53
KMSO 091853Z VRB03KT 10SM CLR 26/09 A2987

2010/08/09 18:53
KMYV 091853Z AUTO VRB05KT CLR 26/13 A2987

2010/08/09 18:56
KNTD 091856Z 22008KT 5SM HZ BKN012 17/13 A2995

2010/08/09 18:53
KOAK 091853Z 30006KT 10SM FEW016 19/12 A2994

2010/08/09 18:53
KOGD 091853Z AUTO 20013G21KT 160V220 10SM FEW085 28/05 A3002

2010/08/09 18:54
KOLM 091854Z 16005KT 10SM OVC019 17/12 A2999

2010/08/09 18:53
KONT 091853Z 22006KT 9SM CLR 26/11 A2991

2010/08/09 18:55
KOTH 091855Z 35017KT 10SM OVC018 16/11 A3006

2010/08/09 18:53
KPAE 091853Z 29005KT 10SM BKN012 OVC022 17/13 A2999

2010/08/09 18:53
KPDX 091853Z 00000KT 10SM SCT025 OVC031 16/08 A3001

2010/08/09 18:51
KPHX 091851Z 21005KT 10SM FEW120 SCT150 SCT180 37/05 A2986

2010/08/09 18:53
KPIH 091853Z 27015KT 10SM BKN090 24/11 A3004

2010/08/09 18:53
KPMD 091853Z 00000KT 10SM CLR 30/00 A2995

2010/08/09 18:53
KPRB 091853Z AUTO A2992

2010/08/09 18:53
KPRC 091853Z 23010KT 10SM SCT080 27/06 A3015

2010/08/09 18:53
KPSP 091853Z 08005KT 10SM CLR 36/M01 A2980

2010/08/09 18:54
KRBL 091854Z AUTO 16005KT 10SM CLR 28/13 A2986

2010/08/09 18:53
KRDD 091853Z 00000KT 10SM CLR 28/12 A2984

2010/08/09 18:56
KRDM 091856Z VRB03KT 10SM CLR 24/07 A2992

2010/08/09 18:55
KRNO 091855Z 30003KT 10SM FEW080 26/04 A3000

2010/08/09 18:53
KRNT 091853Z 00000KT 9SM OVC018 16/12 A2998

2010/08/09 18:53
KSAC 091853Z 22005KT 10SM CLR 23/13 A2988

2010/08/09 18:51
KSAN 091851Z 27006KT 10SM FEW020 21/14 A2995

2010/08/09 18:53
KSBA 091853Z 19006KT 10SM CLR 18/13 A2994

2010/08/09 18:51
KSBD 091851Z 26008KT 5SM HZ SKC 26/06 A2992

2010/08/09 18:56
KSBP 091856Z 28008KT 9SM FEW012 21/12 A2993

2010/08/09 18:55
KSCK 091855Z 31005KT 10SM CLR 24/13 A2988

2010/08/09 18:53
KSEA 091853Z 18005KT 10SM SCT014 OVC022 16/12 A2999

2010/08/09 18:53
KSFF 091853Z 21007KT 10SM FEW070 25/09 A2985

2010/08/09 18:56
KSFO 091856Z 03007KT 10SM FEW010 19/12 A2993

2010/08/09 18:53
KSHR 091853Z AUTO 00000KT 10SM CLR 31/08 A2992

2010/08/09 18:53
KSJC 091853Z 06005KT 10SM FEW007 23/11 A2991

2010/08/09 18:53
KSLC 091853Z 17011KT 140V200 10SM SCT080TCU SCT120 SCT200 28/04 A3001

2010/08/09 18:53
KSMF 091853Z VRB03KT 10SM CLR 23/15 A2987

2010/08/09 18:51
KSMX 091851Z VRB03KT 10SM FEW015 18/11 A2994

2010/08/09 18:53
KSNA 091853Z VRB06KT 8SM FEW018 23/13 A2993

2010/08/09 18:53
KSNS 091853Z 32003KT 10SM OVC015 17/12 A2995

2010/08/09 18:53
KTIW 091853Z VRB03KT 10SM OVC014 17/12 A2999

2010/08/09 18:53
KTUS 091853Z 21005KT 10SM CLR 34/15 A2998

2010/08/09 18:53
KTVL 091853Z AUTO VRB05KT 10SM CLR 22/08 A3011

2010/08/09 18:53
KTWF 091853Z 18016G23KT 10SM CLR 28/06 A2993

2010/08/09 18:56
KUKI 091856Z AUTO 12004KT 10SM CLR 24/13 A2987

2010/08/09 18:53
KYKM 091853Z VRB04KT 10SM FEW080 26/08 A2982

2010/08/09 19:00
CYRL 091900Z CCA 19004KT 15SM FEW030 BKN240 26/19 A2990 RMK CU1CI2 SLP127

2010/08/09 19:00
CYAD 091900Z 29022KT 8SM OVC012 11/10 A2980 RMK ST8 SLP102

2010/08/09 19:00
CYAH 091900Z 26004KT 7SM -SHRA OVC010 12/11 A2975 RMK SF8 SLP086

2010/08/09 19:00
CYAS 091900Z 02017G25KT 15SM BKN012 BKN040 10/07 A2976 RMK SC6SC2 LAST OBS/NEXT 101200UTC SLP084

2010/08/09 19:00
CYBX 091900Z 21021G28KT 3SM BR BKN004 BKN040 17/15 A2975 RMK SF5SC1 SLP076

2010/08/09 19:00
CYGV 091900Z AUTO 22010KT 200V270 9SM CLR 19/14 A2972 RMK SLP067

2010/08/09 19:00
CYHA 091900Z 32010KT 15SM MIFG SCT002 OVC015 08/05 A2980 RMK SF2SC4 SLP093

2010/08/09 19:00
CYIK 091900Z 33004KT 15SM FEW008 FEW019 FEW060 FEW150 FEW300 12/08 A2987 RMK ST1CU1SC1AC1CC1 SLP119

2010/08/09 19:00
CYKG 091900Z 35018G25KT 15SM OVC015 10/06 A2980 RMK SC7 SLP101

2010/08/09 19:00
CYKQ 091900Z 31010KT 15SM FEW035 FEW290 21/13 A2984 RMK CU1CI0 SLP107

2010/08/09 19:00
CYLA 091900Z 03020G25KT 6SM BR OVC003 07/06 A2975 RMK ST8 VIS SW 1 SLP078

2010/08/09 19:00
CYMH 091900Z 23013G24KT 15SM BKN020 OVC096 20/15 A2971 RMK CU5AC3 LAST STAFFED OB/NEXT 10 1100 UTC SLP061

2010/08/09 19:00
CYMT 091900Z 26007KT 15SM BKN040 BKN070 23/12 A2984 RMK CU5AC1 SLP111

2010/08/09 19:00
CYMU 091900Z 22005KT 15SM VCFG FEW004 OVC006 11/10 A2977 RMK SF1SC7 SLP085

2010/08/09 19:00
CYNM 091900Z AUTO 24007KT 220V290 9SM SCT062 25/12 A2985 RMK SLP112

2010/08/09 19:00
CYOY 091900Z AUTO 24008KT 180V270 9SM FEW032 25/16 A2985 RMK PCPN 0.5MM PAST HR SLP108

2010/08/09 19:00
CYPH 091900Z 02010KT 15SM BKN025 16/10 A2981 RMK SC7 SLP096

2010/08/09 19:00
CYPX 091900Z 36005KT 15SM BKN039 17/08 A2983 RMK SC6 SLP102

2010/08/09 19:00
CYQI 091900Z 19012G18KT 15SM BKN025 BKN100 OVC250 21/16 A2999 RMK SC6AC2CI0 SLP155

2010/08/09 19:00
CYSK 091900Z 01012KT 15SM FEW010 BKN220 13/09 A2981 RMK SF1CI3 SLP097

2010/08/09 19:00
CYSL 091900Z 21007KT 15SM FEW029TCU BKN040 BKN140 24/17 A2984 RMK TCU2SC2AC1 SLP107

2010/08/09 19:00
CYUY 091900Z 27005KT 15SM SCT055 BKN080 BKN220 26/13 A2991 RMK CU3AC2CI1 SLP131

2010/08/09 19:00
CYWK 091900Z 24010KT 15SM VCSH BKN024 OVC040 14/10 A2969 RMK SC6SC2 CU ASOCTD SLP063

2010/08/09 19:00
CYZG 091900Z 01003KT 15SM FEW026 FEW160 SCT240 15/07 A2984 RMK CF2AC1CS2 SLP118

2010/08/09 19:00
CWEU 091900Z 27012KT 40SM FEW035 FEW080 03/00 A3002 RMK SC1AC0 AC LENT SLP166

2010/08/09 19:00
CWFD 091900Z AUTO 01017KT 0SM 02/ RMK ALTM MISG

2010/08/09 19:00
CWKP 091900Z AUTO 11014KT 07/ A2976 RMK SLP101

2010/08/09 19:00
CWRH 091900Z AUTO ///// 05/ A2975 RMK SLP102

2010/08/09 19:00
CWSA 091900Z AUTO 12014KT 9SM -RA FEW029 FEW044 SCT051 BKN073 20/17 A3003 RMK SLP170

2010/08/09 19:00
CWTU 091900Z AUTO 18016KT 11/ A2959 RMK SLP033

2010/08/09 19:00
CWXR 091900Z AUTO 05006KT 08/ A2979 RMK SLP098

2010/08/09 19:00
CWYM 091900Z AUTO 05020G28KT 05/ RMK ALTM MISG SLP115

2010/08/09 19:00
CYPD 091900Z AUTO 20011G16KT 9SM CLR 23/12 A3000 RMK SLP160 DENSITY ALT 1300FT MAX WND 20022KT AT 1812Z

2010/08/09 19:00
CZFM 091900Z 15003KT 35SM BKN030 BKN100 15/09 A2975 RMK SC5AC0 SLP077

2010/08/09 19:00
CZFN 091900Z 23008KT 30SM FEW020 FEW040 BKN100 20/12 A2973 RMK SC1SC2AC3 SLP070

2010/08/09 19:00
CZPC 091900Z AUTO 22009KT 9SM CLR 23/10 A2987 RMK SLP099

2010/08/09 19:00
CZUM 091900Z AUTO 27008KT 8SM -RA OVC016 OVC077 14/12 A2964 RMK SLP048

2010/08/09 19:00
CWHN 091900Z AUTO 12007KT 100V240 9SM FEW050 SCT090 23/10 A2981 RMK PCPN 0.5MM PAST HR SLP101

2010/08/09 19:00
CYBK 091900Z 11002KT 20SM FEW030 18/10 A2999 RMK SC1 SLP158

2010/08/09 19:00
CYBR 091900Z 16003KT 15SM FEW160 SCT250 29/20 A2983 RMK AC2CI0 SLP101

2010/08/09 19:00
CYBU 091900Z AUTO 20003KT 9SM FEW033 25/17 A2980 RMK SLP094 DENSITY ALT 2700FT

2010/08/09 19:00
CYDN 091900Z AUTO 29007KT 230V300 9SM CLR 32/15 A2977 RMK SLP080 DENSITY ALT 3300FT

2010/08/09 19:00
CYEN 091900Z 25002KT 15SM FEW140 SCT260 31/15 A2986 RMK AC2CI0 SLP107

2010/08/09 19:00
CYET 091900Z AUTO 08004KT 9SM FEW062 FEW072 FEW092 19/11 A2981 RMK PCPN 1.0MM PAST HR SLP095

2010/08/09 19:00
CYGX 091900Z 03005KT 15SM SCT080 SCT200 20/09 A2995 RMK AS2CI0 SLP147

2010/08/09 19:00
CYKJ 091900Z AUTO 10005KT 6SM -RA OVC009 15/14 A2978 RMK SLP098 DENSITY ALT 2200FT

2010/08/09 19:00
CYLL 091900Z 21004KT 15SM FEW040 23/14 A2985 RMK CU1 SLP109

2010/08/09 19:00
CYNE 091900Z AUTO 15003KT 080V210 9SM BKN035 BKN061 BKN081 25/17 A2983 RMK SLP106

2010/08/09 19:00
CYOJ 091900Z 17004KT 15SM FEW042 21/10 A2970 RMK CU2 SLP064

2010/08/09 19:00
CYPA 091900Z 00000KT 15SM FEW048 25/13 A2982 RMK CU1 SLP099

2010/08/09 19:00
CYPG 091900Z 15006KT 100V180 12SM SCT150 31/19 A2982 RMK AC3 SLP097

2010/08/09 19:00
CYPY 091900Z AUTO 05003KT 010V140 9SM CLR 22/13 A2974 RMK SLP076

2010/08/09 19:00
CYQF 091900Z 16004KT 15SM FEW030 BKN260 21/13 A2983 RMK CU2CI2 SLP102

2010/08/09 19:00
CYQL 091900Z 25006KT 40SM FEW055 FEW280 24/10 A2984 RMK CU1CI1 SLP096

2010/08/09 19:00
CYQR 091900Z 27003KT 15SM FEW036 25/16 A2988 RMK CF1 SLP120

2010/08/09 19:00
CYQW 091900Z AUTO VRB05KT 9SM CLR 25/14 A2987 RMK SLP113 DENSITY ALT 3400FT

2010/08/09 19:00
CYVC 091900Z 23005KT 15SM SCT020 24/17 A2978 RMK CU3 SLP086

2010/08/09 19:00
CYXD 091900Z AUTO 11006KT 9SM CLR 23/11 A2980 RMK SLP089

2010/08/09 19:00
CYYL 091900Z AUTO 13010G17KT 9SM OVC037 18/09 A2985 RMK SLP115 DENSITY ALT 1800FT MAX WND 11020KT AT 1825Z

2010/08/09 19:00
CYYN 091900Z AUTO 24005KT 170V280 9SM CLR 24/13 A2987 RMK SLP111

2010/08/09 19:00
CYZH 091900Z AUTO 35004KT 320V030 9SM CLR 19/10 A2982 RMK SLP104

2010/08/09 19:00
CWRF 091900Z AUTO ///// 19/ A2976

2010/08/09 19:00
CWVD 091900Z AUTO ///// 04/ A2984 RMK SLP140

2010/08/09 19:00
CYBW 091900Z 16006KT 30SM FEW045TCU SCT120 BKN250 21/10 A2985 RMK TCU2AC1CI2 SLP109

2010/08/09 19:00
CYCY 091900Z 13005KT 25SM FEW070 09/05 A2993 RMK AC1 SLP139

2010/08/09 19:00
CYED 091900Z AUTO 11006KT 9SM FEW049 23/11 A2981 RMK SLP095

2010/08/09 19:00
CYEK 091900Z 07006KT 15SM OVC068 11/11 A3004 RMK AS7 SLP173

2010/08/09 19:00
CYIO 091900Z 02004KT 30SM FEW025 FEW080 SCT140 OVC250 12/05 A2990 RMK SC1AC1AS2CI3 SLP130

2010/08/09 19:00
CYLJ 091900Z 23012KT 15SM FEW055 FEW250 26/12 A2981 RMK CU1CI1 TR CI SLP097

2010/08/09 19:00
CYLT 091900Z 30006KT 7SM -SN OVC013 M01/M02 A3002 RMK SF8 LAST OB/NEXT 101200 UTC SLP171

2010/08/09 19:00
CYMJ 091900Z 25003KT 15SM FEW044 FEW280 26/14 A2988 RMK CU1CI0 SLP119

2010/08/09 19:00
CYOD 091900Z 17005KT 15SM FEW040TCU FEW110 FEW220 25/14 A2982 RMK TCU1AC2CC1 TR CC SLP101

2010/08/09 19:00
CYPE 091900Z 21010KT 15SM FEW050 BKN250 21/07 A2977 RMK CU1CI3 SLP088

2010/08/09 19:00
CYQV 091900Z AUTO 31008KT 9SM CLR 26/17 A2984 RMK SLP107

2010/08/09 19:00
CYSF 091900Z AUTO 08009KT 2 1/2SM HZ FEW028 BKN046 OVC066 18/15 A2979 RMK SLP093 DENSITY ALT 1400FT TS/LTNG TEMPO UNAVBL

2010/08/09 19:00
CYSM 091900Z 00000KT 15SM FEW025 FEW110 BKN220 20/12 A2975 RMK CF1AC2CS2 TCU TOPS DIST SW SLP078

2010/08/09 19:00
CYSR 091900Z 15013KT 8SM SHRA FEW030 OVC090 09/08 A2984 RMK ST1AS7 SLP141

2010/08/09 19:00
CYTH 091900Z 12010G15KT 15SM FEW050 SCT110 SCT150 BKN230 21/10 A2989 RMK SC1AC3AC1CI2 ACC ASOCTD SLP130

2010/08/09 19:00
CYUB 091900Z 16002KT 15SM BKN010 BKN240 12/07 A2978 RMK SC5CI1 SLP086

2010/08/09 19:00
CYUS 091900Z AUTO ///// 9SM CLR 19/ A2993 RMK SLP138

2010/08/09 19:00
CYVT 091900Z 25003KT 210V290 15SM FEW020 SCT100 BKN240 23/16 A2978 RMK SC2AC2CI1 ACC ASOCTD SLP087

2010/08/09 19:00
CYXH 091900Z 23005KT 30SM FEW064 BKN270 27/11 A2983 RMK CU1CI0 SLP096

2010/08/09 19:00
CYZU 091900Z 06003KT 15SM FEW044 FEW120 SCT250 20/09 A2982 RMK CU1AC1CI0 SLP101

2010/08/09 19:00
CWAE 091900Z 18005KT 15SM FEW016 OVC050 14/13 A2993 RMK SC2SC6 WND ESTD SLP133

2010/08/09 19:00
CWCA 091900Z 21005KT 15SM FEW016 SCT070 SCT200 18/14 A2963 RMK SC2AC2CI1 TR CI SLP035

2010/08/09 19:00
CWCL 091900Z AUTO 35003KT 7SM -RA OVC013 OVC042 10/08 A2997 RMK SLP155

2010/08/09 19:00
CWDL 091900Z 23007KT 15SM FEW050 FEW055 SCT070 BKN075 16/05 A2994 RMK CU1SC2AC2AS0 SLP140

2010/08/09 19:00
CWIL 091900Z AUTO 19008KT 18/ A2984 RMK SLP110

2010/08/09 19:00
CWKM 091900Z AUTO 08011KT 10/ A2973 RMK SLP074

2010/08/09 19:00
CWKW 091900Z AUTO 12003KT 09/ A2967 RMK SLP068

2010/08/09 19:00
CWLI 091900Z AUTO 24009KT 09/ A2980 RMK SLP101

2010/08/09 19:00
CWLX 091900Z AUTO 27008KT 18/ A2986 RMK SLP121

2010/08/09 19:00
CWLY 091900Z AUTO 35013G20KT 2 1/8SM BKN023 BKN057 14/13 A2990 RMK PCPN 1.0MM PAST HR SLP126

2010/08/09 19:00
CWOB 091900Z AUTO ///// 1/8SM CLR 05/ A2971 RMK SLP096

2010/08/09 19:00
CWPX 091900Z AUTO ///// 14/ A2983 RMK SLP114

2010/08/09 19:00
CWRX 091900Z AUTO 31006KT 15/ A2988

2010/08/09 19:00
CWSW 091900Z 18005KT 20SM BKN054 BKN120 20/10 A2989 RMK CU5AC1 SLP111

2010/08/09 19:00
CWUP 091900Z AUTO 02007KT 04/ A2990 RMK SLP148

2010/08/09 19:00
CWUW 091900Z AUTO ///// 9SM CLR 13/ A2988 RMK SLP145

2010/08/09 19:00
CWVH 091900Z AUTO 13006KT 09/ A2976 RMK SLP093

2010/08/09 19:00
CWYK 091900Z AUTO ///// 09/ A2956 RMK SLP030

2010/08/09 19:00
CWZZ 091900Z AUTO ///// 0SM BKN001 06/ A2961 RMK SLP047

2010/08/09 19:00
CZBF 091900Z 05007KT 020V080 15SM BKN030 BKN120 BKN210 25/18 A2980 RMK SC6AC1CI1 TCU ASOCTD SLP091

2010/08/09 19:00
CZCP 091900Z AUTO 06008KT 1/8SM CLR 06/ A2981 RMK SLP101

2010/08/09 19:00
CZST 091900Z 00000KT 15SM FEW025 SCT045 BKN065 OVC120 16/11 A3000 RMK CF2SC2SC2AC2 SLP160

2010/08/09 19:00
CYAD 091900Z CCA 29012KT 8SM OVC012 11/10 A2980 RMK ST8 SLP102

2010/08/09 19:00
CYBB 091900Z 00000KT 15SM FEW140 FEW220 21/09 A2995 RMK AC1CI1 SLP143

2010/08/09 19:00
CYCB 091900Z 04012KT 15SM FEW070 18/14 A2982 RMK AC1 TR AC FU SLP101

2010/08/09 19:00
CYCO 091900Z 06004KT 1 1/2SM -DZ BR OVC003 10/10 A2978 RMK FG2ST6 BLN EST SLP087

2010/08/09 19:00
CYFS 091900Z 34005KT 15SM OVC010 17/15 A2967 RMK SC8 CIG RAG SLP053

2010/08/09 19:00
CYGH 091900Z 00000KT 25SM SCT080 15/09 A2977 RMK AC2 SLP084

2010/08/09 19:00
CYGT 091900Z 34008KT 15SM FEW130 SCT160 18/08 A2992 RMK AC2AS0 SLP135

2010/08/09 19:00
CYHI 091900Z 08004KT 15SM VCFG FEW010 BKN015 OVC020 11/08 A2985 RMK SF0SC5SC3 SLP112

2010/08/09 19:00
CYHK 091900Z 18014KT 15SM FEW110 15/10 A2991 RMK AS1 SLP131

2010/08/09 19:00
CYJF 091900Z 00000KT 10SM FEW007 BKN020 OVC120 16/15 A2972 RMK SF2SC5AS2 SLP067

2010/08/09 19:00
CYKD 091900Z 16004KT 12SM OVC014 13/09 A2976 RMK SC8 SLP077

2010/08/09 19:00
CYLC 091900Z 23002KT 15SM -RA BKN016 OVC020 14/09 A2979 RMK SC7SC1 WIND DIRECTION ESTIMATED 16.1/11.9/TR/5.8 LASTOB/NXTOB101200Z SLP090

2010/08/09 19:00
CYLK 091900Z 10005KT 6SM FU BKN080 OVC210 23/15 A2970 RMK AC5CI0 SLP063

2010/08/09 19:00
CYOA 091900Z 11013KT 1 1/2SM FU SKC 20/11 A2978 RMK FU3 SLP097

2010/08/09 19:00
CYPC 091900Z 02005KT 6SM BR OVC003 09/08 A2980 RMK ST8 SLP092

2010/08/09 19:00
CYRA 091900Z 33003KT 8SM BKN016 OVC052 20/17 A2968 RMK SC3SC2 SLP055

2010/08/09 19:00
CYRT 091900Z 29006KT 15SM BKN075 17/10 A3004 RMK AC6 SLP175

2010/08/09 19:00
CYTE 091900Z 30003KT 15SM FEW045 BKN095 16/09 A2983 RMK SC2AC5 SLP106

2010/08/09 19:00
CYUT 091900Z 24005KT 210V270 45SM FEW200 16/05 A2994 RMK CS0 SLP140

2010/08/09 19:00
CYVM 091900Z 05006KT 1 1/2SM -DZ BR OVC001 03/03 A2994 RMK FG5ST3 SLP138

2010/08/09 19:00
CYWJ 091900Z 31010KT 40SM FEW020 BKN080 BKN160 18/12 A2970 RMK CU1AC3AC0 SLP065

2010/08/09 19:00
CYXN 091900Z 09004KT 15SM BKN060 14/10 A3005 RMK SC7 SLP178

2010/08/09 19:00
CYAY 091900Z AUTO 24023G30KT 9SM BKN029 BKN081 BKN098 22/16 A2977 RMK SLP082 DENSITY ALT 1100FT MAX WND 24031KT AT 1829Z

2010/08/09 19:00
CYCX 091900Z 17009KT 10SM SCT007 BKN040 21/20 A2988 RMK SF3SC4 DA+1272FT SLP117

2010/08/09 19:00
CYDF 091900Z 23015G25KT 12SM -SHRA SCT036 BKN045 OVC100 21/16 A2992 RMK SC4SC2AC2 SLP134

2010/08/09 19:00
CYDP 091900Z 09011KT 15SM -RA OVC028 11/09 A2956 RMK SC8 SLP011

2010/08/09 19:00
CYGW 091900Z 25008KT 1SM BR OVC002 10/10 A2981 RMK SC8 VIS VRB 3/4 11/2 SLP095

2010/08/09 19:00
CYHH 091900Z 27010KT 12SM OVC020 16/11 A2984 RMK SC8 SLP114

2010/08/09 19:00
CYLU 091900Z 30007KT 15SM BKN030 BKN080 13/08 A2960 RMK SC5AS2 SLP026

2010/08/09 19:00
CYSJ 091900Z 22017KT 1 1/2SM -SHRA BR BKN006 OVC010 17/15 A2993 RMK SF6SC2 SLP136

2010/08/09 19:00
CYTQ 091900Z 02020G28KT 15SM OVC012 08/06 A2974 RMK SC8 SLP074

2010/08/09 19:00
CYYG 091900Z 20010KT 15SM -SHRA BKN082 OVC120 22/16 A2992 RMK AC6AC2 PCPN VRY LGT SLP132

2010/08/09 19:00
CYBC 091900Z AUTO 23019G26KT 9SM FEW047 21/15 A2973 RMK SLP068

2010/08/09 19:00
CYBN 091900Z AUTO 27003KT 2 1/2SM RA BKN002 BKN046 BKN053 22/20 A2993 RMK VSBY VRBL 2.2V5.0 SLP135

2010/08/09 19:00
CYEL 091900Z 14002KT 15SM FEW050 SCT150 27/16 A2992 RMK CU2AC1 WNDS ESTD/ SLP131

2010/08/09 19:00
CYFR 091900Z 18003KT 15SM FEW090 FEW120 BKN270 19/15 A2972 RMK AC1AC2CI2 SLP068

2010/08/09 19:00
CYGK 091900Z 18010KT 6SM HZ FEW040TCU FEW080 BKN250 25/22 A2991 RMK TCU1AC2CI4 SLP126

2010/08/09 19:00
CYGQ 091900Z 24009KT 190V290 15SM FEW030 SCT040 BKN110 28/17 A2987 RMK CF1CU3AC0 SLP118

2010/08/09 19:00
CYHM 091900Z 23003KT 3SM -SHRA BR FEW012 SCT048 BKN140 OVC240 24/23 A2994 RMK SF1SC2AC4CI1 SLP137

2010/08/09 19:00
CYKF 091900Z AUTO 22008KT 6SM -RA BKN023 24/21 A2996 RMK SLP140 DENSITY ALT 2200FT LTNG DIST SW

2010/08/09 19:00
CYKL 091900Z AUTO 29012KT 9SM -RA SCT034 BKN069 BKN076 13/08 A2960 RMK SLP036

2010/08/09 19:00
CYKZ 091900Z 22006KT 10SM BKN040 BKN060 OVC090 27/22 A2991 RMK SC5SC2AS1 CU EMBD SLP127

2010/08/09 19:00
CYLD 091900Z 21002KT 15SM BKN045 BKN230 28/18 A2990 RMK CU5CC1 SLP125

2010/08/09 19:00
CYOO 091900Z AUTO 23005KT 4SM RA VCTS SCT036 SCT056 BKN072 24/22 A2992 RMK SLP132 DENSITY ALT 1600FT PCPN 1.2MM PAST HR LTNG DIST NE SW W

2010/08/09 19:00
CYPL 091900Z 00000KT 15SM FEW050 SCT260 27/14 A2989 RMK CU2CI0 SLP124

2010/08/09 19:00
CYQA 091900Z AUTO 27005KT 220V290 9SM BKN022 BKN027 BKN044 26/22 A2992 RMK SLP130 DENSITY ALT 2400FT LTNG DIST S

2010/08/09 19:00
CYRB 091900Z 05010KT 10SM SCT008 BKN021 OVC080 07/07 A2986 RMK SF2SC4AS1 FG BNK SW-W SLP118

2010/08/09 19:00
CYSB 091900Z 12008KT 15SM FEW048 FEW180 27/15 A2993 RMK CU1AC1 SLP135

2010/08/09 19:00
CYSC 091900Z AUTO 34004KT 240V030 9SM -RA BKN031 BKN038 BKN048 OVC066 22/20 A2991 RMK DENSITY ALT 1800FT PCPN 2.0MM PAST HR

2010/08/09 19:00
CYSN 091900Z 22010KT 8SM -TSRA FEW020 OVC060 25/22 A2992 RMK SC1SC7 CB EMBD VIS 3 SE SLP129

2010/08/09 19:00
CYSP 091900Z 23007KT 15SM FEW028 FEW030 24/19 A2990 RMK SC1CU2 CU S SE SLP127

2010/08/09 19:00
CYVQ 091900Z 00000KT 30SM FEW040 BKN100 BKN250 18/11 A2975 RMK CU1AC5CI1 SLP076

2010/08/09 19:00
CYXL 091900Z 00000KT 15SM FEW044 FEW230 27/16 A2991 RMK CU1CI0 SLP128

2010/08/09 19:00
CYXU 091900Z 33003KT 3SM -SHRA FEW030 BKN050 OVC140 26/22 A2998 RMK SF2SC5AC1 SLP147

2010/08/09 19:00
CYXZ 091900Z 24008KT 210V270 15SM FEW028TCU SCT035 24/17 A2990 RMK TCU1SC3 SLP130

2010/08/09 19:00
CYYB 091900Z 00000KT 15SM FEW030 BKN220 27/15 A2995 RMK CU1CI2 TR CU SLP139

2010/08/09 19:00
CYYH 091900Z 20010KT 15SM FEW150 SCT250 17/09 A2991 RMK AC1CI0 SLP130

2010/08/09 19:00
CYYU 091900Z 25002KT 15SM FEW055 BKN060 26/14 A2988 RMK CU2SC6 SLP121

2010/08/09 19:00
CYAM 091900Z 00000KT 15SM SCT028 BKN053 27/20 A2989 RMK CU4SC1 SLP120

2010/08/09 19:00
CYFT 091900Z 22005KT 15SM BKN040 BKN075 18/12 A2955 RMK SC6AC2 SLP010

2010/08/09 19:00
CYGP 091900Z 23007KT 15SM FEW035 BKN220 25/16 A2976 RMK CU1CI1 SLP078

2010/08/09 19:00
CYGR 091900Z 20014G24KT 20SM FEW025 BKN080 OVC230 20/15 A2992 RMK SC2AC5CI2 SLP131

2010/08/09 19:00
CYHD 091900Z AUTO 19004KT 9SM CLR 26/20 A2990 RMK SLP128

2010/08/09 19:00
CYHU 091900Z AUTO 24007KT 9SM CLR 26/17 A2988 RMK SLP119 DENSITY ALT 1400FT MAX WND 24018KT AT 1816Z RVR MISG

2010/08/09 19:00
CYKO 091900Z 34015KT 15SM FEW020 FEW210 13/08 A2986 RMK CU1CI2 SLP114

2010/08/09 19:00
CYMO 091900Z AUTO 29008KT 9SM CLR 26/11 A2982 RMK SLP099

2010/08/09 19:00
CYNA 091900Z AUTO 25005KT 220V280 9SM BKN034 BKN063 BKN071 OVC087 19/14 A2976 RMK SLP080

2010/08/09 19:00
CYND 091900Z 23006KT 15SM FEW035 BKN250 27/16 A2990 RMK CU2CI4 SLP124

2010/08/09 19:00
CYPQ 091900Z AUTO ///// 5SM SCT027 BKN054 BKN060 BKN079 25/22 A2990 RMK ICG PCPN 1.0MM PAST HR SLP125

2010/08/09 19:00
CYQT 091900Z 26004KT 20SM FEW048 FEW270 31/20 A2985 RMK CU1CI0 SLP109

2010/08/09 19:00
CYRJ 091900Z 12006KT 25SM SCT030 24/16 A2981 RMK CU4 SLP095

2010/08/09 19:00
CYRL 091900Z 19004KT 15SM FEW030 BKN240 26/19 A2990 RMK CU1CI2 SLP127

2010/08/09 19:00
CYTS 091900Z 26007KT 15SM SCT070 SCT130 BKN240 28/12 A2988 RMK AC3AC1CI1 SLP119

2010/08/09 19:00
CYTZ 091900Z AUTO 19004KT 6SM FEW034 OVC061 24/21 A2990 RMK SLP125 DENSITY ALT 1300FT LTNG DIST NE RVR MISG

2010/08/09 19:00
CYVP 091900Z 35010G16KT 15SM SCT020 BKN063 12/07 A2966 RMK SC3SC2 SLP046

2010/08/09 19:00
CYVV 091900Z 23003KT 4SM BR FEW008 BKN040 OVC130 23/21 A2991 RMK SF2SC5AC1 SLP127

2010/08/09 19:00
CYWA 091900Z AUTO 10004KT 9SM CLR 25/18 A2991 RMK SLP130

2010/08/09 19:00
CYXR 091900Z AUTO 14003KT 9SM FEW036 SCT052 29/14 A2988 RMK SLP111

2010/08/09 19:00
CYYY 091900Z 24013G18KT 15SM FEW045 BKN190 26/14 A2976 RMK CU2AC2 SLP078

2010/08/09 19:00
CYZE 091900Z AUTO 18009KT 9SM CLR 24/19 A2989 RMK DENSITY ALT 1800FT

2010/08/09 19:00
CYZR 091900Z AUTO 25005KT 9SM CLR 27/20 A2993 RMK SLP134 DENSITY ALT 2000FT

2010/08/09 18:53
PABR 091853Z 07020G26KT 5SM -DZ BR OVC003 02/02 A2988

2010/08/09 18:53
PABT 091853Z VRB03KT 10SM FEW014 BKN048 OVC080 15/11 A2957

2010/08/09 18:53
PACV 091853Z 11006KT 10SM FEW012 OVC031 13/11 A2983

2010/08/09 18:58
PADU 091858Z 24003KT 10SM FEW013 SCT022 BKN035 11/08 A2953

2010/08/09 18:53
PAEN 091853Z 00000KT 10SM OVC075 16/12 A2963

2010/08/09 18:58
PAGA 091858Z AUTO 14012KT 10SM FEW012 BKN039 OVC046 14/12 A2947

2010/08/09 18:53
PAGK 091853Z 16016G25KT 10SM FEW060 SCT080 SCT110 SCT150 15/07 A2970

2010/08/09 18:53
PAGY 091853Z AUTO 21016KT 10SM FEW050 OVC065 14/10 A2993

2010/08/09 18:53
PAIL 091853Z 14006KT 10SM FEW034 BKN049 OVC080 13/09 A2958

2010/08/09 18:54
PAKN 091854Z 19009KT 10SM OVC025 12/09 A2954

2010/08/09 18:53
PASC 091853Z 06022KT 3SM BR OVC003 04/03 A2974

2010/08/09 18:53
PASI 091853Z 24003KT 10SM BKN007 OVC028 14/12 A2998

2010/08/09 18:52
PATA 091852Z 15003KT 10SM -RA FEW010 BKN020 OVC060 13/11 A2956

2010/08/09 18:56
PAUN 091856Z AUTO 10004KT 9SM SCT044 OVC050 12/09 A2939

2010/08/09 18:56
PAVD 091856Z 00000KT 1SM BKN005 OVC020 12/09 A2982

2010/08/09 18:50
PHJH 091850Z 08015KT 15SM FEW040 27/17 A3009

2010/08/09 18:54
PHMK 091854Z 08014G20KT 10SM CLR 29/14 A3009

2010/08/09 18:56
PMDY 091856Z AUTO 08012KT 10SM CLR 27/22 A3024

2010/08/09 19:00
SLCO 091900Z 23005KT 6000 FEW025 33/20 Q1013

2010/08/09 19:00
SLRY 091900Z 16008KT 5000 FU SKC 31/18 Q1015

2010/08/09 19:00
SLRQ 091900Z 00000KT 8000 FEW020 30/21 Q1015

2010/08/09 19:00
SLOR 091900Z 00000KT 9999 SKC 18/M12 Q1035

2010/08/09 19:00
SLRI 091900Z 18006KT 5000 FU FEW020 35/18 Q1012

2010/08/09 19:00
SLJO 091900Z 14006KT 5000 FU SKC 33/16 Q1015

2010/08/09 19:00
SLMG 091900Z 16006KT 7000 SKC 33/14 Q1016

2010/08/09 19:00
SLSA 091900Z 15006KT 7000 SKC 32/16 Q1013

2010/08/09 19:00
SLSU 091900Z 01012KT 9999 SKC 20/06 Q1027

2010/08/09 19:00
SLPO 091900Z 04008KT 9999 SKC 18/M04 Q1036

2010/08/09 19:00
SLVM 091900Z 00000KT 9999 SKC 23/15 Q1016

2010/08/09 19:00
SLTJ 091900Z 13005KT 9999 SKC 19/07 Q1019

2010/08/09 19:00
SLYA 091900Z 35006KT 9999 SKC 22/11 Q1022

2010/08/09 19:00
SLET 091900Z 17015G25KT 9999 NSC 26/08 Q1016

2010/08/09 19:00
SLCP 091900Z 19006KT 6000 SKC 28/12 Q1017

2010/08/09 19:00
SLSI 091900Z 21008KT 9999 SKC 30/14 Q1016

2010/08/09 19:00
SLJE 091900Z 00000KT 9999 SKC 30/15 Q1018

2010/08/09 19:00
SLRB 091900Z 00000KT 7000 SKC 27/18 Q1017

2010/08/09 19:00
SLPS 091900Z 18005KT 7000 SKC 31/12 Q1015

2010/08/09 19:00
SLCA 091900Z 18005KT 9999 SKC 22/06 Q1019

2010/08/09 19:00
FBFT 091900Z 26003KT CAVOK 20/09 Q1022

2010/08/09 19:00
FBMN 091900Z 19006KT CAVOK 20/02 Q1022

2010/08/09 18:50
EGDR 091850Z 23014KT 0200 FG VV/// 17/17 Q1013 RED

2010/08/09 18:50
EGDX 091850Z AUTO 25008KT 9999NDV // FEW018/// SCT031/// BKN045/// 18/16 Q1012

2010/08/09 18:50
EGDY 091850Z 20010KT 9999 FEW010 SCT035 BKN080 18/17 Q1013 BLU

2010/08/09 18:50
EGEC 091850Z AUTO 22004KT 9999NDV // NSC 14/11 Q1007

2010/08/09 18:50
EGOM 091850Z AUTO 23008KT 9999NDV // SCT060/// 14/11 Q1008

2010/08/09 18:50
EGOP 091850Z AUTO 28011KT 1500NDV BR FEW003/// BKN013/// 16/16 Q1011

2010/08/09 18:50
EGOS 091850Z AUTO 27010KT 9999NDV FEW060/// 18/12 Q1010

2010/08/09 18:50
EGPN 091850Z 24014KT 9999 FEW022 17/12 Q1005

2010/08/09 18:50
EGPU 091850Z AUTO 22008KT 9999NDV // NCD 14/11 Q1005

2010/08/09 18:50
EGUW 091850Z 22008KT CAVOK 21/09 Q1012 BLU NOSIG

2010/08/09 18:50
EGVP 091850Z AUTO 22008KT 9999NDV // OVC010/// 17/15 Q1013

2010/08/09 18:50
EGXG 091850Z AUTO 19005KT 9999NDV FEW032/// 18/15 Q1009

2010/08/09 18:50
EGXJ 091850Z AUTO 22014KT 9999NDV // SCT037/// BKN080/// 20/13 Q1010

2010/08/09 18:50
EGXT 091850Z AUTO 22012KT 9999NDV FEW031/// BKN080/// 21/13 Q1011

2010/08/09 18:50
EGXU 091850Z AUTO 19004KT 9999NDV // NCD 18/16 Q1009

2010/08/09 18:50
EGXX 091850Z AUTO 22014KT 9999NDV // BKN050/// 21/13 Q1010

2010/08/09 18:50
EGXZ 091850Z AUTO 25006KT 9999NDV FEW027/// 18/13 Q1009

2010/08/09 18:50
EGYD 091850Z AUTO 23016KT 9999NDV // FEW038/// BKN090/// 21/13 Q1010

2010/08/09 19:00
EICK 091900Z 31007KT 9999 BKN036 16/08 Q1012 NOSIG

2010/08/09 19:00
EIDW 091900Z 27014KT 9999 FEW028 16/09 Q1009 NOSIG

2010/08/09 19:00
EIKN 091900Z 25014KT 210V270 9999 FEW018CB SCT022 13/09 Q1009 NOSIG

2010/08/09 19:00
EINN 091900Z 25010KT 9999 FEW025 SCT050 16/09 Q1011 NOSIG

2010/08/09 19:00
KAFF 091900Z 27010KT 10SM TS FEW019 SCT080 SCT110 BKN200 21/16 A3021 RMK AO2A SLP134

2010/08/09 18:50
BGGH 091850Z 21010KT 9999 SCT020 BKN060 12/09 Q1008

2010/08/09 19:00
BIAR 091900Z 33010KT CAVOK 14/09 Q1012

2010/08/09 19:00
BIEG 091900Z 05011KT 9999 FEW040 15/10 Q1011

2010/08/09 19:00
BIKF 091900Z 31008KT 9999 BKN008 11/08 Q1014

2010/08/09 19:00
BIRK 091900Z 27005KT 9999 BKN010 11/09 Q1013

2010/08/09 18:55
KQAR 091855Z AUTO 00000KT 9SM CLR 34/00 A2957 RMK AO2 SLP949 T03420002 $

2010/08/09 18:55
KQDX 091855Z AUTO 11002KT 9000 33/M02 A2964 RMK AO2 SLP949 T03331019 $

2010/08/09 18:55
KQLE 091855Z VRB04KT 8000 DU SCT150 BKN250 34/M01 A2965 RMK SLP959 T03361012 404080285 PA3193 DA6038 RH11

2010/08/09 18:55
KQVF 091855Z AUTO 15004KT 12SM BKN070 24/20 A3001 RMK AO2 SLP160 T02410203

2010/08/09 19:00
FBSK 091900Z 09008KT CAVOK 13/07 Q1026 NOSIG

2010/08/09 19:00
FBFT 091900Z 26003KT CAVOK 20/09 Q1022

2010/08/09 19:00
FBMN 091900Z 19006KT CAVOK 20/02 Q1022

2010/08/09 19:00
FKKD 091900Z 28004KT 230V360 9999 TS BKN010 FEW013CB BKN100 25/24 Q1013 NOSIG

2010/08/09 19:00
FKYS 091900Z 23003KT 9999 BKN013 22/19 Q1017 NOSIG

2010/08/09 18:56
KNQI 091856Z COR 15010G15KT 10SM BKN039 BKN060 34/25 A2990 RMK AO2 SLP122 T03440250

2010/08/09 18:56
KNUW 091856Z 23003KT 6SM -RA BR FEW006 SCT012 OVC018 14/12 A2999 RMK AO2 RAB37 SLP160 PCPN VRY LGT P0000 T01360117 $

2010/08/09 18:55
KNYL 091855Z 21006KT 10SM CLR 37/02 A2979 RMK AO2 SLP085 T03720017

2010/08/09 19:00
LKKV 091900Z 00000KT CAVOK 16/13 Q1018 RMK REG QNH 1014

2010/08/09 18:59
MYEG 091859Z AUTO 10008KT 10SM SCT019 SCT025 SCT095 30/25 A2997 RMK AO2

2010/08/09 19:00
MZBZ 091900Z 17003KT 9999 SCT028 BKN280 32/26 A2987 Q1011 NOSIG

2010/08/09 19:00
SBCB 091900Z 25018KT 9999 SCT025 SCT080 24/17 Q1019

2010/08/09 19:00
TDPD 091900Z 10004KT 9999 SCT020 SCT270 FEW///CB 30/24 Q1013

2010/08/09 19:00
TLPL 091900Z 16012KT 9000 -SHRA FEW008 SCT014CB BKN080 27/24 Q1013 CB/ALL QDS

2010/08/09 19:00
TTCP 091900Z 15007KT 9999 FEW010CB BKN016 BKN250 29/25 Q1013 NOSIG

2010/08/09 19:00
UACC 091900Z 02005MPS CAVOK 13/06 Q1014 040/0070 NOSIG RMK QFE729/0972

2010/08/09 19:00
UAFM 091900Z 10004MPS 040V190 CAVOK 20/09 Q1009 NOSIG

2010/08/09 19:00
UATT 091900Z 07005MPS CAVOK 25/03 Q1017 31CLRD70 NOSIG RMK QFE743/0990

2010/08/09 19:00
WMKJ 091900Z 34001KT 9999 FEW022 BKN300 25/24 Q1008

2010/08/09 19:00
WMKK 091900Z 21001KT 9999 FEW017CB SCT140 BKN280 26/25 Q1007 NOSIG

2010/08/09 19:00
WMKP 091900Z 27002KT 9000 FEW025 SCT140 BKN270 27/26 Q1007 NOSIG

2010/08/09 19:00
WMSA 091900Z 00000KT 9999 FEW027 BKN280 27/25 Q1007

2010/08/09 19:00
ZBHH 091900Z 03002MPS CAVOK 14/08 Q1012 NOSIG

2010/08/09 19:00
ZHHH 091900Z 06002MPS 020V080 3000 BR NSC 29/29 Q1003 NOSIG

2010/08/09 19:00
ZSNJ 091900Z 07001MPS 8000 SKC 27/24 Q1003 NOSIG

2010/08/09 19:00
ZUCK 091900Z 08002MPS CAVOK 31/21 Q1002 NOSIG

2010/08/09 19:00
NZAA 091900Z 13002KT CAVOK 06/04 Q1024 NOSIG

2010/08/09 19:00
NZWN 091900Z 24009KT 9999 SCT036 08/03 Q1025 BECMG 18015KT 

2010/08/09 19:00
NZCH 091900Z 00000KT CAVOK M02/M03 Q1024 NOSIG 

2010/08/09 19:00
FMEE 091900Z 13013KT 9000 VCSH FEW026 20/17 Q1024 TEMPO 5000 SHRA

2010/08/09 19:00
YBAS 091900Z AUTO 26009KT 9999NDV // NCD 05/M01 Q1018

2010/08/09 19:00
YBBN 091900Z 35005KT 9999 VCSH FEW025 SCT040 BKN080 17/15 Q1020 INTER 1900/2200 4000 SHRA BKN012

2010/08/09 19:00
YBCS 091900Z 12005KT 9999 VCSH FEW005 BKN017 22/21 Q1014 FM1900 12008KT 9999 -SHRA SCT018 BKN040 TEMPO 1900/2200 3000 SHRA BKN014

2010/08/09 19:00
YBTL 091900Z AUTO 07007KT 9000NDV // SCT044 BKN085 22/21 Q1014

2010/08/09 19:00
YMML 091900Z 35005KT CAVOK 05/04 Q1016 NOSIG

2010/08/09 19:00
YPAD 091900Z 00000KT CAVOK 08/06 Q1012 NOSIG

2010/08/09 19:00
YPCC 091900Z AUTO 13007KT 9999NDV // NCD 25/21 Q1010

2010/08/09 19:00
YPDN 091900Z 00000KT CAVOK 20/17 Q1011

2010/08/09 19:00
YPKU 091900Z AUTO 15013KT 9999NDV // SCT120 22/M00 Q1014

2010/08/09 19:00
YPLM 091900Z AUTO 23004KT 9999NDV // NCD 12/08 Q1017

2010/08/09 19:00
YPPH 091900Z 02007KT CAVOK 08/00 Q1022 NOSIG

2010/08/09 19:00
YPTN 091900Z AUTO 11003KT 9999NDV // NCD 17/05 Q1013

2010/08/09 19:00
YPXM 091900Z AUTO 08007KT 9999NDV // BKN013 BKN020 BKN029 24/21 Q////

2010/08/09 19:00
YSSY 091900Z 35006KT 9999 FEW014 BKN090 BKN170 11/09 Q1018 FM2000 02010KT 8000 -RA FEW010 SCT025 BKN100 TEMPO 2100/2200 4000 RA BKN010

2010/08/09 19:00
YBAS 091900Z AUTO 26009KT 9999NDV // NCD 05/M01 Q1018

2010/08/09 19:00
YBBN 091900Z 35005KT 9999 VCSH FEW025 SCT040 BKN080 17/15 Q1020 INTER 1900/2200 4000 SHRA BKN012

2010/08/09 19:00
YBCS 091900Z 12005KT 9999 VCSH FEW005 BKN017 22/21 Q1014 FM1900 12008KT 9999 -SHRA SCT018 BKN040 TEMPO 1900/2200 3000 SHRA BKN014

2010/08/09 19:00
YBTL 091900Z AUTO 07007KT 9000NDV // SCT044 BKN085 22/21 Q1014

2010/08/09 19:00
YMML 091900Z 35005KT CAVOK 05/04 Q1016 NOSIG

2010/08/09 19:00
YPAD 091900Z 00000KT CAVOK 08/06 Q1012 NOSIG

2010/08/09 19:00
YPCC 091900Z AUTO 13007KT 9999NDV // NCD 25/21 Q1010

2010/08/09 19:00
YPDN 091900Z 00000KT CAVOK 20/17 Q1011

2010/08/09 19:00
YPKU 091900Z AUTO 15013KT 9999NDV // SCT120 22/M00 Q1014

2010/08/09 19:00
YPLM 091900Z AUTO 23004KT 9999NDV // NCD 12/08 Q1017

2010/08/09 19:00
YPPH 091900Z 02007KT CAVOK 08/00 Q1022 NOSIG

2010/08/09 19:00
YPTN 091900Z AUTO 11003KT 9999NDV // NCD 17/05 Q1013

2010/08/09 19:00
YPXM 091900Z AUTO 08007KT 9999NDV // BKN013 BKN020 BKN029 24/21 Q////

2010/08/09 19:00
YSSY 091900Z 35006KT 9999 FEW014 BKN090 BKN170 11/09 Q1018 FM2000 02010KT 8000 -RA FEW010 SCT025 BKN100 TEMPO 2100/2200 4000 RA BKN010

2010/08/09 19:04
CWSA 091904Z AUTO 12015KT 9SM FEW029 FEW044 SCT051 BKN073 20/17 A3003

2010/08/09 19:15
KCCA 091915Z AUTO 00000KT 9SM CLR 37/24 A2994 RMK AO2

2010/08/09 18:55
KGZL 091855Z AUTO 18005G14KT 10SM 37/20 A2993 RMK AO2 PWINO

2010/08/09 18:50
KHOB 091850Z 16007KT 10SM SKC 27/20 A3008

2010/08/09 18:55
KMZZ 091855Z AUTO 20005KT 7SM CLR 31/22 A2997 RMK AO2

2010/08/09 19:00
PAPO 091900Z 36011KT 10SM CLR 12/09 A2949 RMK ASOS VIA PHONE

2010/08/09 19:03
KBVE 091903Z AUTO 22006KT SCT021 SCT110 25/23 A2998 RMK AO2 RAE1859 P0001 TSNO $

2010/08/09 19:05
KCLM 091905Z AUTO 30005KT 10SM FEW025 SCT060 15/11 A3000 RMK AO2

2010/08/09 19:06
PACM 091906Z AUTO 14011KT 2 1/2SM -RA BR BKN014 BKN021 OVC095 11/09 A2924 RMK AO2 TSNO BKN V SCT VIS 1 3/4V5 P0000 $

2010/08/09 19:06
PACM 091906Z AUTO 14011KT 2 1/2SM -RA BR BKN014 BKN021 OVC095 11/09 A2924 RMK AO2 TSNO BKN V SCT VIS 1 3/4V5 P0000 $

2010/08/09 19:05
PAKV 091905Z AUTO VRB03KT 6SM -RA BR BKN008 BKN014 OVC023 13/12 A2947 RMK AO2 CIG 007V012 P0000 TSNO

2010/08/09 19:00
NZAA 091900Z 13002KT CAVOK 06/04 Q1024 NOSIG

2010/08/09 19:00
NZWN 091900Z 24009KT 9999 SCT036 08/03 Q1025 BECMG 18015KT 

2010/08/09 19:00
NZCH 091900Z 00000KT CAVOK M02/M03 Q1024 NOSIG 

2010/08/09 18:51
KABE 091851Z 25008KT 10SM FEW060 SCT080 33/19 A2998

2010/08/09 18:51
KALB 091851Z 26010G15KT 9SM SCT065 SCT100 32/18 A2993

2010/08/09 18:56
KART 091856Z AUTO 24009KT 8SM BKN080 27/20 A2991

2010/08/09 18:54
KAVP 091854Z 24007KT 10SM CLR 32/13 A2998

2010/08/09 18:51
KBDL 091851Z 24010G15KT 10SM FEW070 SCT100 SCT250 33/15 A2993

2010/08/09 18:52
KBDR 091852Z 18010KT 8SM CLR 31/21 A2995

2010/08/09 18:54
KBTV 091854Z 00000KT 10SM -RA SCT031CB BKN065 BKN100 26/20 A2989

2010/08/09 18:54
KBUF 091854Z 23008KT 9SM SCT060 SCT110 BKN130 OVC180 27/18 A2994

2010/08/09 18:56
KCAE 091856Z 13007KT 10SM SCT050 SCT070 33/22 A3000

2010/08/09 18:51
KCAK 091851Z 24009G19KT 10SM FEW065 SCT250 30/17 A3002

2010/08/09 18:51
KCMH 091851Z 00000KT 10SM SCT065 SCT110 BKN200 31/17 A3000

2010/08/09 18:53
KCRQ 091853Z 26007KT 220V290 10SM CLR 21/13 A2993

2010/08/09 18:54
KCRW 091854Z 28004KT 8SM FEW050 32/18 A3003

2010/08/09 18:56
KDAY 091856Z VRB05KT 10SM FEW050 BKN130 BKN190 32/18 A3001

2010/08/09 18:51
KERI 091851Z 27008KT 7SM BKN075 28/19 A2999

2010/08/09 18:56
KFDK 091856Z AUTO 21006KT 10SM SCT075 36/18 A3000

2010/08/09 18:54
KGSO 091854Z VRB03KT 10SM SCT049 32/19 A3004

2010/08/09 18:53
KGSP 091853Z 20003KT 10SM CLR 33/22 A3002

2010/08/09 18:51
KHTS 091851Z VRB03KT 9SM CLR 31/18 A3002

2010/08/09 18:53
KHUL 091853Z AUTO 27006KT 10SM SCT049 OVC060 24/18 A2986

2010/08/09 18:53
KIAG 091853Z 22013KT 10SM VCTS FEW030 BKN060CB BKN085 OVC130 27/19 A2993

2010/08/09 18:51
KILG 091851Z 15013KT 9SM SCT049 BKN060 32/22 A2999

2010/08/09 18:53
KILM 091853Z AUTO 11008KT 080V150 10SM CLR 31/23 A3001

2010/08/09 18:53
KMSS 091853Z AUTO 29004KT 10SM FEW034 26/21 A2990

2010/08/09 18:54
KORH 091854Z 25011G17KT 10SM CLR 31/16 A2998

2010/08/09 18:51
KPVD 091851Z 24010G17KT 10SM FEW049TCU SCT065 32/19 A2995

2010/08/09 18:51
KPWM 091851Z 16007KT 10SM SCT065 BKN080 BKN090 30/19 A2989

2010/08/09 18:54
KRIC 091854Z 18008G14KT 10SM SCT049 BKN250 33/19 A3001

2010/08/09 18:54
KROC 091854Z 22007KT 9SM BKN070 OVC130 27/21 A2994

2010/08/09 18:54
KSYR 091854Z 28011G18KT 10SM SCT050 BKN120 BKN200 31/18 A2993

2010/08/09 18:55
KMZZ 091855Z AUTO 20005KT 7SM CLR 31/22 A2997 RMK AO2

2010/08/09 18:50
HLLB 091850Z 33015KT 9999 SCT020 25/19 Q1013

2010/08/09 18:55
HLLT 091855Z HLLT 06007KT CAVOK 25/18 Q1015

2010/08/09 19:00
LCLK 091900Z 22006KT CAVOK 28/26 Q1005 NOSIG

2010/08/09 19:00
LCPH 091900Z 30006KT 9999 FEW009 SCT016 29/26 Q1005

2010/08/09 19:00
SVCS 091900Z 16012KT 9999 BKN080 25/XX Q1015

2010/08/09 19:00
SVMP 091900Z 12012KT 9999 SCT045 XX/XX Q1011

2010/08/09 19:00
SUSO 091900Z 0000KT CAVOK 19/02 Q1023

2010/08/09 19:00
CWMT 091900Z AUTO 22/ RMK AO1 SLP044 T0216 51006

2010/08/09 19:00
GCLA 091900Z 34005KT 310V010 9000 FEW015 BKN020 23/18 Q1014

2010/08/09 19:00
DGAA 091900Z 23010KT CAVOK 27/23 Q1013

2010/08/09 19:00
FIMP 091900Z 08010G24KT 9999 BKN015 SCT050 22/17 Q1025

2010/08/09 19:00
CWEK 091900Z AUTO 18005KT 12/ RMK AO1 SLP163 T0124 51001

2010/08/09 19:00
CWLP 091900Z AUTO 29013KT 14/12 RMK AO1 SLP166 T01430121 50002

2010/08/09 19:00
CWZG 091900Z AUTO 24005KT 19/04 RMK AO1 SLP103 T01850043 56008

2010/08/09 19:00
CWZG 091900Z AUTO 24005KT 19/04 RMK AO1 SLP103 T01850043 56008

2010/08/09 19:00
CWDC 091900Z AUTO 25002KT 17/16 RMK AO1 6PAST HR 0007 SLP084 P0006 T01690163 50016

2010/08/09 19:00
CWEH 091900Z AUTO 24004KT 25/06 RMK AO1 SLP115 T02460059 58003

2010/08/09 19:00
CWKO 091900Z AUTO 10003KT 26/09 RMK AO1 SLP122 T02620088 50003

2010/08/09 19:00
CWOY 091900Z AUTO 29004KT 23/13 RMK AO1 SLP114 T02340128 51008

2010/08/09 19:00
CWDC 091900Z AUTO 25002KT 17/16 RMK AO1 6PAST HR 0007 SLP084 P0006 T01690163 50016

2010/08/09 19:00
CWEH 091900Z AUTO 24004KT 25/06 RMK AO1 SLP115 T02460059 58003

2010/08/09 19:00
CWKO 091900Z AUTO 10003KT 26/09 RMK AO1 SLP122 T02620088 50003

2010/08/09 19:00
CWOY 091900Z AUTO 29004KT 23/13 RMK AO1 SLP114 T02340128 51008

2010/08/09 19:00
CWVT 091900Z AUTO 24003KT 23/16 RMK AO1 SLP096 T02300157 51008

2010/08/09 19:00
CWZW 091900Z AUTO 17005KT 15/06 RMK AO1 SLP129 T01460056 58005

2010/08/09 19:00
CWZW 091900Z AUTO 17005KT 15/06 RMK AO1 SLP129 T01460056 58005

2010/08/09 19:00
CWLB 091900Z AUTO 07002KT 21/12 RMK AO1 SLP101 T02090121 51008

2010/08/09 19:00
CWZW 091900Z AUTO 17005KT 15/06 RMK AO1 SLP129 T01460056 58005

2010/08/09 19:00
CWLB 091900Z AUTO 07002KT 21/12 RMK AO1 SLP101 T02090121 51008

2010/08/09 19:00
CWZW 091900Z AUTO 17005KT 15/06 RMK AO1 SLP129 T01460056 58005

2010/08/09 19:00
CWEP 091900Z AUTO 20012G17KT 22/16 RMK AO1 PK WND 19018/1837 SLP140 T02160164 58019

2010/08/09 19:00
CWER 091900Z AUTO 22015KT RMK AO1 PK WND 21026/1822

2010/08/09 19:00
CWER 091900Z AUTO 22015KT RMK AO1 PK WND 21026/1822

2010/08/09 19:00
CWER 091900Z AUTO 22015KT RMK AO1 PK WND 21026/1822

2010/08/09 19:00
CWBV 091900Z AUTO 18009KT 19/17 RMK AO1 SLP167 T01930165 58024

2010/08/09 19:00
CWRN 091900Z AUTO 18016KT 20/15 RMK AO1 PK WND 19022/1839 SLP162 T02040153 58023

2010/08/09 19:00
CWRN 091900Z AUTO 18016KT 20/15 RMK AO1 PK WND 19022/1839 SLP162 T02040153 58023

2010/08/09 19:00
CWRN 091900Z AUTO 18016KT 20/15 RMK AO1 PK WND 19022/1839 SLP162 T02040153 58023

2010/08/09 19:00
CWRN 091900Z AUTO 18016KT 20/15 RMK AO1 PK WND 19022/1839 SLP162 T02040153 58023

2010/08/09 19:00
CWPK 091900Z AUTO 27004KT 25/ RMK AO1 SLP119 T0246 56007

2010/08/09 19:00
CWRN 091900Z AUTO 18016KT 20/15 RMK AO1 PK WND 19022/1839 SLP162 T02040153 58023

2010/08/09 19:00
CWAV 091900Z AUTO 09006KT 22/08 RMK AO1 SLP099 T02210084 56004

2010/08/09 19:00
CWBA 091900Z AUTO 15006KT 27/14 RMK AO1 T02720141

2010/08/09 19:00
CWBO 091900Z AUTO 21007KT 24/13 RMK AO1 SLP099 T02400133 58001

2010/08/09 19:00
CWBS 091900Z AUTO 20012KT 25/ RMK AO1 T0249

2010/08/09 19:00
CWCO 091900Z AUTO 19003KT 24/21 RMK AO1 1PAST HR 8005 SLP113 P0008 T02350211 50021

2010/08/09 19:00
CWDJ 091900Z AUTO 26004KT 25/14 RMK AO1 SLP118 T02470138 51006

2010/08/09 19:00
CTRA 091900Z AUTO 18003KT 27/18 RMK AO1 SLP126 T02700182 53007

2010/08/09 19:00
CTRA 091900Z AUTO 18003KT 27/18 RMK AO1 SLP126 T02700182 53007

2010/08/09 19:00
LEMD 091900Z 18011G21KT 130V220 CAVOK 33/12 Q1016 NOSIG

2010/08/09 19:00
LEBL 091900Z 10007KT 9999 FEW013 26/22 Q1016 NOSIG

2010/08/09 19:00
LEPA 091900Z 27005KT CAVOK 26/18 Q1015 NOSIG

2010/08/09 19:00
LEZL 091900Z 35004KT 320V020 CAVOK 36/12 Q1012 NOSIG

2010/08/09 19:00
LEMG 091900Z 15008KT 130V190 CAVOK 28/14 Q1015 NOSIG

2010/08/09 19:00
LEVC 091900Z 06007KT 020V080 9999 FEW035 29/20 Q1014 NOSIG

2010/08/09 19:00
LEAL 091900Z 07004KT 040V100 CAVOK 29/16 Q1014 NOSIG

2010/08/09 19:00
LEIB 091900Z VRB02KT CAVOK 26/22 Q1014 NOSIG

2010/08/09 19:00
LELC 091900Z 06003KT 030V100 CAVOK 26/19 Q1014 NOSIG

2010/08/09 19:00
LEVX 091900Z 27008KT 250V310 CAVOK 25/15 Q1016

2010/08/09 19:00
CWTA 091900Z AUTO 30002KT 26/18 RMK AO1 SLP122 T02590175 58015

2010/08/09 19:00
CWTN 091900Z AUTO 25008KT 26/19 RMK AO1 SLP096 T02600193 57013

2010/08/09 19:00
CWVF 091900Z AUTO 32014KT 16/ RMK AO1 PK WND 31017/1825 T0155

2010/08/09 19:00
CWVQ 091900Z AUTO 29006KT 26/19 RMK AO1 T02550193

2010/08/09 19:00
CWVV 091900Z AUTO 16004KT 16/12 RMK AO1 SLP150 T01620118 51009

2010/08/09 19:00
CWWA 091900Z AUTO 00000KT 15/13 RMK AO1 2PAST HR 0005 SLP142 P0005 T01490134 50012

2010/08/09 19:00
CWWK 091900Z AUTO 22002KT 16/14 RMK AO1 SLP155 T01600135 51007

2010/08/09 19:00
CWXA 091900Z AUTO 26007KT 22/05 RMK AO1 SLP086 T02180053 58005

2010/08/09 19:00
CWWA 091900Z AUTO 00000KT 15/13 RMK AO1 2PAST HR 0005 SLP142 P0005 T01490134 50012

2010/08/09 19:00
CWWK 091900Z AUTO 22002KT 16/14 RMK AO1 SLP155 T01600135 51007

2010/08/09 19:00
CWXA 091900Z AUTO 26007KT 22/05 RMK AO1 SLP086 T02180053 58005

2010/08/09 19:00
CWWA 091900Z AUTO 00000KT 15/13 RMK AO1 2PAST HR 0005 SLP142 P0005 T01490134 50012

2010/08/09 19:00
CWWK 091900Z AUTO 22002KT 16/14 RMK AO1 SLP155 T01600135 51007

2010/08/09 19:00
CWXA 091900Z AUTO 26007KT 22/05 RMK AO1 SLP086 T02180053 58005

2010/08/09 19:00
CWWA 091900Z AUTO 00000KT 15/13 RMK AO1 2PAST HR 0005 SLP142 P0005 T01490134 50012

2010/08/09 19:00
CWWK 091900Z AUTO 22002KT 16/14 RMK AO1 SLP155 T01600135 51007

2010/08/09 19:00
CWXA 091900Z AUTO 26007KT 22/05 RMK AO1 SLP086 T02180053 58005

2010/08/09 19:00
CWGT 091900Z AUTO 31006KT 17/12 RMK AO1 SLP141 T01670116 50002

2010/08/09 19:00
CWGW 091900Z AUTO 19005KT 20/11 RMK AO1 SLP109 T01980109 56015

2010/08/09 19:00
CWHL 091900Z AUTO 13001KT 13/ RMK AO1 SLP159 T0125 53001

2010/08/09 19:00
CWHM 091900Z AUTO 24007KT 26/19 RMK AO1 T02550190

2010/08/09 19:00
CWHQ 091900Z AUTO 23005KT 27/19 RMK AO1 T02670186

2010/08/09 19:00
CWIS 091900Z AUTO 22007KT 21/15 RMK AO1 SLP115 T02060153 56007

2010/08/09 19:00
CWJB 091900Z AUTO 24006KT 26/18 RMK AO1 T02570178

2010/08/09 19:00
CWJC 091900Z AUTO 21/06 RMK AO1 25 3002 SLP140 T02060058

2010/08/09 19:00
CXBK 091900Z AUTO 32006KT 25/12 RMK AO1 SLP106 T02470123 51006

2010/08/09 19:00
CXBK 091900Z AUTO 32006KT 25/12 RMK AO1 SLP106 T02470123 51006

2010/08/09 19:00
CXCH 091900Z AUTO 25/17 RMK AO1 T02450165

2010/08/09 19:00
CXCK 091900Z AUTO 16006KT 16/ RMK AO1 T0159

2010/08/09 19:00
CXDW 091900Z AUTO 20005KT 32/20 RMK AO1 T03200197

2010/08/09 19:00
CXET 091900Z AUTO 30006KT 23/20 RMK AO1 1PAST HR 3004 SLP132 P0004 T02260202 50011

2010/08/09 19:00
CXIB 091900Z AUTO 20002KT 23/16 RMK AO1 SLP145 T02310162 56014

2010/08/09 19:00
CXMI 091900Z AUTO 16013KT 16/15 RMK AO1 PK WND 17018/1804 SLP153 T01630151 58022

2010/08/09 19:00
CXMY 091900Z AUTO 22/15 RMK AO1 T02210146

2010/08/09 19:00
CXOX 091900Z AUTO 23004KT 24/17 RMK AO1 SLP084 T02360167 51010

2010/08/09 19:00
CXSR 091900Z AUTO 25007KT 16/05 RMK AO1 SLP087 T01610049 51007

2010/08/09 19:00
CXSW 091900Z AUTO 23012G20KT RMK AO1 21 

2010/08/09 19:00
CXTP 091900Z AUTO 23012G20KT 22/15 RMK AO1 PK WND 24023/1842 SLP165 T02180153 56012

2010/08/09 19:00
CXWN 091900Z AUTO 10003KT 32/18 RMK AO1 SLP094 T03180181 58001

2010/08/09 19:00
CXCK 091900Z AUTO 16006KT 16/ RMK AO1 T0159

2010/08/09 19:00
CXDW 091900Z AUTO 20005KT 32/20 RMK AO1 T03200197

2010/08/09 19:00
CXET 091900Z AUTO 30006KT 23/20 RMK AO1 1PAST HR 3004 SLP132 P0004 T02260202 50011

2010/08/09 19:00
CXIB 091900Z AUTO 20002KT 23/16 RMK AO1 SLP145 T02310162 56014

2010/08/09 19:00
CXMI 091900Z AUTO 16013KT 16/15 RMK AO1 PK WND 17018/1804 SLP153 T01630151 58022

2010/08/09 19:00
CXMY 091900Z AUTO 22/15 RMK AO1 T02210146

2010/08/09 19:00
CXOX 091900Z AUTO 23004KT 24/17 RMK AO1 SLP084 T02360167 51010

2010/08/09 19:00
CXSR 091900Z AUTO 25007KT 16/05 RMK AO1 SLP087 T01610049 51007

2010/08/09 19:00
CXSW 091900Z AUTO 23012G20KT RMK AO1 21 

2010/08/09 19:00
CXTP 091900Z AUTO 23012G20KT 22/15 RMK AO1 PK WND 24023/1842 SLP165 T02180153 56012

2010/08/09 19:00
CXWN 091900Z AUTO 10003KT 32/18 RMK AO1 SLP094 T03180181 58001

2010/08/09 19:00
CXTP 091900Z AUTO 23012G20KT 22/15 RMK AO1 PK WND 24023/1842 SLP165 T02180153 56012

2010/08/09 19:00
CXWN 091900Z AUTO 10003KT 32/18 RMK AO1 SLP094 T03180181 58001

2010/08/09 19:00
CXTP 091900Z AUTO 23012G20KT 22/15 RMK AO1 PK WND 24023/1842 SLP165 T02180153 56012

2010/08/09 19:00
CXWN 091900Z AUTO 10003KT 32/18 RMK AO1 SLP094 T03180181 58001

2010/08/09 19:00
CXTP 091900Z AUTO 23012G20KT 22/15 RMK AO1 PK WND 24023/1842 SLP165 T02180153 56012

2010/08/09 19:00
CXWN 091900Z AUTO 10003KT 32/18 RMK AO1 SLP094 T03180181 58001

2010/08/09 19:00
CWNE 091900Z AUTO 18008KT 19/18 RMK AO1 6PAST HR 8015 PK WND 21022/1810 SLP118 P0002 T01910179 50006

2010/08/09 19:00
CWNM 091900Z AUTO 21/18 RMK AO1 SLP094 T02110175 58015

2010/08/09 19:00
CWNP 091900Z AUTO 26002KT 22/17 RMK AO1 SLP083 T02180165 58016

2010/08/09 19:00
CWOC 091900Z AUTO 21004KT 22/17 RMK AO1 SLP091 T02150171 57017

2010/08/09 19:00
CWOD 091900Z AUTO 30009G18KT 26/ RMK AO1 PK WND 32018/1853 SLP074 T0258 56014

2010/08/09 19:00
CWPR 091900Z AUTO 16001KT 20/ RMK AO1 SLP115 T0199 58008

2010/08/09 19:00
CWPZ 091900Z AUTO 28005KT 17/06 RMK AO1 SLP136 T01660055 58003

2010/08/09 19:00
CWNE 091900Z AUTO 18008KT 19/18 RMK AO1 6PAST HR 8015 PK WND 21022/1810 SLP118 P0002 T01910179 50006

2010/08/09 19:00
CWNM 091900Z AUTO 21/18 RMK AO1 SLP094 T02110175 58015

2010/08/09 19:00
CWNP 091900Z AUTO 26002KT 22/17 RMK AO1 SLP083 T02180165 58016

2010/08/09 19:00
CWOC 091900Z AUTO 21004KT 22/17 RMK AO1 SLP091 T02150171 57017

2010/08/09 19:00
CWOD 091900Z AUTO 30009G18KT 26/ RMK AO1 PK WND 32018/1853 SLP074 T0258 56014

2010/08/09 19:00
CWPR 091900Z AUTO 16001KT 20/ RMK AO1 SLP115 T0199 58008

2010/08/09 19:00
CWPZ 091900Z AUTO 28005KT 17/06 RMK AO1 SLP136 T01660055 58003

2010/08/09 19:00
CWPR 091900Z AUTO 16001KT 20/ RMK AO1 SLP115 T0199 58008

2010/08/09 19:00
CWPZ 091900Z AUTO 28005KT 17/06 RMK AO1 SLP136 T01660055 58003

2010/08/09 19:00
LEJR 091900Z 25003KT 240V310 CAVOK 32/14 Q1013

2010/08/09 19:00
LELL 091900Z 09006KT 040V130 9999 FEW011 24/18 Q1016

2010/08/09 19:00
LEPP 091900Z 01010KT 9999 FEW029 19/14 Q1020

2010/08/09 19:00
LEXJ 091900Z 06004KT 030V090 9999 SCT028 SCT038 21/15 Q1020

2010/08/09 19:03
KBVE 091903Z AUTO 22006KT SCT021 SCT110 25/23 A2998 RMK AO2 RAE1859 P0001 TSNO $

2010/08/09 18:56
KNMM 091856Z 19004KT 10SM SCT040 34/24 A2997 RMK AO2 SLP154 T03390239 $

2010/08/09 18:56
KNQI 091856Z COR 15010G15KT 10SM BKN039 BKN060 34/25 A2990 RMK AO2 SLP122 T03440250

2010/08/09 18:56
KNUW 091856Z 23003KT 6SM -RA BR FEW006 SCT012 OVC018 14/12 A2999 RMK AO2 RAB37 SLP160 PCPN VRY LGT P0000 T01360117 $

2010/08/09 18:55
KNYL 091855Z 21006KT 10SM CLR 37/02 A2979 RMK AO2 SLP085 T03720017

2010/08/09 18:50
PFYU 091850Z 01008G13KT 340V040 10SM BKN050 BKN080 15/ A2956 RMK VIRGA S W

2010/08/09 18:55
KADM 091855Z 16005KT 10SM SCT055 37/23 A2991

2010/08/09 18:50
KEFD 091850Z 07006KT 10SM BKN030 35/25 A2997

2010/08/09 18:58
KEZF 091858Z AUTO 20005KT 10SM CLR 35/23 A2998 RMK AO2 T03480234

2010/08/09 18:50
KHUM 091850Z 35004KT 7SM SCT060 35/23 A2996

2010/08/09 19:00
KJFZ 091900Z AUTO VRB04KT 10SM CLR 30/19 A3013 RMK

2010/08/09 19:00
KW22 091900Z AUTO 25007KT 10SM CLR 29/18 A3008 RMK AO2

2010/08/09 19:00
KWDR 091900Z AUTO 00000KT 10SM CLR 33/20 A3006 RMK AO1

2010/08/09 19:00
KXLL 091900Z AUTO 22007KT 7SM CLR 34/20 A2998 RMK AO2 T03400199

2010/08/09 19:00
KXSA 091900Z AUTO 17007KT 10SM SCT060 BKN070 OVC095 35/18 A3000 RMK AO2

2010/08/09 19:00
PAER 091900Z 02010KT 11SM BKN070 14/08 A2951 RMK EPO

2010/08/09 18:55
KGZL 091855Z AUTO 18005G14KT 10SM 37/20 A2993 RMK AO2 PWINO

2010/08/09 18:50
KHOB 091850Z 16007KT 10SM SKC 27/20 A3008

2010/08/09 19:00
PAPO 091900Z 36011KT 10SM CLR 12/09 A2949 RMK ASOS VIA PHONE

2010/08/09 19:00
FVHA 091900Z 06002KT CAVOK 16/05 Q1025 NOSIG

2010/08/09 19:00
CWIK 091900Z AUTO 30008KT 26/14 RMK AO1 SLP109 T02580139 51006

2010/08/09 19:00
CWIK 091900Z AUTO 30008KT 26/14 RMK AO1 SLP109 T02580139 51006

2010/08/09 19:00
CWDQ 091900Z AUTO 32008KT 27/12 RMK AO1 SLP107 T02740118 56010

2010/08/09 19:00
CWDV 091900Z AUTO 00028KT 28/15 RMK AO1 SLP123 T02770148 53005

2010/08/09 19:00
CWWB 091900Z AUTO 25004KT 25/21 RMK AO1 SLP123 T02520210 57009

2010/08/09 19:00
CWWB 091900Z AUTO 25004KT 25/21 RMK AO1 SLP123 T02520210 57009

2010/08/09 19:00
CWWB 091900Z AUTO 25004KT 25/21 RMK AO1 SLP123 T02520210 57009

2010/08/09 19:00
CWWB 091900Z AUTO 25004KT 25/21 RMK AO1 SLP123 T02520210 57009

2010/08/09 19:00
LEAB 091900Z 19003KT CAVOK 30/12 Q1018 NOSIG

2010/08/09 19:00
LELN 091900Z 26010KT CAVOK 26/02 Q1019

2010/08/09 19:00
LESA 091900Z 26003KT 230V290 8000 FEW040TCU SCT045 27/16 Q1018

2010/08/09 19:00
LETO 091900Z 20009KT 9999 FEW050 32/12 Q1016 NOSIG

2010/08/09 19:00
LEVD 091900Z 29009KT 9999 FEW035TCU 29/07 Q1018

2010/08/09 19:00
LEVS 091900Z 24007KT 200V270 9999 FEW050 31/10 Q1017

2010/08/09 19:00
CWXL 091900Z AUTO 22006KT 26/10 RMK AO1 T02590103

2010/08/09 19:00
CWYJ 091900Z AUTO 14001KT 18/14 RMK AO1 T01750142

2010/08/09 19:00
CWZA 091900Z AUTO 23005KT 18/14 RMK AO1 SLP139 T01810142 53004

2010/08/09 19:00
CWZO 091900Z AUTO 17009KT RMK AO1 

2010/08/09 19:00
CXKE 091900Z AUTO 26003KT 26/19 RMK AO1 SLP120 T02590191 58012

2010/08/09 19:00
CXKE 091900Z AUTO 26003KT 26/19 RMK AO1 SLP120 T02590191 58012

2010/08/09 19:00
CXLB 091900Z AUTO 19012KT 20/15 RMK AO1 PK WND 20018/1835 SLP150 T01990154 58023

2010/08/09 19:00
CXTD 091900Z AUTO 19010G17KT 23/12 RMK AO1 PK WND 19023/1808 SLP156 T02330122 58020

2010/08/09 19:00
CXVN 091900Z AUTO 24008KT 26/21 RMK AO1 SLP119 T02630207 56007

2010/08/09 19:00
CXWB 091900Z AUTO 24011KT 23/08 RMK AO1 SLP150 T02260084 56003

2010/08/09 19:00
CXZV 091900Z AUTO 23004KT 19/15 RMK AO1 SLP056 T01940146 57015

2010/08/09 19:00
CZSP 091900Z AUTO 14004KT 21/18 RMK AO1 SLP129 T02080178 58021

2010/08/09 19:00
CZSP 091900Z AUTO 14004KT 21/18 RMK AO1 SLP129 T02080178 58021

2010/08/09 19:00
CZSP 091900Z AUTO 14004KT 21/18 RMK AO1 SLP129 T02080178 58021

2010/08/09 19:00
CZSP 091900Z AUTO 14004KT 21/18 RMK AO1 SLP129 T02080178 58021

2010/08/09 19:00
CZSP 091900Z AUTO 14004KT 21/18 RMK AO1 SLP129 T02080178 58021

2010/08/09 19:00
CZSP 091900Z AUTO 14004KT 21/18 RMK AO1 SLP129 T02080178 58021

2010/08/09 19:00
CZSP 091900Z AUTO 14004KT 21/18 RMK AO1 SLP129 T02080178 58021

2010/08/09 19:00
CWJW 091900Z AUTO 21005KT 16/08 RMK AO1 SLP113 T01590080 50003

2010/08/09 19:00
CWKH 091900Z AUTO 15/ RMK AO1 T0152

2010/08/09 19:00
CWKX 091900Z AUTO 24006KT 16/04 RMK AO1 SLP150 T01590040 57005

2010/08/09 19:00
CWLM 091900Z AUTO 23004KT 14/11 RMK AO1 T01380113

2010/08/09 19:00
CWMJ 091900Z AUTO 21007KT 27/12 RMK AO1 SLP125 T02700121 56008

2010/08/09 19:00
CWMM 091900Z AUTO 18003KT 16/13 RMK AO1 SLP147 T01560127 50004

2010/08/09 19:00
CWQK 091900Z AUTO 26013KT RMK AO1 PK WND 28018/1800

2010/08/09 19:00
CWRY 091900Z AUTO 21010KT 27/05 RMK AO1 PK WND 23019/1846 SLP102 T02650048 58008

2010/08/09 19:00
CWSD 091900Z AUTO 18009KT 21/17 RMK AO1 SLP120 T02080174 58026

2010/08/09 19:00
CWSG 091900Z AUTO 26015KT 18/14 RMK AO1 PK WND 27019/1820 SLP076 T01810143 58017

2010/08/09 19:00
CWSK 091900Z AUTO 14005KT 17/15 RMK AO1 SLP127 T01670150 55001

2010/08/09 19:00
CWSP 091900Z AUTO 30011KT 13/11 RMK AO1 SLP150 T01260114 51010

2010/08/09 19:00
DNMM 091900Z 00000KT 8000 BKN009 25/23 Q1013 NOSIG

2010/08/09 19:00
CWEB 091900Z AUTO 24004KT 14/13 RMK AO1 SLP157 T01420133 53002

2010/08/09 19:00
CWEL 091900Z AUTO 32013KT 16/12 RMK AO1 4PAST HR 0003 PK WND 31017/1800 SLP133 P0002 T01560120 50004

2010/08/09 19:00
CWEZ 091900Z AUTO 23004KT 13/12 RMK AO1 SLP151 T01340119 51009

2010/08/09 19:00
CWFQ 091900Z AUTO 27005KT 25/21 RMK AO1 T02540207

2010/08/09 19:00
CWGB 091900Z AUTO 29010KT 16/12 RMK AO1 SLP141 T01550119 50001

2010/08/09 19:00
CWGL 091900Z AUTO 33008KT 23/23 RMK AO1 SLP135 T02250225 56004

2010/08/09 19:00
CWEZ 091900Z AUTO 23004KT 13/12 RMK AO1 SLP151 T01340119 51009

2010/08/09 19:00
CWFQ 091900Z AUTO 27005KT 25/21 RMK AO1 T02540207

2010/08/09 19:00
CWGB 091900Z AUTO 29010KT 16/12 RMK AO1 SLP141 T01550119 50001

2010/08/09 19:00
CWGL 091900Z AUTO 33008KT 23/23 RMK AO1 SLP135 T02250225 56004

2010/08/09 19:00
CWEZ 091900Z AUTO 23004KT 13/12 RMK AO1 SLP151 T01340119 51009

2010/08/09 19:00
CWFQ 091900Z AUTO 27005KT 25/21 RMK AO1 T02540207

2010/08/09 19:00
CWGB 091900Z AUTO 29010KT 16/12 RMK AO1 SLP141 T01550119 50001

2010/08/09 19:00
CWGL 091900Z AUTO 33008KT 23/23 RMK AO1 SLP135 T02250225 56004

2010/08/09 19:00
CWFQ 091900Z AUTO 27005KT 25/21 RMK AO1 T02540207

2010/08/09 19:00
CWGB 091900Z AUTO 29010KT 16/12 RMK AO1 SLP141 T01550119 50001

2010/08/09 19:00
CWGL 091900Z AUTO 33008KT 23/23 RMK AO1 SLP135 T02250225 56004

2010/08/09 19:00
FALA 091900Z 19012KT CAVOK 09/M11 Q1028 NOSIG

2010/08/09 19:00
FBFT 091900Z 26003KT CAVOK 20/09 Q1022

2010/08/09 19:00
FBMN 091900Z 19006KT CAVOK 20/02 Q1022

2010/08/09 19:00
FYWB 091900Z 07006KT 3400 VV/// 15/08 Q1015

2010/08/09 19:00
FYWH 091900Z AUTO 13006KT //// // ////// 10/M05 Q1031

2010/08/09 19:00
YSCB 091900Z 10010KT 6000 -RA FEW035 OVC070 08/07 Q1018 FM1910 09010KT 8000 -RA SCT030 BKN070 TEMPO 1900/2200 4000 RA BKN020

2010/08/09 19:04
KEUG 091904Z 01007KT 10SM OVC015 16/12 A3001 RMK AO2

2010/08/09 19:04
KFLD 091904Z AUTO 29008KT 10SM FEW023 SCT030 BKN035 28/22 A2992 RMK AO2

2010/08/09 19:04
KLEE 091904Z 10006KT 9SM -RA FEW022 SCT033 27/24 A2991 RMK AO2 WSHFT 1844 P0000

2010/08/09 19:04
KPBG 091904Z AUTO 09003KT 10SM SCT016 SCT047 BKN070 23/22 A2988 RMK AO2 RAE03 P0000

2010/08/09 19:04
KRAC 091904Z AUTO 31005KT 10SM BKN028 29/22 A2992 RMK AO2

2010/08/09 19:05
KCLM 091905Z AUTO 30005KT 10SM FEW025 SCT060 15/11 A3000 RMK AO2

2010/08/09 19:06
PACM 091906Z AUTO 14011KT 2 1/2SM -RA BR BKN014 BKN021 OVC095 11/09 A2924 RMK AO2 TSNO BKN V SCT VIS 1 3/4V5 P0000 $

2010/08/09 19:06
PACM 091906Z AUTO 14011KT 2 1/2SM -RA BR BKN014 BKN021 OVC095 11/09 A2924 RMK AO2 TSNO BKN V SCT VIS 1 3/4V5 P0000 $

2010/08/09 19:05
PAKV 091905Z AUTO VRB03KT 6SM -RA BR BKN008 BKN014 OVC023 13/12 A2947 RMK AO2 CIG 007V012 P0000 TSNO

2010/08/09 19:00
GOGG 091900Z 27006KT 9999 BKN016 TCU SCT130 28/25 Q1012

2010/08/09 19:00
GOSS 091900Z 30008KT 270V360 9999 FEW016 BKN230 29/25 Q1010

2010/08/09 19:00
GOTT 091900Z 22012KT 9999 SCT013 SCT020 TCU FEW120 SCT230 30/25 Q1010

2010/08/09 19:03
KDQH 091903Z AUTO 06010KT 10SM BKN050 BKN065 34/18 A2995 RMK AO1

2010/08/09 19:15
KCCA 091915Z AUTO 00000KT 9SM CLR 37/24 A2994 RMK AO2

2010/08/09 19:00
YBAS 091900Z AUTO 26009KT 9999NDV // NCD 05/M01 Q1018

2010/08/09 19:00
YBBN 091900Z 35005KT 9999 VCSH FEW025 SCT040 BKN080 17/15 Q1020 INTER 1900/2200 4000 SHRA BKN012

2010/08/09 19:00
YBCS 091900Z 12005KT 9999 VCSH FEW005 BKN017 22/21 Q1014 FM1900 12008KT 9999 -SHRA SCT018 BKN040 TEMPO 1900/2200 3000 SHRA BKN014

2010/08/09 19:00
YBTL 091900Z AUTO 07007KT 9000NDV // SCT044 BKN085 22/21 Q1014

2010/08/09 19:00
YMML 091900Z 35005KT CAVOK 05/04 Q1016 NOSIG

2010/08/09 19:00
YPAD 091900Z 00000KT CAVOK 08/06 Q1012 NOSIG

2010/08/09 19:00
YPCC 091900Z AUTO 13007KT 9999NDV // NCD 25/21 Q1010

2010/08/09 19:00
YPDN 091900Z 00000KT CAVOK 20/17 Q1011

2010/08/09 19:00
YPLM 091900Z AUTO 23004KT 9999NDV // NCD 12/08 Q1017

2010/08/09 19:00
YPPH 091900Z 02007KT CAVOK 08/00 Q1022 NOSIG

2010/08/09 19:00
YPTN 091900Z AUTO 11003KT 9999NDV // NCD 17/05 Q1013

2010/08/09 19:00
YPXM 091900Z AUTO 08007KT 9999NDV // BKN013 BKN020 BKN029 24/21 Q////

2010/08/09 19:00
YSSY 091900Z 35006KT 9999 FEW014 BKN090 BKN170 11/09 Q1018 FM2000 02010KT 8000 -RA FEW010 SCT025 BKN100 TEMPO 2100/2200 4000 RA BKN010

2010/08/09 19:00
OOMS 091900Z 29005KT 8000 NSC 31/27 Q0998 NOSIG

2010/08/09 18:50
OOSA 091850Z 15007KT 6000 SCT012 BKN025 26/22 Q1004 NOSIG RMK05 RH83

2010/08/09 19:00
UAAA 091900Z 17003MPS 9999 SCT050CB BKN100 22/08 Q1009 88CLRD65 NOSIG

2010/08/09 19:00
UACC 091900Z 02005MPS CAVOK 13/06 Q1014 040/0070 NOSIG RMK QFE729/0972

2010/08/09 19:00
UAKK 091900Z 01005MPS CAVOK 13/06 Q1011 050///70 NOSIG RMK QFE712/0949

2010/08/09 19:00
UARR 091900Z 01006MPS CAVOK 27/08 Q1016 04CLRD70 NOSIG RMK QFE758/1011

2010/08/09 19:00
UATE 091900Z 10004MPS CAVOK 29/07 Q1010 120///70 NOSIG RMK QFE755/1007

2010/08/09 19:00
UATG 091900Z 00000MPS CAVOK 28/08 Q1012 14CLRD70 NOSIG RMK QFE761/1014

2010/08/09 19:00
UATT 091900Z 07005MPS CAVOK 25/03 Q1017 31CLRD70 NOSIG RMK QFE743/0990

2010/08/09 19:00
UAUU 091900Z 07003MPS CAVOK 17/03 Q1020 33CLRD70 NOSIG RMK QFE749/0999

2010/08/09 19:00
UTDD 091900Z 10002MPS 9999 FEW200 23/11 Q1006 09CLRD70 NOSIG RMK QFE687/0916

2010/08/09 19:00
SLCA 091900Z 18005KT 9999 SKC 22/06 Q1019

2010/08/09 19:00
SLCO 091900Z 23005KT 6000 FEW025 33/20 Q1013

2010/08/09 19:00
SLCP 091900Z 19006KT 6000 SKC 28/12 Q1017

2010/08/09 19:00
SLJE 091900Z 00000KT 9999 SKC 30/15 Q1018

2010/08/09 19:00
SLJO 091900Z 14006KT 5000 FU SKC 33/16 Q1015

2010/08/09 19:00
SLMG 091900Z 16006KT 7000 SKC 33/14 Q1016

2010/08/09 19:00
SLOR 091900Z 00000KT 9999 SKC 18/M12 Q1035

2010/08/09 19:00
SLPO 091900Z 04008KT 9999 SKC 18/M04 Q1036

2010/08/09 19:00
SLPS 091900Z 18005KT 7000 SKC 31/12 Q1015

2010/08/09 19:00
SLRB 091900Z 00000KT 7000 SKC 27/18 Q1017

2010/08/09 19:00
SLRI 091900Z 18006KT 5000 FU FEW020 35/18 Q1012

2010/08/09 19:00
SLRQ 091900Z 00000KT 8000 FEW020 30/21 Q1015

2010/08/09 19:00
SLRY 091900Z 16008KT 5000 FU SKC 31/18 Q1015

2010/08/09 19:00
SLSA 091900Z 15006KT 7000 SKC 32/16 Q1013

2010/08/09 19:00
SLSI 091900Z 21008KT 9999 SKC 30/14 Q1016

2010/08/09 19:00
SLSU 091900Z 01012KT 9999 SKC 20/06 Q1027

2010/08/09 19:00
SLVM 091900Z 00000KT 9999 SKC 23/15 Q1016

2010/08/09 19:00
SLYA 091900Z 35006KT 9999 SKC 22/11 Q1022

2010/08/09 19:00
SBFI 091900Z 24006KT CAVOK 20/12 Q1018

2010/08/09 19:00
SBNT 091900Z 12017KT 9999 VCSH SCT027 FEW030TCU BKN100 26/22 Q1014

2010/08/09 19:00
SBRP 091900Z 21004KT CAVOK 3209 Q1016

2010/08/09 19:00
TQPF 091900Z 10011KT 9999 SCT016 BKN080 27/// Q1014 JP

2010/08/09 19:00
TDPD 091900Z 10004KT 9999 SCT020 SCT270 FEW///CB 30/24 Q1013

2010/08/09 19:00
TTCP 091900Z 15007KT 9999 FEW010CB BKN016 BKN250 29/25 Q1013 NOSIG

2010/08/09 19:00
MZBZ 091900Z 17003KT 9999 SCT028 BKN280 32/26 A2987 Q1011 NOSIG

2010/08/09 19:00
CYZF 091900Z 14008KT 15SM FEW015 FEW034 BKN210 20/14 A2971 RMK CF1SC2CI1 SLP064

2010/08/09 19:00
CYZV 091900Z 20015G20KT 30SM FEW060 BKN250 19/15 A2970 RMK CU2CI2 SLP059

2010/08/09 19:00
CYZX 091900Z 18013KT 15SM FEW040 BKN084 BKN250 26/16 A2992 RMK CU1AC4CI1 WNDY HILL 19010G17KT SLP133

2010/08/09 19:00
CYZY 091900Z AUTO 04003KT 9SM OVC061 16/08 A2985 RMK SLP118 DENSITY ALT 2900FT

2010/08/09 19:00
CZBF 091900Z 05007KT 020V080 15SM BKN030 BKN120 BKN210 25/18 A2980 RMK SC6AC1CI1 TCU ASOCTD SLP091

2010/08/09 19:00
CYAW 091900Z 18009G15KT 15SM BKN120 BKN300 20/17 A2999 RMK AC5CI1 DA+960FT SLP157

2010/08/09 19:00
CYBG 091900Z 23010KT 20SM FEW050 FEW090 26/13 A2980 RMK CU2AC1 MDT CU SLP093

2010/08/09 19:00
CYDQ 091900Z AUTO 25010G16KT 9SM FEW071 20/04 A2978 RMK SLP090 DENSITY ALT 3300FT MAX WND 27018KT AT 1827Z

2010/08/09 19:00
CYEG 091900Z 08005KT 15SM FEW040 FEW160 BKN260 22/13 A2982 RMK CU1AC1CI2 TR AC SLP102

2010/08/09 19:00
CYFB 091900Z 04009KT 30SM -RA BKN030 OVC080 15/09 A2979 RMK SC6AC2 VRY LGT RA SLP090

2010/08/09 19:00
CYFC 091900Z AUTO 18008KT 9SM BKN010 BKN016 BKN045 22/20 A2986 RMK SLP114 DENSITY ALT 900FT RVR MISG

2010/08/09 19:00
CYFT 091900Z 22005KT 15SM BKN040 BKN075 18/12 A2955 RMK SC6AC2 SLP010

2010/08/09 19:00
CYGL 091900Z 30008KT 15SM OVC005 11/10 A2983 RMK ST8 BLN DSAPRD 689 FT SLP108

2010/08/09 19:00
CYHZ 091900Z 20013G18KT 15SM FEW030 BKN100 22/17 A2999 RMK CU1AC6 SLP154

2010/08/09 19:00
CYJT 091900Z 21017G25KT 15SM -SHRA SCT050 BKN100 OVC220 19/16 A2996 RMK SC3AC4CI1 SLP146

2010/08/09 19:00
CYKL 091900Z AUTO 29012KT 9SM -RA SCT034 BKN069 BKN076 13/08 A2960 RMK SLP036

2010/08/09 19:00
CYMH 091900Z 23013G24KT 15SM BKN020 OVC096 20/15 A2971 RMK CU5AC3 LAST STAFFED OB/NEXT 10 1100 UTC SLP061

2010/08/09 19:00
CYMX 091900Z 22006KT 25SM FEW040 BKN150 BKN230 26/18 A2990 RMK CU2AC2CI1 SLP124

2010/08/09 19:00
CYOW 091900Z 28005KT 15SM FEW037TCU BKN047 BKN090 26/20 A2991 RMK TCU2SC3AC1 SLP129

2010/08/09 19:00
CYPL 091900Z 00000KT 15SM FEW050 SCT260 27/14 A2989 RMK CU2CI0 SLP124

2010/08/09 19:00
CYQB 091900Z 25012KT 15SM FEW023 SCT250 26/18 A2986 RMK CU2CI0 SLP111

2010/08/09 19:00
CYQG 091900Z 30009KT 7SM SCT120 OVC240 29/21 A2996 RMK AC3CS4 CC ASOCTD SLP142

2010/08/09 19:00
CYQM 091900Z 20009KT 15SM FEW015 BKN040 OVC100 22/18 A2989 RMK CU2SC4AC2 SH SW-NW SLP122

2010/08/09 19:00
CYQQ 091900Z 01006KT 20SM FEW040 SCT100 17/11 A2996 RMK SC2AC2 SLP147

2010/08/09 19:00
CYQX 091900Z 22014G20KT 15SM FEW030 FEW095 BKN130 BKN260 22/16 A2998 RMK CU1AC2AC3CI1 SLP154

2010/08/09 19:00
CYQY 091900Z 20016G21KT 15SM SCT130 BKN220 OVC240 23/11 A3001 RMK AC3CS2CI1 SLP163

2010/08/09 19:00
CYRB 091900Z 05010KT 10SM SCT008 BKN021 OVC080 07/07 A2986 RMK SF2SC4AS1 FG BNK SW-W SLP118

2010/08/09 19:00
CYSJ 091900Z 22017KT 1 1/2SM -SHRA BR BKN006 OVC010 17/15 A2993 RMK SF6SC2 SLP136

2010/08/09 19:00
CYTE 091900Z 30003KT 15SM FEW045 BKN095 16/09 A2983 RMK SC2AC5 SLP106

2010/08/09 19:00
CYTR 091900Z 22011KT 6SM HZ OVC080 26/18 A2990 RMK AC8 SLP125

2010/08/09 19:00
CYUL 091900Z 25011KT 15SM FEW025 FEW090 BKN210 26/17 A2989 RMK CF1AC2CI2 SLP122

2010/08/09 19:00
CYUY 091900Z 27005KT 15SM SCT055 BKN080 BKN220 26/13 A2991 RMK CU3AC2CI1 SLP131

2010/08/09 19:00
CYVP 091900Z 35010G16KT 15SM SCT020 BKN063 12/07 A2966 RMK SC3SC2 SLP046

2010/08/09 19:00
CYVR 091900Z 30010KT 12SM -SHRA FEW012 BKN017 OVC060 16/12 A2996 RMK CU2CU4SC2 SLP146

2010/08/09 19:00
CYWG 091900Z 17007KT 15SM BKN075 30/20 A2982 RMK AC5 SLP096

2010/08/09 19:00
CYWK 091900Z 24010KT 15SM VCSH BKN024 OVC040 14/10 A2969 RMK SC6SC2 CU ASOCTD SLP063

2010/08/09 19:00
CYXU 091900Z 33003KT 3SM -SHRA FEW030 BKN050 OVC140 26/22 A2998 RMK SF2SC5AC1 SLP147

2010/08/09 19:00
CYXX 091900Z 22007KT 10SM -SHRA SCT020 OVC030 17/11 A2996 RMK SC3SC5 CVCTV CLD EMBD SLP147

2010/08/09 19:00
CYXY 091900Z 15012G20KT 40SM FEW030 FEW110 SCT140 BKN200 14/06 A2983 RMK CU1AC2AC2CI2 SLP116

2010/08/09 19:00
CYYC 091900Z 16005KT 40SM FEW056 BKN260 23/09 A2985 RMK CU1CI2 SLP104

2010/08/09 19:00
CYYJ 091900Z 13004KT 20SM -RA FEW018 FEW035 SCT055 OVC082 17/13 A2997 RMK SC1SC1SC2AC5 VIS NW 8 SLP148

2010/08/09 19:00
CYYQ 091900Z 07011KT 15SM BKN010 13/10 A3000 RMK SC6 SLP160

2010/08/09 19:00
CYYR 091900Z 28014KT 15SM FEW045 BKN062 BKN090 22/12 A2959 RMK CU2SC3AC1 SH DIST ALQDS SLP023

2010/08/09 19:00
CYYT 091900Z 23013G20KT 15SM FEW035 SCT160 BKN230 22/15 A3010 RMK SC2AC2CI2 SLP194

2010/08/09 19:00
CYYZ 091900Z 23010KT 9SM -SHRA BKN056 OVC070 28/22 A2992 RMK SC7AC1 PCPN VRY LGT SLP129

2010/08/09 19:00
LJLJ 091900Z 12003KT 080V160 9999 SCT035 21/17 Q1017 NOSIG

2010/08/09 19:00
LJMB 091900Z VRB02KT CAVOK 19/18 Q1018

2010/08/09 19:00
LJPZ 091900Z 12004KT CAVOK 22/19 Q1015

2010/08/09 19:00
LKMT 091900Z 00000KT CAVOK 17/15 Q1016 NOSIG RMK REG QNH 1014

2010/08/09 19:00
LKPR 091900Z 30003KT CAVOK 17/13 Q1017 NOSIG RMK REG QNH 1014

2010/08/09 19:00
LKTB 091900Z 02005KT 9999 FEW024 19/14 Q1017 NOSIG RMK REG QNH 1014

2010/08/09 19:00
LYTV 091900Z VRB01KT CAVOK 22/17 Q1012

2010/08/09 19:00
EPSC 091900Z 04003KT CAVOK 19/15 Q1016

2010/08/09 19:00
UKKK 091900Z 00000MPS 9999 SCT030CB BKN050 24/18 Q1015 08CLRD70 TEMPO 2100 -TSRAGR SCT005 BKN020CB

2010/08/09 19:00
LRAR 091900Z 34004KT CAVOK 20/18 Q1016

2010/08/09 19:00
LRTC 091900Z AUTO 34012KT 9999 BKN170 26/19 Q1011

2010/08/09 19:00
LRTM 091900Z VRB02KT 9999 FEW040 22/19 Q1016

2010/08/09 19:00
LPAZ 091900Z 05010KT 9999 SCT018 BKN036 21/16 Q1020

2010/08/09 19:00
LPPD 091900Z 04007KT 360V080 9999 FEW022 BKN040 22/15 Q1020

2010/08/09 19:00
LFRT 091900Z AUTO VRB02KT 9999NDV SCT031 BKN037 OVC044 18/14 Q1017

2010/08/09 19:00
LFTW 091900Z AUTO 20004KT 170V230 9999NDV //////CB 24/17 Q1015

2010/08/09 19:00
LFVP 091900Z 21009KT CAVOK 20/16 Q1019 NOSIG

2010/08/09 19:00
FMEE 091900Z 13013KT 9000 VCSH FEW026 20/17 Q1024 TEMPO 5000 SHRA

2010/08/09 18:50
LIBC 091850Z VRB03KT CAVOK 26/16 Q1014 RMK VIS MIN 9999

2010/08/09 18:50
LIBD 091850Z VRB01KT CAVOK 24/17 Q1014 RMK VIS MIN 9999

2010/08/09 18:50
LIBP 091850Z 00000KT 9999 SCT080 24/18 Q1015 RMK VIS MIN 9999

2010/08/09 18:50
LICA 091850Z 27009KT 9999 SCT020 25/21 Q1015 RMK VIS MIN 9999

2010/08/09 18:50
LICC 091850Z VRB02KT CAVOK 27/20 Q1013 RMK VIS MIN 9999

2010/08/09 18:50
LICJ 091850Z 05008KT CAVOK 26/19 Q1016 RMK VIS MIN 9999

2010/08/09 18:50
LICR 091850Z 01011KT 9999 FEW030 25/18 Q1015 RMK VIS MIN 9999

2010/08/09 18:55
LICT 091855Z 35005KT CAVOK 27/23 Q1016 RMK FEW FEW080 VIS MIN 9999 WIND THR13 33008KT BLU

2010/08/09 18:50
LIEA 091850Z VRB02KT CAVOK 23/18 Q1016 RMK VIS MIN 9999

2010/08/09 18:50
LIEO 091850Z 02003KT CAVOK 26/21 Q1016 RMK VIS MIN 9999

2010/08/09 18:50
LIMG 091850Z 00000KT 9999 SCT030 23/16 Q1015 RMK VIS MIN 9999

2010/08/09 18:45
LIPH 091845Z 16002KT 9999 FEW080 25/19 Q1014 RMK FEW VIS MIN 9999 WIND THR07 /////KT BLU

2010/08/09 18:45
LIPR 091845Z 11003KT CAVOK 26/21 Q1014 RMK SKC VIS MIN 9999 WIND THR31 12002KT BLU

2010/08/09 18:45
LIPX 091845Z 00000KT CAVOK 28/19 Q1014 RMK SKC VIS MIN 9999 BLU

2010/08/09 18:45
LIBR 091845Z 32013KT CAVOK 25/21 Q1014 NOSIG RMK SKC VIS MIN 9999 WIND THR13 WIND THR31 30008KT BLU

2010/08/09 18:50
LIPB 091850Z 17009KT 9999 FEW100 25/14 Q1014 RMK MON LIB VIS MIN 9999

2010/08/09 18:50
LIPO 091850Z 00000KT CAVOK 26/17 Q1014 RMK VIS MIN 9999

2010/08/09 18:50
LIPY 091850Z VRB02KT 9999 FEW040 23/20 Q1014 RMK VIS MIN 9999

2010/08/09 18:50
LIRZ 091850Z VRB02KT 9999 FEW035 27/16 Q1015 RMK VIS MIN 9999

2010/08/09 18:55
LIBV 091855Z 02006KT CAVOK 24/16 Q1013 RMK SKC VIS MIN 9999 WIND THR14 01005KT BLU

2010/08/09 18:50
LICD 091850Z 35004KT CAVOK 26/22 Q1015 RMK VIS MIN 9999

2010/08/09 18:55
LICZ 091855Z 16006KT CAVOK 25/23 Q1013 RMK SKC VIS MIN 9999 WIND THR28 /////KT BLU

2010/08/09 18:55
LIED 091855Z 32010KT 9999 BKN060 28/07 Q1015 RMK BKN VIS MIN 9999 BLU

2010/08/09 18:55
LIMU 091855Z 23009KT 9999 FEW026 23/23 Q1017 RMK SCT QUK 2 QUL 1 S VIS MAR 25 KM VIS MIN 9999

2010/08/09 18:55
LIPA 091855Z 26001KT 9999 FEW040 24/21 Q1014 RMK FEW VIS MIN 9999 A2997 BLU

2010/08/09 18:55
LIPC 091855Z 15005KT CAVOK 25/18 Q1014 RMK SCT SCT200 VIS MIN 9999 WIND THR12 13004KT BLU

2010/08/09 18:55
LIPS 091855Z 00000KT 9999 FEW025 25/17 Q1014 RMK FEW VIS MIN 9999 BLU

2010/08/09 18:55
LIRE 091855Z 00000KT CAVOK 24/22 Q1015 RMK SKC VIS MIN 9999 WIND THR31 30002KT BLU

2010/08/09 18:55
LIRS 091855Z 33010KT 9999 FEW025 26/15 Q1015 RMK SCT SCT200 VIS MIN 9999 WIND THR21 /////KT BLU

2010/08/09 18:50
LIRU 091850Z VRB02KT CAVOK 26/19 Q1014

2010/08/09 18:50
LIRZ 091850Z VRB02KT 9999 FEW035 27/16 Q1015 RMK VIS MIN 9999

2010/08/09 18:55
LIVC 091855Z 29008KT 8000 SCT001 12/10 Q1025 RMK SCT MON LIB VAL CLD SCT DIM ABB VIS MIN 8000

2010/08/09 18:55
LIVD 091855Z 00000KT CAVOK 19/13 Q1019 RMK SKC VIS MIN 9999

2010/08/09 18:55
LIVE 091855Z 00000KT CAVOK 15/09 Q1019 RMK SKC VIS MIN 9999

2010/08/09 18:55
LIVP 091855Z 20012KT 9999 FEW005 10/08 Q1023 RMK FEW MON CLD SCT VAL S FOSCHIA SKC SUP VIS MIN 9999

2010/08/09 18:55
LIVT 091855Z 04003KT CAVOK 23/18 Q1014 RMK FEW FEW100 QUK / QUL / VIS MAR 20 KM VIS MIN 9999

2010/08/09 18:45
LIPX 091845Z 00000KT CAVOK 28/19 Q1014 RMK SKC VIS MIN 9999 BLU

2010/08/09 19:00
SEQU 091900Z 14012KT 9999 BKN040 17/01 Q1027 RMK A3033 NOSIG

2010/08/09 19:00
SEGU 091900Z 20006KT 160V240 9999 SCT026 BKN100 28/19 Q1011 NOSIG

2010/08/09 19:00
LPAZ 091900Z 05010KT 9999 SCT018 BKN036 21/16 Q1020

2010/08/09 19:00
LPHR 091900Z 01007KT 340V050 9999 FEW016 BKN040 24/15 Q1021

2010/08/09 19:00
LPPD 091900Z 04007KT 360V080 9999 FEW022 BKN040 22/15 Q1020

2010/08/09 19:00
UAAA 091900Z 17003MPS 9999 SCT050CB BKN100 22/08 Q1009 88CLRD65 NOSIG

2010/08/09 19:00
UACC 091900Z 02005MPS CAVOK 13/06 Q1014 040/0070 NOSIG RMK QFE729/0972

2010/08/09 19:00
UAFM 091900Z 10004MPS 040V190 CAVOK 20/09 Q1009 NOSIG

2010/08/09 19:00
UARR 091900Z 01006MPS CAVOK 27/08 Q1016 04CLRD70 NOSIG RMK QFE758/1011

2010/08/09 19:00
UATE 091900Z 10004MPS CAVOK 29/07 Q1010 120///70 NOSIG RMK QFE755/1007

2010/08/09 19:00
UATG 091900Z 00000MPS CAVOK 28/08 Q1012 14CLRD70 NOSIG RMK QFE761/1014

2010/08/09 19:00
UATT 091900Z 07005MPS CAVOK 25/03 Q1017 31CLRD70 NOSIG RMK QFE743/0990

2010/08/09 19:00
UTAA 091900Z 21003MPS 9999 SKC 30/03 Q1009 NOSIG

2010/08/09 19:00
UTAT 091900Z 33004MPS P5000 FEW200 26/16 Q1008 NOSIG

2010/08/09 19:00
UTDD 091900Z 10002MPS 9999 FEW200 23/11 Q1006 09CLRD70 NOSIG RMK QFE687/0916

2010/08/09 19:00
UTDL 091900Z 23005MPS 9999 BKN170 28/08 Q1005 NOSIG RMK QFE716 8809//70

2010/08/09 19:00
UTAM 091900Z 30005MPS 6300 SKC 29/05 Q1005 NOSIG

2010/08/09 19:00
SKBQ 091900Z 14004KT 9000 TS FEW012CB SCT080 31/27 A2984 TS/CB/N

2010/08/09 19:00
SKCG 091900Z 25006KT 9999 VCSH SCT015CB SCT200 31/25 A2984 RMK VCSH/E/CB/E/S

2010/08/09 19:00
SKCL 091900Z 03006KT 9999 FEW023 30/18 A2993

2010/08/09 19:00
SKLT 091900Z 23003KT 6000 SCT020 32/24 A2993 RMK/HZ APCLO

2010/08/09 19:00
SKRG 091900Z 04012KT 9999 SCT020TCU SCT200 22/13 A3028

2010/08/09 19:00
SKSP 091900Z 08008KT 9999 FEW015 BKN080 28/25 A2985 RERA

2010/08/09 19:00
SKBG 091900Z 28005KT 9000 -DZ SCT010 BKN080 21/20 A3000 RERA

2010/08/09 19:00
LEGE 091900Z 24003KT 170V300 6000 TSRA SCT010 FEW028CB BKN034 21/20 Q1017

2010/08/09 18:50
LIBP 091850Z 00000KT 9999 SCT080 24/18 Q1015 RMK VIS MIN 9999

2010/08/09 18:50
LICR 091850Z 01011KT 9999 FEW030 25/18 Q1015 RMK VIS MIN 9999

2010/08/09 18:50
LIEA 091850Z VRB02KT CAVOK 23/18 Q1016 RMK VIS MIN 9999

2010/08/09 18:55
LIED 091855Z 32010KT 9999 BKN060 28/07 Q1015 RMK BKN VIS MIN 9999 BLU

2010/08/09 18:50
LIEO 091850Z 02003KT CAVOK 26/21 Q1016 RMK VIS MIN 9999

2010/08/09 18:55
LIMU 091855Z 23009KT 9999 FEW026 23/23 Q1017 RMK SCT QUK 2 QUL 1 S VIS MAR 25 KM VIS MIN 9999

2010/08/09 18:55
LIRE 091855Z 00000KT CAVOK 24/22 Q1015 RMK SKC VIS MIN 9999 WIND THR31 30002KT BLU

2010/08/09 18:55
LIRM 091855Z 24007KT 9999 FEW040 27/25 Q1016 RMK FEW VIS MIN 9999 WIND THR06 22005KT BLU

2010/08/09 18:55
LIRS 091855Z 33010KT 9999 FEW025 26/15 Q1015 RMK SCT SCT200 VIS MIN 9999 WIND THR21 /////KT BLU

2010/08/09 18:50
LIRU 091850Z VRB02KT CAVOK 26/19 Q1014

2010/08/09 18:50
LIRZ 091850Z VRB02KT 9999 FEW035 27/16 Q1015 RMK VIS MIN 9999

2010/08/09 18:55
LIVD 091855Z 00000KT CAVOK 19/13 Q1019 RMK SKC VIS MIN 9999

2010/08/09 18:55
LIVT 091855Z 04003KT CAVOK 23/18 Q1014 RMK FEW FEW100 QUK / QUL / VIS MAR 20 KM VIS MIN 9999

2010/08/09 19:00
LEGE 091900Z 24003KT 170V300 6000 TSRA SCT010 FEW028CB BKN034 21/20 Q1017

2010/08/09 18:50
EGDY 091850Z 20010KT 9999 FEW010 SCT035 BKN080 18/17 Q1013

2010/08/09 18:50
EGPN 091850Z 24014KT 9999 FEW022 17/12 Q1005

2010/08/09 19:00
LERT 091900Z VRB01KT CAVOK 31/17 Q1013 NOSIG

2010/08/09 18:55
LICZ 091855Z 16006KT CAVOK 25/23 Q1013 RMK SKC VIS MIN 9999 WIND THR28 /////KT BLU

2010/08/09 19:00
UKCW 091900Z 07003MPS CAVOK 29/06 Q1013 0909//70 NOSIG

2010/08/09 19:00
UKKK 091900Z 00000MPS 9999 SCT030CB BKN050 24/18 Q1015 08CLRD70 TEMPO 2100 -TSRAGR SCT005 BKN020CB

2010/08/09 19:00
UKKM 091900Z VRB01MPS 9999 TS FEW030CB BKN100 24/20 Q1015

2010/08/09 19:00
UKLI 091900Z 18002MPS 9999 VCTS BKN023CB BKN033 20/19 Q1016 28090070 TEMPO VRB12MPS 3100 -TSRA

2010/08/09 19:00
UKLU 091900Z 28001MPS 9999 SCT044 19/17 Q1016 10090070 NOSIG

2010/08/09 19:00
CWAE 091900Z 18005KT 15SM FEW016 OVC050 14/13 A2993 RMK SC2SC6 WND ESTD SLP133

2010/08/09 19:00
CWCA 091900Z 21005KT 15SM FEW016 SCT070 SCT200 18/14 A2963 RMK SC2AC2CI1 TR CI SLP035

2010/08/09 19:00
CWCL 091900Z AUTO 35003KT 7SM -RA OVC013 OVC042 10/08 A2997 RMK SLP155

2010/08/09 19:00
CWDL 091900Z 23007KT 15SM FEW050 FEW055 SCT070 BKN075 16/05 A2994 RMK CU1SC2AC2AS0 SLP140

2010/08/09 19:00
CWEU 091900Z 27012KT 40SM FEW035 FEW080 03/00 A3002 RMK SC1AC0 AC LENT SLP166

2010/08/09 19:00
CWFD 091900Z AUTO 01017KT 0SM 02/ RMK ALTM MISG

2010/08/09 19:00
CWHN 091900Z AUTO 12007KT 100V240 9SM FEW050 SCT090 23/10 A2981 RMK PCPN 0.5MM PAST HR SLP101

2010/08/09 19:00
CWIL 091900Z AUTO 19008KT 18/ A2984 RMK SLP110

2010/08/09 19:00
CWKM 091900Z AUTO 08011KT 10/ A2973 RMK SLP074

2010/08/09 19:00
CWKW 091900Z AUTO 12003KT 09/ A2967 RMK SLP068

2010/08/09 19:00
CWLI 091900Z AUTO 24009KT 09/ A2980 RMK SLP101

2010/08/09 19:00
CWLX 091900Z AUTO 27008KT 18/ A2986 RMK SLP121

2010/08/09 19:00
CWLY 091900Z AUTO 35013G20KT 2 1/8SM BKN023 BKN057 14/13 A2990 RMK PCPN 1.0MM PAST HR SLP126

2010/08/09 19:00
CWOB 091900Z AUTO ///// 1/8SM CLR 05/ A2971 RMK SLP096

2010/08/09 19:00
CWRH 091900Z AUTO ///// 05/ A2975 RMK SLP102

2010/08/09 19:00
CWRX 091900Z AUTO 31006KT 15/ A2988

2010/08/09 19:00
CWSA 091900Z AUTO 12014KT 9SM -RA FEW029 FEW044 SCT051 BKN073 20/17 A3003 RMK SLP170

2010/08/09 19:00
CWSW 091900Z 18005KT 20SM BKN054 BKN120 20/10 A2989 RMK CU5AC1 SLP111

2010/08/09 19:00
CWTU 091900Z AUTO 18016KT 11/ A2959 RMK SLP033

2010/08/09 19:00
CWUP 091900Z AUTO 02007KT 04/ A2990 RMK SLP148

2010/08/09 19:00
CWUW 091900Z AUTO ///// 9SM CLR 13/ A2988 RMK SLP145

2010/08/09 19:00
CWVD 091900Z AUTO ///// 04/ A2984 RMK SLP140

2010/08/09 19:00
CWVH 091900Z AUTO 13006KT 09/ A2976 RMK SLP093

2010/08/09 19:00
CWXR 091900Z AUTO 05006KT 08/ A2979 RMK SLP098

2010/08/09 19:00
CWYK 091900Z AUTO ///// 09/ A2956 RMK SLP030

2010/08/09 19:00
CWYM 091900Z AUTO 05020G28KT 05/ RMK ALTM MISG SLP115

2010/08/09 19:00
CWZZ 091900Z AUTO ///// 0SM BKN001 06/ A2961 RMK SLP047

2010/08/09 19:00
CYAH 091900Z 26004KT 7SM -SHRA OVC010 12/11 A2975 RMK SF8 SLP086

2010/08/09 19:00
CYAM 091900Z 00000KT 15SM SCT028 BKN053 27/20 A2989 RMK CU4SC1 SLP120

2010/08/09 19:00
CYAS 091900Z 02017G25KT 15SM BKN012 BKN040 10/07 A2976 RMK SC6SC2 LAST OBS/NEXT 101200UTC SLP084

2010/08/09 19:00
CYAY 091900Z AUTO 24023G30KT 9SM BKN029 BKN081 BKN098 22/16 A2977 RMK SLP082 DENSITY ALT 1100FT MAX WND 24031KT AT 1829Z

2010/08/09 19:00
CYAZ 091900Z 14005KT 5SM BR FEW003 BKN007 OVC015 13/12 A2997 RMK SF2SF2SC3 SLP151

2010/08/09 19:00
CYBB 091900Z 00000KT 15SM FEW140 FEW220 21/09 A2995 RMK AC1CI1 SLP143

2010/08/09 19:00
CYBC 091900Z AUTO 23019G26KT 9SM FEW047 21/15 A2973 RMK SLP068

2010/08/09 19:00
CYBD 091900Z 27005KT 15SM FEW045TCU SCT080TCU BKN130 18/11 A2996 RMK TCU1TCU3AC2 SLP147

2010/08/09 19:00
CYBK 091900Z 11002KT 20SM FEW030 18/10 A2999 RMK SC1 SLP158

2010/08/09 19:00
CYBL 091900Z 05003KT 30SM FEW028 SCT100 18/11 A2995 RMK CU2AC1 SLP143

2010/08/09 19:00
CYBN 091900Z AUTO 27003KT 2 1/2SM RA BKN002 BKN046 BKN053 22/20 A2993 RMK VSBY VRBL 2.2V5.0 SLP135

2010/08/09 19:00
CYBR 091900Z 16003KT 15SM FEW160 SCT250 29/20 A2983 RMK AC2CI0 SLP101

2010/08/09 19:00
CYBU 091900Z AUTO 20003KT 9SM FEW033 25/17 A2980 RMK SLP094 DENSITY ALT 2700FT

2010/08/09 19:00
CYBV 091900Z 22006KT 15SM FEW110 FEW160 SCT300 28/21 A2982 RMK AC2AC1CI1 SLP098

2010/08/09 19:00
CYBW 091900Z 16006KT 30SM FEW045TCU SCT120 BKN250 21/10 A2985 RMK TCU2AC1CI2 SLP109

2010/08/09 19:00
CYBX 091900Z 21021G28KT 3SM BR BKN004 BKN040 17/15 A2975 RMK SF5SC1 SLP076

2010/08/09 19:00
CYCB 091900Z 04012KT 15SM FEW070 18/14 A2982 RMK AC1 TR AC FU SLP101

2010/08/09 19:00
CYCD 091900Z 00000KT 20SM -RA FEW012 SCT040 OVC100 16/12 A2996 RMK SF1SC3AS3 SLP144

2010/08/09 19:00
CYCG 091900Z 00000KT 15SM FEW055 FEW100 SCT270 25/15 A2980 RMK SC2AC1CI1 SLP085

2010/08/09 19:00
CYCO 091900Z 06004KT 1 1/2SM -DZ BR OVC003 10/10 A2978 RMK FG2ST6 BLN EST SLP087

2010/08/09 19:00
CYCP 091900Z 00000KT 3SM -RA BR SCT002 BKN012 OVC045 14/13 A2991 RMK SF3SF2SC2 VIS VLY S 11/2 SLP136

2010/08/09 19:00
CYCQ 091900Z 23007KT 35SM OVC045 19/05 A2978 RMK SC8 TCU EMBDD SLP091

2010/08/09 19:00
CYCX 091900Z 17009KT 10SM SCT007 BKN040 21/20 A2988 RMK SF3SC4 DA+1272FT SLP117

2010/08/09 19:00
CYCY 091900Z 13005KT 25SM FEW070 09/05 A2993 RMK AC1 SLP139

2010/08/09 19:00
CYDA 091900Z 00000KT 20SM FEW050 FEW080 BKN240 18/10 A2968 RMK CU1AS2CI2 SLP060

2010/08/09 19:00
CYDB 091900Z 12016KT 25SM FEW055 FEW080 BKN110 BKN240 14/05 A2974 RMK SC1AC1AC2CS1 ACSL SLP088

2010/08/09 19:00
CYDC 091900Z 18002KT 15SM OVC050 20/07 A2988 RMK SC7 SLP112

2010/08/09 19:00
CYDF 091900Z 23015G25KT 12SM -SHRA SCT036 BKN045 OVC100 21/16 A2992 RMK SC4SC2AC2 SLP134

2010/08/09 19:00
CYDN 091900Z AUTO 29007KT 230V300 9SM CLR 32/15 A2977 RMK SLP080 DENSITY ALT 3300FT

2010/08/09 19:00
CYDP 091900Z 09011KT 15SM -RA OVC028 11/09 A2956 RMK SC8 SLP011

2010/08/09 19:00
CYED 091900Z AUTO 11006KT 9SM FEW049 23/11 A2981 RMK SLP095

2010/08/09 19:00
CYEK 091900Z 07006KT 15SM OVC068 11/11 A3004 RMK AS7 SLP173

2010/08/09 19:00
CYEL 091900Z 14002KT 15SM FEW050 SCT150 27/16 A2992 RMK CU2AC1 WNDS ESTD/ SLP131

2010/08/09 19:00
CYEN 091900Z 25002KT 15SM FEW140 SCT260 31/15 A2986 RMK AC2CI0 SLP107

2010/08/09 19:00
CYET 091900Z AUTO 08004KT 9SM FEW062 FEW072 FEW092 19/11 A2981 RMK PCPN 1.0MM PAST HR SLP095

2010/08/09 19:00
CYEV 091900Z 23006KT 15SM BKN017 13/09 A2977 RMK SC6 SLP084

2010/08/09 19:00
CYFO 091900Z 17006KT 15SM FEW009 BKN014 22/19 A2979 RMK SF1SC5 SLP091

2010/08/09 19:00
CYFR 091900Z 18003KT 15SM FEW090 FEW120 BKN270 19/15 A2972 RMK AC1AC2CI2 SLP068

2010/08/09 19:00
CYFS 091900Z 34005KT 15SM OVC010 17/15 A2967 RMK SC8 CIG RAG SLP053

2010/08/09 19:00
CYGE 091900Z 13003KT 30SM FEW035 BKN085 BKN140 18/14 A2986 RMK SC2AC3AC2 SLP112

2010/08/09 19:00
CYGH 091900Z 00000KT 25SM SCT080 15/09 A2977 RMK AC2 SLP084

2010/08/09 19:00
CYGK 091900Z 18010KT 6SM HZ FEW040TCU FEW080 BKN250 25/22 A2991 RMK TCU1AC2CI4 SLP126

2010/08/09 19:00
CYGP 091900Z 23007KT 15SM FEW035 BKN220 25/16 A2976 RMK CU1CI1 SLP078

2010/08/09 19:00
CYGQ 091900Z 24009KT 190V290 15SM FEW030 SCT040 BKN110 28/17 A2987 RMK CF1CU3AC0 SLP118

2010/08/09 19:00
CYGR 091900Z 20014G24KT 20SM FEW025 BKN080 OVC230 20/15 A2992 RMK SC2AC5CI2 SLP131

2010/08/09 19:00
CYGT 091900Z 34008KT 15SM FEW130 SCT160 18/08 A2992 RMK AC2AS0 SLP135

2010/08/09 19:00
CYGV 091900Z AUTO 22010KT 200V270 9SM CLR 19/14 A2972 RMK SLP067

2010/08/09 19:00
CYGW 091900Z 25008KT 1SM BR OVC002 10/10 A2981 RMK SC8 VIS VRB 3/4 11/2 SLP095

2010/08/09 19:00
CYGX 091900Z 03005KT 15SM SCT080 SCT200 20/09 A2995 RMK AS2CI0 SLP147

2010/08/09 19:00
CYHA 091900Z 32010KT 15SM MIFG SCT002 OVC015 08/05 A2980 RMK SF2SC4 SLP093

2010/08/09 19:00
CYHD 091900Z AUTO 19004KT 9SM CLR 26/20 A2990 RMK SLP128

2010/08/09 19:00
CYHE 091900Z AUTO 28006KT 220V330 9SM OVC021 OVC047 OVC051 OVC075 18/14 A2992 RMK SLP134

2010/08/09 19:00
CYHH 091900Z 27010KT 12SM OVC020 16/11 A2984 RMK SC8 SLP114

2010/08/09 19:00
CYHI 091900Z 08004KT 15SM VCFG FEW010 BKN015 OVC020 11/08 A2985 RMK SF0SC5SC3 SLP112

2010/08/09 19:00
CYHK 091900Z 18014KT 15SM FEW110 15/10 A2991 RMK AS1 SLP131

2010/08/09 19:00
CYHM 091900Z 23003KT 3SM -SHRA BR FEW012 SCT048 BKN140 OVC240 24/23 A2994 RMK SF1SC2AC4CI1 SLP137

2010/08/09 19:00
CYHU 091900Z AUTO 24007KT 9SM CLR 26/17 A2988 RMK SLP119 DENSITY ALT 1400FT MAX WND 24018KT AT 1816Z RVR MISG

2010/08/09 19:00
CYIK 091900Z 33004KT 15SM FEW008 FEW019 FEW060 FEW150 FEW300 12/08 A2987 RMK ST1CU1SC1AC1CC1 SLP119

2010/08/09 19:00
CYIO 091900Z 02004KT 30SM FEW025 FEW080 SCT140 OVC250 12/05 A2990 RMK SC1AC1AS2CI3 SLP130

2010/08/09 19:00
CYIV 091900Z 14006KT 15SM BKN050 BKN250 23/13 A2990 RMK SC5CI0 SLP130

2010/08/09 19:00
CYJF 091900Z 00000KT 10SM FEW007 BKN020 OVC120 16/15 A2972 RMK SF2SC5AS2 SLP067

2010/08/09 19:00
CYKA 091900Z 27015KT 15SM -SHRA BKN040 OVC080 14/12 A2990 RMK SC6AC2 SLP125

2010/08/09 19:00
CYKD 091900Z 16004KT 12SM OVC014 13/09 A2976 RMK SC8 SLP077

2010/08/09 19:00
CYKF 091900Z AUTO 22008KT 6SM -RA BKN023 24/21 A2996 RMK SLP140 DENSITY ALT 2200FT LTNG DIST SW

2010/08/09 19:00
CYKG 091900Z 35018G25KT 15SM OVC015 10/06 A2980 RMK SC7 SLP101

2010/08/09 19:00
CYKJ 091900Z AUTO 10005KT 6SM -RA OVC009 15/14 A2978 RMK SLP098 DENSITY ALT 2200FT

2010/08/09 19:00
CYKO 091900Z 34015KT 15SM FEW020 FEW210 13/08 A2986 RMK CU1CI2 SLP114

2010/08/09 19:00
CYKQ 091900Z 31010KT 15SM FEW035 FEW290 21/13 A2984 RMK CU1CI0 SLP107

2010/08/09 19:00
CYKY 091900Z 22005KT 12SM FEW050 FEW250 24/14 A2987 RMK CU1CI0 SLP113

2010/08/09 19:00
CYKZ 091900Z 22006KT 10SM BKN040 BKN060 OVC090 27/22 A2991 RMK SC5SC2AS1 CU EMBD SLP127

2010/08/09 19:00
CYLD 091900Z 21002KT 15SM BKN045 BKN230 28/18 A2990 RMK CU5CC1 SLP125

2010/08/09 19:00
CYLJ 091900Z 23012KT 15SM FEW055 FEW250 26/12 A2981 RMK CU1CI1 TR CI SLP097

2010/08/09 19:00
CYLK 091900Z 10005KT 6SM FU BKN080 OVC210 23/15 A2970 RMK AC5CI0 SLP063

2010/08/09 19:00
CYLL 091900Z 21004KT 15SM FEW040 23/14 A2985 RMK CU1 SLP109

2010/08/09 19:00
CYLT 091900Z 30006KT 7SM -SN OVC013 M01/M02 A3002 RMK SF8 LAST OB/NEXT 101200 UTC SLP171

2010/08/09 19:00
CYLU 091900Z 30007KT 15SM BKN030 BKN080 13/08 A2960 RMK SC5AS2 SLP026

2010/08/09 19:00
CYLW 091900Z AUTO 13006KT 100V210 9SM CLR 24/08 A2981 RMK SLP090 DENSITY ALT 2800FT

2010/08/09 19:00
CYMA 091900Z 03003KT 20SM FEW045 SCT070 BKN100 BKN230 18/11 A2975 RMK SC2AC2AS1CI1 TCU ASOCTD SLP088

2010/08/09 19:00
CYMJ 091900Z 25003KT 15SM FEW044 FEW280 26/14 A2988 RMK CU1CI0 SLP119

2010/08/09 19:00
CYMO 091900Z AUTO 29008KT 9SM CLR 26/11 A2982 RMK SLP099

2010/08/09 19:00
CYMT 091900Z 26007KT 15SM BKN040 BKN070 23/12 A2984 RMK CU5AC1 SLP111

2010/08/09 19:00
CYMU 091900Z 22005KT 15SM VCFG FEW004 OVC006 11/10 A2977 RMK SF1SC7 SLP085

2010/08/09 19:00
CYNA 091900Z AUTO 25005KT 220V280 9SM BKN034 BKN063 BKN071 OVC087 19/14 A2976 RMK SLP080

2010/08/09 19:00
CYND 091900Z 23006KT 15SM FEW035 BKN250 27/16 A2990 RMK CU2CI4 SLP124

2010/08/09 19:00
CYNE 091900Z AUTO 15003KT 080V210 9SM BKN035 BKN061 BKN081 25/17 A2983 RMK SLP106

2010/08/09 19:00
CYNM 091900Z AUTO 24007KT 220V290 9SM SCT062 25/12 A2985 RMK SLP112

2010/08/09 19:00
CYOA 091900Z 11013KT 1 1/2SM FU SKC 20/11 A2978 RMK FU3 SLP097

2010/08/09 19:00
CYOC 091900Z 06010KT 35SM FEW025 FEW080 BKN210 14/09 A2967 RMK CF1AC1CI1 SLP059

2010/08/09 19:00
CYOD 091900Z 17005KT 15SM FEW040TCU FEW110 FEW220 25/14 A2982 RMK TCU1AC2CC1 TR CC SLP101

2010/08/09 19:00
CYOJ 091900Z 17004KT 15SM FEW042 21/10 A2970 RMK CU2 SLP064

2010/08/09 19:00
CYOY 091900Z AUTO 24008KT 180V270 9SM FEW032 25/16 A2985 RMK PCPN 0.5MM PAST HR SLP108

2010/08/09 19:00
CYPA 091900Z 00000KT 15SM FEW048 25/13 A2982 RMK CU1 SLP099

2010/08/09 19:00
CYPC 091900Z 02005KT 6SM BR OVC003 09/08 A2980 RMK ST8 SLP092

2010/08/09 19:00
CYPE 091900Z 21010KT 15SM FEW050 BKN250 21/07 A2977 RMK CU1CI3 SLP088

2010/08/09 19:00
CYPG 091900Z 15006KT 100V180 12SM SCT150 31/19 A2982 RMK AC3 SLP097

2010/08/09 19:00
CYPH 091900Z 02010KT 15SM BKN025 16/10 A2981 RMK SC7 SLP096

2010/08/09 19:00
CYPQ 091900Z AUTO ///// 5SM SCT027 BKN054 BKN060 BKN079 25/22 A2990 RMK ICG PCPN 1.0MM PAST HR SLP125

2010/08/09 19:00
CYPR 091900Z AUTO 18004KT 130V210 9SM OVC012 14/12 A3002 RMK SLP167

2010/08/09 19:00
CYPW 091900Z 26005KT 40SM FEW010 FEW030 FEW080 BKN140 BKN280 16/12 A2996 RMK SF1CU1AC1AC6CI1 TCU ASOCTD SLP147

2010/08/09 19:00
CYPX 091900Z 36005KT 15SM BKN039 17/08 A2983 RMK SC6 SLP102

2010/08/09 19:00
CYPY 091900Z AUTO 05003KT 010V140 9SM CLR 22/13 A2974 RMK SLP076

2010/08/09 19:00
CYQA 091900Z AUTO 27005KT 220V290 9SM BKN022 BKN027 BKN044 26/22 A2992 RMK SLP130 DENSITY ALT 2400FT LTNG DIST S

2010/08/09 19:00
CYQD 091900Z 16010G15KT 15SM FEW025 FEW100 BKN220 25/18 A2979 RMK SC1AC1CI1 TCU ASOCTD W-E SLP089

2010/08/09 19:00
CYQF 091900Z 16004KT 15SM FEW030 BKN260 21/13 A2983 RMK CU2CI2 SLP102

2010/08/09 19:00
CYQH 091900Z 26007KT 30SM SCT040 BKN090 20/09 A2981 RMK SC2AC1 SLP101

2010/08/09 19:00
CYQI 091900Z 19012G18KT 15SM BKN025 BKN100 OVC250 21/16 A2999 RMK SC6AC2CI0 SLP155

2010/08/09 19:00
CYQL 091900Z 25006KT 40SM FEW055 FEW280 24/10 A2984 RMK CU1CI1 SLP096

2010/08/09 19:00
CYQR 091900Z 27003KT 15SM FEW036 25/16 A2988 RMK CF1 SLP120

2010/08/09 19:00
CYQT 091900Z 26004KT 20SM FEW048 FEW270 31/20 A2985 RMK CU1CI0 SLP109

2010/08/09 19:00
CYQU 091900Z 26010G15KT 25SM FEW048 BKN210 20/07 A2981 RMK CU2CI2 SLP101

2010/08/09 19:00
CYQV 091900Z AUTO 31008KT 9SM CLR 26/17 A2984 RMK SLP107

2010/08/09 19:00
CYQW 091900Z AUTO VRB05KT 9SM CLR 25/14 A2987 RMK SLP113 DENSITY ALT 3400FT

2010/08/09 19:00
CYQZ 091900Z AUTO VRB02KT 9SM OVC066 15/08 A2993 RMK SLP143 DENSITY ALT 2100FT

2010/08/09 19:00
CYRA 091900Z 33003KT 8SM BKN016 OVC052 20/17 A2968 RMK SC3SC2 SLP055

2010/08/09 19:00
CYRJ 091900Z 12006KT 25SM SCT030 24/16 A2981 RMK CU4 SLP095

2010/08/09 19:00
CYRL 091900Z 19004KT 15SM FEW030 BKN240 26/19 A2990 RMK CU1CI2 SLP127

2010/08/09 19:00
CYRT 091900Z 29006KT 15SM BKN075 17/10 A3004 RMK AC6 SLP175

2010/08/09 19:00
CYRV 091900Z AUTO 00000KT 9SM -RA BKN012 BKN093 17/15 A2984 RMK PCPN 1.0MM PAST HR SLP106

2010/08/09 19:00
CYSB 091900Z 12008KT 15SM FEW048 FEW180 27/15 A2993 RMK CU1AC1 SLP135

2010/08/09 19:00
CYSC 091900Z AUTO 34004KT 240V030 9SM -RA BKN031 BKN038 BKN048 OVC066 22/20 A2991 RMK DENSITY ALT 1800FT PCPN 2.0MM PAST HR

2010/08/09 19:00
CYSF 091900Z AUTO 08009KT 2 1/2SM HZ FEW028 BKN046 OVC066 18/15 A2979 RMK SLP093 DENSITY ALT 1400FT TS/LTNG TEMPO UNAVBL

2010/08/09 19:00
CYSK 091900Z 01012KT 15SM FEW010 BKN220 13/09 A2981 RMK SF1CI3 SLP097

2010/08/09 19:00
CYSL 091900Z 21007KT 15SM FEW029TCU BKN040 BKN140 24/17 A2984 RMK TCU2SC2AC1 SLP107

2010/08/09 19:00
CYSM 091900Z 00000KT 15SM FEW025 FEW110 BKN220 20/12 A2975 RMK CF1AC2CS2 TCU TOPS DIST SW SLP078

2010/08/09 19:00
CYSN 091900Z 22010KT 8SM -TSRA FEW020 OVC060 25/22 A2992 RMK SC1SC7 CB EMBD VIS 3 SE SLP129

2010/08/09 19:00
CYSR 091900Z 15013KT 8SM SHRA FEW030 OVC090 09/08 A2984 RMK ST1AS7 SLP141

2010/08/09 19:00
CYTH 091900Z 12010G15KT 15SM FEW050 SCT110 SCT150 BKN230 21/10 A2989 RMK SC1AC3AC1CI2 ACC ASOCTD SLP130

2010/08/09 19:00
CYTQ 091900Z 02020G28KT 15SM OVC012 08/06 A2974 RMK SC8 SLP074

2010/08/09 19:00
CYTS 091900Z 26007KT 15SM SCT070 SCT130 BKN240 28/12 A2988 RMK AC3AC1CI1 SLP119

2010/08/09 19:00
CYTZ 091900Z AUTO 19004KT 6SM FEW034 OVC061 24/21 A2990 RMK SLP125 DENSITY ALT 1300FT LTNG DIST NE RVR MISG

2010/08/09 19:00
CYUA 091900Z AUTO 10009KT 9SM OVC007 OVC050 10/ A2974 RMK SLP074

2010/08/09 19:00
CYUB 091900Z 16002KT 15SM BKN010 BKN240 12/07 A2978 RMK SC5CI1 SLP086

2010/08/09 19:00
CYUS 091900Z AUTO ///// 9SM CLR 19/ A2993 RMK SLP138

2010/08/09 19:00
CYUT 091900Z 24005KT 210V270 45SM FEW200 16/05 A2994 RMK CS0 SLP140

2010/08/09 19:00
CYVC 091900Z 23005KT 15SM SCT020 24/17 A2978 RMK CU3 SLP086

2010/08/09 19:00
CYVM 091900Z 05006KT 1 1/2SM -DZ BR OVC001 03/03 A2994 RMK FG5ST3 SLP138

2010/08/09 19:00
CYVQ 091900Z 00000KT 30SM FEW040 BKN100 BKN250 18/11 A2975 RMK CU1AC5CI1 SLP076

2010/08/09 19:00
CYVT 091900Z 25003KT 210V290 15SM FEW020 SCT100 BKN240 23/16 A2978 RMK SC2AC2CI1 ACC ASOCTD SLP087

2010/08/09 19:00
CYVV 091900Z 23003KT 4SM BR FEW008 BKN040 OVC130 23/21 A2991 RMK SF2SC5AC1 SLP127

2010/08/09 19:00
CYWA 091900Z AUTO 10004KT 9SM CLR 25/18 A2991 RMK SLP130

2010/08/09 19:00
CYWH 091900Z 23005KT 15SM SCT015 BKN025 OVC060 15/11 A2998 RMK SC3SC2SC2 SLP153

2010/08/09 19:00
CYWJ 091900Z 31010KT 40SM FEW020 BKN080 BKN160 18/12 A2970 RMK CU1AC3AC0 SLP065

2010/08/09 19:00
CYXC 091900Z 14005KT 25SM FEW050TCU BKN076 BKN260 21/12 A2987 RMK TCU2AC5CI1 SH ALQDS SLP106

2010/08/09 19:00
CYXD 091900Z AUTO 11006KT 9SM CLR 23/11 A2980 RMK SLP089

2010/08/09 19:00
CYXE 091900Z 27002KT 15SM FEW040 25/14 A2985 RMK CU1 SLP110

2010/08/09 19:00
CYXH 091900Z 23005KT 30SM FEW064 BKN270 27/11 A2983 RMK CU1CI0 SLP096

2010/08/09 19:00
CYXJ 091900Z 24008KT 15SM SCT060 BKN220 19/06 A2978 RMK SC3CI1 SLP091

2010/08/09 19:00
CYXL 091900Z 00000KT 15SM FEW044 FEW230 27/16 A2991 RMK CU1CI0 SLP128

2010/08/09 19:00
CYXN 091900Z 09004KT 15SM BKN060 14/10 A3005 RMK SC7 SLP178

2010/08/09 19:00
CYXQ 091900Z 00000KT 30SM FEW075 SCT120 BKN210 16/10 A2969 RMK AC1AC2CI1 SLP065

2010/08/09 19:00
CYXR 091900Z AUTO 14003KT 9SM FEW036 SCT052 29/14 A2988 RMK SLP111

2010/08/09 19:00
CYXS 091900Z AUTO 19009KT 130V220 9SM FEW035 SCT044 OVC061 17/07 A2989 RMK SLP130 DENSITY ALT 3000FT

2010/08/09 19:00
WBGY 091900Z 10002KT 9999 SCT022 BKN150 24/22 Q1009

2010/08/09 19:00
WBKL 091900Z 16003KT 2000 +TSRA SCT008 FEW013CB SCT030 BKN130 23/22 Q1010

2010/08/09 19:00
WBKS 091900Z 20003KT 9999 FEW015 SCT140 BKN270 26/24 Q1009

2010/08/09 19:00
WBKT 091900Z 24001KT 9999 FEW016 BKN280 25/24 Q1008

2010/08/09 19:00
WBKW 091900Z 00000KT 9999 FEW017 BKN140 24/23 Q1010

2010/08/09 19:00
WMAU 091900Z 21006KT 9999 FEW008 SCT140 BKN270 25/24 Q//// QFF1008

2010/08/09 19:00
WMBA 091900Z 00000KT 8000 FEW005 SCT150 BKN280 25/25 Q1007

2010/08/09 19:00
WMKA 091900Z 08001KT 9999 FEW030 BKN260 26/25 Q1007

2010/08/09 19:00
WMKB 091900Z 09001KT 9000 FEW025 SCT140 BKN270 27/25 Q1007 NOSIG

2010/08/09 19:00
WMKC 091900Z 00000KT 9999 FEW017CB SCT020 BKN220 27/25 Q1007

2010/08/09 19:00
WMKD 091900Z 27001KT 9999 FEW025 SCT160 BKN280 26/24 Q1008 NOSIG

2010/08/09 19:00
WMKI 091900Z 03005KT 9999 FEW027 SCT140 BKN280 25/21 Q1008

2010/08/09 19:00
WMKL 091900Z 07001KT 9999 FEW028 SCT140 BKN270 27/26 Q1007

2010/08/09 19:00
WMKM 091900Z 04002KT 9999 FEW017CB SCT140 BKN270 26/25 Q1008

2010/08/09 19:00
WMKN 091900Z 20002KT 9999 SCT024 BKN220 26/26 Q1007

2010/08/09 19:00
YPKU 091900Z AUTO 15013KT 9999NDV // SCT120 22/M00 Q1014

2010/08/09 19:00
CYXT 091900Z 27002KT 20SM SCT030 BKN072 BKN100 17/11 A3000 RMK CU3AC2AC1 TCU SLP163

2010/08/09 19:00
CYXZ 091900Z 24008KT 210V270 15SM FEW028TCU SCT035 24/17 A2990 RMK TCU1SC3 SLP130

2010/08/09 19:00
CYYB 091900Z 00000KT 15SM FEW030 BKN220 27/15 A2995 RMK CU1CI2 TR CU SLP139

2010/08/09 19:00
CYYD 091900Z 35007G15KT 25SM SCT055 SCT230 19/05 A2993 RMK CU3CI0 SLP136

2010/08/09 19:00
CYYF 091900Z 35005KT 15SM FEW080 FEW180 BKN250 24/10 A2981 RMK CU2AC1CI2 SLP089

2010/08/09 19:00
CYYG 091900Z 20010KT 15SM -SHRA BKN082 OVC120 22/16 A2992 RMK AC6AC2 PCPN VRY LGT SLP132

2010/08/09 19:00
CYYH 091900Z 20010KT 15SM FEW150 SCT250 17/09 A2991 RMK AC1CI0 SLP130

2010/08/09 19:00
CYYL 091900Z AUTO 13010G17KT 9SM OVC037 18/09 A2985 RMK SLP115 DENSITY ALT 1800FT MAX WND 11020KT AT 1825Z

2010/08/09 19:00
CYYN 091900Z AUTO 24005KT 170V280 9SM CLR 24/13 A2987 RMK SLP111

2010/08/09 19:00
CYYU 091900Z 25002KT 15SM FEW055 BKN060 26/14 A2988 RMK CU2SC6 SLP121

2010/08/09 19:00
CYYY 091900Z 24013G18KT 15SM FEW045 BKN190 26/14 A2976 RMK CU2AC2 SLP078

2010/08/09 19:00
CYZE 091900Z AUTO 18009KT 9SM CLR 24/19 A2989 RMK DENSITY ALT 1800FT

2010/08/09 19:00
CYZG 091900Z 01003KT 15SM FEW026 FEW160 SCT240 15/07 A2984 RMK CF2AC1CS2 SLP118

2010/08/09 19:00
CYZH 091900Z AUTO 35004KT 320V030 9SM CLR 19/10 A2982 RMK SLP104

2010/08/09 19:00
CYZP 091900Z AUTO 26009KT 9SM -RA OVC061 15/13 A3003 RMK SLP169

2010/08/09 19:00
CYZR 091900Z AUTO 25005KT 9SM CLR 27/20 A2993 RMK SLP134 DENSITY ALT 2000FT

2010/08/09 19:00
CYZT 091900Z 33008KT 20SM FEW034 BKN053 BKN140 17/10 A3002 RMK SC1SC4AC1 SLP164

2010/08/09 19:00
CYZU 091900Z 06003KT 15SM FEW044 FEW120 SCT250 20/09 A2982 RMK CU1AC1CI0 SLP101

2010/08/09 19:00
CYZW 091900Z 13007KT 30SM FEW050 SCT140 SCT190 BKN250 15/06 A2987 RMK SC1AS2AC1CI2 SLP128

2010/08/09 19:00
CZCP 091900Z AUTO 06008KT 1/8SM CLR 06/ A2981 RMK SLP101

2010/08/09 19:00
CZFA 091900Z 00000KT 30SM FEW060 SCT120 BKN240 17/05 A2978 RMK SC1AC2CI1 SLP095

2010/08/09 19:00
CZFM 091900Z 15003KT 35SM BKN030 BKN100 15/09 A2975 RMK SC5AC0 SLP077

2010/08/09 19:00
CZFN 091900Z 23008KT 30SM FEW020 FEW040 BKN100 20/12 A2973 RMK SC1SC2AC3 SLP070

2010/08/09 19:00
CZPC 091900Z AUTO 22009KT 9SM CLR 23/10 A2987 RMK SLP099

2010/08/09 19:00
CZST 091900Z 00000KT 15SM FEW025 SCT045 BKN065 OVC120 16/11 A3000 RMK CF2SC2SC2AC2 SLP160

2010/08/09 19:00
CZUM 091900Z AUTO 27008KT 8SM -RA OVC016 OVC077 14/12 A2964 RMK SLP048

2010/08/09 19:00
EPLL 091900Z 20003KT CAVOK 18/16 Q1016

2010/08/09 19:00
FAMM 091900Z AUTO 17011KT //// // ////// 08/M13 Q1028

2010/08/09 19:00
FAPP 091900Z AUTO 19009KT //// // ////// 18/M02 Q1023

2010/08/09 19:00
FYML 091900Z AUTO 13003KT //// // ////// ///// Q1031

2010/08/09 19:00
FYOA 091900Z AUTO 10002KT //// // ////// 21/M03 Q1018

2010/08/09 19:00
FYOJ 091900Z AUTO 07005KT //// // ////// 20/M05 Q1021

2010/08/09 19:00
FYOW 091900Z AUTO 12006KT //// // ////// 20/M04 Q1024

2010/08/09 19:00
FYWW 091900Z AUTO 11005KT //// // ////// 12/M05 Q1028

2010/08/09 18:50
LIMP 091850Z VRB03KT CAVOK 26/18 Q1014 RMK VIS MIN 9999

2010/08/09 18:50
LIMZ 091850Z VRB03KT 9999 SCT080 23/18 Q1016 RMK VIS MIN 9999

2010/08/09 18:55
LIRM 091855Z 24007KT 9999 FEW040 27/25 Q1016 RMK FEW VIS MIN 9999 WIND THR06 22005KT BLU

2010/08/09 19:00
LKCV 091900Z 11001KT CAVOK 18/16 Q1017 NOSIG

2010/08/09 19:00
LKKB 091900Z 00000KT CAVOK 19/13 Q1016 NOSIG

2010/08/09 19:00
LKKV 091900Z 00000KT CAVOK 16/13 Q1018 RMK REG QNH 1014

2010/08/09 19:00
LKLN 091900Z AUTO 34001KT CAVOK 18/14 Q1017

2010/08/09 19:00
LKNA 091900Z 01005KT CAVOK 18/12 Q1018 NOSIG

2010/08/09 19:00
LKPD 091900Z 00000KT CAVOK 18/16 Q1017 NOSIG

2010/08/09 19:00
LKPO 091900Z 27002KT 9999 FEW043 18/14 Q1017 NOSIG

2010/08/09 19:00
SKCC 091900Z 36008KT 9999 SCT020 SCT200 32/22 A2989

2010/08/09 19:00
SLET 091900Z 17015G25KT 9999 NSC 26/08 Q1016

2010/08/09 19:00
TRPG 091900Z 09013KT 9999 BKN016 29/25 Q1014 RMK JP-NE SE SW

2010/08/09 19:00
UDYZ 091900Z 05005G11MPS 9999 SKC 29/10 Q1010 09010070 TEMPO 04014MPS

2010/08/09 19:00
WBGB 091900Z 10002KT 9999 FEW016 BKN300 26/24 Q1009

2010/08/09 19:00
WBGR 091900Z 32003KT 9999 SCT014 BKN150 27/25 Q1008

2010/08/09 19:00
WBGS 091900Z 14003KT 9999 FEW008 SCT018 BKN150 23/22 Q1010

2010/08/09 19:00
CYAZ 091900Z CCA 14005KT 5SM BR FEW003 BKN007 OVC015 13/12 A2997 RMK SF2SF2SC3 CIG AND VIS LWR E SLP151

2010/08/09 19:00
CYRL 091900Z CCA 19004KT 15SM FEW030 BKN240 26/19 A2990 RMK CU1CI2 SLP127

2010/08/09 19:00
UAFO 091900Z 13004MPS 9999 SCT050CB BKN100 24/17 Q1013 NOSIG RMK QFEM681

2010/08/09 19:00
GQPP 091900Z 33014KT CAVOK 24/19 Q1012 NOSIG

2010/08/09 19:00
UMGG 091900Z VRB02MPS 9999 TS SCT036CB BKN100 24/16 Q1014 R10/290350 NOSIG

2010/08/09 19:00
UMMS 091900Z 32003MPS 280V350 7000 FEW007 OVC080 19/18 Q1017 R31/290060 NOSIG

2010/08/09 19:00
UTAK 091900Z 00000MPS 6000 SKC 27/23 Q1009 NOSIG

2010/08/09 19:00
YSCB 091900Z 10010KT 6000 -RA FEW035 OVC070 08/07 Q1018 FM1910 09010KT 8000 -RA SCT030 BKN070 TEMPO 1900/2200 4000 RA BKN020

2010/08/09 18:50
LSMD 091850Z AUTO VRB01KT 9999NDV FEW065 21/14 Q1016 RMK BLU

2010/08/09 18:50
LIBC 091850Z VRB03KT CAVOK 26/16 Q1014 RMK VIS MIN 9999

2010/08/09 18:50
LIBD 091850Z VRB01KT CAVOK 24/17 Q1014 RMK VIS MIN 9999

2010/08/09 18:50
LIBP 091850Z 00000KT 9999 SCT080 24/18 Q1015 RMK VIS MIN 9999

2010/08/09 18:45
LIBR 091845Z 32013KT CAVOK 25/21 Q1014 NOSIG RMK SKC VIS MIN 9999 WIND THR13 WIND THR31 30008KT BLU

2010/08/09 18:55
LIBV 091855Z 02006KT CAVOK 24/16 Q1013 RMK SKC VIS MIN 9999 WIND THR14 01005KT BLU

2010/08/09 18:50
LICA 091850Z 27009KT 9999 SCT020 25/21 Q1015 RMK VIS MIN 9999

2010/08/09 18:50
LICC 091850Z VRB02KT CAVOK 27/20 Q1013 RMK VIS MIN 9999

2010/08/09 18:50
LICD 091850Z 35004KT CAVOK 26/22 Q1015 RMK VIS MIN 9999

2010/08/09 18:50
LICJ 091850Z 05008KT CAVOK 26/19 Q1016 RMK VIS MIN 9999

2010/08/09 18:50
LICR 091850Z 01011KT 9999 FEW030 25/18 Q1015 RMK VIS MIN 9999

2010/08/09 18:55
LICT 091855Z 35005KT CAVOK 27/23 Q1016 RMK FEW FEW080 VIS MIN 9999 WIND THR13 33008KT BLU

2010/08/09 18:55
LICZ 091855Z 16006KT CAVOK 25/23 Q1013 RMK SKC VIS MIN 9999 WIND THR28 /////KT BLU

2010/08/09 19:00
OIII 091900Z 06004KT CAVOK 30/03 Q1014 A2994 879.0

2010/08/09 19:04
KEUG 091904Z 01007KT 10SM OVC015 16/12 A3001

2010/08/09 18:50
MASA 091850Z 00000KT CAVOK 26/20 Q1009

2010/08/09 18:50
OIYY 091850Z 24004KT CAVOK 28/M01 Q1014 A2996

2010/08/09 19:04
KEUG 091904Z 01007KT 10SM OVC015 16/12 A3001

2010/08/09 19:00
DAAG 091900Z 34005KT 300V020 CAVOK 25/21 Q1015

2010/08/09 19:00
DABC 091900Z 08006KT CAVOK 29/08 Q1018

2010/08/09 19:00
DABS 091900Z 00000KT CAVOK 28/12 Q1020

2010/08/09 19:00
DAON 091900Z 36006KT CAVOK 27/20 Q1014

2010/08/09 19:00
DAOO 091900Z 36008KT CAVOK 25/22 Q1014

2010/08/09 19:00
DAUH 091900Z 06010KT CAVOK 38/12 Q1011

2010/08/09 19:00
DAUZ 091900Z 10006KT 9999 FEW040 34/04 Q1014

2010/08/09 19:00
DAAE 091900Z 09007KT CAVOK 26/24 Q1013

2010/08/09 19:00
DAAJ 091900Z 04013KT CAVOK 34/03 Q1015

2010/08/09 19:00
DAAP 091900Z 04011KT CAVOK 36/12 Q1013

2010/08/09 19:00
DAAS 091900Z 08005KT CAVOK 29/09 Q1020

2010/08/09 19:00
DAAV 091900Z 00000KT CAVOK 27/22 Q1012

2010/08/09 19:00
DAOB 091900Z 32006KT 9999 FEW026 32/11 Q1019

2010/08/09 19:00
DAOI 091900Z 34011KT CAVOK 35/12 Q1011

2010/08/09 19:00
DAOR 091900Z 11012KT 8000 SCT033 36/07 Q1017

2010/08/09 19:00
DAOV 091900Z 35010KT CAVOK 32/20 Q1016

2010/08/09 19:00
DAUA 091900Z 02016KT CAVPK 42/// Q1009

2010/08/09 19:00
DAUE 091900Z 04004KT CAVOK 39/11 Q1014

2010/08/09 19:00
DAUG 091900Z 09006KT CAVOK 36/14 Q1015

2010/08/09 19:00
DAUI 091900Z 08015KT CAVOK 40/05 Q1010

2010/08/09 19:00
DAUO 091900Z /////KT CAVOK 35/15 Q1012

2010/08/09 19:00
DAUT 091900Z 04008KT 9000 NSC 42/// Q1010

2010/08/09 19:00
SAME 091900Z 14005KT CAVOK 16/M04 Q1020

2010/08/09 19:00
SBRP 091900Z 21004KT CAVOK 3209 Q1016

2010/08/09 19:00
SEMT 091900Z 20008KT 9999 OVC016 25/20 Q1012

2010/08/09 19:00
SKBG 091900Z 28005KT 9000 -DZ SCT010 BKN080 21/20 A3000 RERA

2010/08/09 19:00
SKBQ 091900Z 14004KT 9000 TS FEW012CB SCT080 31/27 A2984 TS/CB/N

2010/08/09 19:00
SKCG 091900Z 25006KT 9999 VCSH SCT015CB SCT200 31/25 A2984 RMK VCSH/E/CB/E/S

2010/08/09 19:00
SKCL 091900Z 03006KT 9999 FEW023 30/18 A2993

2010/08/09 19:00
SKLT 091900Z 23003KT 6000 SCT020 32/24 A2993 RMK/HZ APCLO

2010/08/09 19:00
SKRG 091900Z 04012KT 9999 SCT020TCU SCT200 22/13 A3028

2010/08/09 19:00
SKSP 091900Z 08008KT 9999 FEW015 BKN080 28/25 A2985 RERA

2010/08/09 19:00
SLCA 091900Z 18005KT 9999 SKC 22/06 Q1019

2010/08/09 19:00
SLCO 091900Z 23005KT 6000 FEW025 33/20 Q1013

2010/08/09 19:00
SLCP 091900Z 19006KT 6000 SKC 28/12 Q1017

2010/08/09 19:00
SLET 091900Z 17015G25KT 9999 NSC 26/08 Q1016

2010/08/09 19:00
SLJE 091900Z 00000KT 9999 SKC 30/15 Q1018

2010/08/09 19:00
SLJO 091900Z 14006KT 5000 FU SKC 33/16 Q1015

2010/08/09 19:00
SLMG 091900Z 16006KT 7000 SKC 33/14 Q1016

2010/08/09 19:00
SLOR 091900Z 00000KT 9999 SKC 18/M12 Q1035

2010/08/09 19:00
SLPO 091900Z 04008KT 9999 SKC 18/M04 Q1036

2010/08/09 19:00
SLPS 091900Z 18005KT 7000 SKC 31/12 Q1015

2010/08/09 19:00
SLRB 091900Z 00000KT 7000 SKC 27/18 Q1017

2010/08/09 19:00
SLRI 091900Z 18006KT 5000 FU FEW020 35/18 Q1012

2010/08/09 19:00
SLRQ 091900Z 00000KT 8000 FEW020 30/21 Q1015

2010/08/09 19:00
SLRY 091900Z 16008KT 5000 FU SKC 31/18 Q1015

2010/08/09 19:00
SLSA 091900Z 15006KT 7000 SKC 32/16 Q1013

2010/08/09 19:00
SLSI 091900Z 21008KT 9999 SKC 30/14 Q1016

2010/08/09 19:00
SLSU 091900Z 01012KT 9999 SKC 20/06 Q1027

2010/08/09 19:00
SLVM 091900Z 00000KT 9999 SKC 23/15 Q1016

2010/08/09 19:00
SLYA 091900Z 35006KT 9999 SKC 22/11 Q1022

2010/08/09 19:00
TNCC 091900Z 09013KT 9999 SCT021 31/26 Q1010 NOSIG

2010/08/09 19:00
TNCB 091900Z 11013KT 9999 FEW020 32/24 Q1011 NOSIG

2010/08/09 19:00
TNCA 091900Z 13010KT 9999 FEW027 31/26 Q1009 NOSIG

2010/08/09 19:00
TNCE 091900Z AUTO 06008KT 9999 SCT021 30/25 Q1014

2010/08/09 19:03
K0F2 091903Z AUTO 14005KT 10SM SCT047 SCT055 SCT065 34/22 A2993 RMK AO2 T03380218

2010/08/09 19:03
K11R 091903Z AUTO 17005KT 10SM CLR 35/22 A2994 RMK AO2

2010/08/09 19:05
K3T5 091905Z AUTO 18006KT 10SM CLR 34/23 A2993 RMK AO2 T03420227

2010/08/09 19:02
KAPY 091902Z AUTO 12005KT 7SM SCT049 36/21 A2988 RMK AO2 T03560205

2010/08/09 19:05
KAQO 091905Z AUTO 13006KT CLR 37/18 A2997 RMK AO2 PWINO

2010/08/09 19:04
KARM 091904Z AUTO 08003KT 10SM SCT045 SCT060 SCT070 37/23 A2994 RMK AO2 T03730226

2010/08/09 19:07
KASW 091907Z AUTO 19003KT 7SM SCT110 29/22 A2996 RMK AO2 T02900220

2010/08/09 19:04
KBBD 091904Z AUTO 13009KT 10SM CLR 35/18 A2997 RMK

2010/08/09 19:05
KERV 091905Z AUTO 16012G16KT 10SM CLR 33/18 A2999 RMK AO2 T03330177

2010/08/09 19:02
KF05 091902Z AUTO 24011KT 10SM CLR 39/15 A2990 RMK AO2 T03890147

2010/08/09 19:02
KGDJ 091902Z AUTO 18005KT 10SM SCT060 SCT090 36/20 A2993 RMK AO2 T03640203

2010/08/09 19:03
KGLE 091903Z AUTO 19012G15KT 10SM SCT065 SCT090 37/19 A2993 RMK AO2

2010/08/09 19:05
KGNC 091905Z AUTO 23013G17KT 10SM SCT050 33/17 A3004 RMK AO2 T03330172

2010/08/09 19:04
KGVT 091904Z AUTO 15008G18KT 10SM SCT055 37/18 A2993 RMK AO2

2010/08/09 19:06
KHQZ 091906Z AUTO 14010KT 10SM SCT055 35/21 A2993 RMK AO2

2010/08/09 19:04
KJOT 091904Z AUTO 21003KT 10SM CLR 28/22 A2993 RMK AO2

2010/08/09 19:13
KMNZ 091913Z AUTO 15006KT 10SM CLR 36/18 A2995 RMK AO2

2010/08/09 19:05
KORG 091905Z AUTO 00000KT 10SM CLR 35/24 A2996 RMK AO2

2010/08/09 19:05
KOXI 091905Z AUTO 00000KT 7SM SCT110 30/23 A2994 RMK AO1 T03010225

2010/08/09 19:04
KPPQ 091904Z AUTO 00000KT 7SM CLR 33/26 A2992 RMK AO2

2010/08/09 19:07
KPSN 091907Z AUTO 18005KT 35/22 A2997 RMK AO2 PWINO

2010/08/09 19:05
KSFY 091905Z AUTO 23006KT 10SM CLR 29/23 A2992 RMK AO2

2010/08/09 19:06
PASN 091906Z 24011KT 5SM BR OVC003 09/09 A2925 RMK AO2

2010/08/09 18:50
EGXT 091850Z AUTO 22012KT 9999NDV FEW031/// BKN080/// 21/13 Q1011

2010/08/09 18:50
EGYD 091850Z AUTO 23016KT 9999NDV // FEW038/// BKN090/// 21/13 Q1010

2010/08/09 19:00
GGOV 091900Z 26010KT 9999 SCT015TCU FEW020CB 28/24 Q1011 4000 TSRA

2010/08/09 19:00
SAWG 091900Z 23039G53KT 9999 SCT030 08/04 Q1006

2010/08/09 19:00
SASJ 091900Z 05008KT CAVOK 18/02 Q1018

2010/08/09 19:00
SAWH 091900Z 25015KT 1500 SN OVC009 M01/M02 Q0997

2010/08/09 19:00
LKCV 091900Z 11001KT CAVOK 18/16 Q1017 NOSIG

2010/08/09 19:00
LKKB 091900Z 00000KT CAVOK 19/13 Q1016 NOSIG

2010/08/09 19:00
LKLN 091900Z AUTO 34001KT CAVOK 18/14 Q1017

2010/08/09 19:00
LKNA 091900Z 01005KT CAVOK 18/12 Q1018 NOSIG

2010/08/09 19:00
LKPD 091900Z 00000KT CAVOK 18/16 Q1017 NOSIG

2010/08/09 19:00
LKPO 091900Z 27002KT 9999 FEW043 18/14 Q1017 NOSIG

2010/08/09 18:50
EGPN 091850Z 24014KT 9999 FEW022 17/12 Q1005

2010/08/09 19:00
FYGB 091900Z AUTO 14002KT //// // ////// 10/M06 Q1029

2010/08/09 19:00
FYGF 091900Z AUTO 13006KT //// // ////// 17/M03 Q1025

2010/08/09 19:00
FYKT 091900Z AUTO 09009KT //// // ////// 11/M09 Q1031

2010/08/09 19:00
FYLZ 091900Z AUTO 18008KT //// // ////// 13/00 Q1023

2010/08/09 19:00
FYML 091900Z AUTO 13003KT //// // ////// ///// Q1031

2010/08/09 19:00
FYOA 091900Z AUTO 10002KT //// // ////// 21/M03 Q1018

2010/08/09 19:00
FYOJ 091900Z AUTO 07005KT //// // ////// 20/M05 Q1021

2010/08/09 19:00
FYOW 091900Z AUTO 12006KT //// // ////// 20/M04 Q1024

2010/08/09 19:00
FYWB 091900Z 07006KT 3400 VV/// 15/08 Q1015 

2010/08/09 19:00
FYWH 091900Z AUTO 13006KT //// // ////// 10/M05 Q1031

2010/08/09 19:00
FYWW 091900Z AUTO 11005KT //// // ////// 12/M05 Q1028

2010/08/09 19:00
LRAR 091900Z 34004KT CAVOK 20/18 Q1016

2010/08/09 19:00
LRBM 091900Z 00000KT CAVOK 18/16 Q1016

2010/08/09 19:00
LRCL 091900Z 27004KT 9999 FEW053 SCT075 20/17 Q1017

2010/08/09 19:00
LROD 091900Z 33004KT CAVOK 19/17 Q1017

2010/08/09 19:00
LRSM 091900Z AUTO 00000KT 9999 SCT230 20/19 Q1016

2010/08/09 19:00
LRTM 091900Z VRB02KT 9999 FEW040 22/19 Q1016

2010/08/09 19:00
MKJP 091900Z 14015KT 9999 FEW022 FEW024CB SCT240 31/22 Q1011

2010/08/09 19:00
LRBC 091900Z 35004KT CAVOK 22/20 Q1015

2010/08/09 19:00
LRCV 091900Z 26008KT CAVOK 24/17 Q1014

2010/08/09 19:00
LRIA 091900Z 28004KT CAVOK 22/20 Q1015

2010/08/09 19:00
LRSV 091900Z 16004KT 8000 -TSRA SCT040CB 20/19 Q1017

2010/08/09 19:00
LRTC 091900Z AUTO 34012KT 9999 BKN170 26/19 Q1011

2010/08/09 19:00
FABL 091900Z 21009KT CAVOK 04/M10 Q1029 NOSIG

2010/08/09 19:00
FACT 091900Z 15006KT 9999 BKN035 10/08 Q1035 NOSIG

2010/08/09 19:00
FAEL 091900Z 25024G37KT 9999 FEW048 SCT060 13/01 Q1027

2010/08/09 19:00
FAGG 091900Z AUTO 30011KT 9999 R29/M0050N R11/M0050N FEW024 SCT050 BKN063 09/07 Q1033

2010/08/09 19:00
FAJS 091900Z 21016KT CAVOK 06/M10 Q1028 NOSIG

2010/08/09 19:00
FAKN 091900Z AUTO 07007KT //// // ////// 15/14 Q1023

2010/08/09 19:00
FALA 091900Z 19012KT CAVOK 09/M11 Q1028 NOSIG

2010/08/09 19:00
FALE 091900Z 20003KT 170V250 CAVOK 12/09 Q1025 NOSIG

2010/08/09 19:00
FAMM 091900Z AUTO 17011KT //// // ////// 08/M13 Q1028

2010/08/09 19:00
FAPE 091900Z 25026G37KT 9999 -RA FEW009 SCT028 10/08 Q1028 TEMPO 5000 -SHRA

2010/08/09 19:00
FAPN 091900Z AUTO 20003KT //// // ////// 09/M09 Q1027

2010/08/09 19:00
FAPP 091900Z AUTO 19009KT //// // ////// 18/M02 Q1023

2010/08/09 19:00
FAUP 091900Z AUTO 21002KT //// // ////// 06/M09 Q1031

2010/08/09 19:00
SLLP 091900Z 13009KT 080V180 9999 SKC 15/M07 Q1036

2010/08/09 19:00
SLCB 091900Z 32004KT 9999 SKC 25/01 Q1023

2010/08/09 19:00
SLVR 091900Z 15008KT 8000 SKC 26/10 Q1016

2010/08/09 19:00
SLTJ 091900Z 13005KT 9999 SKC 19/07 Q1019

2010/08/09 19:00
SLTR 091900Z 22007KT 5000 FU SKC 29/16 Q1014

2010/08/09 19:00
SLCO 091900Z 23005KT 6000 FEW025 33/20 Q1013

2010/08/09 19:00
SLET 091900Z 17015G25KT 9999 NSC 26/08 Q1016

2010/08/09 19:00
SLSU 091900Z 01012KT 9999 SKC 20/06 Q1027

2010/08/09 19:00
SLPS 091900Z 18005KT 7000 SKC 31/12 Q1015

2010/08/09 19:00
SVBM 091900Z 07012KT 9999 SCT016CB 32/19 Q1014

2010/08/09 19:00
SVAC 091900Z 23010KT 9999 SCT020 29/21 Q1013

2010/08/09 19:00
SVVL 091900Z 00000KT 7000 +DZ OVC030 24/22 Q1020

2010/08/09 19:00
ZBAA 091900Z 02002MPS 1800 R01/1400N R36R/2000N R36L/P2000U BR NSC 25/23 Q1006 NOSIG

2010/08/09 19:00
ZBSJ 091900Z 02001MPS 1100 R33/1100N BR -RA OVC046 26/24 Q1006 NOSIG

2010/08/09 19:00
ZBTJ 091900Z 05001MPS 1700 BR NSC 26/25 Q1006 NOSIG

2010/08/09 19:00
ZBYN 091900Z 03001MPS 2000 RA BR OVC040 22/19 Q1009 NOSIG

2010/08/09 19:00
ZGGG 091900Z VRB01MPS 8000 SCT020 29/26 Q1005 NOSIG

2010/08/09 19:00
ZSHC 091900Z VRB02MPS CAVOK 28/25 Q1002

2010/08/09 19:00
ZSPD 091900Z 01005MPS 330V040 9999 BKN011 28/25 Q1002 NOSIG

2010/08/09 19:00
ZSSS 091900Z 03003MPS 360V060 9999 FEW018 28/25 Q1002 NOSIG

2010/08/09 19:00
ZWSH 091900Z AUTO VRB03MPS CAVOK 27/07 Q1010

2010/08/09 19:00
ZWWW 091900Z 19003MPS CAVOK 25/10 Q1007 NOSIG

2010/08/09 19:00
ZYTL 091900Z 11002MPS 050V140 6000 -RA FEW010 BKN040 24/23 Q1006 NOSIG

2010/08/09 19:00
ZYTX 091900Z VRB01MPS 7000 BKN030 21/20 Q1006 NOSIG

2010/08/09 19:00
LEBG 091900Z 06012KT 030V090 CAVOK 21/14 Q1020

2010/08/09 19:00
FCBB 091900Z 30003KT 8000 BKN023 23/19 Q1015 NOSIG

2010/08/09 19:00
FCPP 091900Z 18004KT 6000 SCT010 OVC023 22/20 Q1015 NOSIG

2010/08/09 19:00
FKKD 091900Z 28004KT 230V360 9999 TS BKN010 FEW013CB BKN100 25/24 Q1013 NOSIG

2010/08/09 19:00
FKYS 091900Z 23003KT 9999 BKN013 22/19 Q1017 NOSIG

2010/08/09 19:00
FKKR 091900Z 32008KT 9999 BKN020 SCT120 28/22 Q1011 NOSIG

2010/08/09 19:00
FEFF 091900Z 11002KT 4000 FU NSC 25/22 Q1012 TEMPO 2000

2010/08/09 19:00
FOOL 091900Z 17004KT 140V200 8000 SCT010 BKN033 25/23 Q1014 NOSIG

2010/08/09 19:00
FGSL 091900Z 26007KT 9999 SCT010 BKN100 24/24 Q1013 NOSIG

2010/08/09 19:00
FGBT 091900Z 18004KT 8000 BKN012 OVC120 25/23 Q1013 NOSIG

2010/08/09 19:00
FZAA 091900Z 25006KT 7000 FEW018 OVC100 23/18 Q1015 NOSIG

2010/08/09 19:00
FPST 091900Z 12006KT 9999 FEW020 BKN040 24/21 Q1013 NOSIG

2010/08/09 19:00
SARI 091900Z 18009KT CAVOK 21/13 Q1020

2010/08/09 19:00
SARP 091900Z 11007KT CAVOK 19/08 Q1020

2010/08/09 19:00
UAFM 091900Z 10004MPS 040V190 CAVOK 20/09 Q1009 NOSIG

2010/08/09 18:50
PFYU 091850Z 01008G13KT 340V040 10SM BKN050 BKN080 15/ A2956

2010/08/09 19:00
SVCL 091900Z /////KT 9999 OVC013 26/25 Q1013

2010/08/09 19:00
SVPA 091900Z 00000KT 9999 BKN030 25/22 Q1013

2010/08/09 19:00
SVVP 091900Z 22006KT 9999 CAVOK 26/23 Q1006

2010/08/09 19:00
FABL 091900Z 21009KT CAVOK 04/M10 Q1029 NOSIG

2010/08/09 19:00
FAJS 091900Z 21016KT CAVOK 06/M10 Q1028 NOSIG

2010/08/09 19:00
FLLS 091900Z 14003KT CAVOK 16/09 Q1023

2010/08/09 19:00
FQBR 091900Z /////KT CAVOK 22/21 Q1017

2010/08/09 19:00
FQMA 091900Z 20013KT 9999 BKN020 19/13 Q1021 NOSIG

2010/08/09 19:00
UDYZ 091900Z 05005G11MPS 9999 SKC 29/10 Q1010 09010070 TEMPO 04014MPS

2010/08/09 19:00
UDSG 091900Z 07007MPS 9999 FEW050 22/09 Q1017 02CLRD70 NOSIG

2010/08/09 19:00
UTAA 091900Z 21003MPS 9999 SKC 30/03 Q1009 NOSIG

2010/08/09 19:00
UTAM 091900Z 30005MPS 6300 SKC 29/05 Q1005 NOSIG

2010/08/09 19:00
UTAT 091900Z 33004MPS P5000 FEW200 26/16 Q1008 NOSIG

2010/08/09 18:55
KLGC 091855Z AUTO 07005KT 10SM FEW050 36/19 A2999

2010/08/09 19:00
KWDR 091900Z AUTO 00000KT 10SM CLR 33/20 A3006

2010/08/09 18:55
KLGC 091855Z AUTO 07005KT 10SM FEW050 36/19 A2999

2010/08/09 19:00
KOPN 091900Z AUTO 12007KT 10SM SCT060 35/23 A3002

2010/08/09 19:00
UHHH 091900Z 11003MPS 9999 -SHRA FEW005 BKN019CB OVC100 20/20 Q1006 NOSIG RMK QBB150 QFE748/0998 23290045

2010/08/09 19:00
UHMA 091900Z 03008MPS 9999 BKN040 OVC080 08/04 Q1002 NOSIG RMK QFE748/0997

2010/08/09 19:00
UHMM 091900Z 00000MPS 9999 SCT046 BKN066 04/04 Q1012 RMK QFE744 88010070

2010/08/09 19:00
UHNN 091900Z 08002MPS 9999 FEW010 OVC070 12/11 Q1015 RMK QFE756

2010/08/09 19:00
UHPP 091900Z 01003MPS 9999 FEW040 BKN/// 10/07 Q1013 NOSIG RMK QFE756/1008 MT OBSC SC070

2010/08/09 19:00
UHSS 091900Z 01002MPS 6000 SCT006 OVC017CB 17/17 Q1014 RMK MT OBSC QFE759/1012

2010/08/09 19:00
UHWW 091900Z 18003MPS 5000 -SHRA BKN010 OVC040CB 24/23 Q1009 NOSIG RMK QFE756/1008 75CLRD70

2010/08/09 19:00
UIAA 091900Z VRB01MPS 9999 SKC 07/07 Q1007 NOSIG RMK QFE697 29190060

2010/08/09 19:00
UIBB 091900Z 00000MPS 5000 FEW040CB SCT100 13/13 Q1003 NOSIG RMK QFE710/0946 30190055

2010/08/09 19:00
UIII 091900Z 10002MPS CAVOK 07/06 Q1004 NOSIG RMK QFE711/0948 12CLRD60

2010/08/09 19:00
UIUU 091900Z 26003MPS 9999 SKC 08/05 Q1005 NOSIG RMK QFE710/0947

2010/08/09 19:00
UEEE 091900Z 00000MPS CAVOK 10/10 Q1009 NOSIG RMK QFE748 2309//60

2010/08/09 19:00
UELL 091900Z VRB01MPS 9999 FEW033 OVC200 13/11 Q1010 NOSIG RMK QFE683 08CLRD70

2010/08/09 19:00
UERP 091900Z 35001MPS 9999 OVC043 07/05 Q1003 NOSIG RMK QFE709 17190260

2010/08/09 19:00
UERR 091900Z VRB01MPS 9999 BKN019CB OVC040 11/11 Q1004 NOSIG RMK QFE721 24290350

2010/08/09 19:00
UESO 091900Z 11005MPS CAVOK 01/01 Q1012 NOSIG RMK QFE757

2010/08/09 19:00
UEST 091900Z 18002MPS CAVOK 10/08 Q1006 NOSIG RMK QFE754

2010/08/09 19:00
UOII 091900Z 33005MPS P4000 SCT200 08/06 Q1008 NOSIG RMK QFE753 30////60

2010/08/09 19:00
UOOO 091900Z 34004G05MPS 9999 BKN008 07/06 Q1008 TEMPO 0500 FG VV002 RMK QFE742 010///60

2010/08/09 19:00
USCM 091900Z VRB02MPS 5000 HZ SCT200 17/10 Q1021 NOSIG 01090065 RMK QFE727

2010/08/09 19:00
USPP 091900Z 13001MPS CAVOK 18/13 Q1019 NOSIG 21090060 RMK QFE753/1005

2010/08/09 19:00
UWKD 091900Z 31002MPS CAVOK 28/11 Q1020 NOSIG RMK QFE755/1007 11CLRD70

2010/08/09 19:00
UWKE 091900Z 24002MPS CAVOK 25/11 Q1020 NOSIG RMK QFE748/0997 04090070

2010/08/09 19:00
UWKS 091900Z 00000MPS 1200 R06/1500D FU BKN003 27/14 Q1020 TEMPO 0800 FU VV003 RMK QFE750 SC0.60

2010/08/09 19:00
UWLL 091900Z 34002MPS CAVOK 25/13 Q1020 NOSIG RMK QFE752/1003 SC065

2010/08/09 19:00
UWLW 091900Z 05001MPS P5000 SKC 24/16 Q1020 NOSIG 02CLRD60 RMK QFE758

2010/08/09 19:00
UWOR 091900Z 07004MPS CAVOK 22/05 Q1020 07CLRD65 NOSIG RMK QFE739/0986

2010/08/09 19:00
UWOO 091900Z 04002MPS 4400 HZ SCT220 23/11 Q1017 08CLRD65 NOSIG RMK QFE752/1003

2010/08/09 19:00
UWPP 091900Z 00000MPS CAVOK 23/17 Q1018 NOSIG RMK QFE748 11090060

2010/08/09 19:00
UWSS 091900Z 09004MPS CAVOK 29/07 Q1018 NOSIG RMK QFE751 120///60

2010/08/09 19:00
UWWW 091900Z 04004MPS CAVOK 25/04 Q1020 NOSIG RMK QFE752/1002 05CLRD60 15//99//

2010/08/09 19:00
ULAA 091900Z 00000MPS 2300 FU NSC 24/21 Q1009 TEMPO 0700 FG RMK QFE755/1007 SC070

2010/08/09 19:00
ULMM 091900Z 02005MPS 5000 -SHRA OVC006CB 09/08 Q1011 NOSIG RMK QFE751 32290250

2010/08/09 19:00
ULOO 091900Z 24001MPS P6000 FEW033 BKN070 OVC200 22/16 Q1014 NOSIG RMK QFE757

2010/08/09 19:00
UMKK 091900Z 00000MPS 7000 FEW040 BKN100 18/16 Q1015 R24/CLRD60 NOSIG RMK QFE760/1014

2010/08/09 19:00
UUOO 091900Z VRB02MPS 5000 HZ SKC 26/08 Q1015 NOSIG RMK 13090070

2010/08/09 19:00
UWGG 091900Z VRB02MPS 3000 FU BKN230 29/15 Q1019 NOSIG 18090070 RMK QFE757

2010/08/09 19:00
UNAA 091900Z 35003MPS CAVOK 13/11 Q1005 NOSIG RMK QFE732 200///65

2010/08/09 19:00
UNBB 091900Z 03002MPS CAVOK 12/09 Q1007 WS RWY06 NOSIG RMK QFE733

2010/08/09 19:00
UNEE 091900Z 30004MPS CAVOK 10/09 Q1007 NOSIG RMK QFE733 23CLRD60

2010/08/09 19:00
UNKL 091900Z 00000MPS 0900 R29/1200VP1500D PRFG FEW043 BKN240 09/08 Q1006 TEMPO 0300 FG RMK QFE729 29////60

2010/08/09 19:00
UNNT 091900Z VRB02MPS CAVOK 11/10 Q1009 NOSIG RMK QFE747/0996 07090070

2010/08/09 19:00
UNOO 091900Z 36005MPS CAVOK 12/09 Q1016 NOSIG 07CLRD06 RMK QFE753

2010/08/09 19:00
UNWW 091900Z 35003MPS 9999 SCT033 BKN130 12/11 Q1007 NOSIG RMK QFE728 19CLRD70

2010/08/09 19:00
USTR 091900Z 12002MPS CAVOK 12/07 Q1021 NOSIG RMK QFE756/1008 21CLRD65 30CLRD65

2010/08/09 19:00
USHH 091900Z 25003MPS CAVOK 12/07 Q1019 NOSIG RMK QFE760 SC06

2010/08/09 19:00
UUYH 091900Z 20002MPS CAVOK 20/18 Q1013 RMK QFE 748

2010/08/09 19:00
UUYY 091900Z 20003MPS 6000 OVC066 24/20 Q1015 NOSIG 19CLRD61 RMK QFE753/1004

2010/08/09 19:00
UWUU 091900Z VRB01MPS CAVOK 21/08 Q1019 82010060 NOSIG RMK QFE753/1004

2010/08/09 19:00
USCC 091900Z 00000MPS 2800 HZ SCT070 BKN200 14/07 Q1021 NOSIG RMK QFE745 09000070

2010/08/09 19:00
USDD 091900Z 19002MPS 9999 -RA OVC110 11/09 Q1015 NOSIG RMK QFE757/1009

2010/08/09 19:00
USMU 091900Z 31003MPS CAVOK 08/06 Q1014 NOSIG RMK QFE755 27CLRD60

2010/08/09 19:00
USNN 091900Z 33003MPS P6000 OVC066 12/09 Q1015 NOSIG RMK QFE757 SC065

2010/08/09 19:00
USRR 091900Z 30002MPS 7000 BKN050 12/08 Q1017 NOSIG RMK QFE758 25////60

2010/08/09 19:00
USSS 091900Z 09003MPS 4300 FU SCT037 BKN200 12/09 Q1021 NOSIG RMK QFE745 260///70

2010/08/09 19:00
ULLI 091900Z 25001MPS CAVOK 22/18 Q1014 NOSIG

2010/08/09 19:00
UUDD 091900Z 14003MPS 0700 R14R/P1500N R14L/P1500U FU VV005 26/14 Q1017 TEMPO 0500

2010/08/09 19:00
UUEE 091900Z 10003MPS 1300 R25R/P1500N FU SCT012 29/11 Q1016 TEMPO 1000 FU

2010/08/09 19:00
UUWW 091900Z 12003MPS 0800 R24/P1500N HZ VV006 28/12 Q1016 24000070 TEMPO 0600 HZ RMK QBB180

2010/08/09 19:00
URKA 091900Z 06006MPS CAVOK 27/17 Q1007 NOSIG RMK  065

2010/08/09 19:00
URKK 091900Z 04003MPS CAVOK 27/10 Q1007 NOSIG RMK QFE752 SC070

2010/08/09 19:00
URML 091900Z 20002MPS 9999 SKC 27/25 Q1010 NOSIG RMK QFE757 / 07

2010/08/09 19:00
URMM 091900Z 11003MPS 9999 SKC 25/11 Q1010 NOSIG RMK / SC070

2010/08/09 19:00
URMN 091900Z 27002MPS 9999 SCT110 23/16 Q1011 NOSIG RMK / QFE721 SC07

2010/08/09 19:00
URMT 091900Z 10006MPS CAVOK 28/07 Q1011 NOSIG RMK QFE719 SC07

2010/08/09 19:00
URRR 091900Z 06004MPS CAVOK 29/09 Q1010 NOSIG RMK SC070

2010/08/09 19:00
URSS 091900Z 08001MPS 9999 SKC 27/19 Q1006 NOSIG RMK / QFE753 06CLRD70

2010/08/09 19:00
URWA 091900Z 00000MPS CAVOK 26/15 Q1011 NOSIG RMK SC07

2010/08/09 19:00
URWW 091900Z 07004MPS CAVOK 31/08 Q1014 NOSIG RMK SC070

2010/08/09 19:00
PADG 091900Z 09008G16KT 20SM FEW040 SCT090 15/09 A2950 RMK VIA FAX

2010/08/09 19:05
KCLM 091905Z AUTO 30005KT 10SM FEW025 SCT060 15/11 A3000

2010/08/09 19:00
YBAS 091900Z AUTO 26009KT 9999NDV // NCD 05/M01 Q1018

2010/08/09 19:00
YBBN 091900Z 35005KT 9999 VCSH FEW025 SCT040 BKN080 17/15 Q1020 INTER 1900/2200 4000 SHRA BKN012

2010/08/09 19:00
YBCS 091900Z 12005KT 9999 VCSH FEW005 BKN017 22/21 Q1014 FM1900 12008KT 9999 -SHRA SCT018 BKN040 TEMPO 1900/2200 3000 SHRA BKN014

2010/08/09 19:00
YBTL 091900Z AUTO 07007KT 9000NDV // SCT044 BKN085 22/21 Q1014

2010/08/09 19:00
YMML 091900Z 35005KT CAVOK 05/04 Q1016 NOSIG

2010/08/09 19:00
YPAD 091900Z 00000KT CAVOK 08/06 Q1012 NOSIG

2010/08/09 19:00
YPCC 091900Z AUTO 13007KT 9999NDV // NCD 25/21 Q1010

2010/08/09 19:00
YPDN 091900Z 00000KT CAVOK 20/17 Q1011

2010/08/09 19:00
YPKU 091900Z AUTO 15013KT 9999NDV // SCT120 22/M00 Q1014

2010/08/09 19:00
YPLM 091900Z AUTO 23004KT 9999NDV // NCD 12/08 Q1017

2010/08/09 19:00
YPPH 091900Z 02007KT CAVOK 08/00 Q1022 NOSIG

2010/08/09 19:00
YPTN 091900Z AUTO 11003KT 9999NDV // NCD 17/05 Q1013

2010/08/09 19:00
YPXM 091900Z AUTO 08007KT 9999NDV // BKN013 BKN020 BKN029 24/21 Q////

2010/08/09 19:00
YSSY 091900Z 35006KT 9999 FEW014 BKN090 BKN170 11/09 Q1018 FM2000 02010KT 8000 -RA FEW010 SCT025 BKN100 TEMPO 2100/2200 4000 RA BKN010

2010/08/09 19:00
LEGE 091900Z 24003KT 170V300 6000 TSRA SCT010 FEW028CB BKN034 21/20 Q1017

2010/08/09 19:05
KCLM 091905Z AUTO 30005KT 10SM FEW025 SCT060 15/11 A3000

2010/08/09 19:00
GABS 091900Z 23004KT 9999 FEW025 FEW030CB 26/24 Q1013 TEMPO TS

2010/08/09 19:00
GGOV 091900Z 26010KT 9999 SCT015TCU FEW020CB 28/24 Q1011 4000 TSRA

2010/08/09 19:00
GOOY 091900Z 29004KT 250V320 9999 SCT013 28/22 Q1011 NOSIG

2010/08/09 19:00
DIAP 091900Z 25005KT 7000 FEW011 BKN080 25/22 Q1013 NOSIG

2010/08/09 19:00
GQNN 091900Z 27009KT CAVOK 28/21 Q1010 NOSIG

2010/08/09 19:00
GQPP 091900Z 33014KT CAVOK 24/19 Q1012 NOSIG

2010/08/09 19:00
GVAC 091900Z 06009KT 9999 SCT013 27/19 Q1012 NOSIG

2010/08/09 19:00
GBYD 091900Z 27007KT 9999 SCT011 SCT120 28/24 Q1012

2010/08/09 19:00
GLRB 091900Z 00000KT 9999 BKN014 FEW025CB 25/24 Q1013 CB-S

2010/08/09 18:55
ETIH 091855Z AUTO 27003KT 9999 CLR 16/16 A3007 RMK AO2 SLP174 T01580158 $

2010/08/09 19:00
LFBA 091900Z AUTO 31002KT 9999NDV OVC048 22/15 Q1018

2010/08/09 19:00
LFBE 091900Z AUTO 25003KT 210V290 9999NDV OVC040 22/16 Q1018

2010/08/09 19:00
LFBY 091900Z AUTO 28003KT 9999 // ////// 21/15 Q1019

2010/08/09 19:00
LFGJ 091900Z AUTO 10004KT 9999NDV NSC 23/14 Q1015

2010/08/09 19:00
LFJL 091900Z AUTO 30002KT 9999NDV NSC 22/09 Q1016

2010/08/09 19:00
LFLN 091900Z AUTO 01003KT 9999NDV NSC 24/15 Q1016

2010/08/09 19:00
LFMD 091900Z AUTO VRB02KT 9999NDV OVC039 24/20 Q1015

2010/08/09 19:00
LFMH 091900Z AUTO 31007KT 290V350 9999NDV NSC 25/14 Q1016

2010/08/09 19:00
LFMT 091900Z 27007KT 9999 FEW050CB BKN110 26/17 Q1014 BECMG SHRA

2010/08/09 19:00
LFOT 091900Z 27005KT CAVOK 26/10 Q1015 NOSIG

2010/08/09 19:00
LFPB 091900Z AUTO VRB02KT 9999NDV NSC 24/12 Q1014

2010/08/09 19:00
LFPM 091900Z AUTO 11001KT 9999NDV NSC 23/12 Q1015

2010/08/09 19:00
LFPN 091900Z AUTO VRB02KT 9999NDV NSC 24/10 Q1015

2010/08/09 19:00
LFRC 091900Z AUTO 22009KT 9999NDV NSC 18/13 Q1016

2010/08/09 19:00
LFRH 091900Z 27009KT 9999 SCT027 BKN034 17/15 Q1018

2010/08/09 19:00
LFRJ 091900Z AUTO 22010KT 9999NDV OVC004/// 17/17 Q1017

2010/08/09 19:00
LFRK 091900Z AUTO 36002KT 9999NDV ///////// 19/12 Q1016

2010/08/09 19:00
LFRL 091900Z 23007KT 180V260 9999 FEW002 BKN003 BKN006 17/17 Q1017 REDZ

2010/08/09 19:00
LFRQ 091900Z AUTO 25004KT 210V280 9999NDV OVC005 17/16 Q1018

2010/08/09 19:00
LFRT 091900Z AUTO VRB02KT 9999NDV SCT031 BKN037 OVC044 18/14 Q1017

2010/08/09 19:00
LFSN 091900Z VRB03KT CAVOK 20/13 Q1016 NOSIG

2010/08/09 19:00
LFTW 091900Z AUTO 20004KT 170V230 9999NDV //////CB 24/17 Q1015

2010/08/09 19:00
BIKF 091900Z 31008KT 9999 BKN008 11/08 Q1014

2010/08/09 19:00
UAAA 091900Z 17003MPS 9999 SCT050CB BKN100 22/08 Q1009 88CLRD65 NOSIG

2010/08/09 19:00
UACC 091900Z 02005MPS CAVOK 13/06 Q1014 040/0070 NOSIG RMK QFE729/0972

2010/08/09 19:00
UAFM 091900Z 10004MPS 040V190 CAVOK 20/09 Q1009 NOSIG

2010/08/09 19:00
UATE 091900Z 10004MPS CAVOK 29/07 Q1010 120///70 NOSIG RMK QFE755/1007

2010/08/09 19:00
UATT 091900Z 07005MPS CAVOK 25/03 Q1017 31CLRD70 NOSIG RMK QFE743/0990

2010/08/09 19:00
UKKK 091900Z 00000MPS 9999 SCT030CB BKN050 24/18 Q1015 08CLRD70 TEMPO 2100 -TSRAGR SCT005 BKN020CB

2010/08/09 19:00
UMGG 091900Z VRB02MPS 9999 TS SCT036CB BKN100 24/16 Q1014 R10/290350 NOSIG

2010/08/09 19:00
UMMS 091900Z 32003MPS 280V350 7000 FEW007 OVC080 19/18 Q1017 R31/290060 NOSIG

2010/08/09 19:00
UTAA 091900Z 21003MPS 9999 SKC 30/03 Q1009 NOSIG

2010/08/09 19:00
UTDD 091900Z 10002MPS 9999 FEW200 23/11 Q1006 09CLRD70 NOSIG RMK QFE687/0916

2010/08/09 19:00
VTBD 091900Z 17003KT 9999 FEW020 SCT120 BKN300 25/24 Q1004 NOSIG

2010/08/09 19:00
GABS 091900Z 23004KT 9999 FEW025 FEW030CB 26/24 Q1013 TEMPO TS

2010/08/09 19:00
GGOV 091900Z 26010KT 9999 SCT015TCU FEW020CB 28/24 Q1011 4000 TSRA

2010/08/09 19:00
GOOY 091900Z 29004KT 250V320 9999 SCT013 28/22 Q1011 NOSIG

2010/08/09 19:00
DIAP 091900Z 25005KT 7000 FEW011 BKN080 25/22 Q1013 NOSIG

2010/08/09 19:00
GQNN 091900Z 27009KT CAVOK 28/21 Q1010 NOSIG

2010/08/09 19:00
GQPP 091900Z 33014KT CAVOK 24/19 Q1012 NOSIG

2010/08/09 19:00
GVAC 091900Z 06009KT 9999 SCT013 27/19 Q1012 NOSIG

2010/08/09 19:00
GBYD 091900Z 27007KT 9999 SCT011 SCT120 28/24 Q1012

2010/08/09 19:00
GLRB 091900Z 00000KT 9999 BKN014 FEW025CB 25/24 Q1013 CB-S

2010/08/09 19:09
YMAV 091909Z AUTO 30003KT 7000NDV // NCD 04/04 Q1017

2010/08/09 19:09
YMAV 091909Z AUTO 30003KT 7000NDV // NCD 04/04 Q1017

2010/08/09 19:07
CWZZ 091907Z AUTO ///// 0SM BKN001 06/ A2961

2010/08/09 19:00
RJTT 091900Z 17007KT 9999 FEW010 SCT015 BKN090 26/23 Q1015 RMK 1ST010 4CU015 6AC090 A2997

2010/08/09 19:04
CWLY 091904Z AUTO 34013G21KT 1 3/8SM FEW012 FEW017 BKN023 OVC057 14/13 A2990

2010/08/09 19:04
CWSA 091904Z AUTO 12015KT 9SM FEW029 FEW044 SCT051 BKN073 20/17 A3003

2010/08/09 19:04
CYKF 091904Z AUTO 25009KT 200V260 5SM -RA BKN021 24/21 A2996 RMK SLP143 DENSITY ALT 2200FT LTNG DIST SW

2010/08/09 19:05
CYKF 091905Z AUTO 25011KT 200V260 5SM RA TS BKN021 24/21 A2997 RMK SLP143 DENSITY ALT 2200FT LTNG DIST SW

2010/08/09 19:05
CYSC 091905Z AUTO 00000KT 9SM SCT031 BKN043 OVC061 22/20 A2991 RMK DENSITY ALT 1800FT

2010/08/09 19:06
LEGE 091906Z 24003KT 170V300 6000 TSRA SCT010 FEW028CB BKN034 21/20 Q1017

2010/08/09 19:05
MHSC 091905Z AUTO VRB06KT 9999 -DZ FEW075 SCT160 SCT190 SCT210 31/21 A2993 RMK AO2 DZB1905 SLP093 $

2010/08/09 19:02
PASY 091902Z 31005KT 3SM BR BKN001 OVC025 10/09 A2984 RMK AO2 PNO $ REQ ANCMTRASY

2010/08/09 19:04
RKJK 091904Z AUTO 09005KT 9999 CLR 26/26 A2977 RMK AO2 RAE1859DZB1859E1904 CIG 046 RWY36 SLP083 $

2010/08/09 19:00
YBCS 091900Z 12005KT 9999 VCSH FEW005 BKN017 22/21 Q1014 FM1900 12008KT 9999 -SHRA SCT018 BKN040 TEMPO 1900/2200 3000 SHRA BKN014

2010/08/09 19:00
YPXM 091900Z AUTO 08007KT 9999NDV // BKN013 BKN020 BKN029 24/21 Q////

2010/08/09 19:00
YSCB 091900Z 10010KT 6000 -RA FEW035 OVC070 08/07 Q1018 FM1910 09010KT 8000 -RA SCT030 BKN070 TEMPO 1900/2200 4000 RA BKN020

2010/08/09 19:02
YSDU 091902Z AUTO 07010KT 4900NDV // SCT010 BKN017 OVC074 11/11 Q1015

2010/08/09 18:55
KQAY 091855Z AUTO 20004KT 9999 CLR 37/16 A2948 RMK AO2 SLP978 T03660158 $

2010/08/09 18:55
KQDP 091855Z AUTO RMK AO2 SLPNO $

2010/08/09 18:55
KQHT 091855Z 07004KT 9999 FEW150 18/10 A2983 RMK AO2A SLP066

2010/08/09 18:55
KQL5 091855Z 18003KT 9999 FEW055 SCT130 29/23 A2962 RMK AO2A SLP994 WND DATA ESTMD ALSTG/SLP ESTMD

2010/08/09 18:55
KQQR 091855Z AUTO 00000KT 9999 FEW040 SCT070 26/21 A2985 RMK AO2 SLP035 T02610206 $

2010/08/09 18:55
KQQS 091855Z AUTO 35003KT 9999 BKN120 19/15 A3010 RMK AO2 SLP076 P0005 T01900150

2010/08/09 18:55
KQSB 091855Z AUTO 20007G15KT 4200 HZ 31/10 A2977 RMK AO2 SLP978 T03080096 $

2010/08/09 18:55
KQXR 091855Z AUTO 32005KT 9999 38/M07 A2946 RMK AO2 SLP974 T03821075 $

2010/08/09 18:55
KQYU 091855Z AUTO 06010G19KT 9999 CLR 28/M02 A2989 RMK AO2 SLP039 T02761019

2010/08/09 19:00
FBSK 091900Z 09008KT CAVOK 13/07 Q1026 NOSIG

2010/08/09 19:00
FBFT 091900Z 26003KT CAVOK 20/09 Q1022

2010/08/09 19:00
FBMN 091900Z 19006KT CAVOK 20/02 Q1022

2010/08/09 19:00
UELL 091900Z VRB01MPS 9999 FEW033 OVC200 13/11 Q1010 NOSIG RMK QFE683 08CLRD70

2010/08/09 19:00
UHHH 091900Z 11003MPS 9999 -SHRA FEW005 BKN019CB OVC100 20/20 Q1006 NOSIG RMK QBB150 QFE748/0998 23290045

2010/08/09 19:00
UHMA 091900Z 03008MPS 9999 BKN040 OVC080 08/04 Q1002 NOSIG RMK QFE748/0997

2010/08/09 19:00
UHMM 091900Z 00000MPS 9999 SCT046 BKN066 04/04 Q1012 RMK QFE744 88010070

2010/08/09 19:00
UHNN 091900Z 08002MPS 9999 FEW010 OVC070 12/11 Q1015 RMK QFE756

2010/08/09 19:00
UHPP 091900Z 01003MPS 9999 FEW040 BKN/// 10/07 Q1013 NOSIG RMK QFE756/1008 MT OBSC SC070

2010/08/09 19:00
UHSS 091900Z 01002MPS 6000 SCT006 OVC017CB 17/17 Q1014 RMK MT OBSC QFE759/1012

2010/08/09 19:00
UHWW 091900Z 18003MPS 5000 -SHRA BKN010 OVC040CB 24/23 Q1009 NOSIG RMK QFE756/1008 75CLRD70

2010/08/09 19:00
UIAA 091900Z VRB01MPS 9999 SKC 07/07 Q1007 NOSIG RMK QFE697 29190060

2010/08/09 19:00
UIBB 091900Z 00000MPS 5000 FEW040CB SCT100 13/13 Q1003 NOSIG RMK QFE710/0946 30190055

2010/08/09 19:00
UIII 091900Z 10002MPS CAVOK 07/06 Q1004 NOSIG RMK QFE711/0948 12CLRD60

2010/08/09 19:00
UIUU 091900Z 26003MPS 9999 SKC 08/05 Q1005 NOSIG RMK QFE710/0947

2010/08/09 19:00
UMKK 091900Z 00000MPS 7000 FEW040 BKN100 18/16 Q1015 R24/60D NOSIG RMK QFE760/1014

2010/08/09 19:00
UUEE 091900Z 10003MPS 1300 R25R/P1500N FU SCT012 29/11 Q1016 TEMPO 1000 FU

2010/08/09 19:00
UWGG 091900Z VRB02MPS 3000 FU BKN230 29/15 Q1019 NOSIG 18090070 RMK QFE757

2010/08/09 19:00
UWKD 091900Z 31002MPS CAVOK 28/11 Q1020 NOSIG RMK QFE755/1007 11CLRD70

