2010/08/09 20:59
MYEG 092059Z AUTO 09005KT 7SM VCTSRA SCT021 BKN042 OVC085 25/22 A2997 RMK AO2 P0001 

2010/08/09 20:59
MYEG 092059Z AUTO 09005KT 7SM VCTSRA SCT021 BKN042 OVC085 25/22 A2997 RMK AO2 P0001

2010/08/09 20:45
KBAX 092045Z AUTO 23007KT 10SM SCT020 SCT110 25/21 A2992 RMK AO2

2010/08/09 20:45
KBAX 092045Z AUTO 23007KT 10SM SCT020 SCT110 25/21 A2992 RMK AO2

2010/08/09 20:45
KBAX 092045Z AUTO 23007KT 10SM SCT020 SCT110 25/21 A2992 RMK AO2

2010/08/09 20:45
KBAX 092045Z AUTO 23007KT 10SM SCT020 SCT110 25/21 A2992 RMK AO2

2010/08/09 20:55
KFDW 092055Z AUTO 10007KT 10SM CLR 35/17 A3000 RMK AO1

2010/08/09 20:55
KFDW 092055Z AUTO 10007KT 10SM CLR 35/17 A3000 RMK AO1

2010/08/09 20:50
ETNG 092050Z 16003KT CAVOK 16/12 Q1016

2010/08/09 20:45
KCZK 092045Z 24015G22KT 10SM FEW040 BKN025 20/12 RMK SLP161 NO SPECI CLD HGT AND VIS VISUALLY ESTMD 

2010/08/09 20:45
KGTR 092045Z 15008KT 10SM SCT050 36/23 A2991

2010/08/09 20:45
KMTN 092045Z 14011KT 10SM FEW060 32/23 A2998

2010/08/09 20:55
KCCA 092055Z AUTO 00000KT 9SM CLR 36/25 A2990 RMK AO2 LTG DSNT E

2010/08/09 20:45
KFHR 092045Z AUTO 13004KT 5SM -RA BR SCT003 BKN017 BKN021 13/12 A2998 RMK AO2 P0004

2010/08/09 20:45
KIAG 092045Z 28012G17KT 6SM -TSRA FEW025 BKN045CB BKN065 OVC130 25/20 A2994 RMK AO2 TSB45RAB12 OCNL LTGCCCG 4NW TS 4NW MOV E P0000

2010/08/09 20:45
KCZK 092045Z 24015G22KT 10SM FEW040 BKN025 20/12

2010/08/09 20:45
KCZK 092045Z 24015G22KT 10SM FEW040 BKN025 20/12

2010/08/09 20:46
CWOB 092046Z AUTO ///// 0SM CLR 04/ A2972

2010/08/09 20:47
CYZR 092047Z AUTO 30005KT 9SM -RA FEW041 SCT061 SCT078 BKN089 26/21 A2994 RMK SLP137 DENSITY ALT 1900FT

2010/08/09 20:45
PAOM 092045Z 14013KT 10SM -RA BKN007 BKN013 OVC019 11/09 A2934 RMK AO2 RAB04DZB05E06 P0003

2010/08/09 20:47
PAWR 092047Z 07009G19KT 2SM -RA BR OVC007 13/12 A2980 RMK SLP091 NOSPECI

2010/08/09 20:45
KCZK 092045Z 24015G22KT 10SM FEW040 BKN025 20/12 RMK SLP161 NO SPECI CLD HGT AND VIS VISUALLY ESTMD

2010/08/09 20:45
CWWA 092045Z AUTO 17001KT 17/15 RMK AO1 T01690153

2010/08/09 20:45
KIAG 092045Z 28012G17KT 6SM -TSRA FEW025 BKN045CB BKN065 OVC130 25/20 A2994 RMK AO2 TSB45RAB12 OCNL LTGCCCG 4NW TS 4NW MOV E P0000

2010/08/09 20:45
KCZK 092045Z 24015G22KT 10SM FEW040 BKN025 20/12 RMK SLP161 NO SPECI CLD HGT AND VIS VISUALLY ESTMD

2010/08/09 20:45
KFHR 092045Z AUTO 13004KT 5SM -RA BR SCT003 BKN017 BKN021 13/12 A2998 RMK AO2 P0004

2010/08/09 20:45
PAOM 092045Z 14013KT 10SM -RA BKN007 BKN013 OVC019 11/09 A2934 RMK AO2 RAB04DZB05E06 P0003

2010/08/09 20:45
KGTR 092045Z 15008KT 10SM SCT050 36/23 A2991

2010/08/09 20:45
KMTN 092045Z 14011KT 10SM FEW060 32/23 A2998

2010/08/09 20:55
KCCA 092055Z AUTO 00000KT 9SM CLR 36/25 A2990 RMK AO2 LTG DSNT E

2010/08/09 20:47
PAWR 092047Z 07009G19KT 2SM -RA BR OVC007 13/12 A2980 RMK SLP091 NOSPECI

2010/08/09 20:45
KIAG 092045Z 28012G17KT 6SM -TSRA FEW025 BKN045CB BKN065 OVC130 25/20 A2994

2010/08/09 20:46
PASY 092046Z 26005KT 10SM FEW001 OVC005 09/09 A2986 RMK AO2 PNO $ 

2010/08/09 20:46
CYAZ 092046Z 17006KT 4SM BR SCT003 BKN008 OVC011 RMK SF3SF3SC2

2010/08/09 20:45
KIAG 092045Z 28012G17KT 6SM -TSRA FEW025 BKN045CB BKN065 OVC130 25/20 A2994

2010/08/09 20:45
KMTN 092045Z 14011KT 10SM FEW060 32/23 A2998

2010/08/09 20:46
CWLY 092046Z AUTO 02005KT 6SM BKN014 14/13 A2995

2010/08/09 20:45
CYEV 092045Z 19003KT 15SM FEW019 SCT050 RMK SC2SC1

2010/08/09 20:47
KNBT 092047Z AUTO 21008KT 1 1/2SM RA FEW015 28/24 A3001 RMK AO2 RAB33 P0003 TSNO 

2010/08/09 20:48
CYZP 092048Z AUTO 26010KT 9SM OVC047 15/14 A3003 RMK SLP169

2010/08/09 20:45
K1H2 092045Z AUTO 17004KT 10SM SCT042 35/25 A2991 RMK AO2 T03530249

2010/08/09 20:45
K3LF 092045Z AUTO 18004KT 10SM CLR 33/25 A2991 RMK AO2

2010/08/09 20:45
K3T5 092045Z AUTO 17006KT 10SM CLR 35/22 A2990 RMK AO2 T03530220

2010/08/09 20:45
KAJG 092045Z AUTO 00000KT 10SM CLR 34/23 A2992 RMK AO2 T03410229

2010/08/09 20:45
KAQO 092045Z AUTO 00000KT FEW070 38/18 A2993 RMK AO2 PWINO

2010/08/09 20:47
KASW 092047Z AUTO 21005KT 7SM SCT046 SCT100 30/23 A2995 RMK AO2 T02980230

2010/08/09 20:45
KBBD 092045Z AUTO 12007KT 10SM CLR 36/17 A2994 RMK

2010/08/09 20:45
KBKS 092045Z AUTO 07012KT 10SM SCT055 SCT065 BKN085 36/25 A2985 RMK AO1 T03600252

2010/08/09 20:45
KCGF 092045Z 26008KT 6SM HZ FEW060 BKN080 OVC150 30/18 A2997 RMK BINOVC

2010/08/09 20:45
KERV 092045Z AUTO 20005KT 10SM CLR 35/17 A2995 RMK AO2 T03520166

2010/08/09 20:45
KGNC 092045Z AUTO 23008KT 10SM CLR 30/19 A3001 RMK AO2 T03040191

2010/08/09 20:45
KGWB 092045Z AUTO 00000KT 7SM -RA SCT047 BKN095 29/21 A2995 RMK AO2

2010/08/09 20:45
KGYB 092045Z AUTO 19007KT 10SM CLR 36/19 A2995 RMK AO2 T03570193

2010/08/09 20:45
KHHF 092045Z AUTO 18013G20KT 10SM CLR 38/15 A2988 RMK AO2 T03800153

2010/08/09 20:46
KHQZ 092046Z AUTO 14008KT 10SM SCT060 37/20 A2989 RMK AO2

2010/08/09 20:53
KMNZ 092053Z AUTO 16008KT 10SM SCT070 38/16 A2992 RMK AO2

2010/08/09 20:46
KORG 092046Z AUTO 18003KT 10SM CLR 35/24 A2992 RMK AO2

2010/08/09 20:45
KOXI 092045Z AUTO 23003KT 10SM SCT100 31/22 A2992 RMK AO1 T03090216

2010/08/09 20:47
KPSN 092047Z AUTO 17006KT 36/21 A2993 RMK AO2 PWINO

2010/08/09 20:45
KSFY 092045Z AUTO 00000KT 10SM BKN080 31/23 A2991 RMK AO2

2010/08/09 20:45
KMER 092045Z 26005KT 10SM SKC 32/13 A2986

2010/08/09 20:45
KOLV 092045Z 00000KT 10SM SCT050 BKN130 BKN250 29/23 A2996

2010/08/09 20:45
KPNT 092045Z AUTO 00000KT 10SM CLR 36/19 A2992 RMK AO2

2010/08/09 20:45
KPRG 092045Z AUTO 18004KT 10SM BKN044 BKN050 32/25 A2993 RMK AO2 T03230250

2010/08/09 20:46
KRCR 092046Z AUTO 23005KT 7SM SCT027 SCT033 32/24 A2995 RMK AO2

2010/08/09 20:45
KRPJ 092045Z AUTO 21005KT 10SM CLR 29/24 A2994 RMK AO2 T02930238

2010/08/09 20:45
KRSV 092045Z AUTO 18005KT 10SM CLR 35/23 A2993 RMK AO2 T03470234

2010/08/09 20:47
KSUA 092047Z 10012G20KT 10SM SCT030 31/23 A2990

2010/08/09 20:45
KUES 092045Z 32007KT 10SM SCT034 SCT039 28/20 A2993

2010/08/09 20:45
KAXH 092045Z AUTO 00000KT 10SM SCT045 SCT060 35/24 A2991 RMK AO2 T03470236

2010/08/09 20:46
KBPC 092046Z AUTO 17010G15KT 10SM CLR 36/15 A2990 RMK AO2

2010/08/09 20:45
KBYY 092045Z AUTO 17010KT 10SM SCT034 SCT040 35/26 A2992 RMK AO2 T03450262

2010/08/09 20:45
KC75 092045Z AUTO 05004KT 10SM CLR 31/23 A2992 RMK AO2 T03080232

2010/08/09 20:46
KLGU 092046Z AUTO 13011G23KT 10SM BKN090 25/06 A3002 RMK AO2 WSHFT 2028 LTG DSNT NE AND E TSB22E46

2010/08/09 20:45
KCPT 092045Z AUTO 17009KT 10SM CLR 36/21 A2992 RMK AO2

2010/08/09 20:45
KCUL 092045Z AUTO 00000KT 10SM CLR 35/21 A2990 RMK AO2 T03470211 PWINO

2010/08/09 20:45
KCVB 092045Z AUTO 15007G15KT 10SM SCT060 36/18 A2991 RMK AO2 T03590184

2010/08/09 20:45
KCWC 092045Z AUTO 17012KT 10SM SCT075 37/18 A2987 RMK AO2 T03740181

2010/08/09 20:45
KDKB 092045Z AUTO 28003KT 10SM CLR 30/22 A2993 RMK AO2 T02980224

2010/08/09 20:45
KDKR 092045Z AUTO 32003KT 10SM CLR 36/36 A2994 RMK AO2

2010/08/09 20:47
KDUX 092047Z AUTO 15008KT 10SM CLR 34/14 A2997 RMK AO2 T03390138

2010/08/09 20:45
KDZB 092045Z AUTO 00000KT 7SM CLR 36/16 A2991 RMK AO2 T03580162

2010/08/09 20:50
KEBG 092050Z AUTO 14007KT 10SM SCT050 SCT085 38/23 A2984 RMK AO2 T03760227

2010/08/09 20:45
KECU 092045Z AUTO 15012G17KT 10SM CLR 34/18 A3002 RMK AO2

2010/08/09 20:45
KENL 092045Z AUTO 13005KT 10SM CLR 33/25 A2991 RMK AO2 T03270250

2010/08/09 20:45
KFEP 092045Z AUTO 32006KT 10SM CLR 30/23 A2994 RMK AO2 T03030230

2010/08/09 20:45
KFOA 092045Z AUTO 15007KT 10SM CLR 37/26 A2991 RMK AO2 T03720264

2010/08/09 20:45
KFWC 092045Z AUTO 03003KT 10SM CLR 34/26 A2990 RMK AO2

2010/08/09 20:45
KGBG 092045Z AUTO 14004KT 10SM CLR 31/24 A2991 RMK AO2

2010/08/09 20:45
KGOP 092045Z AUTO 18007KT 10SM CLR 36/20 A2993 RMK AO2

2010/08/09 20:45
KGVT 092045Z AUTO 13011G16KT 10SM CLR 38/18 A2990 RMK AO2

2010/08/09 20:45
KIGQ 092045Z AUTO 25008KT 10SM CLR 31/20 A2992 RMK AO2

2010/08/09 20:45
KIJX 092045Z AUTO 20003KT 10SM CLR 34/26 A2990 RMK AO2 T03420257

2010/08/09 20:45
KINJ 092045Z AUTO 14009KT 10SM SCT060 SCT075 36/21 A2990 RMK AO2 60003 T03630207

2010/08/09 20:45
KJAS 092045Z AUTO 20003KT 10SM SCT065 36/21 A2994 RMK AO2 T03580214

2010/08/09 20:45
KJDD 092045Z AUTO 18005KT 10SM CLR 36/21 A2992 RMK AO2

2010/08/09 20:45
KJSO 092045Z AUTO 00000KT 10SM CLR 35/20 A2995 RMK AO2 T03460203

2010/08/09 20:45
KJXI 092045Z AUTO 14005KT 10SM CLR 36/23 A2993 RMK AO2

2010/08/09 20:45
KLNC 092045Z AUTO 17006KT 10SM SCT060 36/21 A2989 RMK AO2 T03640210

2010/08/09 20:45
KLUD 092045Z AUTO 18005G14KT 10SM CLR 36/18 A2990 RMK AO2 T03630178

2010/08/09 21:00
SBFN 092100Z 13012KT 9999 SCT017 26/23 Q1014

2010/08/09 20:45
PAOM 092045Z 14013KT 10SM -RA BKN007 BKN013 OVC019 11/09 A2934

2010/08/09 20:47
KCQT 092047Z AUTO VRB04KT 10SM CLR 24/13 A2992 RMK AO2 SLP129 T02390133 56001 TSNO $ 

2010/08/09 20:45
PAOM 092045Z 14013KT 10SM -RA BKN007 BKN013 OVC019 11/09 A2934

2010/08/09 20:48
CYUS 092048Z AUTO ///// 9SM CLR 19/ A2993

2010/08/09 20:48
CYPQ 092048Z AUTO ///// 1 3/4SM -RA BKN001 BKN015 BKN021 OVC029 23/23 A2991

2010/08/09 20:48
KJDN 092048Z AUTO VRB04KT 32/06 A2983 RMK AO2 SLP082 T03220061 58017 PWINO TSNO 

2010/08/09 20:48
KMCB 092048Z AUTO 26004KT 3SM -TSRA BR OVC028 25/23 A2996 RMK AO2 LTG DSNT ALQDS PRESFR P0026

2010/08/09 20:48
KHHR 092048Z 25011KT 2 1/2SM HZ CLR 21/13 A2994 RMK AO2 $

2010/08/09 20:48
KPIE 092048Z 29007KT 10SM BKN028 28/24 A2989 RMK AO2 LTG DSNT W AND NW TSB19E42

2010/08/09 20:46
PAMB 092046Z AUTO 20014KT 10SM FEW008 BKN013 OVC027 11/11 A2950 RMK AO2 PWINO TSNO $

2010/08/09 20:47
KCIC 092047Z 18008KT 40SM FEW070 A2985

2010/08/09 20:46
KFWS 092046Z 18008KT 20SM SCT065 37/19 A2990

2010/08/09 20:47
KGYR 092047Z VRB05KT 20SM SCT120 SCT150 41/08 A2983

2010/08/09 20:45
KIKK 092045Z AUTO 00000KT 10SM CLR 35/20 A2992 RMK AO2

2010/08/09 20:45
KJVL 092045Z 30004KT 10SM SCT028 31/22 A2990

2010/08/09 20:45
KLOT 092045Z AUTO 25003KT 10SM SCT095 29/22 A2992 RMK AO2 6//// T02940224 PNO TSNO

2010/08/09 20:50
KLZU 092050Z 04004KT 10SM SKC 35/21 A3001

2010/08/09 20:47
KM30 092047Z AUTO 18006KT 10SM CLR 35/24 A2989 RMK AO2

2010/08/09 20:45
KMDD 092045Z AUTO 15010KT 10SM SCT070 35/16 A2994 RMK AO2 T03460163

2010/08/09 20:45
KMWC 092045Z 29006KT 10SM SCT034 BKN040 28/19 A2991

2010/08/09 20:45
KPEQ 092045Z AUTO 08003KT 10SM CLR 35/16 A2992 RMK AO2 LTG DSNT SE THRU SW T03510159

2010/08/09 20:45
KPEZ 092045Z AUTO 16010KT 10SM SCT060 37/17 A2990 RMK AO2 T03680166

2010/08/09 20:48
KPKV 092048Z AUTO 10012G16KT 10SM CLR 33/24 A2991 RMK AO2 T03300239

2010/08/09 20:45
KRAS 092045Z AUTO 11010KT 10SM CLR 33/26 A2992 RMK AO2

2010/08/09 20:45
KRBO 092045Z AUTO 12012G16KT 10SM SCT043 SCT049 SCT060 36/24 A2988 RMK AO2 6//// T03550236

2010/08/09 20:45
KRPH 092045Z AUTO 00000KT 10SM CLR 36/20 A2988 RMK AO2 T03560203

2010/08/09 20:45
KRYW 092045Z AUTO 11006G15KT 080V140 10SM CLR 35/17 A2995 RMK AO2

2010/08/09 20:45
KSAR 092045Z AUTO 00000KT 10SM CLR 36/23 A2989 RMK AO2

2010/08/09 20:45
KSLO 092045Z AUTO 16004KT 10SM SCT046 35/23 A2991 RMK AO2 T03500227

2010/08/09 20:46
KSNK 092046Z AUTO 14011G16KT 10SM SCT070 SCT080 35/17 A2993 RMK AO2 T03540167

2010/08/09 20:45
KSWW 092045Z AUTO 13012G17KT 10SM SCT070 SCT080 SCT110 37/16 A2995 RMK AO1 T03660161

2010/08/09 20:45
KT65 092045Z AUTO 20006KT 10SM BKN080 35/24 A2984 RMK AO2 T03460236

2010/08/09 20:47
KCQT 092047Z AUTO VRB04KT 10SM CLR 24/13 A2992 RMK AO2 SLP129 T02390133 56001 TSNO $

2010/08/09 20:48
KJDN 092048Z AUTO VRB04KT 32/06 A2983 RMK AO2 SLP082 T03220061 58017 PWINO TSNO

2010/08/09 20:47
KNBT 092047Z AUTO 21008KT 1 1/2SM RA FEW015 28/24 A3001 RMK AO2 RAB33 P0003 TSNO

2010/08/09 20:46
KLGU 092046Z AUTO 13011G23KT 10SM BKN090 25/06 A3002 RMK AO2 WSHFT 2028 LTG DSNT NE AND E TSB22E46

2010/08/09 20:48
KMCB 092048Z AUTO 26004KT 3SM -TSRA BR OVC028 25/23 A2996 RMK AO2 LTG DSNT ALQDS PRESFR P0026

2010/08/09 20:48
KHHR 092048Z 25011KT 2 1/2SM HZ CLR 21/13 A2994 RMK AO2 $

2010/08/09 20:48
KPIE 092048Z 29007KT 10SM BKN028 28/24 A2989 RMK AO2 LTG DSNT W AND NW TSB19E42

2010/08/09 20:46
PAMB 092046Z AUTO 20014KT 10SM FEW008 BKN013 OVC027 11/11 A2950 RMK AO2 PWINO TSNO $

2010/08/09 20:45
K1H2 092045Z AUTO 17004KT 10SM SCT042 35/25 A2991 RMK AO2 T03530249

2010/08/09 20:45
K3LF 092045Z AUTO 18004KT 10SM CLR 33/25 A2991 RMK AO2

2010/08/09 20:45
K3T5 092045Z AUTO 17006KT 10SM CLR 35/22 A2990 RMK AO2 T03530220

2010/08/09 20:45
KAJG 092045Z AUTO 00000KT 10SM CLR 34/23 A2992 RMK AO2 T03410229

2010/08/09 20:45
KAQO 092045Z AUTO 00000KT FEW070 38/18 A2993 RMK AO2 PWINO

2010/08/09 20:47
KASW 092047Z AUTO 21005KT 7SM SCT046 SCT100 30/23 A2995 RMK AO2 T02980230

2010/08/09 20:45
KBBD 092045Z AUTO 12007KT 10SM CLR 36/17 A2994 RMK

2010/08/09 20:45
KBKS 092045Z AUTO 07012KT 10SM SCT055 SCT065 BKN085 36/25 A2985 RMK AO1 T03600252

2010/08/09 20:45
KCGF 092045Z 26008KT 6SM HZ FEW060 BKN080 OVC150 30/18 A2997 RMK BINOVC

2010/08/09 20:45
KERV 092045Z AUTO 20005KT 10SM CLR 35/17 A2995 RMK AO2 T03520166

2010/08/09 20:45
KGNC 092045Z AUTO 23008KT 10SM CLR 30/19 A3001 RMK AO2 T03040191

2010/08/09 20:45
KGWB 092045Z AUTO 00000KT 7SM -RA SCT047 BKN095 29/21 A2995 RMK AO2

2010/08/09 20:45
KGYB 092045Z AUTO 19007KT 10SM CLR 36/19 A2995 RMK AO2 T03570193

2010/08/09 20:45
KHHF 092045Z AUTO 18013G20KT 10SM CLR 38/15 A2988 RMK AO2 T03800153

2010/08/09 20:46
KHQZ 092046Z AUTO 14008KT 10SM SCT060 37/20 A2989 RMK AO2

2010/08/09 20:53
KMNZ 092053Z AUTO 16008KT 10SM SCT070 38/16 A2992 RMK AO2

2010/08/09 20:46
KORG 092046Z AUTO 18003KT 10SM CLR 35/24 A2992 RMK AO2

2010/08/09 20:45
KOXI 092045Z AUTO 23003KT 10SM SCT100 31/22 A2992 RMK AO1 T03090216

2010/08/09 20:45
KMER 092045Z 26005KT 10SM SKC 32/13 A2986

2010/08/09 20:45
KOLV 092045Z 00000KT 10SM SCT050 BKN130 BKN250 29/23 A2996

2010/08/09 20:45
KPNT 092045Z AUTO 00000KT 10SM CLR 36/19 A2992 RMK AO2

2010/08/09 20:45
KPRG 092045Z AUTO 18004KT 10SM BKN044 BKN050 32/25 A2993 RMK AO2 T03230250

2010/08/09 20:46
KRCR 092046Z AUTO 23005KT 7SM SCT027 SCT033 32/24 A2995 RMK AO2

2010/08/09 20:45
KRPJ 092045Z AUTO 21005KT 10SM CLR 29/24 A2994 RMK AO2 T02930238

2010/08/09 20:45
KRSV 092045Z AUTO 18005KT 10SM CLR 35/23 A2993 RMK AO2 T03470234

2010/08/09 20:47
KSUA 092047Z 10012G20KT 10SM SCT030 31/23 A2990

2010/08/09 20:45
KUES 092045Z 32007KT 10SM SCT034 SCT039 28/20 A2993

2010/08/09 20:45
KAXH 092045Z AUTO 00000KT 10SM SCT045 SCT060 35/24 A2991 RMK AO2 T03470236

2010/08/09 20:46
KBPC 092046Z AUTO 17010G15KT 10SM CLR 36/15 A2990 RMK AO2

2010/08/09 20:45
KBYY 092045Z AUTO 17010KT 10SM SCT034 SCT040 35/26 A2992 RMK AO2 T03450262

2010/08/09 20:45
KC75 092045Z AUTO 05004KT 10SM CLR 31/23 A2992 RMK AO2 T03080232

2010/08/09 20:45
KCPT 092045Z AUTO 17009KT 10SM CLR 36/21 A2992 RMK AO2

2010/08/09 20:45
KCVB 092045Z AUTO 15007G15KT 10SM SCT060 36/18 A2991 RMK AO2 T03590184

2010/08/09 20:45
KCWC 092045Z AUTO 17012KT 10SM SCT075 37/18 A2987 RMK AO2 T03740181

2010/08/09 20:45
KDKB 092045Z AUTO 28003KT 10SM CLR 30/22 A2993 RMK AO2 T02980224

2010/08/09 20:45
KDKR 092045Z AUTO 32003KT 10SM CLR 36/36 A2994 RMK AO2

2010/08/09 20:47
KDUX 092047Z AUTO 15008KT 10SM CLR 34/14 A2997 RMK AO2 T03390138

2010/08/09 20:45
KDZB 092045Z AUTO 00000KT 7SM CLR 36/16 A2991 RMK AO2 T03580162

2010/08/09 20:50
KEBG 092050Z AUTO 14007KT 10SM SCT050 SCT085 38/23 A2984 RMK AO2 T03760227

2010/08/09 20:45
KECU 092045Z AUTO 15012G17KT 10SM CLR 34/18 A3002 RMK AO2

2010/08/09 20:45
KENL 092045Z AUTO 13005KT 10SM CLR 33/25 A2991 RMK AO2 T03270250

2010/08/09 20:45
KFEP 092045Z AUTO 32006KT 10SM CLR 30/23 A2994 RMK AO2 T03030230

2010/08/09 20:45
KFOA 092045Z AUTO 15007KT 10SM CLR 37/26 A2991 RMK AO2 T03720264

2010/08/09 20:45
KFWC 092045Z AUTO 03003KT 10SM CLR 34/26 A2990 RMK AO2

2010/08/09 20:45
KGBG 092045Z AUTO 14004KT 10SM CLR 31/24 A2991 RMK AO2

2010/08/09 20:45
KGOP 092045Z AUTO 18007KT 10SM CLR 36/20 A2993 RMK AO2

2010/08/09 20:45
KGVT 092045Z AUTO 13011G16KT 10SM CLR 38/18 A2990 RMK AO2

2010/08/09 20:45
KIGQ 092045Z AUTO 25008KT 10SM CLR 31/20 A2992 RMK AO2

2010/08/09 20:45
KIJX 092045Z AUTO 20003KT 10SM CLR 34/26 A2990 RMK AO2 T03420257

2010/08/09 20:45
KINJ 092045Z AUTO 14009KT 10SM SCT060 SCT075 36/21 A2990 RMK AO2 60003 T03630207

2010/08/09 20:45
KJAS 092045Z AUTO 20003KT 10SM SCT065 36/21 A2994 RMK AO2 T03580214

2010/08/09 20:45
KJDD 092045Z AUTO 18005KT 10SM CLR 36/21 A2992 RMK AO2

2010/08/09 20:47
KNBT 092047Z AUTO 21008KT 1 1/2SM RA FEW015 28/24 A3001 RMK AO2 RAB33 P0003 TSNO

2010/08/09 20:45
KJSO 092045Z AUTO 00000KT 10SM CLR 35/20 A2995 RMK AO2 T03460203

2010/08/09 20:45
KJXI 092045Z AUTO 14005KT 10SM CLR 36/23 A2993 RMK AO2

2010/08/09 20:45
KLNC 092045Z AUTO 17006KT 10SM SCT060 36/21 A2989 RMK AO2 T03640210

2010/08/09 20:45
KLUD 092045Z AUTO 18005G14KT 10SM CLR 36/18 A2990 RMK AO2 T03630178

2010/08/09 20:47
KCIC 092047Z 18008KT 40SM FEW070 A2985

2010/08/09 20:46
KFWS 092046Z 18008KT 20SM SCT065 37/19 A2990

2010/08/09 20:47
KGYR 092047Z VRB05KT 20SM SCT120 SCT150 41/08 A2983

2010/08/09 20:45
KIKK 092045Z AUTO 00000KT 10SM CLR 35/20 A2992 RMK AO2

2010/08/09 20:45
KJVL 092045Z 30004KT 10SM SCT028 31/22 A2990

2010/08/09 20:45
KLOT 092045Z AUTO 25003KT 10SM SCT095 29/22 A2992 RMK AO2 6//// T02940224 PNO TSNO

2010/08/09 20:50
KLZU 092050Z 04004KT 10SM SKC 35/21 A3001

2010/08/09 20:47
KM30 092047Z AUTO 18006KT 10SM CLR 35/24 A2989 RMK AO2

2010/08/09 20:45
KMDD 092045Z AUTO 15010KT 10SM SCT070 35/16 A2994 RMK AO2 T03460163

2010/08/09 20:45
KMWC 092045Z 29006KT 10SM SCT034 BKN040 28/19 A2991

2010/08/09 20:45
KPEQ 092045Z AUTO 08003KT 10SM CLR 35/16 A2992 RMK AO2 LTG DSNT SE THRU SW T03510159

2010/08/09 20:45
KPEZ 092045Z AUTO 16010KT 10SM SCT060 37/17 A2990 RMK AO2 T03680166

2010/08/09 20:48
KPKV 092048Z AUTO 10012G16KT 10SM CLR 33/24 A2991 RMK AO2 T03300239

2010/08/09 20:45
KRAS 092045Z AUTO 11010KT 10SM CLR 33/26 A2992 RMK AO2

2010/08/09 20:45
KRBO 092045Z AUTO 12012G16KT 10SM SCT043 SCT049 SCT060 36/24 A2988 RMK AO2 6//// T03550236

2010/08/09 20:45
KRPH 092045Z AUTO 00000KT 10SM CLR 36/20 A2988 RMK AO2 T03560203

2010/08/09 20:45
KRYW 092045Z AUTO 11006G15KT 080V140 10SM CLR 35/17 A2995 RMK AO2

2010/08/09 20:45
KSAR 092045Z AUTO 00000KT 10SM CLR 36/23 A2989 RMK AO2

2010/08/09 20:45
KSLO 092045Z AUTO 16004KT 10SM SCT046 35/23 A2991 RMK AO2 T03500227

2010/08/09 20:46
KSNK 092046Z AUTO 14011G16KT 10SM SCT070 SCT080 35/17 A2993 RMK AO2 T03540167

2010/08/09 20:45
KSWW 092045Z AUTO 13012G17KT 10SM SCT070 SCT080 SCT110 37/16 A2995 RMK AO1 T03660161

2010/08/09 20:45
KT65 092045Z AUTO 20006KT 10SM BKN080 35/24 A2984 RMK AO2 T03460236

2010/08/09 20:47
KPSN 092047Z AUTO 17006KT 36/21 A2993 RMK AO2 PWINO

2010/08/09 20:45
KSFY 092045Z AUTO 00000KT 10SM BKN080 31/23 A2991 RMK AO2

2010/08/09 20:45
KCUL 092045Z AUTO 00000KT 10SM CLR 35/21 A2990 RMK AO2 T03470211 PWINO

2010/08/09 20:47
KCQT 092047Z AUTO VRB04KT 10SM CLR 24/13 A2992 RMK AO2 SLP129 T02390133 56001 TSNO $

2010/08/09 20:48
KJDN 092048Z AUTO VRB04KT 32/06 A2983 RMK AO2 SLP082 T03220061 58017 PWINO TSNO

2010/08/09 20:49
KBTV 092049Z 18003KT 3SM TSRA BR FEW047CB BKN070 OVC095 22/21 A2986 RMK AO2 TSB09RAB10 OCNL LTGIC SE TS SE MOV SE P0013 

2010/08/09 20:48
KIGM 092048Z AUTO 21015G27KT 10SM CLR 34/M07 A2999 RMK AO2 PK WND 22031/2036 SLP082 T03441067 58012 TSNO 

2010/08/09 20:49
CYTZ 092049Z AUTO 28015KT 1 1/4SM -RA TS 22/21 A2993 RMK PRESRR SLP136 DENSITY ALT 1100FT PCPN 12.9MM PAST HR MAX WND 23029KT AT 2024Z VIS VRB 1/2-2 LTNG DIST ALQDS CLD MISG RVR MISG

2010/08/09 20:50
ETNG 092050Z 16003KT CAVOK 16/12 Q1016

2010/08/09 20:50
ETNG 092050Z 16003KT CAVOK 16/12 Q1016

2010/08/09 20:49
KGWO 092049Z AUTO 17012G16KT 9SM TS BKN042 BKN055 30/26 A2993 RMK AO2 LTG DSNT E AND SE TSB43

2010/08/09 20:49
KLBX 092049Z AUTO 13008KT 10SM CLR 34/24 A2992 RMK AO2 TSB26E43

2010/08/09 20:48
PABE 092048Z 16017G24KT 5SM -RA BR BKN009 BKN015 OVC024 10/09 A2937 RMK AO2 P0000

2010/08/09 20:49
KFMY 092049Z AUTO 17012G21KT 6SM -TSRA BR FEW010 BKN026 OVC070 26/24 A2986 RMK AO2 LTG DSNT E-S TSB1959E14B16E31B43 P0036

2010/08/09 20:49
KMPV 092049Z AUTO 09005KT 10SM VCTS FEW038 BKN055 BKN070 23/18 A2996 RMK AO2 LTG DSNT ALQDS TSE35B43

2010/08/09 20:45
KATW 092045Z 26004KT 10SM SCT026 29/23 A2990

2010/08/09 20:47
KGYH 092047Z 14005KT 10SM SCT055 36/20 A3001

2010/08/09 20:49
KMCB 092049Z AUTO 25003KT 3SM -TSRA BR OVC028 25/23 A2996 RMK AO2 LTG DSNT ALQDS PRESFR SLP140 P0026 60033 T02500233 58006

2010/08/09 20:50
PAHZ 092050Z 00000KT 2SM -RA BR VV002 11/11 A2966 RMK NOSPECI

2010/08/09 20:50
PASP 092050Z 29004KT 20SM FEW030 SCT0500 16/12 A2964 RMK EST PASS OPEN NO SPECI

2010/08/09 20:45
KDNV 092045Z AUTO 17003KT 10SM SCT038 32/24 A2989 RMK AO2 T03210238

2010/08/09 20:46
KGLE 092046Z AUTO 14009KT 10SM SCT065 SCT090 37/18 A2990 RMK AO2

2010/08/09 20:45
KHSB 092045Z AUTO 06005KT 10SM SCT060 36/18 A2990 RMK AO2

2010/08/09 20:45
KMQB 092045Z AUTO 13006KT 10SM CLR 32/26 A2992 RMK AO2 T03150258

2010/08/09 20:45
KT82 092045Z AUTO 19007KT 10SM CLR 34/16 A2996 RMK AO1 T03380162

2010/08/09 20:45
KTAZ 092045Z AUTO 18006KT 10SM CLR 36/27 A2989 RMK AO2

2010/08/09 20:45
KTFP 092045Z AUTO 11011KT 10SM SCT026 34/25 A2989 RMK AO2 T03410247

2010/08/09 20:45
KTIP 092045Z AUTO 16003KT 10SM CLR 33/27 A2993 RMK AO2 T03310272

2010/08/09 20:45
KTYQ 092045Z AUTO 26005KT 10SM CLR 33/22 A2996 RMK AO2

2010/08/09 20:45
KUVA 092045Z AUTO 18011G14KT 10SM SCT070 37/17 A2988 RMK AO2 T03670174

2010/08/09 20:46
KXBP 092046Z AUTO 17006KT 10SM SCT060 SCT080 38/19 A2989 RMK AO2 T03750186

2010/08/09 20:50
PKMJ 092050Z 05018KT 15SM FEW015 SCT050 BKN120 OVC300 28/25 A2987 

2010/08/09 20:50
EETN 092050Z 19008KT 9999 FEW022 BKN061 19/16 Q1012 NOSIG

2010/08/09 21:00
MGGT 092100Z 18008KT 8000 TSVCRA BKN018 BKN025CB 22/17 Q1024 A3024 CB/TS/PCPN SMC S VOL.DE PACAYA EN ACTIVIDAD

2010/08/09 21:00
LQMO 092100Z 18002KT CAVOK 25/14 Q1012

2010/08/09 20:50
FHAW 092050Z 14016KT 9999 FEW025 24/18 Q1016 BLU

2010/08/09 20:50
EYKA 092050Z 17004KT CAVOK 17/17 Q1016

2010/08/09 20:50
EYPA 092050Z VRB03KT R19/P1500N 17/16 Q1015

2010/08/09 20:49
KBTV 092049Z 18003KT 3SM TSRA BR FEW047CB BKN070 OVC095 22/21 A2986

2010/08/09 20:48
KPIE 092048Z 29007KT 10SM BKN028 28/24 A2989

2010/08/09 20:50
KJAN 092050Z 27006KT 2SM R16L/5000VP6000FT TSRA BR BKN024 OVC047 27/24 A2993 RMK AO2 TSB25RAB13 OCNL LTGICCCCG NW-N TS NW-N MOV W P0007 

2010/08/09 20:45
K1H2 092045Z AUTO 17004KT 10SM SCT042 35/25 A2991

2010/08/09 20:45
KC75 092045Z AUTO 05004KT 10SM CLR 31/23 A2992

2010/08/09 20:45
KDKB 092045Z AUTO 28003KT 10SM CLR 30/22 A2993

2010/08/09 20:45
KENL 092045Z AUTO 13005KT 10SM CLR 33/25 A2991

2010/08/09 20:45
KFEP 092045Z AUTO 32006KT 10SM CLR 30/23 A2994

2010/08/09 20:45
KFOA 092045Z AUTO 15007KT 10SM CLR 37/26 A2991

2010/08/09 20:45
KFWC 092045Z AUTO 03003KT 10SM CLR 34/26 A2990

2010/08/09 20:45
KGBG 092045Z AUTO 14004KT 10SM CLR 31/24 A2991

2010/08/09 20:45
KIGQ 092045Z AUTO 25008KT 10SM CLR 31/20 A2992

2010/08/09 20:45
KIJX 092045Z AUTO 20003KT 10SM CLR 34/26 A2990

2010/08/09 20:45
KIKK 092045Z AUTO 00000KT 10SM CLR 35/20 A2992

2010/08/09 20:45
KLOT 092045Z AUTO 25003KT 10SM SCT095 29/22 A2992

2010/08/09 20:45
KPNT 092045Z AUTO 00000KT 10SM CLR 36/19 A2992

2010/08/09 20:45
KPRG 092045Z AUTO 18004KT 10SM BKN044 BKN050 32/25 A2993

2010/08/09 20:45
KSAR 092045Z AUTO 00000KT 10SM CLR 36/23 A2989

2010/08/09 20:45
KSLO 092045Z AUTO 16004KT 10SM SCT046 35/23 A2991

2010/08/09 20:45
KBYY 092045Z AUTO 17010KT 10SM SCT034 SCT040 35/26 A2992

2010/08/09 20:45
KOLV 092045Z 00000KT 10SM SCT050 BKN130 BKN250 29/23 A2996

2010/08/09 20:45
KLNC 092045Z AUTO 17006KT 10SM SCT060 36/21 A2989

2010/08/09 20:49
KBTV 092049Z 18003KT 3SM TSRA BR FEW047CB BKN070 OVC095 22/21 A2986

2010/08/09 20:48
KIGM 092048Z AUTO 21015G27KT 10SM CLR 34/M07 A2999

2010/08/09 20:48
KJDN 092048Z AUTO VRB04KT 32/06 A2983

2010/08/09 21:00
LQMO 092100Z 18002KT CAVOK 25/14 Q1012

2010/08/09 20:50
EYKA 092050Z 17004KT CAVOK 17/17 Q1016

2010/08/09 20:45
LMML 092045Z 31005KT CAVOK 23/19 Q1016 NOSIG 

2010/08/09 20:50
EETN 092050Z 19008KT 9999 FEW022 BKN061 19/16 Q1012 NOSIG

2010/08/09 20:50
LLBG 092050Z 26005KT 9999 SCT025 28/22 Q1007 NOSIG

2010/08/09 20:50
LLOV 092050Z 28008KT CAVOK 27/17 Q1009

2010/08/09 20:48
KPIE 092048Z 29007KT 10SM BKN028 28/24 A2989

2010/08/09 20:45
KIKK 092045Z AUTO 00000KT 10SM CLR 35/20 A2992

2010/08/09 20:50
CYXC 092050Z 04005KT 20SM FEW050CB SCT085 BKN260 RETS RMK CB2AC2CI1 SH N

2010/08/09 20:49
KBTV 092049Z 18003KT 3SM TSRA BR FEW047CB BKN070 OVC095 22/21 A2986

2010/08/09 20:50
KQEN 092050Z AUTO 25004KT M1/4SM BR VV001 19/17 A3044 RMK A02

2010/08/09 20:50
KQES 092050Z AUTO 07002KT 7SM SCT065 25/21 A2983 RMK A02

2010/08/09 21:00
KQEV 092100Z AUTO 36002KT 1SM RA BR OVC020 26/23 A2980 RMK A02

2010/08/09 20:46
CWLY 092046Z AUTO 02005KT 6SM BKN014 14/13 A2995

2010/08/09 20:46
CWOB 092046Z AUTO ///// 0SM CLR 04/ A2972

2010/08/09 20:46
CYAZ 092046Z 17006KT 4SM BR SCT003 BKN008 OVC011 RMK SF3SF3SC2

2010/08/09 20:45
CYEV 092045Z 19003KT 15SM FEW019 SCT050 RMK SC2SC1

2010/08/09 20:48
CYPQ 092048Z AUTO ///// 1 3/4SM -RA BKN001 BKN015 BKN021 OVC029 23/23 A2991

2010/08/09 20:49
CYTZ 092049Z AUTO 28015KT 1 1/4SM -RA TS 22/21 A2993 RMK PRESRR SLP136 DENSITY ALT 1100FT PCPN 12.9MM PAST HR MAX WND 23029KT AT 2024Z VIS VRB 1/2-2 LTNG DIST ALQDS CLD MISG RVR MISG

2010/08/09 20:48
CYUS 092048Z AUTO ///// 9SM CLR 19/ A2993

2010/08/09 20:48
CYZP 092048Z AUTO 26010KT 9SM OVC047 15/14 A3003 RMK SLP169

2010/08/09 20:47
CYZR 092047Z AUTO 30005KT 9SM -RA FEW041 SCT061 SCT078 BKN089 26/21 A2994 RMK SLP137 DENSITY ALT 1900FT

2010/08/09 20:46
PASY 092046Z 26005KT 10SM FEW001 OVC005 09/09 A2986 RMK AO2 PNO $

2010/08/09 20:49
RJCC 092049Z 21005KT 1500 R01R/0900VP1800U BCFG BR SCT001 BKN002 21/21 Q1014 RMK 4ST001 7ST002 A2995

2010/08/09 20:50
KSGR 092050Z 18007KT 10SM SCT065 35/22 A2990 RMK AO2 

2010/08/09 20:50
PALV 092050Z 00000KT 5SM OVC008 13/11 A2961 RMK EST PASS CLSD

2010/08/09 20:48
KASG 092048Z 18007KT 10SM SCT060 BKN250 34/22 A2995

2010/08/09 20:45
KBBG 092045Z 18005KT 10FT SCT050 SCT150 35/22 A2995

2010/08/09 20:47
KEMT 092047Z 20007KT 9SM SKC A2990

2010/08/09 20:47
KGEU 092047Z VRB03KT 20SM FEW085 SCT120 38/08 A2985

2010/08/09 20:48
KRYY 092048Z 16006KT 10SM SCT060 BKN075 35/21 A2999

2010/08/09 20:45
KSWF 092045Z 26006G16KT 10SM BKN100 32/20 AA2995 RMK HAZY

2010/08/09 20:51
KBAZ 092051Z AUTO 13010KT 10SM FEW060 36/21 A2990 RMK AO2 SLP114 T03610206 56019

2010/08/09 20:50
KBCT 092050Z AUTO 19010KT 10SM CLR 30/24 A2990

2010/08/09 20:50
KDUA 092050Z AUTO 16008KT 10SM SCT070 37/19 A2989 RMK AO2

2010/08/09 20:52
KDUC 092052Z AUTO 16007KT 10SM CLR 38/19 A2987 RMK AO2 LTG DSNT SE

2010/08/09 20:50
KFTG 092050Z 16010G20KT 20SM BKN120 BKN200 28/13 A3008 RMK TCU DSNT ALQDS

2010/08/09 20:51
KHDO 092051Z AUTO 11009KT 10SM CLR 37/19 A2991 RMK AO2 SLP109 T03670189 58024

2010/08/09 20:48
KIZA 092048Z AUTO 28006KT 10SM CLR 27/11 A2991 RMK AO2

2010/08/09 20:50
KLBE 092050Z 21005KT 10SM SKC 30/17 A3001

2010/08/09 20:50
KLRU 092050Z AUTO 28003KT 10SM SCT080 31/11 A3007 RMK AO2

2010/08/09 20:50
KONM 092050Z AUTO 36005KT 10SM CLR 34/08 A3007 RMK AO2 T03350082

2010/08/09 20:50
KONP 092050Z AUTO 34008KT 10SM OVC024 16/12 A3007 RMK AO1

2010/08/09 20:48
KVCV 092048Z 12005KT 10SM SKC 33/M03 A2993

2010/08/09 20:49
PAKF 092049Z AUTO 20017G32KT 10SM SCT011 13/08 A2953 RMK AO2 PK WND 19038/2010

2010/08/09 20:48
PPIZ 092048Z AUTO 07026G33KT 10SM SCT017 07/02 A2968 RMK AO2 TSNO PK WND 07033/2039 $

2010/08/09 20:50
KGAG 092050Z AUTO 18008G17KT 10SM VCTS CLR 36/17 A2989 RMK AO2 TSB44

2010/08/09 20:48
KEHA 092048Z AUTO 17015KT 36/14 RMK AO1 PK WND 18 000 T03560139

2010/08/09 20:50
EYVI 092050Z 12003KT 1500 BR PRFG NSC 16/16 Q1017 TEMPO 0600 FG

2010/08/09 20:49
KBTV 092049Z 18003KT 3SM TSRA BR FEW047CB BKN070 OVC095 22/21 A2986 RMK AO2 TSB09RAB10 OCNL LTGIC SE TS SE MOV SE P0013

2010/08/09 20:50
KJAN 092050Z 27006KT 2SM R16L/5000VP6000FT TSRA BR BKN024 OVC047 27/24 A2993 RMK AO2 TSB25RAB13 OCNL LTGICCCCG NW-N TS NW-N MOV W P0007

2010/08/09 20:50
KSGR 092050Z 18007KT 10SM SCT065 35/22 A2990 RMK AO2

2010/08/09 20:48
KIGM 092048Z AUTO 21015G27KT 10SM CLR 34/M07 A2999 RMK AO2 PK WND 22031/2036 SLP082 T03441067 58012 TSNO

2010/08/09 20:48
KEHA 092048Z AUTO 17015KT 36/14 RMK AO1 PK WND 18 000 T03560139

2010/08/09 21:00
MPTO 092100Z 21006KT 9999 SCT018TCU SCT090 BKN300 30/24 Q1009 NOSIG

2010/08/09 21:00
MGGT 092100Z 18008KT 8000 TSVCRA BKN018 BKN025CB 22/17 Q1024 A3024 CB/TS/PCPN SMC S VOL.DE PACAYA EN ACTIVIDAD

2010/08/09 20:50
FHAW 092050Z 14016KT 9999 FEW025 24/18 Q1016 BLU

2010/08/09 20:50
EYPA 092050Z VRB03KT R19/P1500N 17/16 Q1015

2010/08/09 21:00
SBSJ 092100Z 25009KT 9999 SCT020 17/13 Q1023

2010/08/09 20:49
KBTV 092049Z 18003KT 3SM TSRA BR FEW047CB BKN070 OVC095 22/21 A2986 RMK AO2 TSB09RAB10 OCNL LTGIC SE TS SE MOV SE P0013

2010/08/09 20:48
PABE 092048Z 16017G24KT 5SM -RA BR BKN009 BKN015 OVC024 10/09 A2937 RMK AO2 P0000

2010/08/09 20:50
KJAN 092050Z 27006KT 2SM R16L/5000VP6000FT TSRA BR BKN024 OVC047 27/24 A2993 RMK AO2 TSB25RAB13 OCNL LTGICCCCG NW-N TS NW-N MOV W P0007

2010/08/09 20:50
PKMJ 092050Z 05018KT 15SM FEW015 SCT050 BKN120 OVC300 28/25 A2987

2010/08/09 20:49
KNQX 092049Z 31008KT 6SM -TSRA FEW002 BKN010CB BKN020 BKN140 26/24 A2989 RMK AO2 OCNL LTGICCC OHD TS OHD MOV S T1 SET P0009 $

2010/08/09 20:46
PASY 092046Z 26005KT 10SM FEW001 OVC005 09/09 A2986 RMK AO2 PNO $

2010/08/09 20:48
KIGM 092048Z AUTO 21015G27KT 10SM CLR 34/M07 A2999 RMK AO2 PK WND 22031/2036 SLP082 T03441067 58012 TSNO

2010/08/09 20:48
KIZA 092048Z AUTO 28006KT 10SM CLR 27/11 A2991 RMK AO2

2010/08/09 20:48
KEHA 092048Z AUTO 17015KT 36/14 RMK AO1 PK WND 18 000 T03560139

2010/08/09 20:49
KGWO 092049Z AUTO 17012G16KT 9SM TS BKN042 BKN055 30/26 A2993 RMK AO2 LTG DSNT E AND SE TSB43

2010/08/09 20:49
KLBX 092049Z AUTO 13008KT 10SM CLR 34/24 A2992 RMK AO2 TSB26E43

2010/08/09 20:49
KFMY 092049Z AUTO 17012G21KT 6SM -TSRA BR FEW010 BKN026 OVC070 26/24 A2986 RMK AO2 LTG DSNT E-S TSB1959E14B16E31B43 P0036

2010/08/09 20:49
KMPV 092049Z AUTO 09005KT 10SM VCTS FEW038 BKN055 BKN070 23/18 A2996 RMK AO2 LTG DSNT ALQDS TSE35B43

2010/08/09 20:48
PPIZ 092048Z AUTO 07026G33KT 10SM SCT017 07/02 A2968 RMK AO2 TSNO PK WND 07033/2039 $

2010/08/09 20:50
KGAG 092050Z AUTO 18008G17KT 10SM VCTS CLR 36/17 A2989 RMK AO2 TSB44

2010/08/09 20:50
KSGR 092050Z 18007KT 10SM SCT065 35/22 A2990 RMK AO2

2010/08/09 20:45
KATW 092045Z 26004KT 10SM SCT026 29/23 A2990

2010/08/09 20:47
KGYH 092047Z 14005KT 10SM SCT055 36/20 A3001

2010/08/09 20:49
KMCB 092049Z AUTO 25003KT 3SM -TSRA BR OVC028 25/23 A2996 RMK AO2 LTG DSNT ALQDS PRESFR SLP140 P0026 60033 T02500233 58006

2010/08/09 20:50
PAHZ 092050Z 00000KT 2SM -RA BR VV002 11/11 A2966 RMK NOSPECI

2010/08/09 20:50
PASP 092050Z 29004KT 20SM FEW030 SCT0500 16/12 A2964 RMK EST PASS OPEN NO SPECI

2010/08/09 20:45
KDNV 092045Z AUTO 17003KT 10SM SCT038 32/24 A2989 RMK AO2 T03210238

2010/08/09 20:46
KGLE 092046Z AUTO 14009KT 10SM SCT065 SCT090 37/18 A2990 RMK AO2

2010/08/09 20:45
KHSB 092045Z AUTO 06005KT 10SM SCT060 36/18 A2990 RMK AO2

2010/08/09 20:45
KMQB 092045Z AUTO 13006KT 10SM CLR 32/26 A2992 RMK AO2 T03150258

2010/08/09 20:45
KT82 092045Z AUTO 19007KT 10SM CLR 34/16 A2996 RMK AO1 T03380162

2010/08/09 20:45
KTAZ 092045Z AUTO 18006KT 10SM CLR 36/27 A2989 RMK AO2

2010/08/09 20:45
KTFP 092045Z AUTO 11011KT 10SM SCT026 34/25 A2989 RMK AO2 T03410247

2010/08/09 20:45
KTIP 092045Z AUTO 16003KT 10SM CLR 33/27 A2993 RMK AO2 T03310272

2010/08/09 20:45
KTYQ 092045Z AUTO 26005KT 10SM CLR 33/22 A2996 RMK AO2

2010/08/09 20:45
KUVA 092045Z AUTO 18011G14KT 10SM SCT070 37/17 A2988 RMK AO2 T03670174

2010/08/09 20:46
KXBP 092046Z AUTO 17006KT 10SM SCT060 SCT080 38/19 A2989 RMK AO2 T03750186

2010/08/09 20:50
PALV 092050Z 00000KT 5SM OVC008 13/11 A2961 RMK EST PASS CLSD

2010/08/09 20:48
KASG 092048Z 18007KT 10SM SCT060 BKN250 34/22 A2995

2010/08/09 20:45
KBBG 092045Z 18005KT 10FT SCT050 SCT150 35/22 A2995

2010/08/09 20:47
KEMT 092047Z 20007KT 9SM SKC A2990

2010/08/09 20:47
KGEU 092047Z VRB03KT 20SM FEW085 SCT120 38/08 A2985

2010/08/09 20:48
KRYY 092048Z 16006KT 10SM SCT060 BKN075 35/21 A2999

2010/08/09 20:45
KSWF 092045Z 26006G16KT 10SM BKN100 32/20 AA2995 RMK HAZY

2010/08/09 20:51
KBAZ 092051Z AUTO 13010KT 10SM FEW060 36/21 A2990 RMK AO2 SLP114 T03610206 56019

2010/08/09 20:50
KBCT 092050Z AUTO 19010KT 10SM CLR 30/24 A2990

2010/08/09 20:50
KDUA 092050Z AUTO 16008KT 10SM SCT070 37/19 A2989 RMK AO2

2010/08/09 20:52
KDUC 092052Z AUTO 16007KT 10SM CLR 38/19 A2987 RMK AO2 LTG DSNT SE

2010/08/09 20:50
KFTG 092050Z 16010G20KT 20SM BKN120 BKN200 28/13 A3008 RMK TCU DSNT ALQDS

2010/08/09 20:51
KHDO 092051Z AUTO 11009KT 10SM CLR 37/19 A2991 RMK AO2 SLP109 T03670189 58024

2010/08/09 20:50
KLBE 092050Z 21005KT 10SM SKC 30/17 A3001

2010/08/09 20:50
KLRU 092050Z AUTO 28003KT 10SM SCT080 31/11 A3007 RMK AO2

2010/08/09 20:50
KONM 092050Z AUTO 36005KT 10SM CLR 34/08 A3007 RMK AO2 T03350082

2010/08/09 20:50
KONP 092050Z AUTO 34008KT 10SM OVC024 16/12 A3007 RMK AO1

2010/08/09 20:48
KVCV 092048Z 12005KT 10SM SKC 33/M03 A2993

2010/08/09 20:46
PASY 092046Z 26005KT 10SM FEW001 OVC005 09/09 A2986

2010/08/09 20:50
LLBG 092050Z 26005KT 9999 SCT025 28/22 Q1007 NOSIG

2010/08/09 20:50
LLOV 092050Z 28008KT CAVOK 27/17 Q1009

2010/08/09 20:50
HLLB 092050Z 33015KT 9999 SCT020 25/20 Q1014

2010/08/09 20:51
KSAN 092051Z VRB06KT 10SM FEW020 22/14 A2994 RMK AO2 SLP137 T02170139 58006 

2010/08/09 20:49
RJCC 092049Z 21005KT 1500 R01R/0900VP1800U BCFG BR SCT001 BKN002 21/21 Q1014 RMK 4ST001 7ST002 A2995

2010/08/09 20:45
LMML 092045Z 31005KT CAVOK 23/19 Q1016 NOSIG

2010/08/09 20:50
MMMX 092050Z 05006KT 4SM SCT025TCU BKN200 26/13 A3020 NOSIG RMK SLP029 57028 954 8/202 HZY

2010/08/09 20:47
KGYH 092047Z 14005KT 10SM SCT055 36/20 A3001

2010/08/09 20:49
KMPV 092049Z AUTO 09005KT 10SM VCTS FEW038 BKN055 BKN070 23/18 A2996

2010/08/09 20:50
KJAN 092050Z 27006KT 2SM R16L/5000VP6000FT TSRA BR BKN024 OVC047 27/24 A2993

2010/08/09 20:49
KGWO 092049Z AUTO 17012G16KT 9SM TS BKN042 BKN055 30/26 A2993

2010/08/09 20:50
KJAN 092050Z 27006KT 2SM R16L/5000VP6000FT TSRA BR BKN024 OVC047 27/24 A2993

2010/08/09 20:45
LMML 092045Z 31005KT CAVOK 23/19 Q1016 NOSIG 

2010/08/09 20:50
EYVI 092050Z 12003KT 1500 BR PRFG NSC 16/16 Q1017 TEMPO 0600 FG

2010/08/09 20:50
EYPA 092050Z VRB03KT R19/P1500N 17/16 Q1015

2010/08/09 20:50
KJAN 092050Z 27006KT 2SM R16L/5000VP6000FT TSRA BR BKN024 OVC047 27/24 A2993

2010/08/09 20:48
PABE 092048Z 16017G24KT 5SM -RA BR BKN009 BKN015 OVC024 10/09 A2937

2010/08/09 20:52
CYOO 092052Z AUTO 24006KT 200V280 5SM -RA TS BR 22/21 A2992 RMK SLP133 DENSITY ALT 1300FT PCPN 1.0MM PAST HR LTNG DIST ALQDS CLD MISG

2010/08/09 20:51
KSMX 092051Z 32011KT 10SM CLR 19/11 A2994 RMK AO2 SLP140 T01890111 56005 

2010/08/09 20:51
KSNT 092051Z AUTO 15009KT 14/11 A3010 RMK AO2 SLP119 P0008 60019 T01390111 55001 PWINO TSNO 

2010/08/09 20:51
KNYC 092051Z AUTO VRB03KT 10SM FEW070 30/19 A2997 RMK AO2 SLP140 T03000194 56009 TSNO 

2010/08/09 20:51
KBTR 092051Z 01005G14KT 2SM +TSRA BR FEW014 BKN039CB OVC050 24/24 A2997 RMK AO2 PK WND 06036/2027 WSHFT 2013 TSB20RAB28 CONS LTGICCG TS AT AP MOVG SW P0008 

2010/08/09 20:51
KHSE 092051Z AUTO 22003KT 10SM OVC050 28/24 A3003 RMK AO2 SLP167 60000 T02780244 58006 TSNO 

2010/08/09 20:51
KGDP 092051Z AUTO 24017G21KT 10SM CLR 32/10 A3014 RMK AO2 SLP113 T03170100 58017 TSNO 

2010/08/09 20:51
KORF 092051Z 11009KT 10SM FEW035 31/20 A3001 RMK AO2 SLP162 T03060200 58005 $ 

2010/08/09 20:51
KCRP 092051Z 09014G20KT 10SM SCT036 34/24 A2988 RMK AO2 SLP118 TCU DSNT S SW T03440244 58016 

2010/08/09 20:51
KBVE 092051Z AUTO 22005KT CLR 27/25 A2995 RMK AO2 SLP141 60051 T02720250 58012 TSNO $ 

2010/08/09 20:51
KJCT 092051Z AUTO 17008G15KT 10SM CLR 37/16 A2991 RMK AO2 SLP085 T03720156 58024 TSNO 

2010/08/09 20:50
KSGR 092050Z 18007KT 10SM SCT065 35/22 A2990 RMK AO2

2010/08/09 20:49
KBTV 092049Z 18003KT 3SM TSRA BR FEW047CB BKN070 OVC095 22/21 A2986 RMK AO2 TSB09RAB10 OCNL LTGIC SE TS SE MOV SE P0013

2010/08/09 20:51
KDCU 092051Z AUTO 32007KT 9SM TS CLR 31/23 A2996 RMK AO2 LTG DSNT W AND NW TSB45

2010/08/09 20:50
KCHK 092050Z AUTO 16012G16KT 10SM CLR 39/21 A2986 RMK AO2

2010/08/09 20:51
KCLE 092051Z 22007KT 10SM FEW050 BKN150 OVC250 29/18 A2998 RMK AO2 SLP143 8/578 T02940183 58012

2010/08/09 20:50
KCLK 092050Z AUTO 18007KT 10SM CLR 37/11 A2986 RMK AO2

2010/08/09 20:51
KCMH 092051Z 18008G16KT 120V210 10SM FEW070 SCT140 BKN200 32/18 A2997 RMK AO2 SLP141 T03170183 56016

2010/08/09 20:50
KCQB 092050Z AUTO 19007G16KT 10SM CLR 38/21 A2988 RMK AO2 TSNO

2010/08/09 20:51
KCSG 092051Z 15010KT 10SM SCT070 SCT100 35/19 A2995 RMK AO2 SLP134 T03500194 56012

2010/08/09 20:50
KCUH 092050Z AUTO 16007KT 10SM CLR 38/21 A2988 RMK AO2

2010/08/09 20:51
KDAW 092051Z AUTO VRB03KT 10SM BKN090 32/16 A2987 RMK AO2 SLP109 T03170156 57017

2010/08/09 20:50
KDVO 092050Z AUTO 04006KT 10SM 22/14 A2991 RMK AO2

2010/08/09 20:51
KEKN 092051Z AUTO 31007KT 9SM CLR 30/19 A3007 RMK AO2 SLP169 T03000189 56007 TSNO

2010/08/09 20:51
KELP 092051Z 23008KT 190V250 10SM FEW100 35/08 A3001 RMK AO2 SLP081 CB DSNT NE S-SW T03500078 58017

2010/08/09 20:51
KERI 092051Z 26008KT 7SM FEW100 28/18 A2996 RMK AO2 SLP141 T02830178 58008

2010/08/09 20:51
KEWR 092051Z 15011G16KT 9SM BKN065TCU BKN250 32/21 A2993 RMK AO2 SLP134 TCU OHD HAZE ALOFT T03170206 56014 $

2010/08/09 20:50
KFET 092050Z AUTO 34004KT 10SM BKN020 30/25 A2987 RMK AO2 T03030250

2010/08/09 20:50
KGCD 092050Z AUTO 29011G17KT 10SM CLR 27/05 A2990 RMK AO2 T02680049

2010/08/09 20:52
KGCM 092052Z AUTO 19010G15KT 10SM CLR 37/21 A2992 RMK AO2

2010/08/09 20:51
KGMJ 092051Z AUTO 15006KT 10SM SCT065 SCT080 38/18 A2990 RMK AO2

2010/08/09 20:50
KHDE 092050Z AUTO 08005KT 10SM CLR 31/22 A2991 RMK AO2 T03140223

2010/08/09 20:50
KHJH 092050Z AUTO 24003KT 10SM CLR 36/23 A2985 RMK AO2 T03550226

2010/08/09 20:51
KHTS 092051Z 00000KT 10SM CLR 32/18 A2999 RMK AO2 SLP146 T03170183 58015

2010/08/09 20:50
KIBM 092050Z AUTO 19005G17KT 10SM SCT075 BKN095 BKN120 29/13 A3004 RMK AO2 T02930134

2010/08/09 20:50
KIDP 092050Z AUTO 18009KT 10SM SCT065 36/20 A2987 RMK AO2

2010/08/09 20:51
KILG 092051Z 17013G19KT 10SM CLR 31/22 A2998 RMK AO2 SLP149 T03060217 56010

2010/08/09 20:50
KISM 092050Z 16006KT 10SM SCT070 31/24 A2990

2010/08/09 20:51
KJFK 092051Z 18019KT 9SM FEW140 BKN250 28/20 A2996 RMK AO2 SLP146 T02780200 58013

2010/08/09 20:51
KJSV 092051Z AUTO 00000KT 10SM CLR 36/19 A2990 RMK AO2

2010/08/09 20:50
KJYR 092050Z AUTO 08003KT 10SM 33/25 A2987 RMK AO2

2010/08/09 20:49
KL35 092049Z AUTO 31007KT 10SM CLR 23/M07 A3017 RMK AO2

2010/08/09 20:51
KLAM 092051Z AUTO 32010G18KT 10SM BKN060 OVC070 22/12 A3023 RMK AO2

2010/08/09 20:50
KLAM 092050Z AUTO 34007G18KT 271V021 10SM BKN060 OVC070 22/11 A3024 RMK AO2

2010/08/09 20:50
KLCG 092050Z AUTO 07007KT 4SM HZ OVC017 27/24 A2990 RMK AO2 T02700241

2010/08/09 20:51
KLGA 092051Z 17018G23KT 10SM FEW060 OVC250 31/18 A2994 RMK AO2 SLP139 T03060178 56009

2010/08/09 20:51
KLGU 092051Z AUTO 12014G18KT 10SM SCT090 SCT110 25/06 A3002 RMK AO2 WSHFT 2028 LTG DSNT NE AND E TSB22E46 SLP122 T02500056 55002

2010/08/09 20:51
KMDW 092051Z 27008KT 10SM FEW040 BKN090 BKN150 BKN250 31/21 A2991 RMK AO2 SLP115 T03060211 56004 PNO

2010/08/09 20:51
KMPV 092051Z AUTO 06003KT 10SM -TSRA FEW036 SCT044 BKN055 23/18 A2996 RMK AO2 LTG DSNT ALQDS TSE35B43RAB51 SLP142 P0000 60000 T02330178 55003

2010/08/09 20:45
KMYR 092045Z 15010KT 10SM SCT015 BKN050 28/24 A3004

2010/08/09 20:50
KOJA 092050Z AUTO 19010KT 10SM SCT085 SCT120 37/18 A2988 RMK AO2

2010/08/09 20:51
KORD 092051Z 30010KT 10SM SCT038 SCT150 BKN200 BKN250 31/22 A2991 RMK AO2 SLP122 T03110222 56004

2010/08/09 20:50
KORS 092050Z AUTO 19003KT 5SM -RA BKN020 14/13 A2997 RMK AO2

2010/08/09 20:45
KOXC 092045Z 19005KT 7SM BKN055 BKN070 29/20 A2997 RMK TCU OHD

2010/08/09 20:51
KOXR 092051Z 22006KT 10SM BKN012 18/13 A2994 RMK AO2 SLP137 T01830128 50001

2010/08/09 20:51
KPHX 092051Z 01004KT 10SM FEW120 SCT150 SCT180 38/07 A2983 RMK AO2 SLP078 T03830072 58016 $

2010/08/09 20:51
KPIT 092051Z 19006KT 10SM SCT150 BKN250 31/15 A2999 RMK AO2 SLP153 T03110150 58015

2010/08/09 20:50
KPLU 092050Z AUTO 00000KT 10SM OVC021 17/13 A2999 RMK AO2

2010/08/09 20:50
KPTS 092050Z AUTO 22008KT 10SM CLR 36/19 A2990 RMK AO2 T03600194

2010/08/09 20:51
KPVD 092051Z 19013KT 10SM FEW046TCU SCT060 SCT080 SCT250 30/21 A2993 RMK AO2 SLP135 TCU N-NE T03000206 56011

2010/08/09 20:51
KPWM 092051Z 15007KT 10SM SCT075 BKN090 27/19 A2987 RMK AO2 SLP114 T02720189 56015

2010/08/09 20:51
KRDU 092051Z 15005KT 10SM SCT060 SCT250 32/19 A3001 RMK AO2 SLP157 T03220189 56009

2010/08/09 20:51
KROW 092051Z 21006KT 10SM CLR 33/14 A2999 RMK AO2 SLP083 T03280139 58020

2010/08/09 20:51
KSJT 092051Z 18007G15KT 150V210 10SM SCT075 38/17 A2990 RMK AO2 SLP092 T03780172 58025

2010/08/09 20:51
KSLK 092051Z AUTO 24006KT 7SM FEW039 26/18 A2992 RMK AO2 LTG DSNT ALQDS SLP122 T02610183 56011

2010/08/09 20:51
KSMO 092051Z 22009KT 10SM CLR 19/13 A2994 RMK AO2 SLP137 T01940128 58001

2010/08/09 20:50
KSRE 092050Z AUTO 14005KT 10SM CLR 37/19 A2990 RMK AO2

2010/08/09 20:51
KSTL 092051Z 25007KT 10SM FEW046 BKN250 36/24 A2990 RMK AO2 SLP109 TCU DSNT N AND DSNT NW T03560244 56007

2010/08/09 20:51
KTEB 092051Z 16011G16KT 10SM FEW070 32/19 A2992 RMK AO2 SLP131 T03170189 56013

2010/08/09 20:47
KTOA 092047Z 28016KT 7SM SKC 23/14 A2994

2010/08/09 20:51
KVNY 092051Z 15009KT 10SM CLR 27/11 A2990 RMK AO2 SLP116 T02670111 58006

2010/08/09 20:48
KWWR 092048Z AUTO 16009G19KT 10SM SCT075 SCT095 BKN110 38/17 A2990 RMK AO2 T03760172

2010/08/09 20:51
KYNG 092051Z 25009KT 10SM FEW050 BKN100 OVC200 29/17 A3000 RMK AO2 SLP151 8/177 T02940172 55010

2010/08/09 20:47
K1F0 092047Z AUTO 19008KT 10SM CLR 37/19 A2986 RMK AO2

2010/08/09 20:58
K36U 092058Z AUTO 22014G19KT 10SM CLR 25/03 A3009 RMK AO2 LTG DSNT N

2010/08/09 20:48
K4O4 092048Z AUTO 19007KT 10SM VCTS CLR 36/20 A2992 RMK AO2

2010/08/09 20:51
KACT 092051Z 16010KT 10SM SCT065 38/19 A2989 RMK AO2 SLP113 T03780194 57019 $

2010/08/09 20:51
KADH 092051Z AUTO 18007G15KT 10SM CLR 36/16 A2990 RMK AO2

2010/08/09 20:50
KAFK 092050Z AUTO 22004KT 10SM CLR 34/24 A2984 RMK AO2 T03410239

2010/08/09 20:51
KAHN 092051Z 29004KT 6SM HZ SCT060 33/21 A2999 RMK AO2 SLP147 T03330206 56016 TSNO

2010/08/09 20:51
KALB 092051Z 27009KT 7SM SCT070 BKN095 BKN120 31/18 A2989 RMK AO2 SLP120 T03110178 56019

2010/08/09 20:45
KALM 092045Z AUTO 30005KT 10SM CLR 32/12 A3003 RMK AO2 LTG DSNT NE AND S

2010/08/09 20:50
KANW 092050Z AUTO 07003KT 10SM CLR 31/16 A2994 RMK AO2 T03100158

2010/08/09 20:51
KASH 092051Z VRB05KT 10SM SCT065 33/18 A2989 RMK AO2 56016 T03270177 SLP122

2010/08/09 20:50
KATS 092050Z AUTO 17009G15KT 10SM VCTS FEW100 32/14 A2998 RMK AO2 LTG DSNT S-W

2010/08/09 20:50
KAUH 092050Z AUTO 08004KT 10SM CLR 32/22 A2989 RMK AO2 T03240222

2010/08/09 20:50
KAUN 092050Z AUTO 24006KT 10SM CLR 28/13 A2991 RMK AO1

2010/08/09 20:51
KAVX 092051Z AUTO 28007KT 10SM CLR 18/12 A2997 RMK AO2 SLP138 T01830122 58001 TSNO

2010/08/09 20:50
KAXS 092050Z AUTO 19008KT 10SM CLR 37/19 A2987 RMK AO2 T03670191

2010/08/09 20:50
KAXX 092050Z AUTO 15009KT 10SM SCT095 BKN110 18/11 A3033 RMK AO2

2010/08/09 20:51
KBDL 092051Z 21011KT 10SM FEW070 SCT100 BKN140 33/14 A2990 RMK AO2 SLP123 T03280139 56015

2010/08/09 20:51
KBGD 092051Z AUTO 18011G19KT 10SM CLR 36/14 A2993 RMK AO2 SLP081 6//// T03610139

2010/08/09 20:50
KBIE 092050Z AUTO 15007KT 140V200 10SM CLR 36/23 A2984 RMK AO2 T03580226

2010/08/09 20:51
KBKW 092051Z AUTO 22004KT 6SM HZ CLR 29/17 A3011 RMK AO2 SLP154 T02940172 58010

2010/08/09 20:50
KBTA 092050Z AUTO 36003KT 10SM BKN024 OVC030 31/25 A2986 RMK AO2 T03120247

2010/08/09 20:47
KBVI 092047Z 27008KT 10SM BKN200 31/18 A3003

2010/08/09 20:50
KBVN 092050Z AUTO 09005KT 10SM CLR 31/23 A2989 RMK AO2 T03120230

2010/08/09 20:45
KBVS 092045Z AUTO 20005KT 3SM OVC016 16/14 A3000 RMK A01 P000

2010/08/09 20:50
MSLP 092050Z 18006KT 9999 FEW027 FEW040CB SCT300 31/25 Q1009 A2981 CB TO W/NW/NNE

2010/08/09 20:50
EYSA 092050Z 20005KT CAVOK 18/16 Q1016

2010/08/09 20:50
LSZH 092050Z 32002KT 9999 FEW055 17/14 Q1017 NOSIG

2010/08/09 20:50
LSGG 092050Z 33004KT 290V010 9999 FEW070 BKN080 20/13 Q1017 NOSIG

2010/08/09 20:52
EYVI 092052Z 12002KT 0800 R20/0600VP1500D FG NSC 15/15 Q1017 TEMPO 0600 FG

2010/08/09 20:51
KP59 092051Z AUTO 36013KT 24/21 A2988 RMK AO2 SLP110 T02390206 51005 PWINO TSNO 

2010/08/09 20:51
KDAG 092051Z AUTO 06014G17KT 10SM CLR 37/M02 A2985 RMK AO2 SLP080 T03671017 58022 TSNO 

2010/08/09 20:51
KBTR 092051Z 01005G14KT 2SM +TSRA BR FEW014 BKN039CB OVC050 24/24 A2997

2010/08/09 20:52
CYBN 092052Z AUTO 19007KT 9SM -RA CLR 21/19 A2991

2010/08/09 20:52
CYTZ 092052Z AUTO 29018G27KT 2 1/4SM RA TS 22/21 A2993 RMK PRESRR SLP135 DENSITY ALT 1100FT PCPN 14.4MM PAST HR MAX WND 23029KT AT 2024Z VIS VRB 1 1/2-3 LTNG DIST ALQDS CLD MISG RVR MISG

2010/08/09 20:51
CYRV 092051Z AUTO 17004KT 9SM FEW027 BKN081 BKN095 19/16 A2982

2010/08/09 20:50
KGAG 092050Z AUTO 18008G17KT 10SM VCTS CLR 36/17 A2989

2010/08/09 21:00
LWOH 092100Z 36005KT CAVOK 21/14 Q1016

2010/08/09 20:51
KBTR 092051Z 01005G14KT 2SM +TSRA BR FEW014 BKN039CB OVC050 24/24 A2997

2010/08/09 20:50
EYSA 092050Z 20005KT CAVOK 18/16 Q1016

2010/08/09 21:00
OSDI 092100Z 18005KT CAVOK 26/18 Q1007

2010/08/09 21:00
OSAP 092100Z 28012KT CAVOK 28/12 Q1005

2010/08/09 21:00
OSLK 092100Z 15003KT CAVOK 25/22 Q1006

2010/08/09 20:50
EETU 092050Z AUTO 16005KT 9999NDV BKN170/// 18/17 Q1014

2010/08/09 20:50
LSZH 092050Z 32002KT 9999 FEW055 17/14 Q1017 NOSIG

2010/08/09 20:50
LSGG 092050Z 33004KT 290V010 9999 FEW070 BKN080 20/13 Q1017 NOSIG

2010/08/09 20:50
HLLB 092050Z 33015KT 9999 SCT020 25/20 Q1014

2010/08/09 20:50
EYPA 092050Z VRB03KT R19/P1500N 17/16 Q1015

2010/08/09 20:51
KABE 092051Z 25006KT 9SM CLR 33/19 A2995 RMK AO2 SLP138 T03280189 58012 

2010/08/09 20:51
KBTR 092051Z 01005G14KT 2SM +TSRA BR FEW014 BKN039CB OVC050 24/24 A2997

2010/08/09 21:00
FAJS 092100Z 20013KT CAVOK 04/M09 Q1029 NOSIG

2010/08/09 20:51
KATT 092051Z AUTO 13009G14KT 100V180 10SM CLR 36/19 A2991 RMK AO2 SLP113 T03610194 58019 $ 

2010/08/09 20:51
KCON 092051Z AUTO 24009KT 10SM SCT065 32/16 A2988 RMK AO2 SLP116 T03170156 56016 

2010/08/09 20:49
PAWI 092049Z 06020G27KT 10SM CLR 07/02 A2978 RMK ASOS VIA PHONE

2010/08/09 20:50
EDDB 092050Z 27003KT CAVOK 18/15 Q1016 NOSIG

2010/08/09 20:50
EDDC 092050Z 28004KT CAVOK 18/14 Q1017

2010/08/09 20:50
EDDE 092050Z 33004KT CAVOK 16/13 Q1017

2010/08/09 20:50
EDDG 092050Z VRB01KT CAVOK 15/13 Q1016 NOSIG

2010/08/09 20:50
EDDP 092050Z VRB02KT CAVOK 16/14 Q1017 NOSIG

2010/08/09 20:50
EDDR 092050Z 07002KT CAVOK 17/11 Q1017

2010/08/09 20:50
EDDW 092050Z 17004KT 9999 FEW025 BKN080 16/13 Q1016 NOSIG

2010/08/09 20:50
EDDF 092050Z 07001KT CAVOK 17/13 Q1016 NOSIG

2010/08/09 20:50
EDDH 092050Z 31001KT CAVOK 16/15 Q1016 NOSIG

2010/08/09 20:50
EDDK 092050Z 12004KT CAVOK 16/13 Q1016 NOSIG

2010/08/09 20:50
EDDL 092050Z VRB02KT CAVOK 16/13 Q1016 NOSIG

2010/08/09 20:50
EDDM 092050Z 08004KT CAVOK 16/14 Q1018 NOSIG

2010/08/09 20:50
EDDN 092050Z VRB01KT 9999 MIFG NSC 15/13 Q1017

2010/08/09 20:50
EDDS 092050Z VRB03KT CAVOK 17/12 Q1018

2010/08/09 20:50
EDDT 092050Z VRB01KT CAVOK 19/15 Q1016 NOSIG

2010/08/09 20:50
EDDV 092050Z VRB01KT CAVOK 17/13 Q1016 NOSIG

2010/08/09 20:55
KBLV 092055Z AUTO 00000KT 10SM CLR 35/24 A2989 RMK AO2 SLP118 T03490239 56009

2010/08/09 20:56
KNSI 092056Z VRB05KT 7SM SCT015 18/12 A2995 RMK AO2 SLP137 T01830122 53009 TSNO

2010/08/09 20:50
LLBG 092050Z 26005KT 9999 SCT025 28/22 Q1007 NOSIG

2010/08/09 20:50
LLOV 092050Z 28008KT CAVOK 27/17 Q1009

2010/08/09 21:00
MGGT 092100Z 18008KT 8000 TSVCRA BKN018 BKN025CB 22/17 Q1024 A3024 CB/TS/PCPN SMC S VOL/DE PACAYA EN ACTIVIDAD

2010/08/09 21:00
MPTO 092100Z 21006KT 9999 SCT018TCU SCT090 BKN300 30/24 Q1009 NOSIG

2010/08/09 20:50
OAFZ 092050Z AUTO VRB01KT //// ////// 24/07 Q1012

2010/08/09 20:50
OAMS 092050Z 22010KT 9999 FEW160 BKN180 33/01 Q1004 BLU BLU

2010/08/09 21:00
OSAP 092100Z 28012KT CAVOK 28/12 Q1005

2010/08/09 21:00
OSDI 092100Z 18005KT CAVOK 26/18 Q1007

2010/08/09 21:00
OSLK 092100Z 15003KT CAVOK 25/22 Q1006

2010/08/09 20:50
K4BL 092050Z 24010KT 50SM BKN090 26/04 RMK SHRA S SLP135 NOSPECI 8/200 T02560039 57007 

2010/08/09 20:52
KREO 092052Z AUTO VRB03KT 28/07 A2989 RMK AO2 SLP084 T02780067 58018 PWINO TSNO 

2010/08/09 21:00
OKBK 092100Z 17007KT 8000 NSC 37/14 Q0997 NOSIG

2010/08/09 20:52
KBLU 092052Z AUTO 21008KT 10SM CLR 22/06 A3011 RMK AO2 SLP105 T02170061 53001 TSNO 

2010/08/09 20:52
KNHK 092052Z 13011KT 10SM BKN250 31/18 A2999 RMK AO2 SLP154 T03110183 58009 

2010/08/09 21:00
TKPK 092100Z 08010KT 9999 -SHRA BKN014 27/25 Q1013

2010/08/09 20:50
KAEG 092050Z 26004KT 10SM SCT080 SCT100 28/09 A3014

2010/08/09 20:51
KAID 092051Z 16004KT 10SM CLR 32/22 A2996

2010/08/09 20:52
KGLS 092052Z 16010KT 10SM CLR 33/24 A2994 RMK AO2 SLP137 T03330239 58013

2010/08/09 20:55
KGLY 092055Z AUTO 00000KT 10SM CLR 35/27 A2990 RMK AO2

2010/08/09 20:52
KHRL 092052Z 10013KT 10SM SCT070 35/24 A2985 RMK AO2 SLP109 T03500244 56014

2010/08/09 20:55
KLZZ 092055Z AUTO 12013KT 10SM SCT070 37/18 A2992 RMK AO2

2010/08/09 20:55
KPAN 092055Z AUTO 17005KT 8SM FEW034 FEW044 SCT065 28/09 A3016 RMK AO1

2010/08/09 20:47
KSEE 092047Z 23008KT 15SM SKC 28/12 A2991

2010/08/09 20:50
KPMV 092050Z AUTO 22005KT 10SM CLR 35/23 A2985 RMK AO2 T03450228

2010/08/09 20:52
KAFN 092052Z AUTO 26005KT 10SM FEW110 30/16 A2995 RMK AO2 SLP138 T03000161 58013

2010/08/09 20:52
KALS 092052Z AUTO 25007KT 220V280 10SM 21/13 A3025 RMK AO2 LTG DSNT W AND NW TSB41E42 SLP157 P0000 6//// T02110128 $

2010/08/09 20:52
KAQW 092052Z AUTO 00000KT 8SM FEW060 SCT080 29/19 A2991 RMK AO2 SLP125 T02940194 56017

2010/08/09 20:52
KARR 092052Z 24005KT 10SM FEW030 SCT150 29/23 A2993 RMK AO2 SLP129 T02940228 58004

2010/08/09 20:52
KATL 092052Z VRB03KT 10SM FEW065 SCT090 SCT250 34/18 A2999 RMK AO2 SLP143 T03390183 56016

2010/08/09 20:52
KBDR 092052Z 18013KT 8SM CLR 29/21 A2993 RMK AO2 SLP135 T02940211 56013

2010/08/09 20:52
KBIS 092052Z 15015KT 10SM CLR 35/16 A2985 RMK AO2 SLP092 T03500161 58011

2010/08/09 20:52
KBLF 092052Z AUTO 28005KT 10SM CLR 31/16 A3013 RMK AO2 SLP159 T03060156 57010

2010/08/09 20:52
KBLH 092052Z AUTO 00000KT 10SM CLR 39/02 A2978 RMK AO2 SLP076 T03890022 58017

2010/08/09 20:52
KBML 092052Z AUTO VRB05KT 10SM BKN047 BKN065 27/17 A2991 RMK AO2 SLP123 60000 T02720172 58016

2010/08/09 20:52
KCFV 092052Z AUTO 17008KT 140V200 10SM CLR 38/21 A2988 RMK AO2 SLP107 T03780206 58015

2010/08/09 20:52
KCID 092052Z 09006KT 10SM FEW035 31/24 A2990 RMK AO2 SLP116 T03060244 58001

2010/08/09 20:52
KCKV 092052Z AUTO 21006KT 10SM CLR 33/23 A2992 RMK AO2 LTG DSNT SE SLP126 T03280228 56015

2010/08/09 20:52
KCLT 092052Z 16009KT 9SM SCT050 BKN180 BKN250 32/21 A3002 RMK AO2 SLP155 T03220211 55007

2010/08/09 20:52
KCNU 092052Z AUTO 17012KT 10SM FEW065 37/21 A2988 RMK AO2 SLP103 T03720211 58014

2010/08/09 20:52
KCQX 092052Z AUTO 22009G15KT 10SM CLR 27/23 A2996 RMK AO2 SLP145 T02670228 58010

2010/08/09 20:52
KCVG 092052Z 24005KT 8SM FEW060 SCT150 SCT250 33/19 A2997 RMK AO2 SLP135 T03280189 56013

2010/08/09 20:50
KCWF 092050Z 13005KT 10SM SCT050 35/22 A2992

2010/08/09 20:52
KDCA 092052Z 16008KT 8SM SCT060 SCT095 BKN250 33/21 A2996 RMK AO2 SLP146 T03330206 56012

2010/08/09 20:52
KDDC 092052Z AUTO 18013G18KT 10SM SCT085 BKN110 37/14 A2988 RMK AO2 SLP075 T03720144 58014

2010/08/09 20:52
KDPA 092052Z 23009KT 10SM BKN095 30/23 A2992 RMK AO2 SLP124 T03000233 58004

2010/08/09 20:52
KDVN 092052Z AUTO 09006KT 10SM CLR 29/23 A2992 RMK AO2 SLP127 T02940233 58000

2010/08/09 20:50
KEGE 092050Z 32004KT 10SM SCT085 23/07 A3020

2010/08/09 20:52
KEST 092052Z AUTO 08007KT 10SM BKN029 28/24 A2992 RMK AO2 SLP122 T02780239 58005

2010/08/09 20:52
KFIT 092052Z AUTO 23013KT 10SM CLR 32/17 A2991 RMK AO2 SLP128 T03220172 56016

2010/08/09 20:50
KGPM 092050Z 13008KT 10SM SCT065 38/20 A2990

2010/08/09 20:52
KHIE 092052Z AUTO 26005KT 10SM CLR 27/18 A2991 RMK AO2 LTG DSNT SW SLP126 T02670183 56013

2010/08/09 20:52
KHUT 092052Z 16012G18KT 10SM CLR 39/19 A2986 RMK AO2 SLP080 T03940194 58014

2010/08/09 20:52
KIAD 092052Z 17008KT 9SM FEW055 33/21 A2997 RMK AO2 SLP144 T03280211 56010

2010/08/09 20:52
KIEN 092052Z AUTO 13017G32KT 10SM VCTS BKN085 31/14 A2991 RMK AO2 PK WND 14032/2043 LTG DSNT SE AND S AND NW TSB29 SLP094 T03110144 58014

2010/08/09 20:52
KIJD 092052Z AUTO 19011G17KT 7SM FEW075 BKN100 29/21 A2993 RMK AO2 SLP133 T02940206 56014

2010/08/09 20:52
KIOW 092052Z AUTO 15004KT 10SM CLR 32/24 A2989 RMK AO2 SLP117 T03220239 50000

2010/08/09 20:52
KISN 092052Z 00000KT 10SM CLR 31/17 A2983 RMK AO2 SLP090 T03110167 58012

2010/08/09 20:50
KLHM 092050Z AUTO 17007KT 10SM CLR 29/12 A2984 RMK AO1 T02930119

2010/08/09 20:52
KLWC 092052Z AUTO 19013KT 10SM CLR 38/22 A2985 RMK AO2 SLP095 T03830222 57010

2010/08/09 20:50
KLXN 092050Z AUTO 09006KT 10SM CLR 32/20 A2992 RMK AO2 P0001 60001 T03220204

2010/08/09 20:52
KMDH 092052Z AUTO VRB03KT 10SM FEW060 38/22 A2988 RMK AO2 SLP115 T03780222 56018 TSNO

2010/08/09 20:52
KMEB 092052Z AUTO 00000KT 10SM CLR 33/21 A2999 RMK AO2 SLP153 T03280206 56013

2010/08/09 20:52
KMFD 092052Z 21008KT 8SM CLR 30/16 A3000 RMK AO2 SLP148 T03000156 58012

2010/08/09 20:52
KMHK 092052Z 18008KT 10SM SCT085 39/18 A2982 RMK AO2 SLP084 T03890183 56007

2010/08/09 20:52
KMKE 092052Z 11006KT 10SM BKN038 BKN049 BKN230 29/22 A2989 RMK AO2 SLP116 T02890222 55004

2010/08/09 20:50
KMLE 092050Z AUTO 15003KT 10SM SCT032 33/24 A2985 RMK AO2 T03320241

2010/08/09 20:52
KMLI 092052Z 10006KT 10SM FEW024 30/24 A2991 RMK AO2 SLP124 T03000239 58001

2010/08/09 20:49
KMMH 092049Z AUTO 12008KT 10SM CLR 24/M05 A3016 RMK AO1

2010/08/09 20:52
KMWH 092052Z 17011G15KT 10SM CLR 28/09 A2979 RMK AO2 SLP079 T02830094 58013

2010/08/09 20:55
KOAJ 092055Z AUTO 15005KT 10SM SCT040 BKN045 BKN060 32/23 A3001 RMK AO1 57007

2010/08/09 20:50
KOGA 092050Z AUTO 13010KT 10SM CLR 32/19 A2997 RMK AO2 T03150185

2010/08/09 20:52
KOKB 092052Z AUTO 27006KT 10SM CLR 23/14 A2992 RMK AO2 SLP131 T02280139 58004

2010/08/09 20:52
KOKC 092052Z 15011G19KT 10SM FEW070 SCT250 37/20 A2988 RMK AO2 SLP098 T03720200 58015

2010/08/09 20:51
KOKM 092051Z AUTO 18007KT 10SM SCT065 39/23 A2989 RMK AO1

2010/08/09 20:52
KOMA 092052Z VRB05KT 10SM SCT035 SCT160 SCT250 33/26 A2984 RMK AO2 SLP094 T03330256 51003

2010/08/09 20:50
KONL 092050Z AUTO 11004KT 10SM CLR 29/22 A2992 RMK AO2 T02850220

2010/08/09 20:52
KORE 092052Z AUTO 24004KT 10SM FEW085 32/16 A2991 RMK AO2 SLP126 T03170161 56016

2010/08/09 20:52
KOUN 092052Z AUTO 18009KT 10SM CLR 38/19 A2989 RMK AO2

2010/08/09 20:47
KPAO 092047Z 33010KT 30SM SKC A2990

2010/08/09 20:50
KPNA 092050Z AUTO 11020G32KT 10SM SCT085 21/02 A3015 RMK AO2 LTG DSNT N AND NE T02140015

2010/08/09 20:52
KPPF 092052Z AUTO 21008KT 10SM CLR 37/21 A2989 RMK AO2 SLP108 T03720211 57016

2010/08/09 20:50
KPTT 092050Z AUTO 16011G18KT 10SM CLR 37/15 A2988 RMK AO2

2010/08/09 20:48
KPVJ 092048Z AUTO 19010KT 10SM CLR 38/20 A2987 RMK AO2

2010/08/09 20:52
KPWK 092052Z 29009G16KT 10SM FEW037 31/22 A2992 RMK AO2 SLP126 T03110222 56002

2010/08/09 20:52
KPYM 092052Z AUTO 22011KT 10SM CLR 31/20 A2993 RMK AO2 SLP132 T03110200 56013

2010/08/09 20:52
KMRY 092052Z 20008KT 10SM OVC015 17/12 A2995 RMK AO2

2010/08/09 21:00
FAJS 092100Z 20013KT CAVOK 04/M09 Q1029 NOSIG

2010/08/09 20:50
ESGG 092050Z 23006KT 9999 BKN027 15/11 Q1012

2010/08/09 20:50
ESGJ 092050Z 24008KT 9999 FEW012 SCT014 OVC022 15/13 Q1012

2010/08/09 20:50
ESGP 092050Z 23008KT 9999 OVC025 16/12 Q1012

2010/08/09 20:50
ESMK 092050Z AUTO 23004KT 9999NDV NCD 13/11 Q1015

2010/08/09 20:50
ESMQ 092050Z AUTO 22006KT 9999NDV SCT036/// 16/14 Q1013

2010/08/09 20:50
ESMS 092050Z 22002KT 9999 SCT042 13/12 Q1015

2010/08/09 20:50
ESMT 092050Z AUTO 25009KT 9999NDV OVC035/// 17/10 Q1014

2010/08/09 20:50
ESMX 092050Z 23005KT 9999 OVC032 15/13 Q1013

2010/08/09 20:50
ESTA 092050Z AUTO 28008KT 9999NDV FEW033/// OVC040/// 17/10 Q1014

2010/08/09 20:50
ESTL 092050Z AUTO 23006KT 9999NDV OVC042/// 15/12 Q1015

2010/08/09 20:46
MMCE 092046Z 09010KT 8SM FEW015 SCT200 32/25 A2982 RMK SLP097 57014 951 8/105

2010/08/09 20:45
MMCM 092045Z 12012KT 7SM SCT015 32/26 A2987 RMK SLP106 5//// 8/500 971

2010/08/09 20:46
MMCT 092046Z 08007KT 7SM BKN015CB OVC090 27/24 A2988 RMK 8/36/ RA N MSGTX MMMD

2010/08/09 20:50
MMMT 092050Z 36010KT 10SM SCT020 SCT180 31/24 A2982 RMK SLP169 55057 900 8/101

2010/08/09 20:50
MMTG 092050Z 05005KT 10SM SCT020 SCT080 SCT300 32/23 A2988 RMK SLP076 57028 902 8/454 CBS 1 QUAD

2010/08/09 20:50
MMTP 092050Z 18010KT 10SM BKN020TCU BKN300 29/26 A2987 RMK SLP099 57017 918 8/206

2010/08/09 20:46
MMVA 092046Z 07010KT 6SM SCT017 SCT090 34/25 A2978 RMK SLP096 57008 908 8/120 HZY

2010/08/09 20:51
KBTR 092051Z 01005G14KT 2SM +TSRA BR FEW014 BKN039CB OVC050 24/24 A2997 RMK AO2 PK WND 06036/2027 WSHFT 2013 TSB20RAB28 CONS LTGICCG TS AT AP MOVG SW P0008

2010/08/09 20:50
EDDF 092050Z 07001KT CAVOK 17/13 Q1016 NOSIG

2010/08/09 20:50
EDDH 092050Z 31001KT CAVOK 16/15 Q1016 NOSIG

2010/08/09 20:50
EDDK 092050Z 12004KT CAVOK 16/13 Q1016 NOSIG

2010/08/09 20:50
EDDL 092050Z VRB02KT CAVOK 16/13 Q1016 NOSIG

2010/08/09 20:50
EDDM 092050Z 08004KT CAVOK 16/14 Q1018 NOSIG

2010/08/09 20:50
EDDN 092050Z VRB01KT 9999 MIFG NSC 15/13 Q1017

2010/08/09 20:50
EDDS 092050Z VRB03KT CAVOK 17/12 Q1018

2010/08/09 20:50
EDDT 092050Z VRB01KT CAVOK 19/15 Q1016 NOSIG

2010/08/09 20:50
EDDV 092050Z VRB01KT CAVOK 17/13 Q1016 NOSIG

2010/08/09 20:50
EDDB 092050Z 27003KT CAVOK 18/15 Q1016 NOSIG

2010/08/09 20:50
EDDC 092050Z 28004KT CAVOK 18/14 Q1017

2010/08/09 20:50
EDDE 092050Z 33004KT CAVOK 16/13 Q1017

2010/08/09 20:50
EDDG 092050Z VRB01KT CAVOK 15/13 Q1016 NOSIG

2010/08/09 20:50
EDDP 092050Z VRB02KT CAVOK 16/14 Q1017 NOSIG

2010/08/09 20:50
EDDR 092050Z 07002KT CAVOK 17/11 Q1017

2010/08/09 20:50
EDDW 092050Z 17004KT 9999 FEW025 BKN080 16/13 Q1016 NOSIG

2010/08/09 20:49
YPGV 092049Z 00000KT 1200 0800N BCFG BR SCT001 BKN190 22/22 Q1012

2010/08/09 20:51
KSAN 092051Z VRB06KT 10SM FEW020 22/14 A2994 RMK AO2 SLP137 T02170139 58006

2010/08/09 20:51
KSMX 092051Z 32011KT 10SM CLR 19/11 A2994 RMK AO2 SLP140 T01890111 56005

2010/08/09 20:51
KSNT 092051Z AUTO 15009KT 14/11 A3010 RMK AO2 SLP119 P0008 60019 T01390111 55001 PWINO TSNO

2010/08/09 20:51
KGDP 092051Z AUTO 24017G21KT 10SM CLR 32/10 A3014 RMK AO2 SLP113 T03170100 58017 TSNO

2010/08/09 20:51
KNYC 092051Z AUTO VRB03KT 10SM FEW070 30/19 A2997 RMK AO2 SLP140 T03000194 56009 TSNO

2010/08/09 20:51
KHSE 092051Z AUTO 22003KT 10SM OVC050 28/24 A3003 RMK AO2 SLP167 60000 T02780244 58006 TSNO

2010/08/09 20:51
KCRP 092051Z 09014G20KT 10SM SCT036 34/24 A2988 RMK AO2 SLP118 TCU DSNT S SW T03440244 58016

2010/08/09 20:51
KORF 092051Z 11009KT 10SM FEW035 31/20 A3001 RMK AO2 SLP162 T03060200 58005 $

2010/08/09 20:51
KBVE 092051Z AUTO 22005KT CLR 27/25 A2995 RMK AO2 SLP141 60051 T02720250 58012 TSNO $

2010/08/09 20:51
KJCT 092051Z AUTO 17008G15KT 10SM CLR 37/16 A2991 RMK AO2 SLP085 T03720156 58024 TSNO

2010/08/09 20:51
KDAG 092051Z AUTO 06014G17KT 10SM CLR 37/M02 A2985 RMK AO2 SLP080 T03671017 58022 TSNO

2010/08/09 20:51
KP59 092051Z AUTO 36013KT 24/21 A2988 RMK AO2 SLP110 T02390206 51005 PWINO TSNO

2010/08/09 20:51
KABE 092051Z 25006KT 9SM CLR 33/19 A2995 RMK AO2 SLP138 T03280189 58012

2010/08/09 20:51
KATT 092051Z AUTO 13009G14KT 100V180 10SM CLR 36/19 A2991 RMK AO2 SLP113 T03610194 58019 $

2010/08/09 20:51
KCON 092051Z AUTO 24009KT 10SM SCT065 32/16 A2988 RMK AO2 SLP116 T03170156 56016

2010/08/09 20:50
K4BL 092050Z 24010KT 50SM BKN090 26/04 RMK SHRA S SLP135 NOSPECI 8/200 T02560039 57007

2010/08/09 20:52
KREO 092052Z AUTO VRB03KT 28/07 A2989 RMK AO2 SLP084 T02780067 58018 PWINO TSNO

2010/08/09 20:52
KBLU 092052Z AUTO 21008KT 10SM CLR 22/06 A3011 RMK AO2 SLP105 T02170061 53001 TSNO

2010/08/09 21:00
SPIM 092100Z 17008KT 5000 HZ SCT018 17/13 Q1015 NOSIG RMK BIRD HAZARD RWY 15 PP000

2010/08/09 20:50
EYPA 092050Z VRB03KT CAVOK 17/16 Q1015

2010/08/09 20:50
BGSF 092050Z 07009KT 9999 BKN042 14/05 Q1008

2010/08/09 20:50
BGBW 092050Z AUTO 05002KT 8000NDV RA FEW003/// BKN006/// OVC022/// 10/09 Q1008

2010/08/09 20:50
BGGH 092050Z 20006KT 9999 BKN020 BKN060 10/08 Q1008 RMK 6ST 7AS 

2010/08/09 20:50
BGJN 092050Z 14010KT 9999 FEW029 BKN110 13/04 Q1008 RMK 2SC 6AC 

2010/08/09 20:50
BGJN 092050Z 14010KT 9999 FEW029 BKN110 13/04 Q1008 RMK 2SC 6AC 

2010/08/09 20:50
EKKA 092050Z 19005KT 9999 FEW030 SCT250 13/11 Q1014

2010/08/09 20:50
EKSP 092050Z VRB03KT CAVOK 12/10 Q1016 RMK FEW055 SCT250

2010/08/09 20:50
EKCH 092050Z 29004KT 9999 BKN045 16/11 Q1015 NOSIG

2010/08/09 20:50
EKYT 092050Z 26008KT 9999 FEW018 BKN035 16/13 Q1013

2010/08/09 20:50
EKRK 092050Z AUTO 21002KT 9999NDV SCT044/// 14/11 Q1015

2010/08/09 20:50
EKAH 092050Z AUTO 25005KT 220V280 9999NDV OVC043/// 16/11 Q1015

2010/08/09 20:50
EKEB 092050Z AUTO 17005KT 9999NDV NCD 13/11 Q1015

2010/08/09 20:50
EKRN 092050Z AUTO 26004KT 9999NDV NCD 17/15 Q1016

2010/08/09 20:50
EKSB 092050Z 23003KT 9999 FEW041 13/10 Q1015

2010/08/09 20:50
EKVD 092050Z AUTO 19005KT //// ///////// 13/11 Q1015

2010/08/09 20:50
EKHN 092050Z AUTO 20009KT 160V250 9999NDV BKN062/// 18/14 Q1016

2010/08/09 20:50
EKHR 092050Z AUTO 20012KT 9999NDV FEW065/// 17/13 Q1014

2010/08/09 20:51
KPHX 092051Z 01004KT 10SM FEW120 SCT150 SCT180 38/07 A2983 RMK AO2 SLP078 T03830072 58016 $

2010/08/09 20:51
KPIT 092051Z 19006KT 10SM SCT150 BKN250 31/15 A2999 RMK AO2 SLP153 T03110150 58015

2010/08/09 20:50
KPLU 092050Z AUTO 00000KT 10SM OVC021 17/13 A2999 RMK AO2

2010/08/09 20:51
KPWM 092051Z 15007KT 10SM SCT075 BKN090 27/19 A2987 RMK AO2 SLP114 T02720189 56015

2010/08/09 20:51
KRDU 092051Z 15005KT 10SM SCT060 SCT250 32/19 A3001 RMK AO2 SLP157 T03220189 56009

2010/08/09 20:51
KSJT 092051Z 18007G15KT 150V210 10SM SCT075 38/17 A2990 RMK AO2 SLP092 T03780172 58025

2010/08/09 20:51
KSLK 092051Z AUTO 24006KT 7SM FEW039 26/18 A2992 RMK AO2 LTG DSNT ALQDS SLP122 T02610183 56011

2010/08/09 20:51
KSMO 092051Z 22009KT 10SM CLR 19/13 A2994 RMK AO2 SLP137 T01940128 58001

2010/08/09 20:50
KSRE 092050Z AUTO 14005KT 10SM CLR 37/19 A2990 RMK AO2

2010/08/09 20:51
KSTL 092051Z 25007KT 10SM FEW046 BKN250 36/24 A2990 RMK AO2 SLP109 TCU DSNT N AND DSNT NW T03560244 56007

2010/08/09 20:47
KTOA 092047Z 28016KT 7SM SKC 23/14 A2994

2010/08/09 20:51
KVNY 092051Z 15009KT 10SM CLR 27/11 A2990 RMK AO2 SLP116 T02670111 58006

2010/08/09 20:48
KWWR 092048Z AUTO 16009G19KT 10SM SCT075 SCT095 BKN110 38/17 A2990 RMK AO2 T03760172

2010/08/09 20:47
K1F0 092047Z AUTO 19008KT 10SM CLR 37/19 A2986 RMK AO2

2010/08/09 20:58
K36U 092058Z AUTO 22014G19KT 10SM CLR 25/03 A3009 RMK AO2 LTG DSNT N

2010/08/09 20:48
K4O4 092048Z AUTO 19007KT 10SM VCTS CLR 36/20 A2992 RMK AO2

2010/08/09 20:51
KACT 092051Z 16010KT 10SM SCT065 38/19 A2989 RMK AO2 SLP113 T03780194 57019 $

2010/08/09 20:51
KADH 092051Z AUTO 18007G15KT 10SM CLR 36/16 A2990 RMK AO2

2010/08/09 20:50
KAFK 092050Z AUTO 22004KT 10SM CLR 34/24 A2984 RMK AO2 T03410239

2010/08/09 20:51
KAHN 092051Z 29004KT 6SM HZ SCT060 33/21 A2999 RMK AO2 SLP147 T03330206 56016 TSNO

2010/08/09 20:45
KALM 092045Z AUTO 30005KT 10SM CLR 32/12 A3003 RMK AO2 LTG DSNT NE AND S

2010/08/09 20:50
KANW 092050Z AUTO 07003KT 10SM CLR 31/16 A2994 RMK AO2 T03100158

2010/08/09 20:51
KASH 092051Z VRB05KT 10SM SCT065 33/18 A2989 RMK AO2 56016 T03270177 SLP122

2010/08/09 20:50
KATS 092050Z AUTO 17009G15KT 10SM VCTS FEW100 32/14 A2998 RMK AO2 LTG DSNT S-W

2010/08/09 20:50
KAUH 092050Z AUTO 08004KT 10SM CLR 32/22 A2989 RMK AO2 T03240222

2010/08/09 20:50
KAUN 092050Z AUTO 24006KT 10SM CLR 28/13 A2991 RMK AO1

2010/08/09 20:51
KAVX 092051Z AUTO 28007KT 10SM CLR 18/12 A2997 RMK AO2 SLP138 T01830122 58001 TSNO

2010/08/09 20:50
KAXS 092050Z AUTO 19008KT 10SM CLR 37/19 A2987 RMK AO2 T03670191

2010/08/09 20:50
KAXX 092050Z AUTO 15009KT 10SM SCT095 BKN110 18/11 A3033 RMK AO2

2010/08/09 20:51
KBGD 092051Z AUTO 18011G19KT 10SM CLR 36/14 A2993 RMK AO2 SLP081 6//// T03610139

2010/08/09 20:50
KBIE 092050Z AUTO 15007KT 140V200 10SM CLR 36/23 A2984 RMK AO2 T03580226

2010/08/09 20:50
KBTA 092050Z AUTO 36003KT 10SM BKN024 OVC030 31/25 A2986 RMK AO2 T03120247

2010/08/09 20:47
KBVI 092047Z 27008KT 10SM BKN200 31/18 A3003

2010/08/09 20:50
KBVN 092050Z AUTO 09005KT 10SM CLR 31/23 A2989 RMK AO2 T03120230

2010/08/09 20:45
KBVS 092045Z AUTO 20005KT 3SM OVC016 16/14 A3000 RMK A01 P000

2010/08/09 20:50
KCHK 092050Z AUTO 16012G16KT 10SM CLR 39/21 A2986 RMK AO2

2010/08/09 20:51
KCLE 092051Z 22007KT 10SM FEW050 BKN150 OVC250 29/18 A2998 RMK AO2 SLP143 8/578 T02940183 58012

2010/08/09 20:50
KCLK 092050Z AUTO 18007KT 10SM CLR 37/11 A2986 RMK AO2

2010/08/09 20:51
KCMH 092051Z 18008G16KT 120V210 10SM FEW070 SCT140 BKN200 32/18 A2997 RMK AO2 SLP141 T03170183 56016

2010/08/09 20:50
KCQB 092050Z AUTO 19007G16KT 10SM CLR 38/21 A2988 RMK AO2 TSNO

2010/08/09 20:51
KCSG 092051Z 15010KT 10SM SCT070 SCT100 35/19 A2995 RMK AO2 SLP134 T03500194 56012

2010/08/09 20:50
KCUH 092050Z AUTO 16007KT 10SM CLR 38/21 A2988 RMK AO2

2010/08/09 20:51
KDAW 092051Z AUTO VRB03KT 10SM BKN090 32/16 A2987 RMK AO2 SLP109 T03170156 57017

2010/08/09 20:50
KDVO 092050Z AUTO 04006KT 10SM 22/14 A2991 RMK AO2

2010/08/09 20:51
KERI 092051Z 26008KT 7SM FEW100 28/18 A2996 RMK AO2 SLP141 T02830178 58008

2010/08/09 20:51
KEWR 092051Z 15011G16KT 9SM BKN065TCU BKN250 32/21 A2993 RMK AO2 SLP134 TCU OHD HAZE ALOFT T03170206 56014 $

2010/08/09 20:50
KSGR 092050Z 18007KT 10SM SCT065 35/22 A2990 RMK AO2

2010/08/09 20:51
KDCU 092051Z AUTO 32007KT 9SM TS CLR 31/23 A2996 RMK AO2 LTG DSNT W AND NW TSB45

2010/08/09 20:52
KMRY 092052Z 20008KT 10SM OVC015 17/12 A2995 RMK AO2

2010/08/09 20:49
KBTV 092049Z 18003KT 3SM TSRA BR FEW047CB BKN070 OVC095 22/21 A2986 RMK AO2 TSB09RAB10 OCNL LTGIC SE TS SE MOV SE P0013

2010/08/09 20:51
KBTR 092051Z 01005G14KT 2SM +TSRA BR FEW014 BKN039CB OVC050 24/24 A2997 RMK AO2 PK WND 06036/2027 WSHFT 2013 TSB20RAB28 CONS LTGICCG TS AT AP MOVG SW P0008

2010/08/09 20:50
KFET 092050Z AUTO 34004KT 10SM BKN020 30/25 A2987 RMK AO2 T03030250

2010/08/09 20:50
KGCD 092050Z AUTO 29011G17KT 10SM CLR 27/05 A2990 RMK AO2 T02680049

2010/08/09 20:52
KGCM 092052Z AUTO 19010G15KT 10SM CLR 37/21 A2992 RMK AO2

2010/08/09 20:51
KGMJ 092051Z AUTO 15006KT 10SM SCT065 SCT080 38/18 A2990 RMK AO2

2010/08/09 20:50
KHDE 092050Z AUTO 08005KT 10SM CLR 31/22 A2991 RMK AO2 T03140223

2010/08/09 20:50
KHJH 092050Z AUTO 24003KT 10SM CLR 36/23 A2985 RMK AO2 T03550226

2010/08/09 20:50
KIBM 092050Z AUTO 19005G17KT 10SM SCT075 BKN095 BKN120 29/13 A3004 RMK AO2 T02930134

2010/08/09 20:50
KIDP 092050Z AUTO 18009KT 10SM SCT065 36/20 A2987 RMK AO2

2010/08/09 20:51
KILG 092051Z 17013G19KT 10SM CLR 31/22 A2998 RMK AO2 SLP149 T03060217 56010

2010/08/09 20:51
KJFK 092051Z 18019KT 9SM FEW140 BKN250 28/20 A2996 RMK AO2 SLP146 T02780200 58013

2010/08/09 20:51
KJSV 092051Z AUTO 00000KT 10SM CLR 36/19 A2990 RMK AO2

2010/08/09 20:50
KJYR 092050Z AUTO 08003KT 10SM 33/25 A2987 RMK AO2

2010/08/09 20:49
KL35 092049Z AUTO 31007KT 10SM CLR 23/M07 A3017 RMK AO2

2010/08/09 20:51
KLAM 092051Z AUTO 32010G18KT 10SM BKN060 OVC070 22/12 A3023 RMK AO2

2010/08/09 20:50
KLAM 092050Z AUTO 34007G18KT 271V021 10SM BKN060 OVC070 22/11 A3024 RMK AO2

2010/08/09 20:50
KLCG 092050Z AUTO 07007KT 4SM HZ OVC017 27/24 A2990 RMK AO2 T02700241

2010/08/09 20:51
KLGA 092051Z 17018G23KT 10SM FEW060 OVC250 31/18 A2994 RMK AO2 SLP139 T03060178 56009

2010/08/09 20:51
KLGU 092051Z AUTO 12014G18KT 10SM SCT090 SCT110 25/06 A3002 RMK AO2 WSHFT 2028 LTG DSNT NE AND E TSB22E46 SLP122 T02500056 55002

2010/08/09 20:51
KMDW 092051Z 27008KT 10SM FEW040 BKN090 BKN150 BKN250 31/21 A2991 RMK AO2 SLP115 T03060211 56004 PNO

2010/08/09 20:51
KMPV 092051Z AUTO 06003KT 10SM -TSRA FEW036 SCT044 BKN055 23/18 A2996 RMK AO2 LTG DSNT ALQDS TSE35B43RAB51 SLP142 P0000 60000 T02330178 55003

2010/08/09 20:45
KMYR 092045Z 15010KT 10SM SCT015 BKN050 28/24 A3004

2010/08/09 20:50
KOJA 092050Z AUTO 19010KT 10SM SCT085 SCT120 37/18 A2988 RMK AO2

2010/08/09 20:51
KORD 092051Z 30010KT 10SM SCT038 SCT150 BKN200 BKN250 31/22 A2991 RMK AO2 SLP122 T03110222 56004

2010/08/09 20:50
KORS 092050Z AUTO 19003KT 5SM -RA BKN020 14/13 A2997 RMK AO2

2010/08/09 20:45
KOXC 092045Z 19005KT 7SM BKN055 BKN070 29/20 A2997 RMK TCU OHD

2010/08/09 20:51
KJCT 092051Z AUTO 17008G15KT 10SM CLR 37/16 A2991 RMK AO2 SLP085 T03720156 58024 TSNO

2010/08/09 20:51
KDAG 092051Z AUTO 06014G17KT 10SM CLR 37/M02 A2985 RMK AO2 SLP080 T03671017 58022 TSNO

2010/08/09 20:50
KAEG 092050Z 26004KT 10SM SCT080 SCT100 28/09 A3014

2010/08/09 20:52
KGLS 092052Z 16010KT 10SM CLR 33/24 A2994 RMK AO2 SLP137 T03330239 58013

2010/08/09 20:55
KGLY 092055Z AUTO 00000KT 10SM CLR 35/27 A2990 RMK AO2

2010/08/09 20:52
KHRL 092052Z 10013KT 10SM SCT070 35/24 A2985 RMK AO2 SLP109 T03500244 56014

2010/08/09 20:55
KPAN 092055Z AUTO 17005KT 8SM FEW034 FEW044 SCT065 28/09 A3016 RMK AO1

2010/08/09 20:47
KSEE 092047Z 23008KT 15SM SKC 28/12 A2991

2010/08/09 20:50
KPMV 092050Z AUTO 22005KT 10SM CLR 35/23 A2985 RMK AO2 T03450228

2010/08/09 20:52
KAFN 092052Z AUTO 26005KT 10SM FEW110 30/16 A2995 RMK AO2 SLP138 T03000161 58013

2010/08/09 20:52
KAQW 092052Z AUTO 00000KT 8SM FEW060 SCT080 29/19 A2991 RMK AO2 SLP125 T02940194 56017

2010/08/09 20:52
KARR 092052Z 24005KT 10SM FEW030 SCT150 29/23 A2993 RMK AO2 SLP129 T02940228 58004

2010/08/09 20:52
KATL 092052Z VRB03KT 10SM FEW065 SCT090 SCT250 34/18 A2999 RMK AO2 SLP143 T03390183 56016

2010/08/09 20:52
KBIS 092052Z 15015KT 10SM CLR 35/16 A2985 RMK AO2 SLP092 T03500161 58011

2010/08/09 20:52
KBLF 092052Z AUTO 28005KT 10SM CLR 31/16 A3013 RMK AO2 SLP159 T03060156 57010

2010/08/09 20:52
KBLH 092052Z AUTO 00000KT 10SM CLR 39/02 A2978 RMK AO2 SLP076 T03890022 58017

2010/08/09 20:52
KBML 092052Z AUTO VRB05KT 10SM BKN047 BKN065 27/17 A2991 RMK AO2 SLP123 60000 T02720172 58016

2010/08/09 20:52
KCFV 092052Z AUTO 17008KT 140V200 10SM CLR 38/21 A2988 RMK AO2 SLP107 T03780206 58015

2010/08/09 20:52
KCKV 092052Z AUTO 21006KT 10SM CLR 33/23 A2992 RMK AO2 LTG DSNT SE SLP126 T03280228 56015

2010/08/09 20:55
KBLV 092055Z AUTO 00000KT 10SM CLR 35/24 A2989 RMK AO2 SLP118 T03490239 56009

2010/08/09 20:56
KNSI 092056Z VRB05KT 7SM SCT015 18/12 A2995 RMK AO2 SLP137 T01830122 53009 TSNO

2010/08/09 20:52
KNHK 092052Z 13011KT 10SM BKN250 31/18 A2999 RMK AO2 SLP154 T03110183 58009

2010/08/09 20:52
KCLT 092052Z 16009KT 9SM SCT050 BKN180 BKN250 32/21 A3002 RMK AO2 SLP155 T03220211 55007

2010/08/09 20:52
KCQX 092052Z AUTO 22009G15KT 10SM CLR 27/23 A2996 RMK AO2 SLP145 T02670228 58010

2010/08/09 20:52
KCVG 092052Z 24005KT 8SM FEW060 SCT150 SCT250 33/19 A2997 RMK AO2 SLP135 T03280189 56013

2010/08/09 20:50
KCWF 092050Z 13005KT 10SM SCT050 35/22 A2992

2010/08/09 20:52
KDCA 092052Z 16008KT 8SM SCT060 SCT095 BKN250 33/21 A2996 RMK AO2 SLP146 T03330206 56012

2010/08/09 20:52
KDDC 092052Z AUTO 18013G18KT 10SM SCT085 BKN110 37/14 A2988 RMK AO2 SLP075 T03720144 58014

2010/08/09 20:52
KDPA 092052Z 23009KT 10SM BKN095 30/23 A2992 RMK AO2 SLP124 T03000233 58004

2010/08/09 20:52
KDVN 092052Z AUTO 09006KT 10SM CLR 29/23 A2992 RMK AO2 SLP127 T02940233 58000

2010/08/09 20:50
KEGE 092050Z 32004KT 10SM SCT085 23/07 A3020

2010/08/09 20:52
KEST 092052Z AUTO 08007KT 10SM BKN029 28/24 A2992 RMK AO2 SLP122 T02780239 58005

2010/08/09 20:52
KFIT 092052Z AUTO 23013KT 10SM CLR 32/17 A2991 RMK AO2 SLP128 T03220172 56016

2010/08/09 20:50
KGPM 092050Z 13008KT 10SM SCT065 38/20 A2990

2010/08/09 20:52
KHIE 092052Z AUTO 26005KT 10SM CLR 27/18 A2991 RMK AO2 LTG DSNT SW SLP126 T02670183 56013

2010/08/09 20:52
KHUT 092052Z 16012G18KT 10SM CLR 39/19 A2986 RMK AO2 SLP080 T03940194 58014

2010/08/09 20:52
KIAD 092052Z 17008KT 9SM FEW055 33/21 A2997 RMK AO2 SLP144 T03280211 56010

2010/08/09 20:52
KIEN 092052Z AUTO 13017G32KT 10SM VCTS BKN085 31/14 A2991 RMK AO2 PK WND 14032/2043 LTG DSNT SE AND S AND NW TSB29 SLP094 T03110144 58014

2010/08/09 20:52
KIJD 092052Z AUTO 19011G17KT 7SM FEW075 BKN100 29/21 A2993 RMK AO2 SLP133 T02940206 56014

2010/08/09 20:52
KIOW 092052Z AUTO 15004KT 10SM CLR 32/24 A2989 RMK AO2 SLP117 T03220239 50000

2010/08/09 20:52
KISN 092052Z 00000KT 10SM CLR 31/17 A2983 RMK AO2 SLP090 T03110167 58012

2010/08/09 20:50
KLHM 092050Z AUTO 17007KT 10SM CLR 29/12 A2984 RMK AO1 T02930119

2010/08/09 20:52
KLWC 092052Z AUTO 19013KT 10SM CLR 38/22 A2985 RMK AO2 SLP095 T03830222 57010

2010/08/09 20:50
KLXN 092050Z AUTO 09006KT 10SM CLR 32/20 A2992 RMK AO2 P0001 60001 T03220204

2010/08/09 20:52
KMDH 092052Z AUTO VRB03KT 10SM FEW060 38/22 A2988 RMK AO2 SLP115 T03780222 56018 TSNO

2010/08/09 20:52
KMEB 092052Z AUTO 00000KT 10SM CLR 33/21 A2999 RMK AO2 SLP153 T03280206 56013

2010/08/09 20:52
KMKE 092052Z 11006KT 10SM BKN038 BKN049 BKN230 29/22 A2989 RMK AO2 SLP116 T02890222 55004

2010/08/09 20:50
KMLE 092050Z AUTO 15003KT 10SM SCT032 33/24 A2985 RMK AO2 T03320241

2010/08/09 20:52
KMLI 092052Z 10006KT 10SM FEW024 30/24 A2991 RMK AO2 SLP124 T03000239 58001

2010/08/09 20:49
KMMH 092049Z AUTO 12008KT 10SM CLR 24/M05 A3016 RMK AO1

2010/08/09 20:52
KMWH 092052Z 17011G15KT 10SM CLR 28/09 A2979 RMK AO2 SLP079 T02830094 58013

2010/08/09 20:55
KOAJ 092055Z AUTO 15005KT 10SM SCT040 BKN045 BKN060 32/23 A3001 RMK AO1 57007

2010/08/09 20:50
KOGA 092050Z AUTO 13010KT 10SM CLR 32/19 A2997 RMK AO2 T03150185

2010/08/09 20:52
KOKB 092052Z AUTO 27006KT 10SM CLR 23/14 A2992 RMK AO2 SLP131 T02280139 58004

2010/08/09 20:52
KOKC 092052Z 15011G19KT 10SM FEW070 SCT250 37/20 A2988 RMK AO2 SLP098 T03720200 58015

2010/08/09 20:51
KOKM 092051Z AUTO 18007KT 10SM SCT065 39/23 A2989 RMK AO1

2010/08/09 20:52
KOMA 092052Z VRB05KT 10SM SCT035 SCT160 SCT250 33/26 A2984 RMK AO2 SLP094 T03330256 51003

2010/08/09 20:50
KONL 092050Z AUTO 11004KT 10SM CLR 29/22 A2992 RMK AO2 T02850220

2010/08/09 20:52
KORE 092052Z AUTO 24004KT 10SM FEW085 32/16 A2991 RMK AO2 SLP126 T03170161 56016

2010/08/09 20:52
KOUN 092052Z AUTO 18009KT 10SM CLR 38/19 A2989 RMK AO2

2010/08/09 20:47
KPAO 092047Z 33010KT 30SM SKC A2990

2010/08/09 20:50
KPNA 092050Z AUTO 11020G32KT 10SM SCT085 21/02 A3015 RMK AO2 LTG DSNT N AND NE T02140015

2010/08/09 20:52
KPPF 092052Z AUTO 21008KT 10SM CLR 37/21 A2989 RMK AO2 SLP108 T03720211 57016

2010/08/09 20:50
KPTT 092050Z AUTO 16011G18KT 10SM CLR 37/15 A2988 RMK AO2

2010/08/09 20:48
KPVJ 092048Z AUTO 19010KT 10SM CLR 38/20 A2987 RMK AO2

2010/08/09 20:52
KPWK 092052Z 29009G16KT 10SM FEW037 31/22 A2992 RMK AO2 SLP126 T03110222 56002

2010/08/09 21:00
MNMG 092100Z 36004KT 9000 -TS FEW020CB SCT022 27/25 Q1009 A2981 CB/N/NW/W/SW/S/SE 9KM/RA/SW/W/NW/N

2010/08/09 20:52
KPYM 092052Z AUTO 22011KT 10SM CLR 31/20 A2993 RMK AO2 SLP132 T03110200 56013

2010/08/09 20:51
KSAN 092051Z VRB06KT 10SM FEW020 22/14 A2994 RMK AO2 SLP137 T02170139 58006

2010/08/09 20:51
KOXR 092051Z 22006KT 10SM BKN012 18/13 A2994 RMK AO2 SLP137 T01830128 50001

2010/08/09 20:50
KPTS 092050Z AUTO 22008KT 10SM CLR 36/19 A2990 RMK AO2 T03600194

2010/08/09 20:51
KPVD 092051Z 19013KT 10SM FEW046TCU SCT060 SCT080 SCT250 30/21 A2993 RMK AO2 SLP135 TCU N-NE T03000206 56011

2010/08/09 20:51
KROW 092051Z 21006KT 10SM CLR 33/14 A2999 RMK AO2 SLP083 T03280139 58020

2010/08/09 20:51
KTEB 092051Z 16011G16KT 10SM FEW070 32/19 A2992 RMK AO2 SLP131 T03170189 56013

2010/08/09 20:51
KYNG 092051Z 25009KT 10SM FEW050 BKN100 OVC200 29/17 A3000 RMK AO2 SLP151 8/177 T02940172 55010

2010/08/09 20:51
KALB 092051Z 27009KT 7SM SCT070 BKN095 BKN120 31/18 A2989 RMK AO2 SLP120 T03110178 56019

2010/08/09 20:51
KBDL 092051Z 21011KT 10SM FEW070 SCT100 BKN140 33/14 A2990 RMK AO2 SLP123 T03280139 56015

2010/08/09 20:51
KBKW 092051Z AUTO 22004KT 6SM HZ CLR 29/17 A3011 RMK AO2 SLP154 T02940172 58010

2010/08/09 20:51
KEKN 092051Z AUTO 31007KT 9SM CLR 30/19 A3007 RMK AO2 SLP169 T03000189 56007 TSNO

2010/08/09 20:51
KELP 092051Z 23008KT 190V250 10SM FEW100 35/08 A3001 RMK AO2 SLP081 CB DSNT NE S-SW T03500078 58017

2010/08/09 20:51
KHTS 092051Z 00000KT 10SM CLR 32/18 A2999 RMK AO2 SLP146 T03170183 58015

2010/08/09 20:50
KISM 092050Z 16006KT 10SM SCT070 31/24 A2990

2010/08/09 20:51
KSMX 092051Z 32011KT 10SM CLR 19/11 A2994 RMK AO2 SLP140 T01890111 56005

2010/08/09 20:51
KSNT 092051Z AUTO 15009KT 14/11 A3010 RMK AO2 SLP119 P0008 60019 T01390111 55001 PWINO TSNO

2010/08/09 20:51
KGDP 092051Z AUTO 24017G21KT 10SM CLR 32/10 A3014 RMK AO2 SLP113 T03170100 58017 TSNO

2010/08/09 20:51
KNYC 092051Z AUTO VRB03KT 10SM FEW070 30/19 A2997 RMK AO2 SLP140 T03000194 56009 TSNO

2010/08/09 20:51
KHSE 092051Z AUTO 22003KT 10SM OVC050 28/24 A3003 RMK AO2 SLP167 60000 T02780244 58006 TSNO

2010/08/09 20:51
KCRP 092051Z 09014G20KT 10SM SCT036 34/24 A2988 RMK AO2 SLP118 TCU DSNT S SW T03440244 58016

2010/08/09 20:51
KORF 092051Z 11009KT 10SM FEW035 31/20 A3001 RMK AO2 SLP162 T03060200 58005 $

2010/08/09 20:51
KBVE 092051Z AUTO 22005KT CLR 27/25 A2995 RMK AO2 SLP141 60051 T02720250 58012 TSNO $

2010/08/09 20:51
KP59 092051Z AUTO 36013KT 24/21 A2988 RMK AO2 SLP110 T02390206 51005 PWINO TSNO

2010/08/09 20:51
KABE 092051Z 25006KT 9SM CLR 33/19 A2995 RMK AO2 SLP138 T03280189 58012

2010/08/09 20:51
KATT 092051Z AUTO 13009G14KT 100V180 10SM CLR 36/19 A2991 RMK AO2 SLP113 T03610194 58019 $

2010/08/09 20:51
KAID 092051Z 16004KT 10SM CLR 32/22 A2996

2010/08/09 20:55
KLZZ 092055Z AUTO 12013KT 10SM SCT070 37/18 A2992 RMK AO2

2010/08/09 20:51
KCON 092051Z AUTO 24009KT 10SM SCT065 32/16 A2988 RMK AO2 SLP116 T03170156 56016

2010/08/09 20:50
K4BL 092050Z 24010KT 50SM BKN090 26/04 RMK SHRA S SLP135 NOSPECI 8/200 T02560039 57007

2010/08/09 20:52
KREO 092052Z AUTO VRB03KT 28/07 A2989 RMK AO2 SLP084 T02780067 58018 PWINO TSNO

2010/08/09 20:52
KBLU 092052Z AUTO 21008KT 10SM CLR 22/06 A3011 RMK AO2 SLP105 T02170061 53001 TSNO

2010/08/09 20:52
KALS 092052Z AUTO 25007KT 220V280 10SM 21/13 A3025 RMK AO2 LTG DSNT W AND NW TSB41E42 SLP157 P0000 6//// T02110128 $

2010/08/09 20:52
KBDR 092052Z 18013KT 8SM CLR 29/21 A2993 RMK AO2 SLP135 T02940211 56013

2010/08/09 20:52
KCID 092052Z 09006KT 10SM FEW035 31/24 A2990 RMK AO2 SLP116 T03060244 58001

2010/08/09 20:52
KCNU 092052Z AUTO 17012KT 10SM FEW065 37/21 A2988 RMK AO2 SLP103 T03720211 58014

2010/08/09 20:52
KMFD 092052Z 21008KT 8SM CLR 30/16 A3000 RMK AO2 SLP148 T03000156 58012

2010/08/09 20:52
KMHK 092052Z 18008KT 10SM SCT085 39/18 A2982 RMK AO2 SLP084 T03890183 56007

2010/08/09 20:52
KP69 092052Z AUTO VRB06KT 28/14 A2979 RMK AO2 SLP065 T02830139 55010 PWINO TSNO 

2010/08/09 20:52
EYVI 092052Z 12002KT 0800 R20/0600VP1500D FG NSC 15/15 Q1017 TEMPO 0600 FG

2010/08/09 20:52
KABI 092052Z 20007KT 10SM FEW070 36/18 A2992 RMK AO2 SLP098 T03560178 58022 

2010/08/09 20:52
KN60 092052Z AUTO 17006KT 32/18 A2984 RMK AO1 SLP093 T03220178 56010 

2010/08/09 20:50
EYSA 092050Z 20005KT CAVOK 18/16 Q1016

2010/08/09 20:50
EDDB 092050Z 27003KT CAVOK 18/15 Q1016 NOSIG

2010/08/09 20:50
EDDC 092050Z 28004KT CAVOK 18/14 Q1017

2010/08/09 20:50
EDDG 092050Z VRB01KT CAVOK 15/13 Q1016 NOSIG

2010/08/09 20:50
EDDP 092050Z VRB02KT CAVOK 16/14 Q1017 NOSIG

2010/08/09 20:50
EDDR 092050Z 07002KT CAVOK 17/11 Q1017

2010/08/09 20:50
EDDT 092050Z VRB01KT CAVOK 19/15 Q1016 NOSIG

2010/08/09 20:50
EDDV 092050Z VRB01KT CAVOK 17/13 Q1016 NOSIG

2010/08/09 20:50
EDDW 092050Z 17004KT 9999 FEW025 BKN080 16/13 Q1016 NOSIG

2010/08/09 20:45
KSWF 092045Z 26006G16KT 10SM BKN100 32/20 AA2995

2010/08/09 20:48
K4O4 092048Z AUTO 19007KT 10SM VCTS CLR 36/20 A2992 RMK AO2

2010/08/09 20:46
KGLE 092046Z AUTO 14009KT 10SM SCT065 SCT090 37/18 A2990

2010/08/09 20:50
HLLB 092050Z 33015KT 9999 SCT020 25/20 Q1014

2010/08/09 20:50
HLLB 092050Z 33015KT 9999 SCT020 25/20 Q1014

2010/08/09 20:50
HLLB 092050Z 33015KT 9999 SCT020 25/20 Q1014

2010/08/09 20:45
KDNV 092045Z AUTO 17003KT 10SM SCT038 32/24 A2989

2010/08/09 20:45
KHSB 092045Z AUTO 06005KT 10SM SCT060 36/18 A2990

2010/08/09 20:45
KMQB 092045Z AUTO 13006KT 10SM CLR 32/26 A2992

2010/08/09 20:45
KTAZ 092045Z AUTO 18006KT 10SM CLR 36/27 A2989

2010/08/09 20:45
KTIP 092045Z AUTO 16003KT 10SM CLR 33/27 A2993

2010/08/09 20:45
KMYR 092045Z 15010KT 10SM SCT015 BKN050 28/24 A3004

2010/08/09 21:00
OYRN 092100Z 32006KT CAVOK 29/20 Q1002

2010/08/09 20:52
KSDB 092052Z AUTO 19016G20KT 10SM CLR 27/M07 A3007 RMK AO2 SLP126 T02671067 53001 TSNO 

2010/08/09 20:48
KIZA 092048Z AUTO 28006KT 10SM CLR 27/11 A2991

2010/08/09 20:50
OAKN 092050Z 00000KT 9000 DU FEW150 32/M01 Q1005 BLU NOSIG RMK A2969 DA6200

2010/08/09 20:48
KEHA 092048Z AUTO 17015KT 36/14

2010/08/09 20:50
BGSF 092050Z 07009KT 9999 BKN042 14/05 Q1008

2010/08/09 20:50
BGBW 092050Z AUTO 05002KT 8000NDV RA FEW003/// BKN006/// OVC022/// 10/09 Q1008

2010/08/09 20:50
BGGH 092050Z 20006KT 9999 BKN020 BKN060 10/08 Q1008 RMK 6ST 7AS 

2010/08/09 20:50
BGJN 092050Z 14010KT 9999 FEW029 BKN110 13/04 Q1008 RMK 2SC 6AC 

2010/08/09 20:50
ESGG 092050Z 23006KT 9999 BKN027 15/11 Q1012

2010/08/09 20:50
ESGJ 092050Z 24008KT 9999 FEW012 SCT014 OVC022 15/13 Q1012

2010/08/09 20:50
ESGP 092050Z 23008KT 9999 OVC025 16/12 Q1012

2010/08/09 20:50
ESMK 092050Z AUTO 23004KT 9999NDV NCD 13/11 Q1015

2010/08/09 20:50
ESMQ 092050Z AUTO 22006KT 9999NDV SCT036/// 16/14 Q1013

2010/08/09 20:50
ESMS 092050Z 22002KT 9999 SCT042 13/12 Q1015

2010/08/09 20:50
ESMT 092050Z AUTO 25009KT 9999NDV OVC035/// 17/10 Q1014

2010/08/09 20:50
ESMX 092050Z 23005KT 9999 OVC032 15/13 Q1013

2010/08/09 20:50
ESTA 092050Z AUTO 28008KT 9999NDV FEW033/// OVC040/// 17/10 Q1014

2010/08/09 20:50
ESTL 092050Z AUTO 23006KT 9999NDV OVC042/// 15/12 Q1015

2010/08/09 20:50
EKKA 092050Z 19005KT 9999 FEW030 SCT250 13/11 Q1014

2010/08/09 20:50
EKSP 092050Z VRB03KT CAVOK 12/10 Q1016 RMK FEW055 SCT250

2010/08/09 20:50
EYPA 092050Z VRB03KT CAVOK 17/16 Q1015

2010/08/09 20:50
EKSB 092050Z 23003KT 9999 FEW041 13/10 Q1015

2010/08/09 20:50
EKVD 092050Z AUTO 19005KT //// ///////// 13/11 Q1015

2010/08/09 20:50
EKCH 092050Z 29004KT 9999 BKN045 16/11 Q1015 NOSIG

2010/08/09 20:50
EKYT 092050Z 26008KT 9999 FEW018 BKN035 16/13 Q1013

2010/08/09 20:50
EKRK 092050Z AUTO 21002KT 9999NDV SCT044/// 14/11 Q1015

2010/08/09 20:50
EKAH 092050Z AUTO 25005KT 220V280 9999NDV OVC043/// 16/11 Q1015

2010/08/09 20:50
EKEB 092050Z AUTO 17005KT 9999NDV NCD 13/11 Q1015

2010/08/09 20:50
EKRN 092050Z AUTO 26004KT 9999NDV NCD 17/15 Q1016

2010/08/09 20:50
LXGB 092050Z 08005KT CAVOK 25/22 Q1015

2010/08/09 20:50
EKHN 092050Z AUTO 20009KT 160V250 9999NDV BKN062/// 18/14 Q1016

2010/08/09 20:50
EKHR 092050Z AUTO 20012KT 9999NDV FEW065/// 17/13 Q1014

2010/08/09 21:00
SBFN 092100Z 13012KT 9999 SCT017 26/23 Q1014

2010/08/09 21:00
SBSJ 092100Z 25009KT 9999 SCT020 17/13 Q1023

2010/08/09 21:00
SVMG 092100Z 18006KT 9999 SCT010 SCT080 28/20 Q1011 NOSIG

2010/08/09 20:45
KMYR 092045Z 15010KT 10SM SCT015 BKN050 28/24 A3004

2010/08/09 20:45
KSWF 092045Z 26006G16KT 10SM BKN100 32/20 AA2995

2010/08/09 20:52
KNRB 092052Z 08011KT 10SM FEW035 SCT070 BKN150 32/24 A2995 RMK AO2 SLP140 T2 SET 60000 T03170244 56007 

2010/08/09 20:49
YPGV 092049Z 00000KT 1200 0800N BCFG BR SCT001 BKN190 22/22 Q1012

2010/08/09 20:55
KQFS 092055Z AUTO 11005G12KT 9999 -RA FEW007 BKN011 OVC014 26/24 A2983 RMK AO2 LTG DSNT SE SLP098 60006 T02580238 55001 $

2010/08/09 20:55
KQTU 092055Z 33006KT 9999 CLR 35/03 A2961 RMK SLP005 52004

2010/08/09 20:55
KQW3 092055Z AUTO RMK AO2 SLPNO

2010/08/09 20:55
KQWM 092055Z 32013KT 9999 SCT140 BKN230 39/00 A2950 RMK SLP975 QNH999 50003

2010/08/09 20:55
KQXJ 092055Z 30008KT 9999 SKC 34/01 A2949 RMK SLP986 50001 PA+419 DA+2747

2010/08/09 21:00
HRYR 092100Z 01003KT CAVOK 22/12 Q1021 NOSIG

2010/08/09 20:52
K9V9 092052Z AUTO 13011KT 31/23 A2989 RMK AO2 SLP106 T03060228 58010 PWINO TSNO 

2010/08/09 20:50
EDDB 092050Z 27003KT CAVOK 18/15 Q1016 NOSIG

2010/08/09 20:50
EDDC 092050Z 28004KT CAVOK 18/14 Q1017

2010/08/09 20:50
EDDE 092050Z 33004KT CAVOK 16/13 Q1017

2010/08/09 20:50
EDDF 092050Z 07001KT CAVOK 17/13 Q1016 NOSIG

2010/08/09 20:50
EDDG 092050Z VRB01KT CAVOK 15/13 Q1016 NOSIG

2010/08/09 20:50
EDDH 092050Z 31001KT CAVOK 16/15 Q1016 NOSIG

2010/08/09 20:50
EDDK 092050Z 12004KT CAVOK 16/13 Q1016 NOSIG

2010/08/09 20:50
EDDL 092050Z VRB02KT CAVOK 16/13 Q1016 NOSIG

2010/08/09 20:50
EDDM 092050Z 08004KT CAVOK 16/14 Q1018 NOSIG

2010/08/09 20:50
EDDN 092050Z VRB01KT 9999 MIFG NSC 15/13 Q1017

2010/08/09 20:50
EDDP 092050Z VRB02KT CAVOK 16/14 Q1017 NOSIG

2010/08/09 20:50
EDDR 092050Z 07002KT CAVOK 17/11 Q1017

2010/08/09 20:50
EDDS 092050Z VRB03KT CAVOK 17/12 Q1018

2010/08/09 20:50
EDDT 092050Z VRB01KT CAVOK 19/15 Q1016 NOSIG

2010/08/09 20:50
EDDV 092050Z VRB01KT CAVOK 17/13 Q1016 NOSIG

2010/08/09 20:50
EDDW 092050Z 17004KT 9999 FEW025 BKN080 16/13 Q1016 NOSIG

2010/08/09 20:50
EKAH 092050Z AUTO 25005KT 220V280 9999NDV OVC043/// 16/11 Q1015

2010/08/09 20:50
EKCH 092050Z 29004KT 9999 BKN045 16/11 Q1015 NOSIG

2010/08/09 20:50
EKKA 092050Z 19005KT 9999 FEW030 SCT250 13/11 Q1014

2010/08/09 20:50
EKRK 092050Z AUTO 21002KT 9999NDV SCT044/// 14/11 Q1015

2010/08/09 20:50
EKSB 092050Z 23003KT 9999 FEW041 13/10 Q1015

2010/08/09 20:50
EKSP 092050Z VRB03KT CAVOK 12/10 Q1016 RMK FEW055 SCT250

2010/08/09 20:50
EKVD 092050Z AUTO 19005KT //// ///////// 13/11 Q1015

2010/08/09 20:50
EKYT 092050Z 26008KT 9999 FEW018 BKN035 16/13 Q1013

2010/08/09 20:45
LMML 092045Z 31005KT CAVOK 23/19 Q1016 NOSIG

2010/08/09 21:00
LPLA 092100Z 05008KT 9999 FEW022 22/18 Q1022

2010/08/09 21:00
LQMO 092100Z 18002KT CAVOK 25/14 Q1012

2010/08/09 20:50
LSGG 092050Z 33004KT 290V010 9999 FEW070 BKN080 20/13 Q1017 NOSIG

2010/08/09 20:50
LSZH 092050Z 32002KT 9999 FEW055 17/14 Q1017 NOSIG

2010/08/09 21:00
LWOH 092100Z 36005KT CAVOK 21/14 Q1016

2010/08/09 20:53
NSTU 092053Z 09013KT 12SM SCT023 29/25 A3000 RMK SLP161 8/100 T02880246 51012

2010/08/09 20:51
KCAK 092051Z COR 26009KT 7SM SCT065 BKN130 BKN180 29/17 A3000 RMK AO2 SLP148 8/579 T02940172 56012 

2010/08/09 20:53
CYKZ 092053Z 29006KT 5SM -SHRA BR FEW010 BKN030 OVC050 RETSRA RMK SF1SC6SC2 CU ASOCTD

2010/08/09 20:53
KOVE 092053Z AUTO VRB03KT 10SM CLR 28/14 A2987 RMK AO2 SLP114 T02830139 58010 TSNO $ 

2010/08/09 20:53
KLND 092053Z AUTO 17013G20KT 10SM FEW110 30/04 A2996 RMK AO2 SLP068 T03000039 58022 

2010/08/09 20:50
BGBW 092050Z AUTO 05002KT 8000NDV RA FEW003/// BKN006/// OVC022/// 10/09 Q1008

2010/08/09 20:50
BGGH 092050Z 20006KT 9999 BKN020 BKN060 10/08 Q1008 RMK 6ST 7AS

2010/08/09 20:50
BGJN 092050Z 14010KT 9999 FEW029 BKN110 13/04 Q1008 RMK 2SC 6AC

2010/08/09 20:50
BGSF 092050Z 07009KT 9999 BKN042 14/05 Q1008

2010/08/09 20:55
KCEF 092055Z AUTO 20009KT 10SM SCT090 33/17 A2989 RMK AO2 SLP123 T03300173 56018 PWINO $

2010/08/09 20:55
KHMN 092055Z 27009KT 10SM CLR 32/12 A3001 RMK AO2A SLP082 T03170122 58017 $

2010/08/09 20:55
KHST 092055Z AUTO 21010KT 10SM SCT024 29/24 A2990 RMK AO2 SLP126 60002 T02920238 56015

2010/08/09 20:55
KLRF 092055Z AUTO 16006KT 10SM CLR 37/24 A2990 RMK AO2 LTG DSNT NE SLP121 T03690245 57017

2010/08/09 20:52
KNHK 092052Z 13011KT 10SM BKN250 31/18 A2999 RMK AO2 SLP154 T03110183 58009

2010/08/09 20:55
KRDR 092055Z AUTO 21013KT 10SM CLR 36/17 A2984 RMK AO2 SLP114 T03580171 58005 TSNO $

2010/08/09 20:51
KSAN 092051Z VRB06KT 10SM FEW020 22/14 A2994 RMK AO2 SLP137 T02170139 58006

2010/08/09 21:00
LPLA 092100Z 05008KT 9999 FEW022 22/18 Q1022

2010/08/09 21:00
MNMG 092100Z 36004KT 9000 -TS FEW020CB SCT022 27/25 Q1009 A2981 CB/N/NW/W/SW/S/SE 9KM/RA/SW/W/NW/N

2010/08/09 20:50
MSLP 092050Z 18006KT 9999 FEW027 FEW040CB SCT300 31/25 Q1009 A2981 CB TO W/NW/NNE

2010/08/09 20:50
OAKN 092050Z 00000KT 9000 DU FEW150 32/M01 Q1005 BLU NOSIG RMK A2969 DA6200

2010/08/09 20:50
OAUZ 092050Z AUTO 14004KT //// ////// 32/03 Q1004

2010/08/09 21:00
OKBK 092100Z 17007KT 8000 NSC 37/14 Q0997 NOSIG

2010/08/09 21:00
TKPK 092100Z 08010KT 9999 -SHRA BKN014 27/25 Q1013

2010/08/09 20:53
K6R6 092053Z AUTO 10010KT 32/21 A2989 RMK AO2 SLP082 T03220206 58026 PWINO TSNO 

2010/08/09 20:53
KELY 092053Z AUTO 16007G17KT 10SM FEW110 26/M02 A3012 RMK AO2 SLP102 T02561017 56006 

2010/08/09 20:53
KDAB 092053Z 09009G18KT 10SM FEW025 SCT250 30/23 A2992 RMK AO2 SLP131 TCU DSNT E SW T03000233 55006 

2010/08/09 20:53
KCQC 092053Z AUTO 28010G14KT 10SM FEW080 26/08 A3020 RMK AO2 SLP119 T02560083 56013 TSNO 

2010/08/09 20:53
KBTR 092053Z 33005G14KT 2SM +TSRA BR FEW014 BKN039CB OVC050 24/24 A2997 RMK AO2 PK WND 06036/2027 WSHFT 2013 TSB20RAB28 SLP149 CONS LTGICCG TS AT AP MOVG SW P0012 60012 T02440239 53016 

2010/08/09 20:53
KLAX 092053Z 27010KT 10SM FEW015 19/12 A2994 RMK AO2 SLP137 T01940122 58001 $ 

2010/08/09 20:53
KSDM 092053Z 29009G14KT 270V340 10SM CLR 22/13 A2993 RMK AO2 SLP131 T02220128 56004 

2010/08/09 20:53
KTUP 092053Z 14010KT 10SM CLR 33/25 A2994 RMK AO2 SLP132 T03280250 56013 

2010/08/09 20:53
KTRI 092053Z 35004KT 10SM SCT050 SCT060 SCT250 34/17 A3003 RMK AO2 SLP148 T03390172 56016 

2010/08/09 20:53
KTYS 092053Z 28004KT 10SM FEW060 34/20 A2997 RMK AO2 SLP136 T03440200 56019 

2010/08/09 20:53
KBNO 092053Z AUTO 09004KT 10SM SCT090 26/06 A2992 RMK AO2 SLP095 T02610061 58013 TSNO 

2010/08/09 20:53
KMGM 092053Z 19003KT 10SM SCT070 36/20 A2993 RMK AO2 SLP130 T03560200 58018 

2010/08/09 20:51
KVCT 092051Z 12012KT 10SM CLR 36/25 A2990 RMK AO2 SLP122 T03610250 56018 

2010/08/09 20:53
KTCS 092053Z AUTO 00000KT 10SM CLR 32/09 A3006 RMK AO2 SLP091 T03170094 58017 TSNO 

2010/08/09 20:53
KTLH 092053Z 03006KT 10SM FEW060 35/20 A2992 RMK AO2 SLP131 T03500200 56016 

2010/08/09 20:53
KHTL 092053Z AUTO 26003KT 10SM CLR 27/22 A2991 RMK AO2 SLP121 60003 T02720222 58004 

2010/08/09 20:53
KDNK 092053Z AUTO 20008KT 10SM FEW055 36/21 A2991 RMK AO2 SLP122 6//// T03560211 58022 

2010/08/09 20:53
KCOT 092053Z AUTO VRB05G14KT 10SM CLR 38/18 A2985 RMK AO2 SLP098 T03780183 58028

2010/08/09 20:53
KCSV 092053Z AUTO 29005KT 10SM CLR 28/21 A3006 RMK AO2 TSE03 SLP153 T02780211 58010

2010/08/09 20:53
KCXO 092053Z 14007KT 110V170 10SM CLR 36/22 A2990 RMK AO2 SLP122 T03610217 58017

2010/08/09 20:53
KDAN 092053Z AUTO 22007KT 8SM CLR 34/20 A3000 RMK AO2 SLP146 T03440200 58012

2010/08/09 20:53
KDHT 092053Z AUTO 17009G15KT 10SM BKN075 BKN120 33/15 A2998 RMK AO2 SLP088 T03280150 58016

2010/08/09 20:53
KDMN 092053Z AUTO VRB04KT 10SM CLR 33/08 A3004 RMK AO2 SLP090 T03330083 58014

2010/08/09 20:53
KDRT 092053Z AUTO 15014G19KT 10SM FEW060 37/19 A2984 RMK AO2 SLP084 T03670189 58032

2010/08/09 20:53
KDWH 092053Z 18004KT 10SM CLR 34/23 A2991 RMK AO2 SLP124 T03440228 58017

2010/08/09 20:55
KDYB 092055Z AUTO 14005KT 10SM SCT050 SCT070 SCT100 32/24 A2997 RMK AO1

2010/08/09 20:53
KEET 092053Z AUTO 19006KT 10SM FEW065 36/20 A2995 RMK AO2 SLP133 T03560200 56018

2010/08/09 20:50
KEKM 092050Z 21007KT 7SM BKN110 29/22 A2994 RMK AO2

2010/08/09 20:53
KEQY 092053Z AUTO VRB03KT 10SM FEW060 33/20 A3001 RMK AO2 SLP157 T03280200 56010

2010/08/09 20:53
KESF 092053Z AUTO 09003KT 10SM CLR 37/22 A2989 RMK AO2 LTG DSNT NE SLP121 T03720217 58026

2010/08/09 20:53
KFAY 092053Z AUTO 06007KT 10SM CLR 34/18 A2998 RMK AO2 SLP147 T03440183 56011

2010/08/09 20:53
KFFC 092053Z AUTO VRB05KT 9SM FEW065 35/19 A2999 RMK AO2 SLP145 T03500194 58015

2010/08/09 20:53
KFST 092053Z AUTO 24018G24KT 10SM TS BKN055 28/17 A2997 RMK AO2 LTG DSNT SW-NW TSB12 SLP100 T02780167 55012

2010/08/09 20:53
KFTY 092053Z 10004KT 8SM FEW080 34/19 A2998 RMK AO2 SLP142 T03440194 56016

2010/08/09 20:53
KGPT 092053Z 14010KT 10SM SCT040 33/26 A2993 RMK AO2 SLP133 T03330261 58007

2010/08/09 20:53
KGSP 092053Z VRB05KT 10SM CLR 33/21 A3000 RMK AO2 SLP144 T03330206 56013

2010/08/09 20:53
KGUP 092053Z AUTO 27005KT 10SM SCT080 BKN100 25/08 A3023 RMK AO2 SLP076 T02500078 58008

2010/08/09 20:53
KGVL 092053Z AUTO VRB03KT 10SM CLR 32/21 A3005 RMK AO2 SLP156 T03220206 56014

2010/08/09 20:53
KHBG 092053Z AUTO 10007KT 10SM CLR 35/23 A2992 RMK AO2 LTG DSNT SE SLP128 T03500233 56019 $

2010/08/09 20:53
KHJO 092053Z AUTO VRB04KT 10SM CLR 31/13 A2985 RMK AO2 SLP107 T03110128 58013

2010/08/09 20:53
KHOU 092053Z 18007KT 10SM SCT055 33/23 A2990 RMK AO2 RAB00E12 SLP129 P0000 60000 T03330233 58016

2010/08/09 20:53
KIAH 092053Z 11007G15KT 10SM SCT055 36/22 A2990 RMK AO2 SLP125 T03610222 58018

2010/08/09 20:53
KILM 092053Z AUTO 14007KT 10SM CLR 30/23 A3000 RMK AO2 SLP159 T03000228 57004 TSNO

2010/08/09 20:55
KJZI 092055Z AUTO 09008KT 10SM SCT018 SCT023 BKN032 30/30 A2998 RMK A02 P000

2010/08/09 20:53
KLBX 092053Z AUTO 13010KT 10SM CLR 34/24 A2992 RMK AO2 TSB26E43 SLP131 T03390244 56008

2010/08/09 20:53
KLCH 092053Z 16004KT 10SM CLR 34/23 A2991 RMK AO2 SLP134 T03390233 58020

2010/08/09 20:53
KLFK 092053Z AUTO 00000KT 10SM FEW065 37/21 A2991 RMK AO2 SLP122 T03720206 58020

2010/08/09 20:53
KLFT 092053Z 00000KT 10SM CLR 35/23 A2991 RMK AO2 SLP127 T03500233 58021

2010/08/09 20:55
KLKR 092055Z AUTO 00000KT 8SM CLR 33/23 A3000 RMK AO2

2010/08/09 20:53
KLOL 092053Z AUTO 20007G14KT 060V320 10SM CLR 33/04 A2993 RMK AO2 SLP088 T03280044 58014

2010/08/09 20:53
KLVJ 092053Z AUTO 13009G14KT 10SM FEW047 35/23 A2992 RMK AO2 SLP132 T03500228 58015

2010/08/09 20:53
KLVK 092053Z VRB05KT 10SM CLR 26/12 A2986 RMK AO2 SLP110 T02560122 58012 $

2010/08/09 20:53
KLVS 092053Z AUTO 15011G16KT 10SM FEW085 28/09 A3018 RMK AO2 LTG DSNT N SLP097 T02780089 58013

2010/08/09 20:53
KMCE 092053Z AUTO VRB03KT 10SM CLR 29/13 A2984 RMK AO2 SLP104 T02940128 58013

2010/08/09 20:55
KMEZ 092055Z AUTO 34005KT 10SM SCT070 SCT080 SCT095 36/22 A2994 RMK AO2

2010/08/09 20:53
KMFE 092053Z 14011KT 7SM CLR 34/23 A2985 RMK AO2 RAB32E44 SLP105 P0000 60000 T03440228 56020

2010/08/09 20:53
KMGW 092053Z VRB05KT 10SM CLR 32/17 A3002 RMK AO2 SLP156 T03170172 56010

2010/08/09 20:53
KMOD 092053Z 00000KT 10SM CLR 28/12 A2985 RMK AO2 SLP107 T02830122 58012

2010/08/09 20:53
KMRB 092053Z 15006KT 10SM FEW080 34/17 A2995 RMK AO2 SLP137 T03440167 56015

2010/08/09 20:53
KMSY 092053Z 24004KT 10SM -RA FEW016 SCT041 SCT150 OVC200 26/24 A2996 RMK AO2 TSE26 PRESFR SLP149 P0022 60022 T02610239 52001

2010/08/09 20:53
KNEW 092053Z 23007KT 10SM FEW015 BKN045 28/25 A2996 RMK AO2 TSE10RAE1954 SLP139 60060 T02780250 58002

2010/08/09 20:53
KOAK 092053Z 31012KT 10SM FEW016 19/12 A2992 RMK AO2 SLP132 T01890122 58005

2010/08/09 20:53
KPIL 092053Z AUTO 12017KT 10SM CLR 34/26 A2988 RMK AO2 SLP119 T03390256 55010

2010/08/09 20:53
KPQL 092053Z 16006KT 10SM FEW028 32/25 A2993 RMK AO2 LTG DSNT NW SLP137 T03170250 58009

2010/08/09 20:53
KPRB 092053Z AUTO A2988 RMK AO2 SLPNO 6//// PWINO FZRANO TSNO

2010/08/09 20:55
KPSO 092055Z AUTO 19010G16KT 162V222 10SM SCT100 24/03 A3027 RMK AO2

2010/08/09 20:53
KPSX 092053Z AUTO 18014G19KT 10SM FEW090 35/26 A2991 RMK AO2 SLP129 T03500261 56015

2010/08/09 20:53
KRDD 092053Z 16005G14KT 10SM CLR 32/11 A2982 RMK AO2 SLP093 T03170106 56011

2010/08/09 20:53
KRKP 092053Z AUTO 12010KT 10SM CLR 34/26 A2989 RMK AO2 SLP123 T03390256 58017

2010/08/09 20:53
KRMG 092053Z AUTO VRB06KT 10SM SCT065 36/19 A2996 RMK AO2 SLP133 T03610194 56015

2010/08/09 20:53
KRWI 092053Z AUTO 13004KT 10SM CLR 33/19 A3001 RMK AO2 SLP159 T03280189 56008

2010/08/09 20:53
KRYN 092053Z 00000KT 10SM SCT070 BKN090 34/14 A2993

2010/08/09 20:53
KSAC 092053Z 22007KT 10SM CLR 27/14 A2986 RMK AO2 SLP110 T02670139 58011

2010/08/09 20:53
KSAF 092053Z 26008KT 10SM CLR 30/10 A3014 RMK AO2 LTG DSNT N AND NW SLP093 T03000100 58016

2010/08/09 20:53
KSDL 092053Z VRB03KT 10SM CLR 38/08 A2987 RMK AO2 SLP085 T03780083 58014

2010/08/09 20:53
KSIY 092053Z AUTO VRB04KT 10SM 30/06 A2989 RMK AO2 SLP105 T03000061 58014 $

2010/08/09 20:53
KSJC 092053Z 30008KT 10SM FEW007 24/13 A2989 RMK AO2 SLP120 T02440128 56010

2010/08/09 20:53
KSMF 092053Z 21008KT 10SM CLR 27/16 A2985 RMK AO2 SLP106 T02670156 58010

2010/08/09 20:53
KSNS 092053Z 27008KT 10SM CLR 19/12 A2993 RMK AO2 SLP144 T01940122 57005

2010/08/09 20:55
KSPA 092055Z AUTO 14004KT 10SM SCT060 34/26 A2999 RMK AO2

2010/08/09 20:50
KSQL 092050Z 01011KT 30SM SKC 19/13 A2991

2010/08/09 20:53
KSSF 092053Z 15008G16KT 10SM FEW060 37/19 A2989 RMK AO2 SLP107 T03670194 56022

2010/08/09 20:53
KSTS 092053Z 15007KT 10SM FEW015 SCT060 22/13 A2989 RMK AO2 SLP117 T02170128 58010

2010/08/09 20:53
KTCC 092053Z AUTO 18012G18KT 10SM CLR 34/13 A2996 RMK AO2 SLP074 T03390128 58015

2010/08/09 20:53
KTCL 092053Z 20007KT 10SM FEW049 36/22 A2993 RMK AO2 SLP134 T03560222 56018

2010/08/09 20:53
KTOI 092053Z 04003KT 10SM CLR 35/21 A2995 RMK AO2 SLP136 T03500211 58016

2010/08/09 20:50
KTRK 092050Z 20009KT 10SM FEW060 24/03 A3008 RMK NOSPECI

2010/08/09 20:53
KTUS 092053Z 24008KT 10SM FEW090 34/13 A2995 RMK AO2 SLP086 T03440133 58015

2010/08/09 20:53
KTVL 092053Z AUTO 02007KT 10SM CLR 23/08 A3010 RMK AO2 SLP140 T02330078 57005

2010/08/09 20:53
KUTS 092053Z AUTO VRB04KT 10SM FEW070 37/19 A2991 RMK AO2 SLP120 T03670194 58020

2010/08/09 20:53
KVCB 092053Z AUTO VRB04KT 10SM CLR 27/13 A2986 RMK AO2 SLP111 T02720133 58010

2010/08/09 20:53
KVPC 092053Z AUTO 17005KT 10SM CLR 34/21 A2999 RMK AO2 SLP140 T03390206 56016

2010/08/09 20:50
KVQQ 092050Z 09009KT 10SM VCSH FEW030 SCT060 BKN085 30/26 A2993 RMK VCSH SE

2010/08/09 20:53
KWVI 092053Z AUTO 21007KT 10SM FEW016 19/12 A2994 RMK AO2 SLP138 T01940122 58008

2010/08/09 20:49
PADL 092049Z 17008G16KT 10SM VCSH SCT007 OVC013 11/10 A2955

2010/08/09 20:52
PATA 092052Z 12007KT 10SM -RA BKN023 OVC035 13/12 A2957 RMK AO2 SLP015 P0001 60007 T01330117 51004

2010/08/09 20:50
PAXK 092050Z 18007KT 10SM BKN050 13/06 A2970 RMK NOSPECI

2010/08/09 20:53
PHJR 092053Z 08007G16KT 10SM OVC050 29/16 A3011 RMK AO2 SLP204 T02890156 53004

2010/08/09 20:52
KRAP 092052Z 17005KT 10SM CLR 29/19 A2991 RMK AO2 LTG DSNT S SLP100 T02940189 56010

2010/08/09 20:51
KRKR 092051Z AUTO 26008KT 7SM SCT070 SCT100 39/24 A2989 RMK AO2

2010/08/09 20:50
KSAW 092050Z 04012KT 10SM SCT060 27/20 A2989

2010/08/09 20:49
KSEZ 092049Z AUTO 14006KT 10SM SCT120 30/09 A3012 RMK AO2 T02980088

2010/08/09 20:52
KSGF 092052Z 21009KT 10SM FEW060 36/22 A2993 RMK AO2 SLP116 T03610217 58014

2010/08/09 20:53
KSNL 092053Z AUTO 20011G16KT 10SM SCT065 39/21 A2991 RMK AO2

2010/08/09 20:55
KSOP 092055Z AUTO 13004KT 10SM CLR 33/20 A3000 RMK AO1 57010

2010/08/09 20:50
KSOW 092050Z AUTO 26009KT 10SM FEW065 FEW110 26/09 A3025 RMK AO2

2010/08/09 20:52
KSPI 092052Z 16004KT 10SM CLR 34/26 A2990 RMK AO2 SLP118 T03440261 56006

2010/08/09 20:52
KSPS 092052Z 20011KT 10SM SCT080 SCT150 BKN250 39/18 A2985 RMK AO2 LTG DSNT E SLP090 P0003 60011 T03890178 58019

2010/08/09 20:52
KSUX 092052Z 03005KT 10SM OVC022 28/24 A2988 RMK AO2 SLP108 T02830239 50000

2010/08/09 20:50
KSVC 092050Z AUTO 28011KT 030V040 10SM FEW080 30/09 A3014 RMK AO2

2010/08/09 20:50
KSZT 092050Z AUTO 11003KT 10SM SCT090 26/15 A2982 RMK AO2

2010/08/09 20:52
KTAN 092052Z AUTO 22009G18KT 10SM FEW055 29/21 A2991 RMK AO2 SLP128 T02940206 56012

2010/08/09 20:50
KTEX 092050Z AUTO 26003KT 10SM SCT055 SCT065 BKN090 20/08 A3040 RMK AO2

2010/08/09 20:50
KTIF 092050Z AUTO 09003KT 10SM CLR 32/17 A2996 RMK AO2 P0001 60001 T03150168

2010/08/09 20:50
KTIX 092050Z 11012KT 7SM SCT030 29/23 A2991

2010/08/09 20:54
KTMK 092054Z AUTO 31008KT 10SM SCT027 OVC033 17/13 A3004 RMK AO2

2010/08/09 20:52
KTOL 092052Z 00000KT 7SM FEW050 30/21 A2993 RMK AO2 SLP130 T03000206 58017

2010/08/09 20:53
KTQH 092053Z AUTO 15006KT 10SM CLR 39/23 A2991 RMK AO2

2010/08/09 20:52
KTRM 092052Z AUTO 15008G15KT 10SM CLR 38/01 A2973 RMK AO2 SLP072 T03830011 58016

2010/08/09 20:55
KUDG 092055Z 14007KT 10SM CLR 33/23 A3002 RMK AO1 57010

2010/08/09 20:52
KUGN 092052Z 22004KT 10SM BKN035 29/22 A2990 RMK AO2 SLP110 T02940217 56005

2010/08/09 20:52
KVTN 092052Z AUTO VRB03KT 10SM CLR 34/14 A2992 RMK AO2 SLP106 T03390144 58014

2010/08/09 20:49
PAWI 092049Z 06020G27KT 10SM CLR 07/02 A2978 RMK ASOS VIA PHONE

2010/08/09 20:53
KACV 092053Z AUTO 33008KT 10SM OVC005 13/11 A2996 RMK AO2 SLP150 T01280106 53003

2010/08/09 20:55
KADM 092055Z 16008KT 10SM SKC 38/23 A2987

2010/08/09 20:47
KADS 092047Z 21004KT 10SM SCT060 36/17 A2989

2010/08/09 20:53
KAEX 092053Z 01004KT 10SM CLR 38/20 A2988 RMK AO2 SLP119 T03780200 58024

2010/08/09 20:53
KAGS 092053Z 13005KT 10SM FEW055 34/22 A2997 RMK AO2 SLP145 T03390222 55012

2010/08/09 20:53
KALI 092053Z AUTO 13011G17KT 10SM SCT047 BKN060 36/24 A2986 RMK AO2 SLP109 T03560239 56022

2010/08/09 20:53
KANB 092053Z AUTO 09004KT 10SM CLR 35/21 A2996 RMK AO2 SLP134 T03500206 57016

2010/08/09 20:53
KARA 092053Z 06004KT 10SM CLR 36/24 A2992 RMK AO2 SLP130 T03610239 58019

2010/08/09 20:53
KASD 092053Z AUTO 00000KT 7SM CLR 27/24 A2994 RMK AO2 LTG DSNT E TSE30RAB14E27 SLP138 P0001 60020 T02720244 58008

2010/08/09 20:53
KAUS 092053Z 14007KT 10SM FEW065 36/19 A2990 RMK AO2 SLP112 T03610194 56020

2010/08/09 20:53
KBFD 092053Z AUTO 24007KT 10SM CLR 27/16 A3004 RMK AO2 SLP157 T02670161 58010

2010/08/09 20:53
KBFM 092053Z 16010G17KT 10SM SCT037 33/24 A2994 RMK AO2 SLP139 T03280244 58016

2010/08/09 20:48
KBJC 092048Z 31010G15KT 40SM SCT060 BKN080 BKN140 28/08 A3009 RMK OCNL LTG W

2010/08/09 20:53
KBMQ 092053Z AUTO VRB05G14KT 10SM CLR 35/16 A2995 RMK AO2 SLP119 T03500156 58019 $

2010/08/09 20:55
KBOW 092055Z AUTO 06003KT 7SM CLR 29/23 A2989 RMK AO2

2010/08/09 20:53
KBPT 092053Z 17006KT 10SM FEW060 BKN080 34/25 A2992 RMK AO2 SLP130 T03440250 58014

2010/08/09 20:53
KCCR 092053Z 30011KT 10SM CLR 24/12 A2988 RMK AO2 SLP103 T02440117 58013

2010/08/09 20:55
KCDN 092055Z AUTO 07006KT 10SM CLR 34/23 A3001 RMK A02 P000

2010/08/09 20:53
KCHO 092053Z 21010G16KT 180V250 9SM CLR 33/19 A2998 RMK AO2 SLP145 T03330189 58009

2010/08/09 20:55
KCKI 092055Z AUTO 05006KT 10SM SCT050 32/20 A2998 RMK AO2

2010/08/09 20:53
KCLL 092053Z 18008KT 10SM FEW065 37/19 A2990 RMK AO2 SLP119 T03720194 58020

2010/08/09 20:51
KBTR 092051Z 01005G14KT 2SM +TSRA BR FEW014 BKN039CB OVC050 24/24 A2997 RMK AO2 PK WND 06036/2027 WSHFT 2013 TSB20RAB28 CONS LTGICCG TS AT AP MOVG SW P0008

2010/08/09 20:53
KCHA 092053Z 18004KT 10SM FEW055 SCT095 SCT250 35/21 A2996 RMK AO2 SLP136 T03500206 56017 $ 

2010/08/09 20:53
KP92 092053Z AUTO VRB05KT 33/27 A2993 RMK AO2 SLP134 T03280267 56016 PWINO TSNO 

2010/08/09 20:53
KCTY 092053Z AUTO 09006G20KT 31/24 A2990 RMK AO2 SLP124 T03110239 55011 PWINO TSNO 

2010/08/09 20:53
KSGR 092053Z 17006KT 10SM SCT065 35/22 A2990 RMK AO2 SLP133 T03500217 58018 

2010/08/09 20:50
EFHK 092050Z 17012KT 9999 -RA FEW017 BKN030 BKN060 20/16 Q1011 NOSIG

2010/08/09 20:50
EFJY 092050Z AUTO 16005KT 9999 SCT037 18/16 Q1010

2010/08/09 20:50
EFKU 092050Z AUTO 20006KT CAVOK 19/15 Q1011

2010/08/09 20:50
EFOU 092050Z 00000KT 9999 BKN013 BKN200 18/17 Q1008

2010/08/09 20:50
EFRO 092050Z AUTO 35010KT 9000NDV FEW003 BKN005 BKN009 12/12 Q1009

2010/08/09 20:50
EFTP 092050Z 15006KT 120V210 9999 SCT010 BKN020 OVC030 18/17 Q1009

2010/08/09 20:50
EFTU 092050Z AUTO 22006KT 190V250 9999 -RA SCT008 BKN010 OVC013 18/17 Q1008

2010/08/09 20:50
EFVA 092050Z 16001KT 6000 SCT034 BKN055 18/18 Q1008

2010/08/09 20:53
KNUI 092053Z AUTO 16009KT 10SM CLR 31/17 A2999 RMK AO2 SLP153 T03110172 58008 

2010/08/09 20:54
KBTV 092054Z 18005KT 4SM -TSRA BR FEW047CB BKN070 OVC095 23/21 A2988 RMK AO2 TSB09RAB10 SLP115 OCNL LTGIC SE TS SE MOV SE P0013 60025 T02280211 55005 

2010/08/09 20:50
EGHH 092050Z 25008KT 9999 OVC005 17/16 Q1014

2010/08/09 20:50
EGMC 092050Z 21008KT CAVOK 18/14 Q1013

2010/08/09 20:50
EGBB 092050Z 21004KT 9999 -SHRA SCT012 SCT018 17/15 Q1011

2010/08/09 20:50
EGCC 092050Z 20004KT 9999 FEW030 15/11 Q1010

2010/08/09 20:50
EGKK 092050Z 22007KT 170V250 9999 BKN010 17/15 Q1014

2010/08/09 20:50
EGLL 092050Z 22011KT 9999 FEW016 SCT047 18/14 Q1013

2010/08/09 20:50
EGPF 092050Z 25005KT CAVOK 12/11 Q1007

2010/08/09 20:50
EGPH 092050Z 26005KT 9999 FEW035 14/10 Q1007

2010/08/09 20:50
EGPK 092050Z 12002KT 9999 FEW015 SCT045 13/11 Q1008

2010/08/09 20:50
EGSS 092050Z 23007KT CAVOK 17/14 Q1013

2010/08/09 20:50
ESKN 092050Z 24011KT 9999 OVC009 18/16 Q1009

2010/08/09 20:50
ESOE 092050Z AUTO 25006KT 9999NDV FEW011/// SCT016/// BKN084/// 17/17 Q1008

2010/08/09 20:50
ESOK 092050Z 22005KT 9999 FEW030 SCT042 17/17 Q1008

2010/08/09 20:50
ESOW 092050Z AUTO 22002KT 7000NDV BKN004/// OVC008/// 18/17 Q1008 RERA REDZ

2010/08/09 20:50
ESSA 092050Z 18005KT CAVOK 18/17 Q1008 NOSIG

2010/08/09 20:50
ESSB 092050Z AUTO 22006KT 9999NDV BKN096/// 18/17 Q1008

2010/08/09 20:50
ESSD 092050Z AUTO 27004KT 9999NDV NCD 16/15 Q1007

2010/08/09 20:50
ESSP 092050Z AUTO 24011KT 9999NDV OVC010/// 17/15 Q1009

2010/08/09 20:50
ESSV 092050Z 22013KT 9999 BKN037 17/14 Q1011

2010/08/09 21:00
LQSA 092100Z VRB01KT CAVOK 19/15 Q1019

2010/08/09 20:50
ESNG 092050Z AUTO 35004KT 9999NDV SCT029/// 10/09 Q1012

2010/08/09 20:50
ESNK 092050Z AUTO 32004KT 280V030 9999NDV RA FEW013/// SCT017/// BKN021/// 16/15 Q1007 REDZ

2010/08/09 20:50
ESNN 092050Z 34003KT 250V050 9999 OVC006 17/16 Q1007

2010/08/09 20:50
ESNO 092050Z AUTO 07007KT 030V120 7000NDV RA FEW003/// OVC004/// 16/14 Q1008

2010/08/09 20:50
ESNQ 092050Z AUTO 02003KT 9999NDV BKN018/// OVC036/// 13/10 Q1013

2010/08/09 20:50
ESNS 092050Z AUTO 04004KT 8000NDV BR ////// 15/14 Q1010 REDZ RERA

2010/08/09 20:50
ESNU 092050Z AUTO 03004KT 360V060 9000NDV -DZ FEW006/// SCT008/// BKN016/// 16/14 Q1009 RERA

2010/08/09 20:50
ESNZ 092050Z AUTO 01003KT 9999NDV -RA NCD 14/14 Q1009 REDZ

2010/08/09 20:50
ESUT 092050Z AUTO 17010KT 9999NDV SCT035/// BKN098/// 16/12 Q1011

2010/08/09 20:50
EGHQ 092050Z 27012KT 3000 1400W R30/P1500 VCFG FEW002 BKN010 16/16 Q1013

2010/08/09 20:50
EGTE 092050Z 20008KT 9999 SCT012 18/16 Q1013

2010/08/09 20:50
ESDF 092050Z AUTO 22004KT 9999NDV SCT042/// 15/12 Q1014

2010/08/09 20:50
ESPA 092050Z 01006KT 330V050 9999 OVC016 16/13 Q1010

2010/08/09 20:50
ESSL 092050Z AUTO 25008KT 9999NDV FEW013/// OVC015/// 16/15 Q1010

2010/08/09 20:50
ESGL 092050Z AUTO 23008KT 210V270 9999NDV OVC015/// 15/// Q1011

2010/08/09 20:50
ESGR 092050Z AUTO 24007KT 210V280 9999NDV SCT013/// BKN020/// 15/14 Q1010

2010/08/09 20:50
ESNL 092050Z AUTO 04004KT 010V070 9999NDV BKN019/// OVC024/// 15/13 Q1010

2010/08/09 20:50
ESNX 092050Z AUTO 36004KT 9999NDV OVC022/// 14/12 Q1011

2010/08/09 20:50
ESNY 092050Z AUTO 29001KT 4800 BR OVC001 17/17 Q1007

2010/08/09 21:00
MNMG 092100Z 36004KT 9000 -TS FEW020CB SCT022 27/25 Q1009 A2981 CB/N/NW/W/SW/S/SE 9KM/RA/SW/W/NW/N

2010/08/09 20:53
KMSN 092053Z 29004KT 10SM SCT030 29/23 A2991 RMK AO2 SLP122 T02940228 58004 

2010/08/09 20:53
KSAV 092053Z 08006KT 10SM 32/24 A2996 RMK AO2 RAB13E27 SLP144 VCSH P0000 60000 T03170239 56004 $ 

2010/08/09 20:52
KCZZ 092052Z AUTO 23012KT 29/M01 A2992 RMK AO2 SLP102 T02891006 58005 PWINO TSNO 

2010/08/09 20:53
KOQT 092053Z AUTO VRB06KT 10SM CLR 34/22 A3000 RMK AO2 SLP137 T03440222 56018 TSNO 

2010/08/09 20:53
KMWT 092053Z AUTO VRB04KT 10SM CLR 36/21 A2991 RMK AO2 SLP112 T03560211 58018 TSNO 

2010/08/09 20:53
KRNM 092053Z 31007G14KT 280V340 10SM CLR 28/10 A2992 RMK AO2 SLP119 T02780100 58005 

2010/08/09 20:53
KCUT 092053Z AUTO 18004KT 10SM CLR 24/13 A3010 RMK AO2 SLP126 T02390128 58004 TSNO 

2010/08/09 20:53
KFAR 092053Z 20007KT 10SM FEW100 32/20 A2987 RMK AO2 SLP111 T03220200 58004 

2010/08/09 20:53
KLXV 092053Z AUTO 30010G19KT 7SM -RA BKN048 OVC060 14/09 A3040 RMK AO2 RAB41 SLP133 P0000 60000 T01390089 58001 TSNO 

2010/08/09 20:54
PGUM 092054Z 00000KT 10SM OVC055 26/24 A2992 RMK AO2 SLP125 T02560244 53008 

2010/08/09 20:53
KP68 092053Z AUTO 27008KT 27/M04 A3006 RMK AO2 SLP087 T02671039 58008 PWINO TSNO 

2010/08/09 20:54
KJAN 092054Z 26007KT 1 3/4SM R16L/5000VP6000FT +TSRA BR BKN024 OVC045CB 27/25 A2992 RMK AO2 TSB25RAB13 SLP126 OCNL LTGICCCCG NW-N TS NW-N MOV W P0008 60008 T02670250 56016 

2010/08/09 20:53
CYLD 092053Z 29002KT 15SM TS VCSH SCT025CB BKN035 RMK CB2CF2 WND L/V

2010/08/09 21:00
OPPS 092100Z NW-06KTS 4000 BR FEW040 BKN100 28/27 Q1002.7

2010/08/09 20:50
EGGD 092050Z 19008KT 9000 SCT003 BKN010 17/17 Q1012

2010/08/09 20:50
EGGP 092050Z 26005KT 9999 SCT022 16/13 Q1010

2010/08/09 20:50
EGHI 092050Z 21010KT 7000 -DZ SCT006 BKN008 17/15 Q1014 

2010/08/09 20:50
EGNT 092050Z 00000KT 9999 FEW030 14/09 Q1008

2010/08/09 20:50
EGNV 092050Z 21006KT 9999 SCT039 15/13 Q1009

2010/08/09 20:50
EGPB 092050Z AUTO 11006KT 9999NDV NCD 14/13 Q1007

2010/08/09 20:50
ESNG 092050Z AUTO 35004KT 9999NDV SCT029/// 10/09 Q1012

2010/08/09 20:50
ESNK 092050Z AUTO 32004KT 280V030 9999NDV RA FEW013/// SCT017/// BKN021/// 16/15 Q1007 REDZ

2010/08/09 20:50
ESNN 092050Z 34003KT 250V050 9999 OVC006 17/16 Q1007

2010/08/09 20:50
ESNO 092050Z AUTO 07007KT 030V120 7000NDV RA FEW003/// OVC004/// 16/14 Q1008

2010/08/09 20:50
ESNQ 092050Z AUTO 02003KT 9999NDV BKN018/// OVC036/// 13/10 Q1013

2010/08/09 20:50
ESNS 092050Z AUTO 04004KT 8000NDV BR ////// 15/14 Q1010 REDZ RERA

2010/08/09 20:50
ESNU 092050Z AUTO 03004KT 360V060 9000NDV -DZ FEW006/// SCT008/// BKN016/// 16/14 Q1009 RERA

2010/08/09 20:50
ESNZ 092050Z AUTO 01003KT 9999NDV -RA NCD 14/14 Q1009 REDZ

2010/08/09 20:50
ESUT 092050Z AUTO 17010KT 9999NDV SCT035/// BKN098/// 16/12 Q1011

2010/08/09 20:50
EGHH 092050Z 25008KT 9999 OVC005 17/16 Q1014

2010/08/09 20:50
EGMC 092050Z 21008KT CAVOK 18/14 Q1013

2010/08/09 20:50
EGAA 092050Z 23008KT 180V250 9999 FEW020 14/10 Q1008

2010/08/09 20:50
EGFF 092050Z 23007KT 9999 +DZ FEW014 BKN018 18/16 Q1012

2010/08/09 20:50
EGGW 092050Z 21005KT 160V240 9999 FEW013 17/14 Q1013

2010/08/09 20:50
EGLC 092050Z AUTO 24009KT 9999 BKN020/// 19/14 Q1013

2010/08/09 20:50
EGNM 092050Z VRB03KT CAVOK 13/12 Q1009

2010/08/09 20:50
EGNX 092050Z 19013KT 9999 FEW025 18/14 Q1010

2010/08/09 20:50
EGPD 092050Z VRB02KT 5000 SCT003 SCT006 BKN023 14/13 Q1005 NOSIG

2010/08/09 20:50
HLLB 092050Z 33015KT 9999 SCT020 25/20 Q1014

2010/08/09 20:50
EGNS 092050Z 28005KT 9999 FEW020 14/10 Q1009

2010/08/09 20:50
ESGL 092050Z AUTO 23008KT 210V270 9999NDV OVC015/// 15/// Q1011

2010/08/09 20:50
ESGR 092050Z AUTO 24007KT 210V280 9999NDV SCT013/// BKN020/// 15/14 Q1010

2010/08/09 20:50
ESNL 092050Z AUTO 04004KT 010V070 9999NDV BKN019/// OVC024/// 15/13 Q1010

2010/08/09 20:50
ESNX 092050Z AUTO 36004KT 9999NDV OVC022/// 14/12 Q1011

2010/08/09 20:50
ESNY 092050Z AUTO 29001KT 4800 BR OVC001 17/17 Q1007

2010/08/09 20:50
ESDF 092050Z AUTO 22004KT 9999NDV SCT042/// 15/12 Q1014

2010/08/09 20:50
ESPA 092050Z 01006KT 330V050 9999 OVC016 16/13 Q1010

2010/08/09 20:50
ESSL 092050Z AUTO 25008KT 9999NDV FEW013/// OVC015/// 16/15 Q1010

2010/08/09 21:00
LQSA 092100Z VRB01KT CAVOK 19/15 Q1019

2010/08/09 20:50
ESKN 092050Z 24011KT 9999 OVC009 18/16 Q1009

2010/08/09 20:50
ESOE 092050Z AUTO 25006KT 9999NDV FEW011/// SCT016/// BKN084/// 17/17 Q1008

2010/08/09 20:50
ESOK 092050Z 22005KT 9999 FEW030 SCT042 17/17 Q1008

2010/08/09 20:50
ESOW 092050Z AUTO 22002KT 7000NDV BKN004/// OVC008/// 18/17 Q1008 RERA REDZ

2010/08/09 20:50
ESSA 092050Z 18005KT CAVOK 18/17 Q1008 NOSIG

2010/08/09 20:50
ESSB 092050Z AUTO 22006KT 9999NDV BKN096/// 18/17 Q1008

2010/08/09 20:50
ESSD 092050Z AUTO 27004KT 9999NDV NCD 16/15 Q1007

2010/08/09 20:50
ESSP 092050Z AUTO 24011KT 9999NDV OVC010/// 17/15 Q1009

2010/08/09 20:50
ESSV 092050Z 22013KT 9999 BKN037 17/14 Q1011

2010/08/09 20:50
EFHK 092050Z 17012KT 9999 -RA FEW017 BKN030 BKN060 20/16 Q1011 NOSIG

2010/08/09 20:50
EFJY 092050Z AUTO 16005KT 9999 SCT037 18/16 Q1010

2010/08/09 20:50
EFKU 092050Z AUTO 20006KT CAVOK 19/15 Q1011

2010/08/09 20:50
EFOU 092050Z 00000KT 9999 BKN013 BKN200 18/17 Q1008

2010/08/09 20:50
EFRO 092050Z AUTO 35010KT 9000NDV FEW003 BKN005 BKN009 12/12 Q1009

2010/08/09 20:50
EFTP 092050Z 15006KT 120V210 9999 SCT010 BKN020 OVC030 18/17 Q1009

2010/08/09 20:50
EFTU 092050Z AUTO 22006KT 190V250 9999 -RA SCT008 BKN010 OVC013 18/17 Q1008

2010/08/09 20:50
EFVA 092050Z 16001KT 6000 SCT034 BKN055 18/18 Q1008

2010/08/09 20:50
EGHQ 092050Z 27012KT 3000 1400W R30/P1500 VCFG FEW002 BKN010 16/16 Q1013

2010/08/09 20:50
EGTE 092050Z 20008KT 9999 SCT012 18/16 Q1013

2010/08/09 20:50
EGBB 092050Z 21004KT 9999 -SHRA SCT012 SCT018 17/15 Q1011

2010/08/09 20:50
EGCC 092050Z 20004KT 9999 FEW030 15/11 Q1010

2010/08/09 20:50
EGKK 092050Z 22007KT 170V250 9999 BKN010 17/15 Q1014

2010/08/09 20:50
EGLL 092050Z 22011KT 9999 FEW016 SCT047 18/14 Q1013

2010/08/09 20:50
EGPF 092050Z 25005KT CAVOK 12/11 Q1007

2010/08/09 20:50
EGPH 092050Z 26005KT 9999 FEW035 14/10 Q1007

2010/08/09 20:50
EGPK 092050Z 12002KT 9999 FEW015 SCT045 13/11 Q1008

2010/08/09 20:50
EGSS 092050Z 23007KT CAVOK 17/14 Q1013

2010/08/09 20:50
EFHA 092050Z AUTO 16005KT 110V220 9999 FEW019 SCT050 BKN090 18/15 Q1010

2010/08/09 20:50
EFHF 092050Z AUTO 18011KT 140V210 9999 FEW024 SCT037 BKN065 20/17 Q1011

2010/08/09 20:50
EFKA 092050Z AUTO 17001KT 5000 BR BKN013 BKN017 18/18 Q1008

2010/08/09 20:50
EFKK 092050Z 34002KT 2500 BR OVC003 17/17 Q1008

2010/08/09 20:50
EFMA 092050Z AUTO 19006KT 150V220 9999 FEW008 SCT029 BKN034 BKN039 18/17 Q1008

2010/08/09 20:50
EFPO 092050Z AUTO 18006KT 150V230 2400 +SHRA SCT007 BKN012 BKN042 18/17 Q1008

2010/08/09 20:50
EFSI 092050Z AUTO 14002KT 6000 FEW039 SCT047 BKN070 17/17 Q1008

2010/08/09 20:53
KMCN 092053Z 00000KT 8SM CLR 35/21 A2997 RMK AO2 SLP143 T03500206 56013 

2010/08/09 20:54
CYKJ 092054Z AUTO 08003KT 5SM -RA SCT006 OVC010 16/15 A2980 RMK SLP107 DENSITY ALT 2300FT PCPN 1.2MM PAST HR

2010/08/09 20:52
CYSJ 092052Z 23010G20KT 1/2SM R23/6000FT/D FG VV002 16/ RMK FG8

2010/08/09 20:50
EETN 092050Z 19008KT 9999 FEW022 BKN061 19/16 Q1012 NOSIG

2010/08/09 20:50
EETU 092050Z AUTO 16005KT 9999NDV BKN170/// 18/17 Q1014

2010/08/09 20:50
EFHK 092050Z 17012KT 9999 -RA FEW017 BKN030 BKN060 20/16 Q1011 NOSIG

2010/08/09 20:50
ESSA 092050Z 18005KT CAVOK 18/17 Q1008 NOSIG

2010/08/09 20:50
EVLA 092050Z AUTO 23008KT 9999 BKN014 BKN018 19/16 Q1014

2010/08/09 20:50
EVRA 092050Z 16004KT CAVOK 17/15 Q1015 NOSIG

2010/08/09 20:50
EYKA 092050Z 17004KT CAVOK 17/17 Q1016

2010/08/09 20:50
EYPA 092050Z VRB03KT R19/P1500N 17/16 Q1015

2010/08/09 20:50
EYVI 092050Z 12003KT 1500 BR PRFG NSC 16/16 Q1017 TEMPO 0600 FG

2010/08/09 20:50
EDFH 092050Z 21005KT CAVOK 17/10 Q1017

2010/08/09 20:50
EDLV 092050Z 10002KT CAVOK 16/16 Q1016

2010/08/09 20:50
EDTL 092050Z 07002KT CAVOK 17/13 Q1016

2010/08/09 20:50
EDVK 092050Z 19004KT CAVOK 13/11 Q1017

2010/08/09 20:53
K40J 092053Z AUTO 03010KT 34/22 A2989 RMK AO2 SLP121 T03440217 56018 PWINO TSNO 

2010/08/09 20:53
KNIP 092053Z 05009KT 10SM SCT035CB SCT080 BKN130 BKN250 31/24 A2993 RMK AO2 RAE1956 SLP132 CB DSNT W T2 SET P0000 60000 T03060244 58007 

2010/08/09 21:00
MGGT 092100Z 18008KT 8000 TSVCRA BKN018 BKN025CB 22/17 Q1024 A3024 CB/TS/PCPN SMC S VOL/DE PACAYA EN ACTIVIDAD

2010/08/09 20:46
MMCE 092046Z 09010KT 8SM FEW015 SCT200 32/25 A2982 RMK SLP097 57014 951 8/105

2010/08/09 20:45
MMCM 092045Z 12012KT 7SM SCT015 32/26 A2987 RMK SLP106 5//// 8/500 971

2010/08/09 20:50
MMMT 092050Z 36010KT 10SM SCT020 SCT180 31/24 A2982 RMK SLP169 55057 900 8/101

2010/08/09 20:50
MMMX 092050Z 05006KT 4SM SCT025TCU BKN200 26/13 A3020 NOSIG RMK SLP029 57028 954 8/202 HZY

2010/08/09 20:50
MMTG 092050Z 05005KT 10SM SCT020 SCT080 SCT300 32/23 A2988 RMK SLP076 57028 902 8/454 CBS 1 QUAD

2010/08/09 20:50
MMTP 092050Z 18010KT 10SM BKN020TCU BKN300 29/26 A2987 RMK SLP099 57017 918 8/206

2010/08/09 20:46
MMVA 092046Z 07010KT 6SM SCT017 SCT090 34/25 A2978 RMK SLP096 57008 908 8/120 HZY

2010/08/09 21:00
MNMG 092100Z 36004KT 9000 -TS FEW020CB SCT022 27/25 Q1009 A2981 CB/N/NW/W/SW/S/SE 9KM/RA/SW/W/NW/N

2010/08/09 21:00
MPTO 092100Z 21006KT 9999 SCT018TCU SCT090 BKN300 30/24 Q1009 NOSIG

2010/08/09 20:53
NSTU 092053Z 09013KT 12SM SCT023 29/25 A3000 RMK SLP161 8/100 T02880246 51012

2010/08/09 20:53
PHJR 092053Z 08007G16KT 10SM OVC050 29/16 A3011 RMK AO2 SLP204 T02890156 53004

2010/08/09 20:50
PKMJ 092050Z 05018KT 15SM FEW015 SCT050 BKN120 OVC300 28/25 A2987

2010/08/09 21:00
SVMG 092100Z 18006KT 9999 SCT010 SCT080 28/20 Q1011 NOSIG

2010/08/09 21:00
TKPK 092100Z 08010KT 9999 -SHRA BKN014 27/25 Q1013

2010/08/09 20:53
KGNT 092053Z AUTO 33006KT 26/08 A3023 RMK AO2 SLP147 T02560078 58005 PWINO TSNO 

2010/08/09 20:50
EDLP 092050Z 15004KT 110V180 CAVOK 15/13 Q1017

2010/08/09 20:50
EDQM 092050Z AUTO VRB01KT 9999NDV NCD 12/11 Q1018

2010/08/09 20:50
EDSB 092050Z 00000KT CAVOK 16/14 Q1017

2010/08/09 20:50
EDXW 092050Z AUTO 19006KT 9999NDV NCD 14/11 Q1015

2010/08/09 20:50
ENBN 092050Z 30004KT 9999 FEW004 SCT005 BKN006 12/11 Q1010

2010/08/09 20:50
ENBV 092050Z 06008KT 9999 BKN007 08/07 Q1016

2010/08/09 20:50
ENHF 092050Z 05006KT 9999 FEW039 09/07 Q1014 

2010/08/09 20:50
HLLM 092050Z 08005KT 7000 SKC 26/18 Q1016

2010/08/09 20:52
KMRY 092052Z 20008KT 10SM OVC015 17/12 A2995

2010/08/09 20:50
ENAL 092050Z 04006KT 9999 FEW015 BKN030 15/13 Q1011

2010/08/09 20:50
ENCN 092050Z 23007KT 190V260 CAVOK 15/10 Q1011

2010/08/09 20:50
ENHD 092050Z AUTO 14006KT 9999NDV NCD 10/08 Q1011

2010/08/09 20:50
ENRO 092050Z AUTO 33002KT 2200NDV BCFG BKN082/// OVC150/// 13/12 Q1010

2010/08/09 20:50
ENRY 092050Z 18007KT 9999 SCT007 BKN220 18/17 Q1009

2010/08/09 20:50
ENSB 092050Z 27022KT 9999 FEW007 SCT010 BKN020 06/04 Q1001 

2010/08/09 20:50
ENTC 092050Z 02012KT 9999 SCT018 BKN026 10/07 Q1013

2010/08/09 20:50
ENTO 092050Z 20003KT CAVOK 17/16 Q1009

2010/08/09 20:50
EGAA 092050Z 23008KT 180V250 9999 FEW020 14/10 Q1008

2010/08/09 20:50
EGBB 092050Z 21004KT 9999 -SHRA SCT012 SCT018 17/15 Q1011

2010/08/09 20:50
EGCC 092050Z 20004KT 9999 FEW030 15/11 Q1010

2010/08/09 20:50
EGFF 092050Z 23007KT 9999 +DZ FEW014 BKN018 18/16 Q1012

2010/08/09 20:50
EGGD 092050Z 19008KT 9000 SCT003 BKN010 17/17 Q1012

2010/08/09 20:50
EGGP 092050Z 26005KT 9999 SCT022 16/13 Q1010

2010/08/09 20:50
EGGW 092050Z 21005KT 160V240 9999 FEW013 17/14 Q1013

2010/08/09 20:50
EGHH 092050Z 25008KT 9999 OVC005 17/16 Q1014

2010/08/09 20:50
EGHI 092050Z 21010KT 7000 -DZ SCT006 BKN008 17/15 Q1014

2010/08/09 20:50
EGKK 092050Z 22007KT 170V250 9999 BKN010 17/15 Q1014

2010/08/09 20:50
EGLC 092050Z AUTO 24009KT 9999 BKN020/// 19/14 Q1013

2010/08/09 20:50
EGLL 092050Z 22011KT 9999 FEW016 SCT047 18/14 Q1013

2010/08/09 20:50
EGMC 092050Z 21008KT CAVOK 18/14 Q1013

2010/08/09 20:50
EGNM 092050Z VRB03KT CAVOK 13/12 Q1009

2010/08/09 20:50
EGNT 092050Z 00000KT 9999 FEW030 14/09 Q1008

2010/08/09 20:50
EGNV 092050Z 21006KT 9999 SCT039 15/13 Q1009

2010/08/09 20:50
EGNX 092050Z 19013KT 9999 FEW025 18/14 Q1010

2010/08/09 20:50
EGPB 092050Z AUTO 11006KT 9999NDV NCD 14/13 Q1007

2010/08/09 20:50
EGPD 092050Z VRB02KT 5000 SCT003 SCT006 BKN023 14/13 Q1005 NOSIG

2010/08/09 20:50
EGPF 092050Z 25005KT CAVOK 12/11 Q1007

2010/08/09 20:50
EGPH 092050Z 26005KT 9999 FEW035 14/10 Q1007

2010/08/09 20:50
EGPK 092050Z 12002KT 9999 FEW015 SCT045 13/11 Q1008

2010/08/09 20:50
EGSS 092050Z 23007KT CAVOK 17/14 Q1013

2010/08/09 20:50
EGTE 092050Z 20008KT 9999 SCT012 18/16 Q1013

2010/08/09 20:55
EHEH 092055Z AUTO 12003KT 9999NDV NCD 17/13 Q1015 BLU

2010/08/09 20:50
EKEB 092050Z AUTO 17005KT 9999NDV NCD 13/11 Q1015

2010/08/09 20:50
EKRN 092050Z AUTO 26004KT 9999NDV NCD 17/15 Q1016

2010/08/09 21:00
LQSA 092100Z VRB01KT CAVOK 19/15 Q1019

2010/08/09 20:50
LXGB 092050Z 08005KT CAVOK 25/22 Q1015

2010/08/09 20:50
EFKU 092050Z AUTO 20006KT CAVOK 19/15 Q1011

2010/08/09 20:50
EFOU 092050Z 00000KT 9999 BKN013 BKN200 18/17 Q1008

2010/08/09 20:55
KBAD 092055Z AUTO 20008KT 10SM CLR 37/19 A2990 RMK AO2 SLP123 T03750195 58020

2010/08/09 20:53
KBAF 092053Z 24013KT 10SM CLR 34/16 A2990 RMK AO2 SLP121 T03390156 56015

2010/08/09 20:53
KBUR 092053Z 19009KT 10SM CLR 26/12 A2991 RMK AO2 SLP116 T02560117 58005

2010/08/09 20:53
KDTS 092053Z AUTO 20005KT 10SM CLR 33/23 A2991 RMK AO2 LTG DSNT NW SLP126 T03330233 58020

2010/08/09 20:55
KGRF 092055Z 25004KT 10SM BKN021 OVC026 17/12 A3000 RMK AO2A CIG 021V026 SLP160 T01740124 53006

2010/08/09 20:55
KIAB 092055Z AUTO 16015G20KT 10SM CLR 38/19 A2987 RMK AO2 SLP096 T03800190 58012 $

2010/08/09 20:55
KMGE 092055Z 16006KT 10SM BKN060 33/21 A3000 RMK AO2A SLP148 T03310211 56015 $

2010/08/09 20:55
KOFF 092055Z AUTO 23006KT 10SM CLR 34/25 A2985 RMK AO2 SLP088 T03410252 50000 $

2010/08/09 20:55
KSUU 092055Z AUTO 25014KT 10SM CLR 24/13 A2986 RMK AO2 SLP114 T02420130 58011 RVRNO $

2010/08/09 20:55
KSZL 092055Z AUTO 19014KT 10SM CLR 36/24 A2988 RMK AO2 SLP109 T03620239 56012 PNO $

2010/08/09 20:53
KTOI 092053Z 04003KT 10SM CLR 35/21 A2995 RMK AO2 SLP136 T03500211 58016

2010/08/09 20:53
NSTU 092053Z 09013KT 12SM SCT023 29/25 A3000 RMK SLP161 8/100 T02880246 51012

2010/08/09 20:55
PAFB 092055Z 06005KT 13SM BKN075 BKN120 18/09 A2958 RMK SLP014 58002

2010/08/09 20:53
PHJR 092053Z 08007G16KT 10SM OVC050 29/16 A3011 RMK AO2 SLP204 T02890156 53004

2010/08/09 20:50
ENSG 092050Z VRB04KT 9999 -SHRA FEW/// FEW005 BKN050 14/12 Q1010

2010/08/09 20:50
ENAT 092050Z 17004KT 9999 FEW025 SCT053 12/10 Q1014 

2010/08/09 20:50
ENEV 092050Z 35007KT 9999 FEW020 11/09 Q1012 

2010/08/09 20:50
ENKB 092050Z 01005KT 9999 SCT007 BKN010 14/12 Q1010

2010/08/09 20:50
ENKR 092050Z 04009KT 9999 -RA OVC005 09/08 Q1014 REDZ 

2010/08/09 20:50
ENML 092050Z 28006KT 9999 FEW012 BKN030 18/13 Q1010

2010/08/09 20:50
ENNA 092050Z 35006KT 9999 SCT010 BKN014 10/08 Q1015 

2010/08/09 20:50
EDDB 092050Z 27003KT CAVOK 18/15 Q1016 NOSIG

2010/08/09 20:50
EDDC 092050Z 28004KT CAVOK 18/14 Q1017

2010/08/09 20:50
EDDE 092050Z 33004KT CAVOK 16/13 Q1017

2010/08/09 20:50
EDDF 092050Z 07001KT CAVOK 17/13 Q1016 NOSIG

2010/08/09 20:50
EDDG 092050Z VRB01KT CAVOK 15/13 Q1016 NOSIG

2010/08/09 20:50
EDDH 092050Z 31001KT CAVOK 16/15 Q1016 NOSIG

2010/08/09 20:50
EDDK 092050Z 12004KT CAVOK 16/13 Q1016 NOSIG

2010/08/09 20:50
EDDL 092050Z VRB02KT CAVOK 16/13 Q1016 NOSIG

2010/08/09 20:50
EDDM 092050Z 08004KT CAVOK 16/14 Q1018 NOSIG

2010/08/09 20:50
EDDN 092050Z VRB01KT 9999 MIFG NSC 15/13 Q1017

2010/08/09 20:50
EDDP 092050Z VRB02KT CAVOK 16/14 Q1017 NOSIG

2010/08/09 20:50
EDDR 092050Z 07002KT CAVOK 17/11 Q1017

2010/08/09 20:50
EDDS 092050Z VRB03KT CAVOK 17/12 Q1018

2010/08/09 20:50
EDDT 092050Z VRB01KT CAVOK 19/15 Q1016 NOSIG

2010/08/09 20:50
EDDV 092050Z VRB01KT CAVOK 17/13 Q1016 NOSIG

2010/08/09 20:50
EDDW 092050Z 17004KT 9999 FEW025 BKN080 16/13 Q1016 NOSIG

2010/08/09 20:50
EDLP 092050Z 15004KT 110V180 CAVOK 15/13 Q1017

2010/08/09 20:55
EHEH 092055Z AUTO 12003KT 9999NDV NCD 17/13 Q1015 BLU

2010/08/09 20:50
EKAH 092050Z AUTO 25005KT 220V280 9999NDV OVC043/// 16/11 Q1015

2010/08/09 20:50
EKCH 092050Z 29004KT 9999 BKN045 16/11 Q1015 NOSIG

2010/08/09 20:50
EKEB 092050Z AUTO 17005KT 9999NDV NCD 13/11 Q1015

2010/08/09 20:50
EKKA 092050Z 19005KT 9999 FEW030 SCT250 13/11 Q1014

2010/08/09 20:50
EKRK 092050Z AUTO 21002KT 9999NDV SCT044/// 14/11 Q1015

2010/08/09 20:50
EKRN 092050Z AUTO 26004KT 9999NDV NCD 17/15 Q1016

2010/08/09 20:50
EKSB 092050Z 23003KT 9999 FEW041 13/10 Q1015

2010/08/09 20:50
EKSP 092050Z VRB03KT CAVOK 12/10 Q1016 RMK FEW055 SCT250

2010/08/09 20:50
EKVD 092050Z AUTO 19005KT //// ///////// 13/11 Q1015

2010/08/09 20:50
EKYT 092050Z 26008KT 9999 FEW018 BKN035 16/13 Q1013

2010/08/09 20:50
LSGG 092050Z 33004KT 290V010 9999 FEW070 BKN080 20/13 Q1017 NOSIG

2010/08/09 20:50
LSZH 092050Z 32002KT 9999 FEW055 17/14 Q1017 NOSIG

2010/08/09 20:54
KNFG 092054Z 22007KT 7SM CLR 23/13 A2991 RMK AO2 SLP128 T02280133 58006 

2010/08/09 20:54
KROA 092054Z 11008KT 10SM FEW080 32/20 A3003 RMK AO2 SLP156 T03170200 56012 

2010/08/09 20:54
KROC 092054Z 28010KT 5SM -RA FEW009 SCT040 BKN055 OVC130 26/21 A2994 RMK AO2 RAB34 SLP136 P0001 60001 T02560211 55004 

2010/08/09 20:54
KNBT 092054Z AUTO 24005KT 1 1/4SM -RA FEW001 SCT015 28/25 A3001 RMK AO2 RAB33 P0005 TSNO 

2010/08/09 20:54
KMTP 092054Z AUTO 21008G15KT 26/21 A2997 RMK AO2 SLP149 T02560206 57013 PWINO TSNO 

2010/08/09 20:54
KWAL 092054Z 19011KT 10SM BKN075 28/22 A3002 RMK AO2 SLP164 T02780217 56008 

2010/08/09 20:54
KMQE 092054Z AUTO 22014G20KT 32/ A2992 RMK AO1 SLP137 T0317 56015 $ 

2010/08/09 20:54
KNKT 092054Z 10005KT 10SM BKN075 29/24 A3001 RMK AO2 SLP158 T02940239 56013 

2010/08/09 20:54
KGSO 092054Z 19007KT 10SM SCT055 33/19 A3002 RMK AO2 SLP154 T03280189 56008 

2010/08/09 20:54
KNAK 092054Z AUTO 17013KT 8SM CLR 31/20 A2997 RMK AO2 SLP150 T03060200 56012 TSNO 

2010/08/09 20:54
KRIC 092054Z 21009KT 8SM SCT060 SCT250 33/19 A2998 RMK AO2 SLP156 T03330189 58008 $ 

2010/08/09 20:54
KAVP 092054Z 28010G21KT 10SM CLR 32/14 A2995 RMK AO2 SLP128 T03220144 58017 $ 

2010/08/09 20:54
KCAR 092054Z AUTO 24008KT 10SM CLR 24/17 A2982 RMK AO2 SLP097 60000 T02440172 56013 

2010/08/09 20:54
KRSP 092054Z AUTO VRB05KT 8SM SCT065 SCT075 31/16 A3005 RMK AO2 SLP973 T03110161 56010 $ 

2010/08/09 20:54
K12N 092054Z AUTO VRB04KT 32/19 A2996 RMK AO2 SLP135 T03170194 58015 PWINO TSNO 

2010/08/09 20:54
KBKB 092054Z AUTO VRB03KT 10SM CLR 37/22 A2988 RMK AO2 SLP143 T03670217 56022 

2010/08/09 20:54
KDMH 092054Z AUTO 33/21 A2996 RMK AO2 SLP146 T03330206 58011 PWINO TSNO 

2010/08/09 20:54
K1V4 092054Z AUTO 28/19 A2987 RMK AO2 SLP104 T02780189 58015 PWINO TSNO 

2010/08/09 20:53
KSTJ 092053Z 20009KT 10SM CLR 34/25 A2983 RMK AO2 SLP088 T03440250 58010

2010/08/09 20:53
KSTP 092053Z AUTO 06006KT 10SM CLR 33/21 A2989 RMK AO2 SLP114 T03280206 58004 TSNO

2010/08/09 20:53
KSWO 092053Z 16010KT 10SM CLR 39/20 A2987 RMK AO2 SLP096 T03890200 58010

2010/08/09 20:53
KTDZ 092053Z AUTO 23006KT 6SM HZ CLR 31/19 A2994 RMK AO2 SLP134 T03110194 58014

2010/08/09 20:53
KTHV 092053Z AUTO 00000KT 10SM FEW090 33/21 A2996 RMK AO2 SLP144 T03330206 56013

2010/08/09 20:53
KTIW 092053Z 18007KT 10SM SCT020 BKN026 17/12 A3000 RMK AO2 SLP158 T01720122 53004

2010/08/09 20:53
KTKI 092053Z 12009KT 10SM CLR 36/21 A2989 RMK AO2 SLP111 T03610211 56017

2010/08/09 20:53
KTMB 092053Z 19009KT 10SM FEW021 31/24 A2989 RMK AO2 SLP120 60000 T03060244 56016

2010/08/09 20:53
KTOP 092053Z 18012KT 10SM CLR 39/22 A2984 RMK AO2 SLP090 T03940217 58009

2010/08/09 20:53
KTOR 092053Z AUTO 34005KT 10SM FEW019 BKN044 OVC090 24/16 A3000 RMK AO2 RAB24E51 SLP112 P0002 60002 T02440156 58012

2010/08/09 20:53
KTPA 092053Z 27005KT 7SM SCT025TCU BKN065 BKN250 29/24 A2988 RMK AO2 SLP119 TCU E AND SW VCSH SW 60019 T02940244 55009

2010/08/09 20:53
KTRL 092053Z AUTO 17012G16KT 10SM FEW065 36/18 A2990 RMK AO2 SLP116 T03610178 58017

2010/08/09 20:53
KTTD 092053Z VRB05KT 10SM OVC035 19/11 A3000 RMK AO2 SLP157 T01940106 51000

2010/08/09 20:53
KTTN 092053Z 25010G17KT 8SM CLR 34/18 A2994 RMK AO2 SLP131 T03390178 56017

2010/08/09 20:53
KTUL 092053Z 19008KT 10SM SCT070 38/19 A2987 RMK AO2 SLP102 T03780194 58014

2010/08/09 20:53
KTVC 092053Z 27008KT 10SM SCT032 BKN070 30/22 A2986 RMK AO2 SLP107 T03000222 50000

2010/08/09 20:53
KTVR 092053Z AUTO VRB03KT 10SM CLR 37/23 A2989 RMK AO2 LTG DSNT W-NE SLP126 T03720233 56024

2010/08/09 20:53
KTWF 092053Z AUTO 17019G24KT 10SM CLR 30/06 A2992 RMK AO2 PK WND 19027/1954 LTG DSNT SW SLP069 T03000056 55006

2010/08/09 20:53
KTXK 092053Z 06004KT 10SM CLR 36/22 A2990 RMK AO2 SLP117 T03610222 58020

2010/08/09 20:53
KPTK 092053Z 16006KT 10SM FEW007 SCT030 BKN080 24/22 A2993 RMK AO2 RAE09B38E48 SLP129 CB DSNT N MOV E P0000 60003 T02390217 58014

2010/08/09 20:53
KPUB 092053Z 24004KT 10SM FEW110 28/14 A3004 RMK AO2 SLP106 T02780144 56013 $

2010/08/09 20:53
KPUW 092053Z AUTO 23009KT 10SM BKN095 27/06 A2987 RMK AO2 SLP103 T02670061 57012

2010/08/09 20:53
KPWA 092053Z 18014G19KT 10SM CLR 37/19 A2988 RMK AO2 SLP096 T03720194 58015

2010/08/09 20:53
KRAC 092053Z AUTO 12006KT 7SM BKN035 28/22 A2992 RMK AO2 SLP125 T02830222 55006

2010/08/09 20:53
KRAL 092053Z 26008G15KT 10SM CLR 29/10 A2989 RMK AO2 SLP105 T02940100 58009

2010/08/09 20:53
KRBD 092053Z 00000KT 10SM CLR 37/19 A2988 RMK AO2 SLP108 T03720194 58018

2010/08/09 20:53
KRBG 092053Z AUTO 36008KT 10SM CLR 22/13 A2997 RMK AO2 SLP146 T02220128 58006

2010/08/09 20:53
KRHI 092053Z AUTO 29006KT 10SM CLR 31/19 A2995 RMK AO2 SLP130 T03060189 50003

2010/08/09 20:53
KRIW 092053Z AUTO 17014G21KT 10SM CLR 31/04 A2999 RMK AO2 SLP077 T03060039 58019

2010/08/09 20:53
KRME 092053Z AUTO 25009KT 10SM FEW075 29/18 A2992 RMK AO2 SLP125 T02940183 56019 TSNO

2010/08/09 20:53
KRNT 092053Z 13003KT 10SM BKN026 OVC032 18/12 A2999 RMK AO2 SLP160 T01780122 51003

2010/08/09 20:53
KRSL 092053Z AUTO 18012G19KT 10SM CLR 38/19 A2984 RMK AO2 SLP080 T03780189 58009

2010/08/09 20:53
KRSW 092053Z AUTO 19012KT 8SM -RA SCT015 BKN021 OVC055 26/24 A2986 RMK AO2 SLP110 P0047 60047 T02560239 56009 TSNO

2010/08/09 20:53
KRUE 092053Z AUTO VRB03KT 10SM CLR 38/21 A2988 RMK AO2 SLP108 T03830211 58021

2010/08/09 20:53
KRVS 092053Z 21007KT 10SM CLR 39/21 A2987 RMK AO2 SLP114 T03890211 58015

2010/08/09 20:53
KRWF 092053Z AUTO 11007KT 10SM CLR 32/21 A2990 RMK AO2 SLP118 T03170206 56004

2010/08/09 20:53
KRWL 092053Z AUTO 22010G18KT 10SM OVC110 22/06 A3019 RMK AO2 SLP132 6//// T02220056 58007 PNO $

2010/08/09 20:53
KRXE 092053Z AUTO 25008KT 10SM FEW040 SCT070 22/11 A3001 RMK AO2 LTG DSNT E AND SE RAB23E52 SLP123 P0000 60000 T02170111 58009

2010/08/09 20:51
KSAN 092051Z VRB06KT 10SM FEW020 22/14 A2994 RMK AO2 SLP137 T02170139 58006

2010/08/09 20:53
KSBA 092053Z 20006KT 10SM FEW001 18/13 A2994 RMK AO2 SLP137 FG BNK ONSHR E-W T01780133 50001

2010/08/09 20:53
KSBM 092053Z AUTO 27004KT 10SM SCT030 30/22 A2989 RMK AO2 SLP117 T03000222 56005

2010/08/09 20:53
KSEA 092053Z 19005KT 10SM SCT016 OVC023 18/12 A3000 RMK AO2 SLP166 T01780122 53004

2010/08/09 20:53
KSEG 092053Z AUTO 19006KT 10SM CLR 32/17 A2996 RMK AO2 SLP140 T03220167 56014

2010/08/09 20:53
KSFF 092053Z 21009KT 10SM CLR 28/07 A2982 RMK AO2 SLP083 T02780067 58014

2010/08/09 20:53
KSHN 092053Z AUTO 21009KT 10SM BKN019 18/12 A2998 RMK AO2 SLP151 T01780122 53004

2010/08/09 20:53
KSHR 092053Z AUTO 17006KT 10SM CLR 32/08 A2988 RMK AO2 SLP074 T03220078 58018

2010/08/09 20:53
KSLC 092053Z 25018G27KT 10SM BKN110CB BKN150 BKN200 28/01 A2999 RMK AO2 PK WND 17028/2000 WSHFT 2037 SLP096 VIRGA NE AND S-SW AND DSNT NW CB N-NE MOV NE AND DSNT SW 60000 T02780006 56010

2010/08/09 20:53
KTYR 092053Z AUTO VRB06KT 10SM CLR 37/19 A2993 RMK AO2 SLP124 T03670189 58018 TSNO

2010/08/09 20:53
KUAO 092053Z AUTO 00000KT 10SM BKN034 19/10 A3001 RMK AO2 SLP161 T01890100 58002

2010/08/09 20:53
KUNO 092053Z AUTO 08009KT 10SM OVC065 35/22 A2993 RMK AO2 SLP118 T03500217 57016

2010/08/09 20:53
KUUU 092053Z AUTO 20008G19KT 180V240 9SM CLR 26/22 A2996 RMK AO2 SLP143 T02560217 56011

2010/08/09 20:53
KVEL 092053Z AUTO 24008KT 10SM FEW100 27/04 A3008 RMK AO2 LTG DSNT E SLP124 T02720039 58019

2010/08/09 20:53
KVGT 092053Z 16013G18KT 10SM CLR 34/03 A2989 RMK AO2 SLP085 T03440028 58020

2010/08/09 20:53
KVIH 092053Z AUTO 10004KT 10SM CLR 33/26 A2992 RMK AO2 SLP115 T03330256 58009

2010/08/09 20:53
KVLD 092053Z 05010KT 10SM BKN050 35/21 A2993 RMK AO2 SLP140 T03500211 56014

2010/08/09 20:53
KVPZ 092053Z AUTO 21008KT 10SM FEW100 29/23 A2994 RMK AO2 SLP132 T02940228 56007

2010/08/09 20:53
KVRB 092053Z 12013G20KT 10SM CLR 31/24 A2990 RMK AO2 SLP122 T03060239 56011

2010/08/09 20:53
KVUO 092053Z AUTO VRB03KT 10SM OVC027 17/11 A3001 RMK AO2 SLP161 T01720106 58000

2010/08/09 20:53
KWRL 092053Z AUTO 19013G18KT 10SM FEW110 33/04 A2986 RMK AO2 SLP061 T03280044 58027

2010/08/09 20:53
KWST 092053Z AUTO 22009G17KT 7SM CLR 26/21 A2996 RMK AO2 SLP143 T02610211 56015

2010/08/09 20:53
KXNA 092053Z 21009KT 5SM HZ CLR 37/20 A2994 RMK AO2 SLP120 T03670200 58015

2010/08/09 20:53
KYIP 092053Z AUTO 16005KT 6SM -RA BKN025 BKN046 BKN080 24/22 A2995 RMK AO2 SLP134 P0003 60004 T02440217 58012 TSNO

2010/08/09 20:53
KYKM 092053Z VRB03KT 10SM SCT080 28/07 A2978 RMK AO2 SLP078 T02830067 58017

2010/08/09 20:53
KZZV 092053Z AUTO 22003KT 10SM CLR 31/18 A2999 RMK AO2 SLP148 T03060183 56016

2010/08/09 20:53
KIXD 092053Z 17011KT 10SM CLR 37/21 A2988 RMK AO2 SLP101 T03720211 56012

2010/08/09 20:52
KJAC 092052Z 12010KT 080V180 RA SCT065 BKN085 BKN110 12/04 A3008 RMK LGT DSNT ALQDS

2010/08/09 20:53
KJBR 092053Z AUTO 14007KT 10SM CLR 34/25 A2989 RMK AO2 SLP119 T03440250 56017

2010/08/09 20:51
KJCT 092051Z AUTO 17008G15KT 10SM CLR 37/16 A2991 RMK AO2 SLP085 T03720156 58024 TSNO

2010/08/09 20:53
KJEF 092053Z VRB03KT 10SM CLR 34/26 A2989 RMK AO2 SLP104 T03440256 56011

2010/08/09 20:53
KJER 092053Z AUTO 09021G27KT 10SM CLR 27/09 A2993 RMK AO2 PK WND 09029/2027 LTG DSNT SW SLP095 T02670094 56008

2010/08/09 20:53
KJKL 092053Z AUTO 00000KT 10SM CLR 33/18 A3002 RMK AO2 SLP147 T03330183 56014

2010/08/09 20:53
KJLN 092053Z 19009KT 10SM CLR 36/22 A2991 RMK AO2 SLP114 T03560222 58015

2010/08/09 20:53
KLAA 092053Z AUTO 24005KT 10SM CLR 34/17 A2991 RMK AO2 LTG DSNT SE AND S SLP069 T03390172 58021

2010/08/09 20:53
KLAN 092053Z 24012KT 10SM SCT021 BKN050 28/22 A2993 RMK AO2 SLP130 60000 T02780217 56013

2010/08/09 20:53
KLAR 092053Z AUTO 16008KT 10SM FEW100 24/07 A3019 RMK AO2 LTG DSNT N SLP113 T02390067 58010

2010/08/09 20:53
KLAW 092053Z AUTO 00000KT 10SM CLR 39/16 A2985 RMK AO2 SLP090 T03940161 58018

2010/08/09 20:53
KONT 092053Z 27010KT 10SM CLR 29/08 A2990 RMK AO2 SLP112 T02890083 58007

2010/08/09 20:53
KOPF 092053Z 16007KT 10SM FEW028 SCT038 29/23 A2989 RMK AO2 SLP123 60000 T02940233 58012

2010/08/09 20:51
KORF 092051Z 11009KT 10SM FEW035 31/20 A3001 RMK AO2 SLP162 T03060200 58005 $

2010/08/09 20:53
KORL 092053Z 10012G15KT 10SM SCT039 BKN070 32/23 A2989 RMK AO2 SLP123 60000 T03170233 55009

2010/08/09 20:53
KOSH 092053Z 00000KT 10SM CLR 30/22 A2989 RMK AO2 SLP106 T03000222 58002

2010/08/09 20:53
KOSU 092053Z 25006KT 10SM FEW050 31/19 A2998 RMK AO2 SLP144 T03110189 56014 $

2010/08/09 20:53
KOTM 092053Z AUTO 15004KT 10SM CLR 30/24 A2988 RMK AO2 SLP109 T03000244 56009

2010/08/09 20:53
KOVS 092053Z AUTO 33004KT 10SM CLR 33/23 A2989 RMK AO2 SLP118 T03330228 58010

2010/08/09 20:55
KFAM 092055Z AUTO 20004KT 10SM CLR 35/24 A2993 RMK AO1 57014

2010/08/09 20:51
KFFZ 092051Z VRB06KT 50SM SCT150 38/10 A2985

2010/08/09 20:55
KFLP 092055Z AUTO 20005KT 9SM FEW050 36/24 A2991 RMK AO1 57017

2010/08/09 20:55
KFOD 092055Z AUTO 09004KT 10SM OVC030 28/26 A2990 RMK AO1 54000

2010/08/09 20:55
KFRM 092055Z 08008KT 10SM FEW027 29/24 A2993 RMK AO1 57007

2010/08/09 20:55
KGAD 092055Z AUTO 20005KT 10SM CLR 36/21 A2996 RMK AO1 57017

2010/08/09 20:55
KGAI 092055Z 16007KT 10SM SCT050 BKN065 33/21 A3000 RMK AO1 57010

2010/08/09 20:55
KGBD 092055Z AUTO 19017G25KT 10SM FEW080 39/18 A2986 RMK AO1 57010

2010/08/09 20:54
KGCK 092054Z 16012G20KT 10SM CLR 38/14 A2989 RMK AO2 SLP076 T03780139 58016 TSNO

2010/08/09 20:54
KGCN 092054Z 20008G20KT 10SM CLR 24/03 A3024 RMK AO2 SLP152 T02440028 58006

2010/08/09 20:55
KGPZ 092055Z AUTO 00000KT 10SM CLR 31/21 A2993 RMK AO1 54000

2010/08/09 20:55
KHEF 092055Z AUTO 16009KT 10SM 32/22 A2997 RMK AO1 57010

2010/08/09 20:55
KHEZ 092055Z AUTO 07017G21KT 7SM TS FEW047 SCT060 32/24 A2994 RMK AO1 LTG DSNT W TSE06B08 57014

2010/08/09 20:55
KHNB 092055Z AUTO 18003KT 10SM CLR 36/20 A2992 RMK AO1 57014

2010/08/09 20:51
KHSA 092051Z 24005KT 5SM BR SCT050 SCT070 27/27 A2992

2010/08/09 20:54
KHWD 092054Z 29012KT 10SM CLR 21/12 A2991 RMK AO2 SLP135 T02110122 58008

2010/08/09 20:55
KHYS 092055Z AUTO 16013G19KT 10SM FEW090 39/17 A2986 RMK AO1 57010

2010/08/09 20:54
KIMT 092054Z AUTO 34007KT 10SM CLR 31/19 A2989 RMK AO2 SLP112 T03110189 50001

2010/08/09 20:54
KINT 092054Z 18006KT 10SM FEW095 32/19 A3003 RMK AO2 SLP156 T03220189 56009

2010/08/09 20:54
KISW 092054Z AUTO 32008KT 10SM CLR 32/22 A2992 RMK AO2 SLP123 T03220217 58006 TSNO

2010/08/09 20:47
KIWA 092047Z 25008KT 45SM SCT120 SCT200 39/09 A2987

2010/08/09 20:55
KIWD 092055Z AUTO 35007KT 10SM CLR 29/19 A2990 RMK AO1 54000

2010/08/09 20:55
KKLS 092055Z AUTO 28004KT 10SM OVC031 18/12 A3000 RMK AO1 54000

2010/08/09 20:54
KLAF 092054Z 00000KT 9SM BKN035 33/25 A2992 RMK AO2 SLP126 T03280250 58007

2010/08/09 20:53
KLAL 092053Z 11007KT 15SM VCSH SCT040 BKN120 BKN250 32/22 A2987

2010/08/09 20:55
KLBL 092055Z 19012G18KT 10SM FEW095 39/14 A2990 RMK AO1 57020

2010/08/09 20:54
KLBT 092054Z AUTO 15005KT 10SM CLR 34/19 A2998 RMK AO2 SLP150 T03390194 58011

2010/08/09 20:55
KLGD 092055Z AUTO 00000KT 10SM SCT090 28/07 A2982 RMK AO1 57017

2010/08/09 20:54
KLNK 092054Z VRB03KT 10SM CLR 34/25 A2985 RMK AO2 SLP092 T03440250 58003

2010/08/09 20:55
KLPC 092055Z AUTO 28012G17KT 10SM CLR 19/12 A2995 RMK AO1 54000 PNO

2010/08/09 20:54
KLWT 092054Z AUTO VRB06KT 10SM CLR 28/08 A2988 RMK AO2 SLP080 T02830078 58018

2010/08/09 20:54
KLYH 092054Z 14006KT 10SM FEW055 32/21 A3002 RMK AO2 SLP155 T03170211 57011

2010/08/09 20:55
KMBL 092055Z AUTO 28010KT 10SM SCT031 27/21 A2991 RMK AO1 54000

2010/08/09 20:54
KMFI 092054Z AUTO 29006KT 10SM CLR 31/22 A2992 RMK AO2 SLP123 T03060222 58003

2010/08/09 20:54
KMKC 092054Z 17012KT 10SM CLR 37/24 A2984 RMK AO2 SLP094 T03670244 56013

2010/08/09 20:55
KMKT 092055Z AUTO 09004KT 10SM SCT031 31/23 A2990 RMK AO1 57007

2010/08/09 20:54
KTQE 092054Z AUTO 36004KT 10SM BKN023 30/26 A2986 RMK AO2 SLP096 T03000256 51001

2010/08/09 20:55
KTVF 092055Z AUTO 21010G18KT 10SM CLR 33/18 A2987 RMK AO1 54000

2010/08/09 20:54
KUIN 092054Z AUTO 16007KT 9SM CLR 33/27 A2988 RMK AO2 SLP107 T03330267 56013

2010/08/09 20:53
KLBB 092053Z 18013G18KT 10SM SCT060TCU SCT180 BKN250 34/17 A2998 RMK AO2 SLP093 CB DSNT SE AND DSNT SW-NW MOV NE TCU ALQDS T03390172 58019

2010/08/09 20:53
KLBF 092053Z AUTO 12005KT 10SM CLR 31/19 A2995 RMK AO2 SLP113 T03060194 56006

2010/08/09 20:53
KLEB 092053Z 00000KT 6SM HZ FEW046 23/20 A2990 RMK AO2 PK WND 33031/2022 LTG DSNT NW-E TSE21B22E30RAB11E46 SLP116 P0044 60044 T02280200 56007

2010/08/09 20:53
KLEE 092053Z 00000KT 10SM SCT060 31/24 A2991 RMK AO2 SLP126 60000 T03110244 56010

2010/08/09 20:53
KLGB 092053Z 21008KT 10SM CLR 21/13 A2993 RMK AO2 SLP133 T02110128 58003

2010/08/09 20:53
KLHQ 092053Z AUTO 00000KT 9SM CLR 31/18 A2999 RMK AO2 SLP149 T03110183 56016

2010/08/09 20:53
KLHX 092053Z AUTO VRB04KT 10SM CLR 31/16 A2999 RMK AO2 SLP091 T03060161 58014 $

2010/08/09 20:53
KLIT 092053Z 16005KT 10SM SCT055 BKN250 37/23 A2989 RMK AO2 SLP118 TCU DSNT W N 60000 T03670228 58018

2010/08/09 20:53
KLLQ 092053Z AUTO 09004KT 10SM FEW090 37/24 A2992 RMK AO2 SLP126 T03670239 58016

2010/08/09 20:53
KLMT 092053Z 33008KT 10SM FEW045 SCT100 SCT250 27/04 A2995 RMK AO2 SLP102 T02670039 56009

2010/08/09 20:53
KLNS 092053Z 24007G14KT 10SM CLR 33/19 A2996 RMK AO2 SLP142 T03280189 58012

2010/08/09 20:53
KLOU 092053Z 27005KT 10SM FEW065 36/20 A2993 RMK AO2 SLP128 T03560200 56016

2010/08/09 20:53
KLOZ 092053Z AUTO 09007KT 10SM BKN046 31/22 A3000 RMK AO2 SLP145 T03110222 56015

2010/08/09 20:53
KLPR 092053Z AUTO 25007KT 10SM CLR 31/19 A2997 RMK AO2 SLP143 T03110194 58009

2010/08/09 20:53
KLSE 092053Z VRB05KT 10SM CLR 32/23 A2989 RMK AO2 SLP108 T03220233 58008

2010/08/09 20:53
KLUK 092053Z 15007KT 8SM SCT070 33/21 A2995 RMK AO2 SLP136 T03280211 56014

2010/08/09 20:53
KMMK 092053Z AUTO 18013KT 8SM CLR 30/21 A2992 RMK AO2 SLP131 T03000211 56011

2010/08/09 20:53
KMMV 092053Z AUTO 00000KT 10SM SCT034 19/11 A3001 RMK AO2 SLP160 T01890111 58006

2010/08/09 20:53
KMNN 092053Z AUTO 24005KT 10SM FEW055 30/18 A2998 RMK AO2 SLP145 T03000183 58012

2010/08/09 20:53
KMSL 092053Z AUTO 18011KT 10SM FEW040 29/23 A2997 RMK AO2 LTG DSNT ALQDS TSB04E29 SLP143 T02890233 56002

2010/08/09 20:53
KMSO 092053Z 20008KT 10SM -RA SCT085 SCT110 23/13 A2985 RMK AO2 RAB15E27B49 SLP090 P0000 60000 T02330133 55015

2010/08/09 20:53
KMSP 092053Z 10008KT 10SM FEW070 34/18 A2989 RMK AO2 SLP114 T03440178 58005

2010/08/09 20:53
KMSS 092053Z AUTO 30005KT 10SM SCT040 26/21 A2989 RMK AO2 LTG DSNT SE-SW SLP120 T02610211 55009

2010/08/09 20:53
KMTH 092053Z AUTO 23008G17KT 10SM SCT020 BKN026 OVC032 28/23 A2989 RMK AO2 SLP120 T02780233 56013

2010/08/09 20:53
KMTJ 092053Z AUTO VRB04KT 10SM CLR 26/09 A3017 RMK AO2 SLP136 60000 T02610094 58011

2010/08/09 20:53
KMTO 092053Z AUTO 18007KT 10SM FEW055 33/24 A2992 RMK AO2 SLP123 T03330244 56006 $

2010/08/09 20:53
KMVY 092053Z 23012G19KT 10SM CLR 29/22 A2996 RMK AO2 SLP143 T02890217 56014

2010/08/09 20:53
KMWL 092053Z AUTO 16011G16KT 10SM SCT070 38/19 A2987 RMK AO2 SLP096 T03780189 58022

2010/08/09 20:53
KMYF 092053Z 25009G16KT 10SM CLR 23/14 A2992 RMK AO2 SLP129 T02280139 58006

2010/08/09 20:53
KMYV 092053Z AUTO 15007KT 10SM CLR 28/14 A2984 RMK AO2 SLP109 6//// T02830139 56014

2010/08/09 20:53
KODO 092053Z AUTO 13009G17KT 10SM FEW065 34/16 A2994 RMK AO2 SLP085 T03440161 58024

2010/08/09 20:53
KODX 092053Z AUTO 00000KT 10SM CLR 31/21 A2990 RMK AO2 SLP111 T03110211 58010

2010/08/09 20:53
KOGB 092053Z AUTO 10008KT 10SM CLR 33/20 A2999 RMK AO2 SLP153 T03330200 56010

2010/08/09 20:53
KOGD 092053Z AUTO 25008G16KT 10SM CLR 28/03 A3001 RMK AO2 SLP100 T02780033 56006

2010/08/09 20:53
KOJC 092053Z 19010G17KT 10SM CLR 36/23 A2987 RMK AO2 SLP098 T03610228 56013

2010/08/09 20:53
KOLF 092053Z AUTO 11005KT 10SM CLR 32/11 A2982 RMK AO2 SLP087 T03220106 58015 TSNO

2010/08/09 20:53
KOMK 092053Z AUTO 18008G19KT 10SM CLR 29/09 A2975 RMK AO2 SLP065 T02890089 58018

2010/08/09 20:53
KONO 092053Z AUTO VRB03KT 10SM CLR 30/11 A2981 RMK AO2 SLP075 T03000111 58020

2010/08/09 20:53
KDEQ 092053Z AUTO 23007KT 10SM CLR 37/22 A2988 RMK AO2 SLP110 T03670222 58020

2010/08/09 20:53
KDET 092053Z 24006KT 10SM -RA SCT075 25/22 A2995 RMK AO2 RAB01 SLP136 P0000 60000 T02500217 58006

2010/08/09 20:53
KDEW 092053Z AUTO 18005KT 10SM SCT070 25/08 A2983 RMK AO2 SLP091 T02500083 58012

2010/08/09 20:53
KDFI 092053Z AUTO 20005KT 7SM FEW049 SCT060 30/22 A2994 RMK AO2 SLP132 T03000217 56015

2010/08/09 20:53
KDFW 092053Z 19009G17KT 10SM SCT065TCU 37/20 A2987 RMK AO2 SLP105 TCU ALQDS T03720200 58017

2010/08/09 20:53
KDGW 092053Z AUTO 15008KT 10SM -RA FEW019 BKN100 27/11 A3001 RMK AO2 RAB03E14B31 SLP101 P0000 60000 T02720106 58010

2010/08/09 20:53
KDHN 092053Z 09006KT 10SM FEW065 34/21 A2997 RMK AO2 SLP143 T03440211 58018

2010/08/09 20:53
KDKK 092053Z AUTO 25010G16KT 8SM CLR 27/19 A2996 RMK AO2 SLP139 T02720194 55007

2010/08/09 20:53
KDLN 092053Z AUTO 15006KT 10SM FEW065 BKN090 22/06 A3000 RMK AO2 LTG DSNT E SLP112 60000 T02170061 58009

2010/08/09 20:53
KDLS 092053Z AUTO 33015G24KT 10SM CLR 26/05 A2983 RMK AO2 PK WND 32028/2042 SLP097 T02560050 56009

2010/08/09 20:53
KDMO 092053Z AUTO 20010KT 10SM CLR 36/24 A2990 RMK AO2 SLP112 T03610244 57011

2010/08/09 20:53
KDNL 092053Z AUTO 08008KT 10SM SCT060 34/19 A2999 RMK AO2 SLP148 T03440194 56013

2010/08/09 20:53
KDRO 092053Z AUTO 24009G17KT 10SM CLR 28/04 A3020 RMK AO2 SLP130 6//// T02780044 58010

2010/08/09 20:53
KDTN 092053Z VRB05KT 10SM CLR 37/21 A2989 RMK AO2 SLP117 T03670211 58021

2010/08/09 20:53
KDTO 092053Z 20009G18KT 10SM SCT065 37/21 A2987 RMK AO2 SLP103 T03720206 58018

2010/08/09 20:53
KDTS 092053Z AUTO 20005KT 10SM CLR 33/23 A2991 RMK AO2 LTG DSNT NW SLP126 T03330233 58020

2010/08/09 20:53
KDTW 092053Z 23006KT 7SM -RA FEW020 BKN060 OVC130 25/22 A2995 RMK AO2 RAB16 SLP140 P0001 60001 T02500217 58006

2010/08/09 20:53
KDVT 092053Z VRB04KT 10SM CLR 37/07 A2986 RMK AO2 SLP082 T03670072 58013

2010/08/09 20:53
KDXR 092053Z 20008G16KT 6SM HZ FEW065 32/20 A2994 RMK AO2 SLP134 T03170200 56016

2010/08/09 20:53
KECP 092053Z AUTO 06004KT 10SM FEW060 35/22 A2990 RMK AO2 SLP136 T03500217 58018 TSNO

2010/08/09 20:53
KEEO 092053Z AUTO 11003KT 10SM -RA BKN040 BKN055 OVC085 18/14 A3021 RMK AO2 RAB36 SLP165 P0001 60007 T01830139 58009 TSNO

2010/08/09 20:53
KELD 092053Z AUTO 00000KT 10SM CLR 37/19 A2989 RMK AO2 LTG DSNT NE SLP118 T03670189 58020

2010/08/09 20:53
KELM 092053Z AUTO 24008KT 10SM CLR 31/17 A2993 RMK AO2 SLP127 T03110167 56017

2010/08/09 20:53
KELN 092053Z AUTO 31022G31KT 10SM CLR 26/11 A2981 RMK AO2 PK WND 31031/2046 SLP084 T02560106 56009

2010/08/09 20:53
KEMP 092053Z AUTO 15013G19KT 10SM CLR 37/21 A2987 RMK AO2 SLP101 T03720206 58008

2010/08/09 20:53
KENW 092053Z 28007KT 10SM SCT029 BKN034 30/23 A2991 RMK AO2 SLP122 T03000228 55005

2010/08/09 20:53
KEPH 092053Z AUTO 21013G16KT 10SM CLR 28/08 A2977 RMK AO2 SLP073 T02780083 58012

2010/08/09 20:53
KEWB 092053Z 22012G18KT 10SM CLR 29/20 A2993 RMK AO2 SLP134 T02940200 56013

2010/08/09 20:53
KCAG 092053Z AUTO 01009KT 10SM -RA SCT050 SCT090 19/12 A3021 RMK AO2 RAB34 SLP182 P0001 60001 T01890117 57006

2010/08/09 20:53
KCDC 092053Z AUTO 23009G17KT 10SM CLR 26/03 A3014 RMK AO2 SLP139 T02560033 58005

2010/08/09 20:53
KCDR 092053Z AUTO 28019G23KT 10SM CLR 29/14 A2994 RMK AO2 PK WND 26032/2021 LTG DSNT NW-E TSE1956 SLP113 T02940139 53003

2010/08/09 20:53
KCDS 092053Z AUTO 21007KT 10SM CLR 34/19 A2990 RMK AO2 SLP093 T03440194 58016

2010/08/09 20:53
KCDW 092053Z 24005KT CLR 33/18 A2993 RMK AO2 SLP139 T03330178 56014 $

2010/08/09 20:53
KCEW 092053Z AUTO 06004KT 10SM FEW055 35/24 A2993 RMK AO2 LTG DSNT SW SLP130 T03500239 58019

2010/08/09 20:53
KCEZ 092053Z AUTO 25004KT 10SM CLR 28/06 A3018 RMK AO2 SLP137 T02780056 58008

2010/08/09 20:53
KCGI 092053Z 19006KT 10SM CLR 34/26 A2989 RMK AO2 SLP116 T03440261 56014

2010/08/09 20:53
KCKB 092053Z 26006KT 9SM CLR 31/18 A3002 RMK AO2 SLP150 T03110178 58008

2010/08/09 20:53
KCLM 092053Z AUTO 33004KT 9SM -RA SCT020 BKN095 13/12 A2999 RMK AO2 SLP154 P0000 60000 T01330122 58001

2010/08/09 20:53
KCMI 092053Z 17004KT 10SM CLR 33/26 A2992 RMK AO2 SLP125 T03330261 58008

2010/08/09 20:53
KCMX 092053Z AUTO 29010KT 10SM CLR 27/19 A2991 RMK AO2 SLP122 T02720189 53003

2010/08/09 20:53
KCNM 092053Z AUTO 09007KT 10SM FEW070 34/16 A2995 RMK AO2 SLP081 T03390161 58023

2010/08/09 20:53
KCNO 092053Z 28008KT 10SM CLR 29/10 A2991 RMK AO2 SLP122 T02940100 56008

2010/08/09 20:53
KCNY 092053Z AUTO 27014G20KT 10SM FEW090 31/05 A3004 RMK AO2 SLP113 T03110050 58015

2010/08/09 20:53
KCPR 092053Z 23023G29KT 10SM CLR 27/04 A3005 RMK AO2 PK WND 22029/2046 SLP110 T02720039 55002

2010/08/09 20:53
KCPS 092053Z 17003KT 10SM HZ CLR 33/26 A2989 RMK AO2 SLP117 T03330261 56008

2010/08/09 20:53
KCRE 092053Z 15007KT 10SM SCT040 29/25 A3000 RMK AO2 SLP161 T02890250 56007

2010/08/09 20:53
KCRG 092053Z 10009KT 10SM FEW021 SCT029 SCT039 31/24 A2994 RMK AO2 SLP137 60026 T03060244 58007

2010/08/09 20:51
KCRP 092051Z 09014G20KT 10SM SCT036 34/24 A2988 RMK AO2 SLP118 TCU DSNT S SW T03440244 58016

2010/08/09 20:53
KCRQ 092053Z 24009KT 10SM CLR 21/14 A2992 RMK AO2 SLP129 T02110139 58004

2010/08/09 20:53
KCRS 092053Z AUTO 15007KT 10SM FEW070 37/20 A2989 RMK AO2 SLP114 T03670200 58019

2010/08/09 20:53
KCSM 092053Z 20011G18KT 10SM CLR 39/14 A2989 RMK AO2 SLP090 T03940139 58015

2010/08/09 20:53
KCUB 092053Z AUTO VRB04KT 10SM CLR 35/21 A2999 RMK AO2 SLP153 T03500206 56009

2010/08/09 20:50
KCWA 092050Z 31006KT 10SM SCT043 31/22 A2992

2010/08/09 20:51
KDAG 092051Z AUTO 06014G17KT 10SM CLR 37/M02 A2985 RMK AO2 SLP080 T03671017 58022 TSNO

2010/08/09 20:53
KDAL 092053Z 18009KT 10SM FEW060 37/20 A2987 RMK AO2 SLP107 T03720200 58019

2010/08/09 20:53
KDBQ 092053Z 00000KT 10SM CLR 31/23 A2993 RMK AO2 SLP127 T03110233 58003

2010/08/09 20:53
KDCU 092053Z AUTO 32008KT 9SM TS FEW065 31/23 A2996 RMK AO2 LTG DSNT W AND NW TSB45 SLP138 T03110228 55006

2010/08/09 20:53
KDEN 092053Z 14011KT 10SM SCT060 SCT080 BKN140 28/13 A3005 RMK AO2 SLP091 T02830133 58015

2010/08/09 20:53
KBEH 092053Z AUTO 26013KT 10SM FEW030 29/22 A2992 RMK AO2 SLP127 T02890222 55007

2010/08/09 20:53
KBFF 092053Z AUTO 32006KT 10SM CLR 29/13 A2999 RMK AO2 SLP105 T02940133 58011

2010/08/09 20:53
KBFI 092053Z 14006KT 10SM OVC025 19/12 A2999 RMK AO2 SLP154 T01890122 50003

2010/08/09 20:53
KBGM 092053Z AUTO 21008G37KT 170V330 10SM FEW070 SCT095 29/14 A2999 RMK AO2 PK WND 32037/2050 SLP140 T02940144 56020 TSNO

2010/08/09 20:53
KBGR 092053Z 24005KT 10SM FEW045 BKN065 28/17 A2986 RMK AO2 SLP108 T02830172 58014

2010/08/09 20:53
KBHK 092053Z AUTO VRB03KT 10SM CLR 34/11 A2985 RMK AO2 SLP076 T03440106 58016

2010/08/09 20:53
KBHM 092053Z 00000KT 10SM CLR 36/19 A2997 RMK AO2 SLP137 T03560194 58017

2010/08/09 20:53
KBIL 092053Z 04005KT 10SM SCT075CB BKN110 29/11 A2985 RMK AO2 SLP073 SHRA DSNT SW-NW CB S MOV NE CB DSNT SW-W T02940106 58022

2010/08/09 20:53
KBIV 092053Z AUTO 25009KT 10SM CLR 30/21 A2992 RMK AO2 SLP127 T03000211 56007

2010/08/09 20:53
KBKE 092053Z AUTO 28006KT 10SM CLR 27/09 A2987 RMK AO2 LTG DSNT SW SLP089 T02670089 58017

2010/08/09 20:53
KBKL 092053Z VRB05KT 6SM HZ CLR 29/21 A2994 RMK AO2 SLP133 T02940206 58013

2010/08/09 20:53
KBKV 092053Z AUTO 09004KT 10SM SCT026 SCT080 31/24 A2991 RMK AO2 SLP124 60002 T03110244 55005

2010/08/09 20:53
KBLI 092053Z 20004KT 7SM -RA BKN015 OVC040 15/14 A2997 RMK AO2 SLP156 P0003 60005 T01500139 53003

2010/08/09 20:53
KBMG 092053Z 27005KT 10SM CLR 33/21 A2995 RMK AO2 SLP132 T03280211 56010

2010/08/09 20:53
KBNA 092053Z 35003KT 10SM FEW055 SCT080 SCT180 BKN250 35/22 A2993 RMK AO2 SLP125 T03500217 56020

2010/08/09 20:53
KBOI 092053Z VRB03KT 10SM CLR 29/08 A2985 RMK AO2 SLP073 T02940083 58013

2010/08/09 20:53
KBPI 092053Z AUTO 20017G23KT 10SM BKN100 22/02 A3013 RMK AO2 PK WND 21027/2031 SLP116 T02170022 56009 TSNO

2010/08/09 20:53
KBPK 092053Z AUTO 20004KT 9SM FEW110 34/24 A2991 RMK AO2 SLP117 T03440239 58017

2010/08/09 20:54
KOFP 092054Z AUTO 24008KT 10SM FEW070 35/17 A3000 RMK AO2 SLP155 T03500167 58008

2010/08/09 20:54
KOLM 092054Z 00000KT 10SM OVC019 17/13 A3001 RMK AO2 SLP161 T01720128 53005

2010/08/09 20:54
KOLS 092054Z AUTO VRB04KT 10SM FEW075 32/13 A3004 RMK AO2 SLP097 T03220128 58010

2010/08/09 20:55
KOLU 092055Z AUTO 10SM FEW120 33/24 A2987 RMK AO1 57003

2010/08/09 20:55
KOTG 092055Z AUTO 05009G15KT 10SM CLR 29/22 A2994 RMK AO1 57007

2010/08/09 20:55
KOTH 092055Z 35015G19KT 10SM OVC020 16/11 A3006 RMK AO1 52003

2010/08/09 20:54
KPHF 092054Z 09009KT 10SM CLR 31/17 A3001 RMK AO2 SLP161 T03110172 58005

2010/08/09 20:54
KPIA 092054Z 13004KT 10SM CLR 32/24 A2991 RMK AO2 SLP121 T03170239 56008

2010/08/09 20:55
KPIB 092055Z AUTO 07006KT 10SM CLR 34/23 A2994 RMK AO1 57020

2010/08/09 20:54
KPLN 092054Z AUTO 01005KT 8SM FEW033 SCT055 SCT075 28/22 A2988 RMK AO2 SLP115 T02830222 50000

2010/08/09 20:55
KPTN 092055Z AUTO 19007KT 10SM VCTS BKN043 BKN050 33/18 A2996 RMK AO1 LTG DSNT NE TSB55 57017

2010/08/09 20:55
KPTV 092055Z AUTO 33004KT 10SM CLR 31/15 A2987 RMK AO1 57010

2010/08/09 20:55
KPWT 092055Z AUTO 22006KT 10SM OVC025 18/12 A3002 RMK AO1 52007

2010/08/09 20:54
KRBL 092054Z AUTO 17007G15KT 10SM CLR 30/13 A2984 RMK AO2 SLP101 T03000128 56011

2010/08/09 20:54
KRKS 092054Z AUTO 20024G30KT 10SM CLR 26/M03 A3013 RMK AO2 PK WND 21037/2026 SLP113 T02611028 56011

2010/08/09 20:54
KRST 092054Z 00000KT 10SM FEW034 31/23 A2993 RMK AO2 SLP126 T03110228 57008

2010/08/09 20:54
KSBY 092054Z 17010KT 10SM CLR 31/18 A3000 RMK AO2 SLP161 T03110183 56007

2010/08/09 20:54
KSET 092054Z AUTO VRB04KT 10SM CLR 36/24 A2988 RMK AO2 SLP111 T03560244 56008

2010/08/09 20:55
KSGT 092055Z 15004KT CLR 37/23 A2990 RMK AO1 57017

2010/08/09 20:55
KSGU 092055Z AUTO 23005KT 10SM CLR 32/06 A2998 RMK AO1 57020

2010/08/09 20:54
KSJN 092054Z AUTO 15005KT 10SM CLR 27/08 A3017 RMK AO2 SLP128 T02720078 58012

2010/08/09 20:55
KSKX 092055Z AUTO 27006KT 10SM BKN090 27/08 A3019 RMK AO1 LTG DSNT NW

2010/08/09 20:55
KSLG 092055Z AUTO 18004KT 10SM FEW065 36/21 A2994 RMK AO1 57017

2010/08/09 20:55
KSMN 092055Z AUTO 10004KT 10SM CLR 21/11 A2999 RMK AO1 60002 54000

2010/08/09 20:55
KSQI 092055Z AUTO 16003KT 10SM FEW030 31/23 RMK AO1

2010/08/09 20:55
KSUE 092055Z AUTO 09005KT 10SM BKN029 BKN035 29/24 A2991 RMK AO1 54000

2010/08/09 20:54
KSUS 092054Z 19005KT 10SM CLR 36/24 A2988 RMK AO2 SLP106 T03560239 56007

2010/08/09 20:53
KPQN 092053Z AUTO 08007KT 10SM CLR 31/22 A2992 RMK AO2

2010/08/09 20:54
KFGN 092054Z AUTO 00000KT 10SM CLR 28/20 A2987 RMK AO2

2010/08/09 20:53
KPNM 092053Z AUTO 35005KT 10SM CLR 33/20 A2991 RMK AO2

2010/08/09 20:53
KPWC 092053Z AUTO 20005KT 10SM CLR 31/19 A2993 RMK AO2

2010/08/09 20:53
KFFM 092053Z AUTO 18003KT 10SM CLR 31/19 A2988 RMK AO2

2010/08/09 20:52
KGDB 092052Z AUTO 06004KT 10SM CLR 32/19 A2992 RMK AO2 T03160194

2010/08/09 20:53
KAIT 092053Z AUTO 27004KT 10SM CLR 32/18 A2992 RMK AO2

2010/08/09 20:53
KGHW 092053Z AUTO 10003KT 10SM CLR 33/14 A2996 RMK AO2

2010/08/09 20:53
KMWM 092053Z AUTO 08005KT 10SM SCT030 30/24 A2991 RMK AO2

2010/08/09 20:53
KBBB 092053Z AUTO 13005KT 10SM CLR 33/19 A2994 RMK AO2

2010/08/09 20:53
KTWM 092053Z AUTO 20009KT 10SM CLR 29/22 A2989 RMK AO2

2010/08/09 20:55
KMGG 092055Z AUTO 00000KT 10SM CLR 32/22 A2992 RMK AO2 T03240223

2010/08/09 20:48
KMOX 092048Z AUTO 13004KT 10SM CLR 32/18 A2989 RMK AO2

2010/08/09 20:54
PAAP 092054Z 00000KT 3/4SM -DZ BR BKN000 OVC001 13/12 A3002 RMK -DZ BR BKN000 NO SPECI

2010/08/09 20:53
PAAQ 092053Z 13015G26KT 10SM OVC090 19/06 A2965 RMK AO2 PK WND 13026/2044 SLP035 T01890061 53002

2010/08/09 20:53
PABE 092053Z 17017G24KT 5SM R19R/5500VP6000FT -RA BR BKN009 OVC015 10/09 A2937 RMK AO2 SLP948 P0000 60002 T01000094 53008

2010/08/09 20:53
PABI 092053Z 18017G23KT 10SM FEW090 SCT110 SCT180 19/05 A2959 RMK AO2 PK WND 17028/1958 SLP018 T01940050 56006

2010/08/09 20:53
PABR 092053Z 06019KT 10SM OVC004 02/01 A2987 RMK AO2 PK WND 06026/2051 CIG 003V008 SLP114 60000 T00170011

2010/08/09 20:53
PABT 092053Z 00000KT 10SM FEW016 SCT050 OVC110 16/10 A2957 RMK AO2 RAE1958 SLP018 SHRA VC N P0000 60000 T01560100 56003

2010/08/09 20:53
KBRD 092053Z AUTO 30006KT 10SM CLR 32/16 A2992 RMK AO2 SLP124 T03170161 58003

2010/08/09 20:53
KBRL 092053Z AUTO VRB03KT 10SM CLR 33/25 A2990 RMK AO2 SLP116 T03280250 55000

2010/08/09 20:53
KBRO 092053Z AUTO 13014KT 10SM CLR 36/23 A2987 RMK AO2 SLP114 T03560233 56012 TSNO

2010/08/09 20:53
KBTL 092053Z 21007KT 10SM CLR 28/22 A2995 RMK AO2 SLP133 60000 T02780222 58010

2010/08/09 20:53
KBTM 092053Z AUTO 18008KT 10SM FEW120 23/06 A2999 RMK AO2 SLP110 T02280056 58010

2010/08/09 20:53
KBUR 092053Z 19009KT 10SM CLR 26/12 A2991 RMK AO2 SLP116 T02560117 58005

2010/08/09 20:51
KBVE 092051Z AUTO 22005KT CLR 27/25 A2995 RMK AO2 SLP141 60051 T02720250 58012 TSNO $

2010/08/09 20:53
KBVO 092053Z 17010G16KT 10SM CLR 37/21 A2987 RMK AO2 SLP100 T03720206 58016

2010/08/09 20:53
KBVY 092053Z 27010G15KT 10SM FEW070 33/16 A2987 RMK AO2 SLP108 T03330161 56016

2010/08/09 20:53
KBWG 092053Z AUTO 18004KT 10SM CLR 36/21 A2992 RMK AO2 SLP124 T03610206 56020

2010/08/09 20:53
KBYG 092053Z AUTO 15013G19KT 10SM FEW110 31/06 A2993 RMK AO2 SLP066 T03110056 58022

2010/08/09 20:53
KHIO 092053Z 04005KT 10SM OVC032 19/11 A3000 RMK AO2 SLP157 T01940106 58004

2010/08/09 20:53
KHKA 092053Z AUTO 15004KT 7SM CLR 36/24 A2989 RMK AO2 SLP119 T03560244 56020

2010/08/09 20:53
KHKS 092053Z 12013KT 10SM -RA FEW047 32/23 A2992 RMK AO2 LTG DSNT W-NE RAB52 SLP123 P0000 60000 T03170228 56018

2010/08/09 20:53
KHKY 092053Z VRB03KT 10SM CLR 33/21 A3002 RMK AO2 SLP141 T03280206 56012

2010/08/09 20:53
KHLC 092053Z AUTO 07010KT 10SM CLR 37/21 A2985 RMK AO2 SLP076 T03720211 58017

2010/08/09 20:53
KHLG 092053Z 20007KT 4SM HZ CLR 31/16 A3000 RMK AO2 SLP152 T03060156 56013

2010/08/09 20:53
KHLN 092053Z 11005KT 10SM SCT100 28/07 A2985 RMK AO2 SLP089 T02780067 58027

2010/08/09 20:53
KHOT 092053Z AUTO 20008KT 10SM CLR 37/21 A2990 RMK AO2 SLP117 T03720206 58019

2010/08/09 20:53
KHQM 092053Z AUTO 21007KT 9SM BKN009 OVC024 14/12 A3002 RMK AO2 SLP168 T01440122 52003

2010/08/09 20:53
KHRI 092053Z AUTO 28014G21KT 10SM CLR 31/04 A2979 RMK AO2 SLP080 T03060044 56018

2010/08/09 20:53
KHRO 092053Z AUTO 19004KT 10SM CLR 34/23 A2996 RMK AO2 SLP124 60001 T03440228 58016

2010/08/09 20:53
KHSI 092053Z AUTO 07005KT 10SM FEW085 33/23 A2989 RMK AO2 SLP099 T03280233 57008

2010/08/09 20:53
KHSV 092053Z 33010KT 4SM R18R/5500VP6000FT RA SCT055 SCT080 BKN100 29/24 A2995 RMK AO2 RAB20 SLP132 P0008 60008 T02940244 56015

2010/08/09 20:53
KHUF 092053Z 14006KT 10SM SCT044 34/23 A2993 RMK AO2 SLP128 T03390228 58009

2010/08/09 20:53
KHUL 092053Z AUTO 25005KT 10SM BKN095 25/17 A2983 RMK AO2 SLP101 T02500172 56011

2010/08/09 20:53
KHVN 092053Z 19009G17KT 9SM CLR 29/22 A2994 RMK AO2 SLP137 T02940217 56011

2010/08/09 20:53
KHVR 092053Z AUTO 00000KT 10SM CLR 30/09 A2981 RMK AO2 SLP079 T03000089 58020

2010/08/09 20:53
KHWO 092053Z VRB03KT 10SM FEW040 30/22 A2990 RMK AO2 SLP125 60001 T03000222 56013

2010/08/09 20:53
KHYR 092053Z AUTO 00000KT 10SM CLR 31/20 A2993 RMK AO2 SLP128 T03110200 58001

2010/08/09 20:53
KHZY 092053Z AUTO 31003KT 8SM FEW090 28/20 A2998 RMK AO2 SLP145 T02830200 56011

2010/08/09 20:53
KIAG 092053Z 29014G18KT 5SM -TSRA FEW025 BKN045CB BKN065 OVC130 24/21 A2995 RMK AO2 TSB45RAB12 SLP135 OCNL LTGCCCG 4N TS NW-NE MOV E 8/97/ P0000 60007 T02440206 53001

2010/08/09 20:53
KICR 092053Z AUTO 13005KT 10SM CLR 33/19 A2990 RMK AO2 SLP103 T03330189 58012 TSNO

2010/08/09 20:53
KICT 092053Z 16012KT 10SM SCT070 SCT200 39/20 A2986 RMK AO2 PK WND 14026/2012 SLP090 TCU DSNT SW T03890200 58014

2010/08/09 20:53
KIDA 092053Z 24008KT 10SM SCT025 SCT050 BKN100 22/11 A3003 RMK AO2 RAE13 SLP132 P0001 60001 T02220106 58003

2010/08/09 20:53
KIML 092053Z AUTO VRB05KT 10SM CLR 32/20 A2996 RMK AO2 SLP106 T03220200 58012

2010/08/09 20:53
KIPL 092053Z AUTO 00000KT 10SM CLR 37/06 A2975 RMK AO2 SLP073 T03670061 58017

2010/08/09 20:53
KITR 092053Z AUTO VRB06KT 10SM FEW085 32/18 A2999 RMK AO2 SLP093 T03170178 58012

2010/08/09 20:53
KOWD 092053Z 24012G17KT 10SM CLR 33/14 A2990 RMK AO2 SLP123 T03280144 56014

2010/08/09 20:53
KOXB 092053Z AUTO VRB05KT 9SM CLR 28/25 A3001 RMK AO2 SLP163 T02780250 56010

2010/08/09 20:53
KPAE 092053Z 26003KT 10SM OVC022 17/12 A3000 RMK AO2 SLP157 T01670122 51006

2010/08/09 20:53
KPAH 092053Z VRB04KT 10SM CLR 34/24 A2990 RMK AO2 SLP118 T03390244 56014

2010/08/09 20:53
KPBF 092053Z AUTO 00000KT 10SM CLR 37/23 A2991 RMK AO2 LTG DSNT NW SLP123 T03720228 57014

2010/08/09 20:53
KPBG 092053Z AUTO 05003KT 10SM VCTS SCT042 SCT085 26/21 A2987 RMK AO2 LTG DSNT SE AND SW TSE17B47 SLP114 60021 T02560211 56008

2010/08/09 20:53
KPBI 092053Z 15011KT 10SM SCT024TCU SCT075 SCT250 30/23 A2988 RMK AO2 SLP118 TCU E CB DSNT SE AND SW T03000233 56014

2010/08/09 20:53
KPDK 092053Z 12006KT 10SM BKN060 BKN080 34/19 A3000 RMK AO2 SLP136 T03440189 56014

2010/08/09 20:53
KPDT 092053Z 28008KT 10SM CLR 28/04 A2981 RMK AO2 SLP079 T02780044 58015

2010/08/09 20:53
KPDX 092053Z VRB05KT 10SM BKN028 17/10 A3002 RMK AO2 SLP163 T01670100 50000

2010/08/09 20:53
KPEO 092053Z AUTO 00000KT 10SM FEW070 28/19 A2994 RMK AO2 SLP131 T02780194 56016

2010/08/09 20:53
KPGA 092053Z AUTO 20009G14KT 160V240 10SM CLR 32/01 A3004 RMK AO2 SLP105 T03170006 56016

2010/08/09 20:53
KPGD 092053Z AUTO 09009KT 10SM SCT037 SCT049 BKN060 31/24 A2987 RMK AO2 RAE00 SLP114 P0000 60000 T03110239 56017 TSNO

2010/08/09 20:53
KPHD 092053Z AUTO 22004KT 10SM CLR 30/18 A3000 RMK AO2 SLP152 T03000178 58014

2010/08/09 20:53
KPIE 092053Z 30008KT 10SM BKN028 28/24 A2989 RMK AO2 LTG DSNT W TSB19E42 SLP121 60004 T02780239 56002

2010/08/09 20:53
KPIH 092053Z 23023G29KT 10SM FEW050 BKN060CB 22/09 A3004 RMK AO2 PK WND 22030/2040 TSB1957E28RAE17 SLP132 CB NE-E MOV NE P0008 60010 T02220089 56001

2010/08/09 20:53
KPIR 092053Z AUTO 11012KT 10SM CLR 33/19 A2986 RMK AO2 SLP095 T03280189 58014

2010/08/09 20:53
KPKB 092053Z 25003KT 8SM CLR 31/17 A3002 RMK AO2 SLP157 T03110167 56014

2010/08/09 20:53
KPKD 092053Z AUTO 23006KT 10SM CLR 32/18 A2992 RMK AO2 SLP126 T03220178 58005

2010/08/09 20:53
KPMD 092053Z 35006KT 10SM CLR 32/01 A2992 RMK AO2 SLP102 T03220011 58013

2010/08/09 20:53
KPMP 092053Z 15010KT 10SM CLR 29/24 A2989 RMK AO2 RAE02 SLP122 P0000 60013 T02890244 56013

2010/08/09 20:53
KPNC 092053Z AUTO 15012KT 10SM CLR 38/20 A2986 RMK AO2 SLP093 T03780200 58013

2010/08/09 20:53
KPNS 092053Z AUTO 17008KT 10SM CLR 32/24 A2992 RMK AO2 SLP134 T03220239 56020 TSNO

2010/08/09 20:53
KPOF 092053Z AUTO 20004KT 10SM CLR 37/24 A2987 RMK AO2 SLP108 T03670244 58018

2010/08/09 20:53
KPOU 092053Z 23006KT 10SM CLR 33/18 A2990 RMK AO2 SLP120 T03280178 58018

2010/08/09 20:53
KPRC 092053Z 21010G17KT 10SM BKN100TCU 28/08 A3013 RMK AO2 SLP121 TCU ALQDS VIRGA DSNT NE T02830078 58005

2010/08/09 20:53
KPSC 092053Z 25013KT 10SM CLR 31/06 A2977 RMK AO2 SLP078 T03060061 58018

2010/08/09 20:53
KPSP 092053Z 10006G14KT 10SM CLR 38/01 A2978 RMK AO2 SLP078 T03830011 58013

2010/08/09 20:53
KSLN 092053Z 18016G21KT 10SM CLR 39/18 A2983 RMK AO2 PK WND 19031/2043 SLP081 T03890178 56009

2010/08/09 20:53
KSMQ 092053Z AUTO VRB05KT 10SM FEW070 33/18 A2991 RMK AO2 SLP128 T03330183 56016

2010/08/09 20:53
KSNA 092053Z 21007KT 10SM FEW085 24/13 A2992 RMK AO2 SLP132 T02390128 56004

2010/08/09 20:53
KSNY 092053Z AUTO 19012G19KT 10SM CLR 35/11 A3001 RMK AO2 SLP097 T03500106 58015

2010/08/09 20:53
KSPB 092053Z AUTO 00000KT 10SM OVC025 17/12 A3000 RMK AO2 SLP160 T01720117 53000

2010/08/09 20:53
KSPG 092053Z 35006KT 10SM SCT055 31/24 A2986 RMK AO2 RAB1957E13 SLP112 P0000 60000 T03060244 56012

2010/08/09 20:53
KSPW 092053Z AUTO 09008KT 10SM OVC021 27/23 A2992 RMK AO2 SLP122 T02720233 58001

2010/08/09 20:53
KSRQ 092053Z AUTO 04004KT 10SM CLR 33/23 A2985 RMK AO2 SLP107 T03280233 56014 TSNO

2010/08/09 20:53
KSSI 092053Z AUTO 10010KT 10SM BKN090 29/24 A2996 RMK AO2 SLP146 60000 T02890244 58003

2010/08/09 20:53
KSTC 092053Z VRB03KT 10SM CLR 33/19 A2991 RMK AO2 SLP128 T03280194 58005 $

2010/08/09 20:53
PAWD 092053Z AUTO A2972 RMK AO2 SLP066 52007 PWINO FZRANO TSNO $

2010/08/09 20:53
PAYA 092053Z 10006KT 10SM OVC013 14/11 A2993 RMK AO2 RAB41E51 SLP136 BAY TWR WND 110MMKT P0000 60000 T01440111 53001

2010/08/09 20:53
KASX 092053Z AUTO 30004KT 10SM CLR 31/21 A2991 RMK AO2 SLP125 T03060211 50000

2010/08/09 20:53
KATY 092053Z AUTO 07009KT 10SM CLR 32/16 A2993 RMK AO2 SLP120 T03170161 58004

2010/08/09 20:53
KAUG 092053Z AUTO VRB04KT 10SM CLR 29/18 A2987 RMK AO2 SLP115 T02940178 58015

2010/08/09 20:53
KAWM 092053Z AUTO 14004KT 10SM -RA CLR 27/24 A2990 RMK AO2 LTG DSNT S AND SW TSE47RAB32 SLP121 P0000 60000 T02720239 56005

2010/08/09 20:53
KAXN 092053Z AUTO VRB06KT 10SM CLR 31/18 A2995 RMK AO2 SLP134 T03110183 57003

2010/08/09 20:53
KAZO 092053Z 19006KT 9SM FEW020 28/23 A2993 RMK AO2 SLP130 60001 T02830228 58014

2010/08/09 20:53
KBAF 092053Z 24013KT 10SM CLR 34/16 A2990 RMK AO2 SLP121 T03390156 56015

2010/08/09 20:53
KBBW 092053Z AUTO 14003KT 10SM CLR 31/20 A2994 RMK AO2 SLP112 T03060200 58005

2010/08/09 20:53
KBCE 092053Z AUTO 25010KT 10SM CLR 21/M03 A3028 RMK AO2 SLP145 T02111033 58003

2010/08/09 20:53
KBDE 092053Z AUTO 17003KT 10SM CLR 32/19 A2988 RMK AO2 SLP113 T03170194 58004

2010/08/09 20:53
KLVM 092053Z AUTO 30007KT 10SM VCTS SCT080 BKN095 26/07 A2993 RMK AO2 WSHFT 2001 LTG DSNT E-SW TSB32 SLP096 T02610072 55009

2010/08/09 20:53
KLWD 092053Z AUTO 18007KT 10SM CLR 32/25 A2987 RMK AO2 SLP104 T03220250 57003

2010/08/09 20:53
KLWV 092053Z AUTO 21004KT 8SM FEW050 35/22 A2991 RMK AO2 SLP122 T03500217 58009

2010/08/09 20:53
KLXT 092053Z AUTO 18010KT 10SM CLR 35/24 A2988 RMK AO2 SLP105 T03500244 56014

2010/08/09 20:53
KMAE 092053Z AUTO 26007KT 10SM CLR 31/14 A2985 RMK AO2 SLP104 T03060139 56014

2010/08/09 20:53
KMAF 092053Z 16009KT 10SM FEW065 35/17 A2993 RMK AO2 SLP082 T03500172 58024

2010/08/09 20:53
KMAI 092053Z AUTO 05011KT 10SM CLR 37/21 A2992 RMK AO2 SLP129 T03670206 58015

2010/08/09 20:53
KMBS 092053Z 20005KT 10SM SCT007 BKN020 OVC043 24/23 A2992 RMK AO2 RAB1958E44 SLP128 P0010 60011 T02390228 58003

2010/08/09 20:53
KMCI 092053Z 21012KT 10SM BKN250 37/24 A2986 RMK AO2 SLP095 T03720239 56012

2010/08/09 20:53
KMCK 092053Z AUTO 06007KT 10SM FEW044 33/23 A2992 RMK AO2 SLP102 T03280233 58006

2010/08/09 20:53
KMCO 092053Z 10011KT 10SM SCT031TCU BKN075 BKN190 32/23 A2989 RMK AO2 SLP118 TCU SW-W T03220228 55009

2010/08/09 20:53
KMCW 092053Z AUTO 10005KT 10SM BKN030 BKN038 30/24 A2992 RMK AO2 SLP119 T03000239 58005

2010/08/09 20:53
KMEM 092053Z 19009KT 10SM FEW080 BKN150 OVC250 29/23 A2994 RMK AO2 TSE41 SLP132 T02940233 55006

2010/08/09 20:53
KMFR 092053Z 31004KT 10SM CLR 29/09 A2987 RMK AO2 SLP103 T02890094 56016

2010/08/09 20:53
KMGY 092053Z AUTO 00000KT 9SM FEW060 32/19 A2997 RMK AO2 SLP139 T03170189 57014

2010/08/09 20:53
KMHE 092053Z AUTO 12008KT 10SM SCT032 31/23 A2989 RMK AO2 SLP111 T03060233 58004 TSNO

2010/08/09 20:53
KMHT 092053Z 24008G15KT 10SM SCT060 32/16 A2987 RMK AO2 SLP122 T03170161 56013

2010/08/09 20:53
KMIA 092053Z 18004KT 10SM SCT022 SCT075 BKN130 BKN250 30/23 A2989 RMK AO2 SLP122 60000 T03000233 56016

2010/08/09 20:53
KMIC 092053Z 07006KT 10SM CLR 34/22 A2988 RMK AO2 SLP111 T03390217 58006

2010/08/09 20:53
KMIE 092053Z 00000KT 10SM CLR 32/21 A2996 RMK AO2 SLP132 T03170211 56011

2010/08/09 20:53
KMIW 092053Z AUTO 00000KT 10SM OVC042 30/24 A2988 RMK AO2 SLP108 T03000244 56006

2010/08/09 20:53
KMKL 092053Z 27008KT 10SM SCT035TCU 35/24 A2992 RMK AO2 SLP124 T03500244 58017

2010/08/09 20:53
KMKO 092053Z AUTO 18007KT 10SM FEW070 37/21 A2989 RMK AO2 SLP113 T03670206 58015

2010/08/09 20:53
KMLB 092053Z 11012KT 10SM FEW030 29/24 A2990 RMK AO2 SLP124 T02940239 56009

2010/08/09 20:53
KMLC 092053Z AUTO 19007KT 10SM FEW075 38/18 A2990 RMK AO2 SLP113 T03780183 58015

2010/08/09 20:53
KMLP 092053Z AUTO VRB03KT 10SM CLR 18/04 A3001 RMK AO2 SLP070 T01780039 57002 TSNO

2010/08/09 20:53
KMLS 092053Z AUTO 08003KT 10SM CLR 33/08 A2982 RMK AO2 SLP072 T03330083 $

2010/08/09 20:53
KMLT 092053Z AUTO 00000KT 10SM CLR 26/17 A2987 RMK AO2 SLP117 T02610167 58015

2010/08/09 20:53
KMLU 092053Z AUTO 00000KT 10SM OVC055 37/23 A2990 RMK AO2 SLP123 T03720228 56022 TSNO

2010/08/09 20:53
KGLD 092053Z AUTO 13010G16KT 10SM CLR 33/17 A2996 RMK AO2 SLP092 T03280172 58016

2010/08/09 20:53
KGLH 092053Z 35004KT 10SM CLR 38/23 A2989 RMK AO2 TSB35E50 SLP124 T03780228 56018

2010/08/09 20:53
KGLR 092053Z AUTO 19003KT 5SM HZ FEW019 OVC027 26/22 A2990 RMK AO2 SLP117 T02610222 55003

2010/08/09 20:53
KGMU 092053Z 10006KT 10SM FEW060 34/18 A3002 RMK AO2 SLP152 T03390183 56013

2010/08/09 20:53
KGNV 092053Z 08009G21KT 10SM -RA FEW036 SCT047 BKN055 32/24 A2991 RMK AO2 RAB47 SLP124 P0000 60000 T03170239 56008

2010/08/09 20:53
KGOK 092053Z AUTO 17012G17KT 10SM CLR 38/21 A2986 RMK AO2 SLP098 T03780206 58013

2010/08/09 20:53
KGRB 092053Z 22006KT 10SM SCT040 30/23 A2987 RMK AO2 SLP111 T03000233 58002

2010/08/09 20:53
KGRI 092053Z 03005KT 10SM CLR 33/22 A2989 RMK AO2 SLP102 T03280222 57008

2010/08/09 20:53
KGRR 092053Z 22007KT 10SM FEW029 BKN037 BKN046 28/22 A2992 RMK AO2 SLP126 T02830222 58009

2010/08/09 20:53
KGSH 092053Z AUTO 19007KT 6SM HZ SCT090 29/24 A2994 RMK AO2 RAE13 SLP133 P0000 60001 T02890239 58013

2010/08/09 20:53
KGTF 092053Z VRB04KT 10SM CLR 29/06 A2983 RMK AO2 SLP069 60000 T02940061 58022

2010/08/09 20:53
KGUY 092053Z AUTO 20014G19KT 10SM SCT095 38/12 A2989 RMK AO2 SLP061 T03830122 58015

2010/08/09 20:53
KGWO 092053Z AUTO 18010G16KT 9SM TS BKN042 OVC055 29/26 A2993 RMK AO2 LTG DSNT E AND SE TSB43 SLP132 T02940261 56003

2010/08/09 20:53
KGZH 092053Z AUTO 10005KT 10SM SCT048 SCT065 34/23 A2994 RMK AO2 SLP135 60001 T03440233 58020

2010/08/09 20:53
KHAO 092053Z AUTO VRB04KT 9SM FEW065 35/18 A2996 RMK AO2 SLP138 T03500183 56014

2010/08/09 20:53
KHBR 092053Z AUTO 24011G17KT 10SM CLR 39/15 A2987 RMK AO2 SLP089 T03940150 58015

2010/08/09 20:53
KHEI 092053Z AUTO 15014G23KT 10SM CLR 34/16 A2986 RMK AO2 SLP085 T03390156 58012

2010/08/09 20:53
KHFD 092053Z 18010KT 8SM FEW095 31/19 A2991 RMK AO2 SLP127 T03110194 55011

2010/08/09 20:53
KHHR 092053Z 23010G14KT 10SM CLR 21/13 A2994 RMK AO2 SLP136 T02110128 51000 $

2010/08/09 20:53
KHIB 092053Z AUTO 28005KT 10SM CLR 31/19 A2993 RMK AO2 SLP131 T03110189 50001

2010/08/09 20:53
KAAF 092053Z AUTO 13007KT 10SM CLR 33/24 A2991 RMK AO2 SLP128 T03280239 56016

2010/08/09 20:53
KABR 092053Z AUTO 16009KT 10SM CLR 33/18 A2989 RMK AO2 SLP110 T03330183 58006

2010/08/09 20:53
KABY 092053Z 10009G15KT 10SM FEW065 35/19 A2996 RMK AO2 SLP143 T03500194 56011

2010/08/09 20:53
KACK 092053Z 21010KT 8SM SCT004 24/22 A2997 RMK AO2 SLP147 T02440222 56014

2010/08/09 20:53
KADG 092053Z AUTO 13005KT 9SM CLR 27/23 A2994 RMK AO2 RAB1956E29 SLP136 P0000 60000 T02670228 58017

2010/08/09 20:53
KAFW 092053Z 17007KT 10SM SCT070 38/20 A2987 RMK AO2 SLP095 T03830200 58019 $

2010/08/09 20:53
KAGC 092053Z 18006KT 10SM CLR 31/16 A2999 RMK AO2 SLP150 T03110161 58015

2010/08/09 20:53
KAIA 092053Z AUTO 28014KT 10SM CLR 32/11 A2997 RMK AO2 LTG DSNT NE SLP103 T03220111 58012 $

2010/08/09 20:53
KAKO 092053Z AUTO 15015G18KT 10SM FEW060 BKN095 29/14 A3004 RMK AO2 SLP106 T02940139 58014 TSNO

2010/08/09 20:53
KALW 092053Z 26010G15KT 10SM CLR 27/06 A2983 RMK AO2 SLP092 T02720061 57013

2010/08/09 20:53
KAMA 092053Z 18013G21KT 10SM SCT070 33/16 A2998 RMK AO2 SLP089 T03280156 58015

2010/08/09 20:53
KAMG 092053Z AUTO VRB05KT 10SM CLR 35/20 A2994 RMK AO2 SLP134 T03500200 56013

2010/08/09 20:53
KAMW 092053Z AUTO 12003KT 10SM OVC034 29/24 A2989 RMK AO2 SLP111 T02890239 56002

2010/08/09 20:53
KAOH 092053Z AUTO 20004KT 10SM CLR 31/21 A2997 RMK AO2 SLP140 T03060206 56013

2010/08/09 20:53
KAOO 092053Z AUTO 22004KT 10SM CLR 31/14 A3002 RMK AO2 SLP156 T03060144 56013

2010/08/09 20:53
KAPA 092053Z 15008G17KT 10SM SCT060 BKN120 26/14 A3010 RMK AO2 SLP120 T02560139 56016

2010/08/09 20:53
KAPF 092053Z 15007KT 10SM FEW016 BKN060 26/24 A2989 RMK AO2 LTG DSNT N TSE18RAB32E49 SLP121 P0000 60037 T02610244 55004

2010/08/09 20:53
KARB 092053Z 17005KT 9SM -RA SCT029 BKN090 24/22 A2993 RMK AO2 SLP131 P0004 60005 T02390217 58019

2010/08/09 20:53
KASE 092053Z VRB03KT 10SM SCT045 18/09 A3027 RMK AO2 SLP137 60001 T01830089 58016

2010/08/09 20:53
KIWI 092053Z AUTO 18005KT 10SM CLR 28/20 A2988 RMK AO2 SLP119 T02830200 58011

2010/08/09 20:53
KEYE 092053Z AUTO 29003KT 10SM CLR 34/20 A2994 RMK AO2 SLP130 T03390200 56009

2010/08/09 20:53
KEYW 092053Z 30011KT 3SM -RA BR SCT013 SCT021 BKN031 26/24 A2989 RMK AO2 WSHFT 2002 SLP121 P0033 60033 T02560239 57011

2010/08/09 20:53
KFAT 092053Z VRB05KT 10SM FEW080 32/10 A2985 RMK AO2 SLP104 CU OMTNS DSNT N-E-S T03220100 58012

2010/08/09 20:53
KFCM 092053Z 08005KT 10SM CLR 34/18 A2988 RMK AO2 SLP112 T03440178 58006

2010/08/09 20:53
KFDR 092053Z AUTO 18012KT 10SM 39/17 A2983 RMK AO2 WSHFT 2015 SLP079 T03940172 58017

2010/08/09 20:53
KFDY 092053Z AUTO 15005KT 7SM CLR 30/21 A2995 RMK AO2 SLP132 T03000211 56015

2010/08/09 20:53
KFFT 092053Z AUTO 28003KT 10SM CLR 34/19 A2996 RMK AO2 SLP135 T03440194 56014

2010/08/09 20:53
KFHR 092053Z AUTO 13003KT 5SM -RA BR SCT003 BKN015 BKN095 13/12 A2999 RMK AO2 SLP155 P0004 60006 T01330122 58000

2010/08/09 20:53
KFLD 092053Z AUTO 29004KT 10SM CLR 29/22 A2990 RMK AO2 SLP120 T02940222 58003

2010/08/09 20:53
KFLL 092053Z 15009KT 10SM FEW026 SCT060 28/24 A2988 RMK AO2 SLP119 T02830244 56012

2010/08/09 20:53
KFLO 092053Z 14005KT 10SM CLR 33/21 A2999 RMK AO2 SLP153 T03280211 56008

2010/08/09 20:53
KFMN 092053Z 24012G17KT 10SM CLR 31/04 A3013 RMK AO2 SLP135 T03060044 57010

2010/08/09 20:53
KFMY 092053Z 17010G21KT 4SM TSRA BR FEW010 BKN026 BKN070 26/24 A2986 RMK AO2 LTG DSNT E-S TSB1959E14B16E31B43 SLP112 P0037 60049 T02560239 56001

2010/08/09 20:53
KFNB 092053Z AUTO 15008KT 10SM CLR 37/26 A2981 RMK AO2 SLP082 T03670261 56014

2010/08/09 20:53
KFNT 092053Z AUTO 18005KT 10SM FEW012 SCT050 26/22 A2993 RMK AO2 RAB1959E11 SLP129 P0000 60008 T02610217 58013 TSNO

2010/08/09 20:53
KFOE 092053Z 20010KT 10SM CLR 39/20 A2985 RMK AO2 SLP092 T03890200 58010

2010/08/09 20:53
KFOK 092053Z 21010G19KT 9SM CLR 27/20 A2998 RMK AO2 SLP152 T02670200 56013

2010/08/09 20:53
KFPR 092053Z 13015KT 10SM FEW025 31/24 A2989 RMK AO2 SLP122 T03060239 56012

2010/08/09 20:53
KFRG 092053Z AUTO 21014KT 10SM CLR 28/19 A2996 RMK AO2 SLP146 T02830189 57010

2010/08/09 20:53
KFSM 092053Z 28004KT 10SM SCT070 37/22 A2988 RMK AO2 SLP111 T03720222 58018

2010/08/09 20:53
KFTW 092053Z 17007G16KT 10SM FEW065 38/21 A2987 RMK AO2 SLP103 T03780206 58018

2010/08/09 20:53
KFUL 092053Z 22007KT 10SM CLR 23/13 A2991 RMK AO2 SLP127 T02330128 56004

2010/08/09 20:53
KFVE 092053Z AUTO 16003KT 8SM SCT075 BKN100 22/19 A2981 RMK AO2 SLP091 60052 T02220189 58009

2010/08/09 20:53
KFWN 092053Z AUTO 22005KT 9SM CLR 32/18 A2994 RMK AO2 SLP134 T03220183 58014

2010/08/09 20:53
KFXE 092053Z 14008KT 10SM SCT050 SCT080 30/23 A2988 RMK AO2 SLP121 60000 T03000228 56011

2010/08/09 20:53
KFYV 092053Z 19008KT 10SM BKN065 35/19 A2994 RMK AO2 SLP121 T03500194 58014

2010/08/09 20:53
KGAG 092053Z AUTO 19007G17KT 10SM VCTS FEW001 36/18 A2989 RMK AO2 TSB44 SLP084 T03610178 56010

2010/08/09 20:53
KGEG 092053Z 23007G19KT 10SM SCT075 SCT120 BKN200 26/07 A2984 RMK AO2 SLP089 T02560067 58010

2010/08/09 20:53
KGEY 092053Z AUTO 15005KT 10SM CLR 32/06 A2985 RMK AO2 SLP062 T03170056 58025

2010/08/09 20:53
KGEZ 092053Z AUTO 20003KT 10SM CLR 33/21 A2993 RMK AO2 SLP127 T03330206 56012

2010/08/09 20:53
KGFK 092053Z 21013G16KT 10SM FEW250 34/19 A2983 RMK AO2 SLP095 T03440194 58006

2010/08/09 20:53
KGFL 092053Z AUTO 25008KT 10SM CLR 31/18 A2987 RMK AO2 LTG DSNT NE SLP112 T03110183 56015

2010/08/09 20:53
KGGG 092053Z AUTO 24005KT 10SM CLR 36/20 A2991 RMK AO2 SLP119 T03610200 58019

2010/08/09 20:53
KGGW 092053Z AUTO 22005KT 10SM CLR 31/09 A2983 RMK AO2 SLP086 T03110089 58015 TSNO

2010/08/09 20:53
KGIF 092053Z AUTO 08006KT 10SM FEW070 31/22 A2989 RMK AO2 SLP121 T03060222 56013 TSNO

2010/08/09 20:53
KGJT 092053Z VRB04KT 10SM SCT100 29/08 A3008 RMK AO2 SLP117 60000 T02890083 58016

2010/08/09 20:53
KGKJ 092053Z AUTO 23004KT 10SM FEW095 28/17 A3001 RMK AO2 SLP150 T02780167 58010

2010/08/09 20:53
KGKY 092053Z 17011G14KT 10SM CLR 37/21 A2988 RMK AO2 SLP108 T03670206 58019

2010/08/09 20:53
PACD 092053Z 17013G19KT 10SM SCT031 OVC040 13/08 A2953 RMK AO2 PK WND 19027/2002 WSHFT 1945 SLP001 T01330078 53009

2010/08/09 20:53
PACV 092053Z 12007KT 10SM FEW015 OVC033 14/11 A2985 RMK AO2 SLP108 60001 T01390106 51011

2010/08/09 20:53
PADE 092053Z AUTO 06013KT 10SM -RA CLR 14/12 A2938 RMK AO2 RAE24B46 SLP950 P0000 60002 T01390122 50000 TSNO

2010/08/09 20:53
PAEG 092053Z AUTO 11005KT 10SM SCT055 BKN090 19/11 A2959 RMK AO2 SLP020 T01940106 58006 TSNO

2010/08/09 20:53
PAEN 092053Z 27003KT 10SM OVC070 17/12 A2964 RMK AO2 SLP038 T01720122 51009

2010/08/09 20:53
PAFA 092053Z 06003KT 10SM SCT075 BKN100 BKN120 17/09 A2957 RMK AO2 SLP016 ACSL DSNT SE T01720094 58001

2010/08/09 20:50
PAFK 092050Z 15008KT 20SM SCT030 BKN060 OVC080 16/07 A2953 RMK EST PASS MGNL NOSPECI

2010/08/09 20:53
PAGK 092053Z 15019G30KT 10SM FEW060 SCT080 SCT100 SCT150 16/07 A2969 RMK AO2 PK WND 15031/2043 SLP052 T01610072 58004

2010/08/09 20:53
PAGY 092053Z AUTO 19017G23KT 10SM OVC070 16/09 A2993 RMK AO2 PK WND 21026/2006 SLP133 T01560094 58003 TSNO

2010/08/09 20:53
PAHO 092053Z 25007KT 10SM SCT044 BKN200 16/11 A2965 RMK AO2 SLP041 T01560111 50009

2010/08/09 20:53
PAIL 092053Z 12006KT 10SM BKN038 OVC046 12/09 A2960 RMK AO2 SLP026 T01220094 53011

2010/08/09 20:53
PAJN 092053Z 13011KT 10SM FEW027 BKN042 OVC065 15/10 A2998 RMK AO2 RAB29E40 SLP151 MTN TPS PRTLY OBSCD ALQDS PRESENT WX VCSH S P0000 60000 T01500100 58001

2010/08/09 20:53
PAKT 092053Z 13006KT 10SM FEW006 BKN017 OVC026 14/12 A3003 RMK AO2 SLP169 COND LWR VC E HARBOR WIND 11006KT T01440122 51004

2010/08/09 20:53
PAKV 092053Z AUTO 20004KT 3SM -RA BR BKN007 OVC014 12/12 A2949 RMK AO2 RAB01 SLP987 P0003 60009 T01220117 53005 TSNO

2010/08/09 20:53
PAKW 092053Z AUTO 23003KT 10SM FEW008 BKN023 OVC028 15/12 A3000 RMK AO2 SLP159 60000 T01500122 51006 TSNO

2010/08/09 20:53
PALH 092053Z 12008G17KT 10SM OVC070 19/09 A2964 RMK AO2 SLP038 T01890089 51004

2010/08/09 20:53
PAMC 092053Z VRB03KT 7SM -RA BKN016 OVC021 13/12 A2953 RMK AO2 SLP004 P0001 60002 T01280117 51010

2010/08/09 20:53
PAMR 092053Z 31005KT 10SM SCT050 OVC070 16/12 A2963 RMK AO2 SLP034 T01610117 52004

2010/08/09 20:53
PANC 092053Z 14010G19KT 10SM SCT060 BKN070 BKN085 18/09 A2963 RMK AO2 SLP034 T01780094 51002

2010/08/09 20:53
PANN 092053Z AUTO 08003KT 10SM SCT080 17/08 A2955 RMK AO2 SLP010 T01720083 56003 TSNO

2010/08/09 20:53
PANT 092053Z 15005KT 10SM OVC003 14/12 A3003 RMK AO2 SLP168 T01440117 51004

2010/08/09 20:53
PAOM 092053Z 12011KT 10SM SCT007 BKN013 OVC032 11/09 A2934 RMK AO2 RAB04E47DZB05E06 SLP936 P0003 60003 T01110094 51008

2010/08/09 20:53
PAOR 092053Z VRB05KT 10SM FEW070 SCT095 BKN150 18/08 A2966 RMK AO2 RAB33E42 SLP042 ACSL DSNT SE W P0000 60000 T01830083 56007

2010/08/09 20:53
PAOT 092053Z 10012KT 10SM -RA BKN019 OVC022 14/12 A2944 RMK AO2 RAB25 SLP968 P0000 60000 T01440122 52004

2010/08/09 20:53
PAPB 092053Z AUTO 21008KT 1/4SM FG VV001 08/08 A2932 RMK AO2 SLP916 T00830083 51015 TSNO

2010/08/09 20:53
PAQT 092053Z AUTO 05016G23KT 3SM BR OVC004 05/04 A2976 RMK AO2 SLP078 T00500044 56012 TSNO

2010/08/09 20:53
PASC 092053Z 06020KT 10SM OVC005 06/03 A2973 RMK AO2 PK WND 05026/2037 SLP069 T00560033 56006

2010/08/09 20:53
PASI 092053Z 23004KT 10SM BKN008 OVC031 14/12 A2999 RMK AO2 SLP156 T01390117 53006

2010/08/09 20:53
PASN 092053Z 26012KT 7SM OVC003 10/10 A2928 RMK AO2 DZE13 SLP915 SUN VIS THRU OVC P0000 60000 T01000100 53017

2010/08/09 20:53
PASO 092053Z AUTO 02010KT 10SM BKN021 OVC028 14/12 A2965 RMK AO2 SLP042 T01390117 53010 TSNO

2010/08/09 20:53
PATK 092053Z 00000KT 10SM -RA FEW050 OVC060 13/12 A2967 RMK AO2 RAB1954 SLP051 P0001 60002 T01280117 53003

2010/08/09 20:53
PATO 092053Z AUTO 12014G27KT 080V150 4SM -RA BR BKN023 OVC029 13/11 A2975 RMK AO2 PK WND 11035/2034 SLP075 P0003 60008 T01280106 53006 TSNO

2010/08/09 20:53
PAVL 092053Z AUTO 09007KT 8SM -RA BKN060 BKN075 18/09 A2945 RMK AO2 SLP973 P0000 60000 T01780094 56003 TSNO

2010/08/09 20:54
KUZA 092054Z AUTO 17005KT 7SM FEW065 32/21 A3002 RMK AO2 SLP149 T03220211 56009

2010/08/09 20:55
KVBT 092055Z AUTO 23008KT 170V240 10SM CLR 37/21 A2993 RMK AO1 57014

2010/08/09 20:55
KVIS 092055Z AUTO 26006KT 10SM CLR 30/13 A2985 RMK AO1 57014

2010/08/09 20:54
KWLD 092054Z AUTO 15010G19KT 10SM CLR 38/22 A2988 RMK AO2 SLP100 T03780217 58014

2010/08/09 20:55
KYKN 092055Z AUTO 08008KT 10SM OVC022 28/24 A2989 RMK AO1 57003

2010/08/09 20:54
KAAO 092054Z AUTO 15015G19KT 10SM SCT070 38/19 A2986 RMK AO2 SLP092 T03830189 58013

2010/08/09 20:55
KAIZ 092055Z AUTO 12004KT 10SM CLR 36/24 A2990 RMK AO1 57014

2010/08/09 20:54
KALO 092054Z AUTO 07008KT 10SM CLR 30/24 A2989 RMK AO2 SLP113 T03000244 57007

2010/08/09 20:54
KAPC 092054Z 21010KT 10SM CLR 20/12 A2990 RMK AO2 SLP116 T02000122 58012 $

2010/08/09 20:55
KARG 092055Z AUTO 17008KT 10SM CLR 36/24 A2988 RMK AO1 LTG DSNT N 57017

2010/08/09 20:55
KAUO 092055Z AUTO 10006KT 10SM SCT110 35/19 A2996 RMK AO1 57017

2010/08/09 20:54
KAUW 092054Z AUTO 31008KT 10SM CLR 33/18 A2990 RMK AO2 SLP118 T03280178 58001

2010/08/09 20:54
KAVL 092054Z 14009KT 10SM FEW050 SCT065 SCT090 28/20 A3009 RMK AO2 SLP160 T02830200 55009

2010/08/09 20:55
KAWO 092055Z AUTO 33003KT 10SM 16/13 A3000 RMK AO1 52003

2010/08/09 20:54
KBFL 092054Z 32009KT 10SM CLR 32/13 A2983 RMK AO2 SLP096 T03170128 58014

2010/08/09 20:55
KBKX 092055Z AUTO 08011G14KT 10SM CLR 30/19 A2994 RMK AO1 57003

2010/08/09 20:54
KBUY 092054Z AUTO 14005KT 10SM CLR 32/21 A3001 RMK AO2 SLP154 T03220211 55008

2010/08/09 20:55
KBVX 092055Z AUTO 14007KT 10SM VCTS CLR 36/24 A2991 RMK AO1 LTG DSNT ALQDS TSB52 57017

2010/08/09 20:54
KBWI 092054Z 14007G14KT 8SM SCT055 SCT250 31/21 A2996 RMK AO2 SLP143 T03110211 56009

2010/08/09 20:50
KBYH 092050Z 00000KT 10SM BKN050 BKN250 37/24 A2989

2010/08/09 20:55
KCGZ 092055Z AUTO 19003KT 10SM CLR 38/11 A2987 RMK AO1 57014

2010/08/09 20:47
KCHD 092047Z VRB05KT 40SM FEW150 38/08 A2984

2010/08/09 20:55
KCIU 092055Z AUTO 21006KT 10SM FEW037 SCT044 27/19 A2990 RMK AO1 54000

2010/08/09 20:55
KCOE 092055Z AUTO 00000KT 10SM BKN060 OVC080 26/11 A2984 RMK AO1 57014

2010/08/09 20:55
KCVN 092055Z 19011KT 10SM FEW065 FEW100 31/13 A3005 RMK AO1 LTG DSNT S

2010/08/09 20:55
KCVO 092055Z AUTO 31007G15KT 10SM CLR 20/10 A3001 RMK AO1 57003

2010/08/09 20:55
KCWI 092055Z 00000KT 10SM FEW024 29/24 A2994 RMK AO1 52003

2010/08/09 20:54
KDEC 092054Z 25003KT 10SM FEW049 35/24 A2991 RMK AO2 SLP121 T03500239 56008

2010/08/09 20:54
KDSM 092054Z 17004KT 10SM OVC035 31/24 A2987 RMK AO2 SLP104 T03110244 56004

2010/08/09 20:55
KDVL 092055Z AUTO 22009KT 10SM CLR 32/19 A2984 RMK AO1 57003

2010/08/09 20:55
KDYR 092055Z AUTO 23003KT 10SM CLR 36/23 A2990 RMK AO1 57020

2010/08/09 20:55
KEAR 092055Z AUTO 08005KT 10SM CLR 32/24 A2993 RMK AO1 57010

2010/08/09 20:54
KECG 092054Z 14005KT 10SM CLR 30/21 A3002 RMK AO2 SLP164 T03000211 56007

2010/08/09 20:55
KEHR 092055Z AUTO 35003KT 10SM CLR 36/22 A2990 RMK AO1 57020

2010/08/09 20:55
KENV 092055Z AUTO 06009KT 10SM CLR 26/08 A3000 RMK AO1 60005 57007

2010/08/09 20:55
KESC 092055Z AUTO 18006KT 10SM VCTS SCT060 SCT085 28/22 A2988 RMK AO1 LTG DSNT E TSB46 52003

2010/08/09 20:54
KEUG 092054Z 00000KT 10SM BKN019 BKN150 18/12 A3000 RMK AO2 SLP159 T01830122 58003

2010/08/09 20:55
KEUL 092055Z AUTO 06003KT 10SM CLR 29/11 A2984 RMK AO1 57020

2010/08/09 20:55
KEWK 092055Z AUTO 17014G17KT 10SM FEW080 38/19 A2985 RMK AO1 57010

2010/08/09 20:54
KEWN 092054Z 13005KT 10SM FEW034 31/23 A3001 RMK AO2 SLP162 T03110233 56009

2010/08/09 20:55
KMML 092055Z AUTO 09008KT 10SM CLR 30/21 A2992 RMK AO1 57003

2010/08/09 20:55
KMNM 092055Z AUTO 18003KT 6SM FEW017 SCT034 BKN045 26/22 A2986 RMK AO1 P0021 60021 57007

2010/08/09 20:54
KMOT 092054Z 19003KT 10SM CLR 34/14 A2983 RMK AO2 SLP089 T03390139 56009

2010/08/09 20:55
KMRF 092055Z AUTO 03012KT 10SM FEW060 FEW070 OVC120 A3010 RMK AO1 LTG DSNT ALQDS TSE16 60030

2010/08/09 20:54
KMRY 092054Z 23007KT 200V260 10SM OVC015 17/11 A2995 RMK AO2 SLP154 T01720111 57003

2010/08/09 20:55
KMTW 092055Z 23006KT 10SM CLR 29/22 A2988 RMK AO1 57003

2010/08/09 20:55
KMVN 092055Z AUTO 00000KT 10SM CLR 37/22 A2990 RMK AO1 57014

2010/08/09 20:45
MMAN 092045Z 12010KT 7SM SCT035 36/23 A2987 RMK SLP087 57017 901 8/500 HZY

2010/08/09 20:47
MMMA 092047Z 11010KT 8SM BKN020 33/26 A2990 RMK SLP115 57017 900 8/100 DSNT CB 1 2 QUAD

2010/08/09 20:48
MMLP 092048Z 01010KT 15SM SKC 37/13 A2977 RMK SLP098 57024 974 CU 2 QUAD

2010/08/09 20:48
MMLT 092048Z 03010KT 8SM FEW200 34/22 A2976 RMK SLP078 8/009

2010/08/09 20:50
MMTJ 092050Z 35008KT 7SM SKC 22/13 A2994 RMK SLP147 54000 905 HZY ST W ISOL CI

2010/08/09 20:52
KABI 092052Z 20007KT 10SM FEW070 36/18 A2992 RMK AO2 SLP098 T03560178 58022

2010/08/09 20:52
KP69 092052Z AUTO VRB06KT 28/14 A2979 RMK AO2 SLP065 T02830139 55010 PWINO TSNO

2010/08/09 20:52
KN60 092052Z AUTO 17006KT 32/18 A2984 RMK AO1 SLP093 T03220178 56010

2010/08/09 20:52
KSDB 092052Z AUTO 19016G20KT 10SM CLR 27/M07 A3007 RMK AO2 SLP126 T02671067 53001 TSNO

2010/08/09 20:52
K9V9 092052Z AUTO 13011KT 31/23 A2989 RMK AO2 SLP106 T03060228 58010 PWINO TSNO

2010/08/09 20:51
KCAK 092051Z COR 26009KT 7SM SCT065 BKN130 BKN180 29/17 A3000 RMK AO2 SLP148 8/579 T02940172 56012

2010/08/09 20:53
KOVE 092053Z AUTO VRB03KT 10SM CLR 28/14 A2987 RMK AO2 SLP114 T02830139 58010 TSNO $

2010/08/09 20:53
KLND 092053Z AUTO 17013G20KT 10SM FEW110 30/04 A2996 RMK AO2 SLP068 T03000039 58022

2010/08/09 20:53
K6R6 092053Z AUTO 10010KT 32/21 A2989 RMK AO2 SLP082 T03220206 58026 PWINO TSNO

2010/08/09 20:53
KBTR 092053Z 33005G14KT 2SM +TSRA BR FEW014 BKN039CB OVC050 24/24 A2997 RMK AO2 PK WND 06036/2027 WSHFT 2013 TSB20RAB28 SLP149 CONS LTGICCG TS AT AP MOVG SW P0012 60012 T02440239 53016

2010/08/09 20:53
KELY 092053Z AUTO 16007G17KT 10SM FEW110 26/M02 A3012 RMK AO2 SLP102 T02561017 56006

2010/08/09 20:53
KTRI 092053Z 35004KT 10SM SCT050 SCT060 SCT250 34/17 A3003 RMK AO2 SLP148 T03390172 56016

2010/08/09 20:53
KDAB 092053Z 09009G18KT 10SM FEW025 SCT250 30/23 A2992 RMK AO2 SLP131 TCU DSNT E SW T03000233 55006

2010/08/09 20:53
KCQC 092053Z AUTO 28010G14KT 10SM FEW080 26/08 A3020 RMK AO2 SLP119 T02560083 56013 TSNO

2010/08/09 20:53
KLAX 092053Z 27010KT 10SM FEW015 19/12 A2994 RMK AO2 SLP137 T01940122 58001 $

2010/08/09 20:53
KSDM 092053Z 29009G14KT 270V340 10SM CLR 22/13 A2993 RMK AO2 SLP131 T02220128 56004

2010/08/09 20:51
KVCT 092051Z 12012KT 10SM CLR 36/25 A2990 RMK AO2 SLP122 T03610250 56018

2010/08/09 20:53
KMGM 092053Z 19003KT 10SM SCT070 36/20 A2993 RMK AO2 SLP130 T03560200 58018

2010/08/09 20:53
KTYS 092053Z 28004KT 10SM FEW060 34/20 A2997 RMK AO2 SLP136 T03440200 56019

2010/08/09 20:53
KTUP 092053Z 14010KT 10SM CLR 33/25 A2994 RMK AO2 SLP132 T03280250 56013

2010/08/09 20:53
KBNO 092053Z AUTO 09004KT 10SM SCT090 26/06 A2992 RMK AO2 SLP095 T02610061 58013 TSNO

2010/08/09 20:53
KTCS 092053Z AUTO 00000KT 10SM CLR 32/09 A3006 RMK AO2 SLP091 T03170094 58017 TSNO

2010/08/09 20:53
KHTL 092053Z AUTO 26003KT 10SM CLR 27/22 A2991 RMK AO2 SLP121 60003 T02720222 58004

2010/08/09 20:53
KDNK 092053Z AUTO 20008KT 10SM FEW055 36/21 A2991 RMK AO2 SLP122 6//// T03560211 58022

2010/08/09 20:53
KTLH 092053Z 03006KT 10SM FEW060 35/20 A2992 RMK AO2 SLP131 T03500200 56016

2010/08/09 20:53
KCHA 092053Z 18004KT 10SM FEW055 SCT095 SCT250 35/21 A2996 RMK AO2 SLP136 T03500206 56017 $

2010/08/09 20:53
KP92 092053Z AUTO VRB05KT 33/27 A2993 RMK AO2 SLP134 T03280267 56016 PWINO TSNO

2010/08/09 20:53
KCTY 092053Z AUTO 09006G20KT 31/24 A2990 RMK AO2 SLP124 T03110239 55011 PWINO TSNO

2010/08/09 20:53
KSGR 092053Z 17006KT 10SM SCT065 35/22 A2990 RMK AO2 SLP133 T03500217 58018

2010/08/09 20:54
KBTV 092054Z 18005KT 4SM -TSRA BR FEW047CB BKN070 OVC095 23/21 A2988 RMK AO2 TSB09RAB10 SLP115 OCNL LTGIC SE TS SE MOV SE P0013 60025 T02280211 55005

2010/08/09 20:52
KCZZ 092052Z AUTO 23012KT 29/M01 A2992 RMK AO2 SLP102 T02891006 58005 PWINO TSNO

2010/08/09 20:53
KMSN 092053Z 29004KT 10SM SCT030 29/23 A2991 RMK AO2 SLP122 T02940228 58004

2010/08/09 20:53
KRNM 092053Z 31007G14KT 280V340 10SM CLR 28/10 A2992 RMK AO2 SLP119 T02780100 58005

2010/08/09 20:53
KSAV 092053Z 08006KT 10SM 32/24 A2996 RMK AO2 RAB13E27 SLP144 VCSH P0000 60000 T03170239 56004 $

2010/08/09 20:53
KP68 092053Z AUTO 27008KT 27/M04 A3006 RMK AO2 SLP087 T02671039 58008 PWINO TSNO

2010/08/09 20:50
LXGB 092050Z 08005KT CAVOK 25/22 Q1015

2010/08/09 20:54
PGUM 092054Z 00000KT 10SM OVC055 26/24 A2992 RMK AO2 SLP125 T02560244 53008

2010/08/09 20:53
KOQT 092053Z AUTO VRB06KT 10SM CLR 34/22 A3000 RMK AO2 SLP137 T03440222 56018 TSNO

2010/08/09 20:54
KJAN 092054Z 26007KT 1 3/4SM R16L/5000VP6000FT +TSRA BR BKN024 OVC045CB 27/25 A2992 RMK AO2 TSB25RAB13 SLP126 OCNL LTGICCCCG NW-N TS NW-N MOV W P0008 60008 T02670250 56016

2010/08/09 20:53
KCUT 092053Z AUTO 18004KT 10SM CLR 24/13 A3010 RMK AO2 SLP126 T02390128 58004 TSNO

2010/08/09 20:53
KMWT 092053Z AUTO VRB04KT 10SM CLR 36/21 A2991 RMK AO2 SLP112 T03560211 58018 TSNO

2010/08/09 20:53
KLXV 092053Z AUTO 30010G19KT 7SM -RA BKN048 OVC060 14/09 A3040 RMK AO2 RAB41 SLP133 P0000 60000 T01390089 58001 TSNO

2010/08/09 20:53
KFAR 092053Z 20007KT 10SM FEW100 32/20 A2987 RMK AO2 SLP111 T03220200 58004

2010/08/09 20:53
KMCN 092053Z 00000KT 8SM CLR 35/21 A2997 RMK AO2 SLP143 T03500206 56013

2010/08/09 20:53
K40J 092053Z AUTO 03010KT 34/22 A2989 RMK AO2 SLP121 T03440217 56018 PWINO TSNO

2010/08/09 20:53
KGNT 092053Z AUTO 33006KT 26/08 A3023 RMK AO2 SLP147 T02560078 58005 PWINO TSNO

2010/08/09 20:53
KPQN 092053Z AUTO 08007KT 10SM CLR 31/22 A2992 RMK AO2

2010/08/09 20:54
KFGN 092054Z AUTO 00000KT 10SM CLR 28/20 A2987 RMK AO2

2010/08/09 20:53
KPNM 092053Z AUTO 35005KT 10SM CLR 33/20 A2991 RMK AO2

2010/08/09 20:53
KPWC 092053Z AUTO 20005KT 10SM CLR 31/19 A2993 RMK AO2

2010/08/09 20:53
KFFM 092053Z AUTO 18003KT 10SM CLR 31/19 A2988 RMK AO2

2010/08/09 20:52
KGDB 092052Z AUTO 06004KT 10SM CLR 32/19 A2992 RMK AO2 T03160194

2010/08/09 20:53
KAIT 092053Z AUTO 27004KT 10SM CLR 32/18 A2992 RMK AO2

2010/08/09 20:53
KGHW 092053Z AUTO 10003KT 10SM CLR 33/14 A2996 RMK AO2

2010/08/09 20:53
KMWM 092053Z AUTO 08005KT 10SM SCT030 30/24 A2991 RMK AO2

2010/08/09 20:53
KBBB 092053Z AUTO 13005KT 10SM CLR 33/19 A2994 RMK AO2

2010/08/09 20:53
KTWM 092053Z AUTO 20009KT 10SM CLR 29/22 A2989 RMK AO2

2010/08/09 20:55
KMGG 092055Z AUTO 00000KT 10SM CLR 32/22 A2992 RMK AO2 T03240223

2010/08/09 20:48
KMOX 092048Z AUTO 13004KT 10SM CLR 32/18 A2989 RMK AO2

2010/08/09 20:54
KROC 092054Z 28010KT 5SM -RA FEW009 SCT040 BKN055 OVC130 26/21 A2994 RMK AO2 RAB34 SLP136 P0001 60001 T02560211 55004

2010/08/09 20:54
KROA 092054Z 11008KT 10SM FEW080 32/20 A3003 RMK AO2 SLP156 T03170200 56012

2010/08/09 20:54
KMTP 092054Z AUTO 21008G15KT 26/21 A2997 RMK AO2 SLP149 T02560206 57013 PWINO TSNO

2010/08/09 20:54
KMQE 092054Z AUTO 22014G20KT 32/ A2992 RMK AO1 SLP137 T0317 56015 $

2010/08/09 20:54
KGSO 092054Z 19007KT 10SM SCT055 33/19 A3002 RMK AO2 SLP154 T03280189 56008

2010/08/09 20:54
KWAL 092054Z 19011KT 10SM BKN075 28/22 A3002 RMK AO2 SLP164 T02780217 56008

2010/08/09 20:54
KRIC 092054Z 21009KT 8SM SCT060 SCT250 33/19 A2998 RMK AO2 SLP156 T03330189 58008 $

2010/08/09 20:54
KNAK 092054Z AUTO 17013KT 8SM CLR 31/20 A2997 RMK AO2 SLP150 T03060200 56012 TSNO

2010/08/09 20:54
KAVP 092054Z 28010G21KT 10SM CLR 32/14 A2995 RMK AO2 SLP128 T03220144 58017 $

2010/08/09 20:54
KCAR 092054Z AUTO 24008KT 10SM CLR 24/17 A2982 RMK AO2 SLP097 60000 T02440172 56013

2010/08/09 20:54
K12N 092054Z AUTO VRB04KT 32/19 A2996 RMK AO2 SLP135 T03170194 58015 PWINO TSNO

2010/08/09 20:54
K1V4 092054Z AUTO 28/19 A2987 RMK AO2 SLP104 T02780189 58015 PWINO TSNO

2010/08/09 20:54
KBKB 092054Z AUTO VRB03KT 10SM CLR 37/22 A2988 RMK AO2 SLP143 T03670217 56022

2010/08/09 20:54
KDMH 092054Z AUTO 33/21 A2996 RMK AO2 SLP146 T03330206 58011 PWINO TSNO

2010/08/09 20:50
OAKN 092050Z 00000KT 9000 DU FEW150 32/M01 Q1005 BLU NOSIG RMK A2969 DA6200

2010/08/09 20:54
KNBT 092054Z AUTO 24005KT 1 1/4SM -RA FEW001 SCT015 28/25 A3001 RMK AO2 RAB33 P0005 TSNO

2010/08/09 20:51
KBTR 092051Z 01005G14KT 2SM +TSRA BR FEW014 BKN039CB OVC050 24/24 A2997 RMK AO2 PK WND 06036/2027 WSHFT 2013 TSB20RAB28 CONS LTGICCG TS AT AP MOVG SW P0008

2010/08/09 20:54
KNBT 092054Z AUTO 24005KT 1 1/4SM -RA FEW001 SCT015 28/25 A3001 RMK AO2 RAB33 P0005 TSNO

2010/08/09 20:50
EFHA 092050Z AUTO 16005KT 110V220 9999 FEW019 SCT050 BKN090 18/15 Q1010

2010/08/09 20:50
EFHF 092050Z AUTO 18011KT 140V210 9999 FEW024 SCT037 BKN065 20/17 Q1011

2010/08/09 20:50
EFKA 092050Z AUTO 17001KT 5000 BR BKN013 BKN017 18/18 Q1008

2010/08/09 20:50
EFKK 092050Z 34002KT 2500 BR OVC003 17/17 Q1008

2010/08/09 20:50
EFMA 092050Z AUTO 19006KT 150V220 9999 FEW008 SCT029 BKN034 BKN039 18/17 Q1008

2010/08/09 20:50
EFPO 092050Z AUTO 18006KT 150V230 2400 +SHRA SCT007 BKN012 BKN042 18/17 Q1008

2010/08/09 20:50
EFSI 092050Z AUTO 14002KT 6000 FEW039 SCT047 BKN070 17/17 Q1008

2010/08/09 20:50
LCRA 092050Z 28007KT CAVOK 27/25 Q1005

2010/08/09 20:53
KDWH 092053Z 18004KT 10SM CLR 34/23 A2991 RMK AO2 SLP124 T03440228 58017

2010/08/09 20:55
KDYB 092055Z AUTO 14005KT 10SM SCT050 SCT070 SCT100 32/24 A2997 RMK AO1

2010/08/09 20:53
KEET 092053Z AUTO 19006KT 10SM FEW065 36/20 A2995 RMK AO2 SLP133 T03560200 56018

2010/08/09 20:50
KEKM 092050Z 21007KT 7SM BKN110 29/22 A2994 RMK AO2

2010/08/09 20:53
KEQY 092053Z AUTO VRB03KT 10SM FEW060 33/20 A3001 RMK AO2 SLP157 T03280200 56010

2010/08/09 20:53
KESF 092053Z AUTO 09003KT 10SM CLR 37/22 A2989 RMK AO2 LTG DSNT NE SLP121 T03720217 58026

2010/08/09 20:53
KFAY 092053Z AUTO 06007KT 10SM CLR 34/18 A2998 RMK AO2 SLP147 T03440183 56011

2010/08/09 20:53
KFFC 092053Z AUTO VRB05KT 9SM FEW065 35/19 A2999 RMK AO2 SLP145 T03500194 58015

2010/08/09 20:53
KFST 092053Z AUTO 24018G24KT 10SM TS BKN055 28/17 A2997 RMK AO2 LTG DSNT SW-NW TSB12 SLP100 T02780167 55012

2010/08/09 20:53
KFTY 092053Z 10004KT 8SM FEW080 34/19 A2998 RMK AO2 SLP142 T03440194 56016

2010/08/09 20:53
KGPT 092053Z 14010KT 10SM SCT040 33/26 A2993 RMK AO2 SLP133 T03330261 58007

2010/08/09 20:53
KGSP 092053Z VRB05KT 10SM CLR 33/21 A3000 RMK AO2 SLP144 T03330206 56013

2010/08/09 20:53
KGUP 092053Z AUTO 27005KT 10SM SCT080 BKN100 25/08 A3023 RMK AO2 SLP076 T02500078 58008

2010/08/09 20:53
KGVL 092053Z AUTO VRB03KT 10SM CLR 32/21 A3005 RMK AO2 SLP156 T03220206 56014

2010/08/09 20:53
KHBG 092053Z AUTO 10007KT 10SM CLR 35/23 A2992 RMK AO2 LTG DSNT SE SLP128 T03500233 56019 $

2010/08/09 20:53
KHJO 092053Z AUTO VRB04KT 10SM CLR 31/13 A2985 RMK AO2 SLP107 T03110128 58013

2010/08/09 20:53
KHOU 092053Z 18007KT 10SM SCT055 33/23 A2990 RMK AO2 RAB00E12 SLP129 P0000 60000 T03330233 58016

2010/08/09 20:53
KIAH 092053Z 11007G15KT 10SM SCT055 36/22 A2990 RMK AO2 SLP125 T03610222 58018

2010/08/09 20:53
KILM 092053Z AUTO 14007KT 10SM CLR 30/23 A3000 RMK AO2 SLP159 T03000228 57004 TSNO

2010/08/09 20:55
KJZI 092055Z AUTO 09008KT 10SM SCT018 SCT023 BKN032 30/30 A2998 RMK A02 P000

2010/08/09 20:53
KLBX 092053Z AUTO 13010KT 10SM CLR 34/24 A2992 RMK AO2 TSB26E43 SLP131 T03390244 56008

2010/08/09 20:53
KLCH 092053Z 16004KT 10SM CLR 34/23 A2991 RMK AO2 SLP134 T03390233 58020

2010/08/09 20:53
KLFK 092053Z AUTO 00000KT 10SM FEW065 37/21 A2991 RMK AO2 SLP122 T03720206 58020

2010/08/09 20:53
KLFT 092053Z 00000KT 10SM CLR 35/23 A2991 RMK AO2 SLP127 T03500233 58021

2010/08/09 20:55
KLKR 092055Z AUTO 00000KT 8SM CLR 33/23 A3000 RMK AO2

2010/08/09 20:53
KLOL 092053Z AUTO 20007G14KT 060V320 10SM CLR 33/04 A2993 RMK AO2 SLP088 T03280044 58014

2010/08/09 20:53
KLVJ 092053Z AUTO 13009G14KT 10SM FEW047 35/23 A2992 RMK AO2 SLP132 T03500228 58015

2010/08/09 20:53
KLVK 092053Z VRB05KT 10SM CLR 26/12 A2986 RMK AO2 SLP110 T02560122 58012 $

2010/08/09 20:53
KLVS 092053Z AUTO 15011G16KT 10SM FEW085 28/09 A3018 RMK AO2 LTG DSNT N SLP097 T02780089 58013

2010/08/09 20:53
KMCE 092053Z AUTO VRB03KT 10SM CLR 29/13 A2984 RMK AO2 SLP104 T02940128 58013

2010/08/09 20:55
KMEZ 092055Z AUTO 34005KT 10SM SCT070 SCT080 SCT095 36/22 A2994 RMK AO2

2010/08/09 20:53
KMFE 092053Z 14011KT 7SM CLR 34/23 A2985 RMK AO2 RAB32E44 SLP105 P0000 60000 T03440228 56020

2010/08/09 20:53
KMGW 092053Z VRB05KT 10SM CLR 32/17 A3002 RMK AO2 SLP156 T03170172 56010

2010/08/09 20:53
KMOD 092053Z 00000KT 10SM CLR 28/12 A2985 RMK AO2 SLP107 T02830122 58012

2010/08/09 20:53
KMRB 092053Z 15006KT 10SM FEW080 34/17 A2995 RMK AO2 SLP137 T03440167 56015

2010/08/09 20:53
KMSY 092053Z 24004KT 10SM -RA FEW016 SCT041 SCT150 OVC200 26/24 A2996 RMK AO2 TSE26 PRESFR SLP149 P0022 60022 T02610239 52001

2010/08/09 20:53
KNEW 092053Z 23007KT 10SM FEW015 BKN045 28/25 A2996 RMK AO2 TSE10RAE1954 SLP139 60060 T02780250 58002

2010/08/09 20:53
KOAK 092053Z 31012KT 10SM FEW016 19/12 A2992 RMK AO2 SLP132 T01890122 58005

2010/08/09 20:53
KPIL 092053Z AUTO 12017KT 10SM CLR 34/26 A2988 RMK AO2 SLP119 T03390256 55010

2010/08/09 20:53
KPQL 092053Z 16006KT 10SM FEW028 32/25 A2993 RMK AO2 LTG DSNT NW SLP137 T03170250 58009

2010/08/09 20:53
KPRB 092053Z AUTO A2988 RMK AO2 SLPNO 6//// PWINO FZRANO TSNO

2010/08/09 21:00
LEJR 092100Z 18004KT 9999 FEW020 28/10 Q1014

2010/08/09 20:52
KNFW 092052Z 20011KT 10SM FEW070 39/20 A2991 RMK AO2 SLP112 T03890200 58019

2010/08/09 20:52
KNRB 092052Z 08011KT 10SM FEW035 SCT070 BKN150 32/24 A2995 RMK AO2 SLP140 T2 SET 60000 T03170244 56007

2010/08/09 20:53
PHNL 092053Z 06019G26KT 10SM FEW034 SCT047 BKN055 29/15 A3010 RMK AO2 PK WND 06026/2047 SLP194 T02940150 51004

2010/08/09 20:55
KCEF 092055Z AUTO 20009KT 10SM SCT090 33/17 A2989 RMK AO2 SLP123 T03300173 56018 PWINO $

2010/08/09 20:55
KHMN 092055Z 27009KT 10SM CLR 32/12 A3001 RMK AO2A SLP082 T03170122 58017 $

2010/08/09 20:55
KHST 092055Z AUTO 21010KT 10SM SCT024 29/24 A2990 RMK AO2 SLP126 60002 T02920238 56015

2010/08/09 20:55
KLRF 092055Z AUTO 16006KT 10SM CLR 37/24 A2990 RMK AO2 LTG DSNT NE SLP121 T03690245 57017

2010/08/09 20:52
KNHK 092052Z 13011KT 10SM BKN250 31/18 A2999 RMK AO2 SLP154 T03110183 58009

2010/08/09 20:55
KRDR 092055Z AUTO 21013KT 10SM CLR 36/17 A2984 RMK AO2 SLP114 T03580171 58005 TSNO $

2010/08/09 20:53
KDNK 092053Z AUTO 20008KT 10SM FEW055 36/21 A2991 RMK AO2 SLP122 6//// T03560211 58022

2010/08/09 20:53
KNQX 092053Z 31005KT 6SM -TSRA FEW002 BKN010CB BKN020 BKN140 26/24 A2989 RMK AO2 SLP119 OCNL LTGICCC OHD TS OHD MOV S T1 SET P0009 60028 T02610244 56009 $

2010/08/09 20:53
KDTS 092053Z AUTO 20005KT 10SM CLR 33/23 A2991 RMK AO2 LTG DSNT NW SLP126 T03330233 58020

2010/08/09 20:53
KIAG 092053Z 29014G18KT 5SM -TSRA FEW025 BKN045CB BKN065 OVC130 24/21 A2995 RMK AO2 TSB45RAB12 SLP135 OCNL LTGCCCG 4N TS NW-NE MOV E 8/97/ P0000 60007 T02440206 53001

2010/08/09 20:53
KNIP 092053Z 05009KT 10SM SCT035CB SCT080 BKN130 BKN250 31/24 A2993 RMK AO2 RAE1956 SLP132 CB DSNT W T2 SET P0000 60000 T03060244 58007

2010/08/09 20:50
KBYH 092050Z 00000KT 10SM BKN050 BKN250 37/24 A2989

2010/08/09 20:54
KECG 092054Z 14005KT 10SM CLR 30/21 A3002 RMK AO2 SLP164 T03000211 56007

2010/08/09 20:55
KBAD 092055Z AUTO 20008KT 10SM CLR 37/19 A2990 RMK AO2 SLP123 T03750195 58020

2010/08/09 20:53
KDTS 092053Z AUTO 20005KT 10SM CLR 33/23 A2991 RMK AO2 LTG DSNT NW SLP126 T03330233 58020

2010/08/09 20:55
KGRF 092055Z 25004KT 10SM BKN021 OVC026 17/12 A3000 RMK AO2A CIG 021V026 SLP160 T01740124 53006

2010/08/09 20:55
KIAB 092055Z AUTO 16015G20KT 10SM CLR 38/19 A2987 RMK AO2 SLP096 T03800190 58012 $

2010/08/09 20:55
KMGE 092055Z 16006KT 10SM BKN060 33/21 A3000 RMK AO2A SLP148 T03310211 56015 $

2010/08/09 20:55
KOFF 092055Z AUTO 23006KT 10SM CLR 34/25 A2985 RMK AO2 SLP088 T03410252 50000 $

2010/08/09 20:55
KSUU 092055Z AUTO 25014KT 10SM CLR 24/13 A2986 RMK AO2 SLP114 T02420130 58011 RVRNO $

2010/08/09 20:55
KSZL 092055Z AUTO 19014KT 10SM CLR 36/24 A2988 RMK AO2 SLP109 T03620239 56012 PNO $

2010/08/09 20:55
PAFB 092055Z 06005KT 13SM BKN075 BKN120 18/09 A2958 RMK SLP014 58002

2010/08/09 20:53
PABI 092053Z 18017G23KT 10SM FEW090 SCT110 SCT180 19/05 A2959 RMK AO2 PK WND 17028/1958 SLP018 T01940050 56006

2010/08/09 20:54
KNFG 092054Z 22007KT 7SM CLR 23/13 A2991 RMK AO2 SLP128 T02280133 58006

2010/08/09 20:54
KRSP 092054Z AUTO VRB05KT 8SM SCT065 SCT075 31/16 A3005 RMK AO2 SLP973 T03110161 56010 $

2010/08/09 20:54
KNKT 092054Z 10005KT 10SM BKN075 29/24 A3001 RMK AO2 SLP158 T02940239 56013

2010/08/09 20:54
KBKB 092054Z AUTO VRB03KT 10SM CLR 37/22 A2988 RMK AO2 SLP143 T03670217 56022

2010/08/09 20:51
KDAG 092051Z AUTO 06014G17KT 10SM CLR 37/M02 A2985 RMK AO2 SLP080 T03671017 58022 TSNO

2010/08/09 20:53
KDCU 092053Z AUTO 32008KT 9SM TS FEW065 31/23 A2996 RMK AO2 LTG DSNT W AND NW TSB45 SLP138 T03110228 55006

2010/08/09 20:53
KDEN 092053Z 14011KT 10SM SCT060 SCT080 BKN140 28/13 A3005 RMK AO2 SLP091 T02830133 58015

2010/08/09 20:53
KBEH 092053Z AUTO 26013KT 10SM FEW030 29/22 A2992 RMK AO2 SLP127 T02890222 55007

2010/08/09 20:53
KBFI 092053Z 14006KT 10SM OVC025 19/12 A2999 RMK AO2 SLP154 T01890122 50003

2010/08/09 20:53
KBGM 092053Z AUTO 21008G37KT 170V330 10SM FEW070 SCT095 29/14 A2999 RMK AO2 PK WND 32037/2050 SLP140 T02940144 56020 TSNO

2010/08/09 20:53
KBGR 092053Z 24005KT 10SM FEW045 BKN065 28/17 A2986 RMK AO2 SLP108 T02830172 58014

2010/08/09 20:53
KBHK 092053Z AUTO VRB03KT 10SM CLR 34/11 A2985 RMK AO2 SLP076 T03440106 58016

2010/08/09 20:53
KBHM 092053Z 00000KT 10SM CLR 36/19 A2997 RMK AO2 SLP137 T03560194 58017

2010/08/09 20:53
KBIV 092053Z AUTO 25009KT 10SM CLR 30/21 A2992 RMK AO2 SLP127 T03000211 56007

2010/08/09 20:53
KBKE 092053Z AUTO 28006KT 10SM CLR 27/09 A2987 RMK AO2 LTG DSNT SW SLP089 T02670089 58017

2010/08/09 20:53
KBKL 092053Z VRB05KT 6SM HZ CLR 29/21 A2994 RMK AO2 SLP133 T02940206 58013

2010/08/09 20:53
KBKV 092053Z AUTO 09004KT 10SM SCT026 SCT080 31/24 A2991 RMK AO2 SLP124 60002 T03110244 55005

2010/08/09 20:53
KBLI 092053Z 20004KT 7SM -RA BKN015 OVC040 15/14 A2997 RMK AO2 SLP156 P0003 60005 T01500139 53003

2010/08/09 20:53
KBMG 092053Z 27005KT 10SM CLR 33/21 A2995 RMK AO2 SLP132 T03280211 56010

2010/08/09 20:53
KBNA 092053Z 35003KT 10SM FEW055 SCT080 SCT180 BKN250 35/22 A2993 RMK AO2 SLP125 T03500217 56020

2010/08/09 20:53
KBOI 092053Z VRB03KT 10SM CLR 29/08 A2985 RMK AO2 SLP073 T02940083 58013

2010/08/09 20:53
KBPI 092053Z AUTO 20017G23KT 10SM BKN100 22/02 A3013 RMK AO2 PK WND 21027/2031 SLP116 T02170022 56009 TSNO

2010/08/09 20:53
KBPK 092053Z AUTO 20004KT 9SM FEW110 34/24 A2991 RMK AO2 SLP117 T03440239 58017

2010/08/09 20:53
KBRD 092053Z AUTO 30006KT 10SM CLR 32/16 A2992 RMK AO2 SLP124 T03170161 58003

2010/08/09 20:53
KBRL 092053Z AUTO VRB03KT 10SM CLR 33/25 A2990 RMK AO2 SLP116 T03280250 55000

2010/08/09 20:53
KBRO 092053Z AUTO 13014KT 10SM CLR 36/23 A2987 RMK AO2 SLP114 T03560233 56012 TSNO

2010/08/09 20:53
KBTL 092053Z 21007KT 10SM CLR 28/22 A2995 RMK AO2 SLP133 60000 T02780222 58010

2010/08/09 20:53
KBTM 092053Z AUTO 18008KT 10SM FEW120 23/06 A2999 RMK AO2 SLP110 T02280056 58010

2010/08/09 20:53
KBUR 092053Z 19009KT 10SM CLR 26/12 A2991 RMK AO2 SLP116 T02560117 58005

2010/08/09 20:53
KBVO 092053Z 17010G16KT 10SM CLR 37/21 A2987 RMK AO2 SLP100 T03720206 58016

2010/08/09 20:53
KBVY 092053Z 27010G15KT 10SM FEW070 33/16 A2987 RMK AO2 SLP108 T03330161 56016

2010/08/09 20:53
KBWG 092053Z AUTO 18004KT 10SM CLR 36/21 A2992 RMK AO2 SLP124 T03610206 56020

2010/08/09 20:53
KBYG 092053Z AUTO 15013G19KT 10SM FEW110 31/06 A2993 RMK AO2 SLP066 T03110056 58022

2010/08/09 20:53
KHIO 092053Z 04005KT 10SM OVC032 19/11 A3000 RMK AO2 SLP157 T01940106 58004

2010/08/09 20:53
KHKA 092053Z AUTO 15004KT 7SM CLR 36/24 A2989 RMK AO2 SLP119 T03560244 56020

2010/08/09 20:53
KHKS 092053Z 12013KT 10SM -RA FEW047 32/23 A2992 RMK AO2 LTG DSNT W-NE RAB52 SLP123 P0000 60000 T03170228 56018

2010/08/09 20:53
KHKY 092053Z VRB03KT 10SM CLR 33/21 A3002 RMK AO2 SLP141 T03280206 56012

2010/08/09 20:53
KHLG 092053Z 20007KT 4SM HZ CLR 31/16 A3000 RMK AO2 SLP152 T03060156 56013

2010/08/09 20:53
KHLN 092053Z 11005KT 10SM SCT100 28/07 A2985 RMK AO2 SLP089 T02780067 58027

2010/08/09 20:53
KHOT 092053Z AUTO 20008KT 10SM CLR 37/21 A2990 RMK AO2 SLP117 T03720206 58019

2010/08/09 20:53
KHQM 092053Z AUTO 21007KT 9SM BKN009 OVC024 14/12 A3002 RMK AO2 SLP168 T01440122 52003

2010/08/09 20:53
KHRI 092053Z AUTO 28014G21KT 10SM CLR 31/04 A2979 RMK AO2 SLP080 T03060044 56018

2010/08/09 20:53
KHRO 092053Z AUTO 19004KT 10SM CLR 34/23 A2996 RMK AO2 SLP124 60001 T03440228 58016

2010/08/09 20:53
KCTY 092053Z AUTO 09006G20KT 31/24 A2990 RMK AO2 SLP124 T03110239 55011 PWINO TSNO

2010/08/09 20:54
KBTV 092054Z 18005KT 4SM -TSRA BR FEW047CB BKN070 OVC095 23/21 A2988 RMK AO2 TSB09RAB10 SLP115 OCNL LTGIC SE TS SE MOV SE P0013 60025 T02280211 55005

2010/08/09 20:52
KCZZ 092052Z AUTO 23012KT 29/M01 A2992 RMK AO2 SLP102 T02891006 58005 PWINO TSNO

2010/08/09 20:53
KMSN 092053Z 29004KT 10SM SCT030 29/23 A2991 RMK AO2 SLP122 T02940228 58004

2010/08/09 20:53
KRNM 092053Z 31007G14KT 280V340 10SM CLR 28/10 A2992 RMK AO2 SLP119 T02780100 58005

2010/08/09 20:53
KSAV 092053Z 08006KT 10SM 32/24 A2996 RMK AO2 RAB13E27 SLP144 VCSH P0000 60000 T03170239 56004 $

2010/08/09 20:53
KP68 092053Z AUTO 27008KT 27/M04 A3006 RMK AO2 SLP087 T02671039 58008 PWINO TSNO

2010/08/09 20:53
KOQT 092053Z AUTO VRB06KT 10SM CLR 34/22 A3000 RMK AO2 SLP137 T03440222 56018 TSNO

2010/08/09 20:54
KJAN 092054Z 26007KT 1 3/4SM R16L/5000VP6000FT +TSRA BR BKN024 OVC045CB 27/25 A2992 RMK AO2 TSB25RAB13 SLP126 OCNL LTGICCCCG NW-N TS NW-N MOV W P0008 60008 T02670250 56016

2010/08/09 20:53
KCUT 092053Z AUTO 18004KT 10SM CLR 24/13 A3010 RMK AO2 SLP126 T02390128 58004 TSNO

2010/08/09 20:53
KMWT 092053Z AUTO VRB04KT 10SM CLR 36/21 A2991 RMK AO2 SLP112 T03560211 58018 TSNO

2010/08/09 20:53
KLXV 092053Z AUTO 30010G19KT 7SM -RA BKN048 OVC060 14/09 A3040 RMK AO2 RAB41 SLP133 P0000 60000 T01390089 58001 TSNO

2010/08/09 20:53
KFAR 092053Z 20007KT 10SM FEW100 32/20 A2987 RMK AO2 SLP111 T03220200 58004

2010/08/09 20:53
KEMP 092053Z AUTO 15013G19KT 10SM CLR 37/21 A2987 RMK AO2 SLP101 T03720206 58008

2010/08/09 20:53
KCDR 092053Z AUTO 28019G23KT 10SM CLR 29/14 A2994 RMK AO2 PK WND 26032/2021 LTG DSNT NW-E TSE1956 SLP113 T02940139 53003

2010/08/09 20:53
KCNY 092053Z AUTO 27014G20KT 10SM FEW090 31/05 A3004 RMK AO2 SLP113 T03110050 58015

2010/08/09 20:51
KCRP 092051Z 09014G20KT 10SM SCT036 34/24 A2988 RMK AO2 SLP118 TCU DSNT S SW T03440244 58016

2010/08/09 20:53
KCRQ 092053Z 24009KT 10SM CLR 21/14 A2992 RMK AO2 SLP129 T02110139 58004

2010/08/09 20:53
KDAL 092053Z 18009KT 10SM FEW060 37/20 A2987 RMK AO2 SLP107 T03720200 58019

2010/08/09 20:53
KDBQ 092053Z 00000KT 10SM CLR 31/23 A2993 RMK AO2 SLP127 T03110233 58003

2010/08/09 20:53
KBFF 092053Z AUTO 32006KT 10SM CLR 29/13 A2999 RMK AO2 SLP105 T02940133 58011

2010/08/09 20:53
KBIL 092053Z 04005KT 10SM SCT075CB BKN110 29/11 A2985 RMK AO2 SLP073 SHRA DSNT SW-NW CB S MOV NE CB DSNT SW-W T02940106 58022

2010/08/09 20:51
KBVE 092051Z AUTO 22005KT CLR 27/25 A2995 RMK AO2 SLP141 60051 T02720250 58012 TSNO $

2010/08/09 20:53
KHLC 092053Z AUTO 07010KT 10SM CLR 37/21 A2985 RMK AO2 SLP076 T03720211 58017

2010/08/09 20:53
KHSI 092053Z AUTO 07005KT 10SM FEW085 33/23 A2989 RMK AO2 SLP099 T03280233 57008

2010/08/09 20:53
KHSV 092053Z 33010KT 4SM R18R/5500VP6000FT RA SCT055 SCT080 BKN100 29/24 A2995 RMK AO2 RAB20 SLP132 P0008 60008 T02940244 56015

2010/08/09 20:53
KHVR 092053Z AUTO 00000KT 10SM CLR 30/09 A2981 RMK AO2 SLP079 T03000089 58020

2010/08/09 20:53
KFAT 092053Z VRB05KT 10SM FEW080 32/10 A2985 RMK AO2 SLP104 CU OMTNS DSNT N-E-S T03220100 58012

2010/08/09 20:53
KFMN 092053Z 24012G17KT 10SM CLR 31/04 A3013 RMK AO2 SLP135 T03060044 57010

2010/08/09 20:53
KFNB 092053Z AUTO 15008KT 10SM CLR 37/26 A2981 RMK AO2 SLP082 T03670261 56014

2010/08/09 20:53
KFNT 092053Z AUTO 18005KT 10SM FEW012 SCT050 26/22 A2993 RMK AO2 RAB1959E11 SLP129 P0000 60008 T02610217 58013 TSNO

2010/08/09 20:53
KGEG 092053Z 23007G19KT 10SM SCT075 SCT120 BKN200 26/07 A2984 RMK AO2 SLP089 T02560067 58010

2010/08/09 20:53
KGRR 092053Z 22007KT 10SM FEW029 BKN037 BKN046 28/22 A2992 RMK AO2 SLP126 T02830222 58009

2010/08/09 20:53
KAAF 092053Z AUTO 13007KT 10SM CLR 33/24 A2991 RMK AO2 SLP128 T03280239 56016

2010/08/09 20:53
KMCN 092053Z 00000KT 8SM CLR 35/21 A2997 RMK AO2 SLP143 T03500206 56013

2010/08/09 20:53
KLWD 092053Z AUTO 18007KT 10SM CLR 32/25 A2987 RMK AO2 SLP104 T03220250 57003

2010/08/09 20:50
ENAL 092050Z 04006KT 9999 FEW015 BKN030 15/13 Q1011

2010/08/09 20:50
ENCN 092050Z 23007KT 190V260 CAVOK 15/10 Q1011

2010/08/09 20:50
ENHD 092050Z AUTO 14006KT 9999NDV NCD 10/08 Q1011

2010/08/09 20:50
ENRO 092050Z AUTO 33002KT 2200NDV BCFG BKN082/// OVC150/// 13/12 Q1010

2010/08/09 20:50
ENRY 092050Z 18007KT 9999 SCT007 BKN220 18/17 Q1009

2010/08/09 20:50
ENSB 092050Z 27022KT 9999 FEW007 SCT010 BKN020 06/04 Q1001 

2010/08/09 20:50
ENTC 092050Z 02012KT 9999 SCT018 BKN026 10/07 Q1013

2010/08/09 20:50
ENTO 092050Z 20003KT CAVOK 17/16 Q1009

2010/08/09 20:53
KSBM 092053Z AUTO 27004KT 10SM SCT030 30/22 A2989 RMK AO2 SLP117 T03000222 56005

2010/08/09 20:53
KSEG 092053Z AUTO 19006KT 10SM CLR 32/17 A2996 RMK AO2 SLP140 T03220167 56014

2010/08/09 20:53
KSFF 092053Z 21009KT 10SM CLR 28/07 A2982 RMK AO2 SLP083 T02780067 58014

2010/08/09 20:53
KSHN 092053Z AUTO 21009KT 10SM BKN019 18/12 A2998 RMK AO2 SLP151 T01780122 53004

2010/08/09 20:53
KSHR 092053Z AUTO 17006KT 10SM CLR 32/08 A2988 RMK AO2 SLP074 T03220078 58018

2010/08/09 20:53
KSLC 092053Z 25018G27KT 10SM BKN110CB BKN150 BKN200 28/01 A2999 RMK AO2 PK WND 17028/2000 WSHFT 2037 SLP096 VIRGA NE AND S-SW AND DSNT NW CB N-NE MOV NE AND DSNT SW 60000 T02780006 56010

2010/08/09 20:53
KTYR 092053Z AUTO VRB06KT 10SM CLR 37/19 A2993 RMK AO2 SLP124 T03670189 58018 TSNO

2010/08/09 20:53
KUAO 092053Z AUTO 00000KT 10SM BKN034 19/10 A3001 RMK AO2 SLP161 T01890100 58002

2010/08/09 20:53
KUNO 092053Z AUTO 08009KT 10SM OVC065 35/22 A2993 RMK AO2 SLP118 T03500217 57016

2010/08/09 20:53
KUUU 092053Z AUTO 20008G19KT 180V240 9SM CLR 26/22 A2996 RMK AO2 SLP143 T02560217 56011

2010/08/09 20:53
KVEL 092053Z AUTO 24008KT 10SM FEW100 27/04 A3008 RMK AO2 LTG DSNT E SLP124 T02720039 58019

2010/08/09 20:53
KVGT 092053Z 16013G18KT 10SM CLR 34/03 A2989 RMK AO2 SLP085 T03440028 58020

2010/08/09 20:53
KVIH 092053Z AUTO 10004KT 10SM CLR 33/26 A2992 RMK AO2 SLP115 T03330256 58009

2010/08/09 20:53
KVLD 092053Z 05010KT 10SM BKN050 35/21 A2993 RMK AO2 SLP140 T03500211 56014

2010/08/09 20:53
KVPZ 092053Z AUTO 21008KT 10SM FEW100 29/23 A2994 RMK AO2 SLP132 T02940228 56007

2010/08/09 20:53
KVRB 092053Z 12013G20KT 10SM CLR 31/24 A2990 RMK AO2 SLP122 T03060239 56011

2010/08/09 20:53
KVUO 092053Z AUTO VRB03KT 10SM OVC027 17/11 A3001 RMK AO2 SLP161 T01720106 58000

2010/08/09 20:53
KWRL 092053Z AUTO 19013G18KT 10SM FEW110 33/04 A2986 RMK AO2 SLP061 T03280044 58027

2010/08/09 20:53
KWST 092053Z AUTO 22009G17KT 7SM CLR 26/21 A2996 RMK AO2 SLP143 T02610211 56015

2010/08/09 20:53
KXNA 092053Z 21009KT 5SM HZ CLR 37/20 A2994 RMK AO2 SLP120 T03670200 58015

2010/08/09 20:53
KYIP 092053Z AUTO 16005KT 6SM -RA BKN025 BKN046 BKN080 24/22 A2995 RMK AO2 SLP134 P0003 60004 T02440217 58012 TSNO

2010/08/09 20:53
KZZV 092053Z AUTO 22003KT 10SM CLR 31/18 A2999 RMK AO2 SLP148 T03060183 56016

2010/08/09 20:53
KIXD 092053Z 17011KT 10SM CLR 37/21 A2988 RMK AO2 SLP101 T03720211 56012

2010/08/09 20:52
KJAC 092052Z 12010KT 080V180 RA SCT065 BKN085 BKN110 12/04 A3008 RMK LGT DSNT ALQDS

2010/08/09 20:51
KJCT 092051Z AUTO 17008G15KT 10SM CLR 37/16 A2991 RMK AO2 SLP085 T03720156 58024 TSNO

2010/08/09 20:53
KJEF 092053Z VRB03KT 10SM CLR 34/26 A2989 RMK AO2 SLP104 T03440256 56011

2010/08/09 20:53
KJER 092053Z AUTO 09021G27KT 10SM CLR 27/09 A2993 RMK AO2 PK WND 09029/2027 LTG DSNT SW SLP095 T02670094 56008

2010/08/09 20:53
KJKL 092053Z AUTO 00000KT 10SM CLR 33/18 A3002 RMK AO2 SLP147 T03330183 56014

2010/08/09 20:53
KLAA 092053Z AUTO 24005KT 10SM CLR 34/17 A2991 RMK AO2 LTG DSNT SE AND S SLP069 T03390172 58021

2010/08/09 20:53
KLAR 092053Z AUTO 16008KT 10SM FEW100 24/07 A3019 RMK AO2 LTG DSNT N SLP113 T02390067 58010

2010/08/09 20:53
KLAW 092053Z AUTO 00000KT 10SM CLR 39/16 A2985 RMK AO2 SLP090 T03940161 58018

2010/08/09 20:53
KLBF 092053Z AUTO 12005KT 10SM CLR 31/19 A2995 RMK AO2 SLP113 T03060194 56006

2010/08/09 20:53
KLEB 092053Z 00000KT 6SM HZ FEW046 23/20 A2990 RMK AO2 PK WND 33031/2022 LTG DSNT NW-E TSE21B22E30RAB11E46 SLP116 P0044 60044 T02280200 56007

2010/08/09 20:53
KLEE 092053Z 00000KT 10SM SCT060 31/24 A2991 RMK AO2 SLP126 60000 T03110244 56010

2010/08/09 20:53
KLGB 092053Z 21008KT 10SM CLR 21/13 A2993 RMK AO2 SLP133 T02110128 58003

2010/08/09 20:53
KLHQ 092053Z AUTO 00000KT 9SM CLR 31/18 A2999 RMK AO2 SLP149 T03110183 56016

2010/08/09 20:53
KLHX 092053Z AUTO VRB04KT 10SM CLR 31/16 A2999 RMK AO2 SLP091 T03060161 58014 $

2010/08/09 20:53
KLLQ 092053Z AUTO 09004KT 10SM FEW090 37/24 A2992 RMK AO2 SLP126 T03670239 58016

2010/08/09 20:55
KPSO 092055Z AUTO 19010G16KT 162V222 10SM SCT100 24/03 A3027 RMK AO2

2010/08/09 20:53
KPSX 092053Z AUTO 18014G19KT 10SM FEW090 35/26 A2991 RMK AO2 SLP129 T03500261 56015

2010/08/09 20:53
KRDD 092053Z 16005G14KT 10SM CLR 32/11 A2982 RMK AO2 SLP093 T03170106 56011

2010/08/09 20:53
KRKP 092053Z AUTO 12010KT 10SM CLR 34/26 A2989 RMK AO2 SLP123 T03390256 58017

2010/08/09 20:53
KRWI 092053Z AUTO 13004KT 10SM CLR 33/19 A3001 RMK AO2 SLP159 T03280189 56008

2010/08/09 20:53
KRYN 092053Z 00000KT 10SM SCT070 BKN090 34/14 A2993

2010/08/09 20:53
KSAC 092053Z 22007KT 10SM CLR 27/14 A2986 RMK AO2 SLP110 T02670139 58011

2010/08/09 20:53
KSAF 092053Z 26008KT 10SM CLR 30/10 A3014 RMK AO2 LTG DSNT N AND NW SLP093 T03000100 58016

2010/08/09 20:53
KSDL 092053Z VRB03KT 10SM CLR 38/08 A2987 RMK AO2 SLP085 T03780083 58014

2010/08/09 20:53
KSIY 092053Z AUTO VRB04KT 10SM 30/06 A2989 RMK AO2 SLP105 T03000061 58014 $

2010/08/09 20:53
KSJC 092053Z 30008KT 10SM FEW007 24/13 A2989 RMK AO2 SLP120 T02440128 56010

2010/08/09 20:53
KSMF 092053Z 21008KT 10SM CLR 27/16 A2985 RMK AO2 SLP106 T02670156 58010

2010/08/09 20:53
KSNS 092053Z 27008KT 10SM CLR 19/12 A2993 RMK AO2 SLP144 T01940122 57005

2010/08/09 20:55
KSPA 092055Z AUTO 14004KT 10SM SCT060 34/26 A2999 RMK AO2

2010/08/09 20:50
KSQL 092050Z 01011KT 30SM SKC 19/13 A2991

2010/08/09 20:53
KSSF 092053Z 15008G16KT 10SM FEW060 37/19 A2989 RMK AO2 SLP107 T03670194 56022

2010/08/09 20:53
KSTS 092053Z 15007KT 10SM FEW015 SCT060 22/13 A2989 RMK AO2 SLP117 T02170128 58010

2010/08/09 20:53
KTCC 092053Z AUTO 18012G18KT 10SM CLR 34/13 A2996 RMK AO2 SLP074 T03390128 58015

2010/08/09 20:53
KTCL 092053Z 20007KT 10SM FEW049 36/22 A2993 RMK AO2 SLP134 T03560222 56018

2010/08/09 20:53
KTOI 092053Z 04003KT 10SM CLR 35/21 A2995 RMK AO2 SLP136 T03500211 58016

2010/08/09 20:50
KTRK 092050Z 20009KT 10SM FEW060 24/03 A3008 RMK NOSPECI

2010/08/09 20:53
KTVL 092053Z AUTO 02007KT 10SM CLR 23/08 A3010 RMK AO2 SLP140 T02330078 57005

2010/08/09 20:53
KUTS 092053Z AUTO VRB04KT 10SM FEW070 37/19 A2991 RMK AO2 SLP120 T03670194 58020

2010/08/09 20:53
KVCB 092053Z AUTO VRB04KT 10SM CLR 27/13 A2986 RMK AO2 SLP111 T02720133 58010

2010/08/09 20:53
KVPC 092053Z AUTO 17005KT 10SM CLR 34/21 A2999 RMK AO2 SLP140 T03390206 56016

2010/08/09 20:50
KVQQ 092050Z 09009KT 10SM VCSH FEW030 SCT060 BKN085 30/26 A2993 RMK VCSH SE

2010/08/09 20:53
KWVI 092053Z AUTO 21007KT 10SM FEW016 19/12 A2994 RMK AO2 SLP138 T01940122 58008

2010/08/09 20:49
PADL 092049Z 17008G16KT 10SM VCSH SCT007 OVC013 11/10 A2955

2010/08/09 20:52
PATA 092052Z 12007KT 10SM -RA BKN023 OVC035 13/12 A2957 RMK AO2 SLP015 P0001 60007 T01330117 51004

2010/08/09 20:50
PAXK 092050Z 18007KT 10SM BKN050 13/06 A2970 RMK NOSPECI

2010/08/09 20:53
PHJR 092053Z 08007G16KT 10SM OVC050 29/16 A3011 RMK AO2 SLP204 T02890156 53004

2010/08/09 20:53
PHJR 092053Z 08007G16KT 10SM OVC050 29/16 A3011 RMK AO2 SLP204 T02890156 53004

2010/08/09 20:53
KOVE 092053Z AUTO VRB03KT 10SM CLR 28/14 A2987 RMK AO2 SLP114 T02830139 58010 TSNO $

2010/08/09 20:53
KSGR 092053Z 17006KT 10SM SCT065 35/22 A2990 RMK AO2 SLP133 T03500217 58018

2010/08/09 20:53
KDEQ 092053Z AUTO 23007KT 10SM CLR 37/22 A2988 RMK AO2 SLP110 T03670222 58020

2010/08/09 20:53
KDET 092053Z 24006KT 10SM -RA SCT075 25/22 A2995 RMK AO2 RAB01 SLP136 P0000 60000 T02500217 58006

2010/08/09 20:53
KDEW 092053Z AUTO 18005KT 10SM SCT070 25/08 A2983 RMK AO2 SLP091 T02500083 58012

2010/08/09 20:53
KDFI 092053Z AUTO 20005KT 7SM FEW049 SCT060 30/22 A2994 RMK AO2 SLP132 T03000217 56015

2010/08/09 20:53
KDFW 092053Z 19009G17KT 10SM SCT065TCU 37/20 A2987 RMK AO2 SLP105 TCU ALQDS T03720200 58017

2010/08/09 20:53
KDGW 092053Z AUTO 15008KT 10SM -RA FEW019 BKN100 27/11 A3001 RMK AO2 RAB03E14B31 SLP101 P0000 60000 T02720106 58010

2010/08/09 20:53
KDHN 092053Z 09006KT 10SM FEW065 34/21 A2997 RMK AO2 SLP143 T03440211 58018

2010/08/09 20:53
KDKK 092053Z AUTO 25010G16KT 8SM CLR 27/19 A2996 RMK AO2 SLP139 T02720194 55007

2010/08/09 20:50
EGCN 092050Z 22005KT 9999 FEW040 16/11 Q1010

2010/08/09 20:50
EGDL 092050Z 19007KT 9999 OVC008 17/16 Q1012 NOSIG

2010/08/09 20:50
EGSH 092050Z 18006KT 9999 SCT040 20/13 Q1012

2010/08/09 20:50
EGVN 092050Z 20008KT 9999 BKN010 OVC040 18/16 Q1012 TEMPO SCT006

2010/08/09 20:50
ENAT 092050Z 17004KT 9999 FEW025 SCT053 12/10 Q1014 

2010/08/09 20:50
ENEV 092050Z 35007KT 9999 FEW020 11/09 Q1012 

2010/08/09 20:50
ENKB 092050Z 01005KT 9999 SCT007 BKN010 14/12 Q1010

2010/08/09 20:50
ENKR 092050Z 04009KT 9999 -RA OVC005 09/08 Q1014 REDZ 

2010/08/09 20:50
ENML 092050Z 28006KT 9999 FEW012 BKN030 18/13 Q1010

2010/08/09 20:50
ENNA 092050Z 35006KT 9999 SCT010 BKN014 10/08 Q1015 

2010/08/09 21:00
SBSL 092100Z 03006KT 9999 FEW020 28/23 Q1012

2010/08/09 20:50
LIEA 092050Z VRB02KT CAVOK 19/15 Q1017

2010/08/09 20:45
LIEE 092045Z 29007KT 9999 FEW020 SCT040 26/09 Q1015 NOSIG

2010/08/09 20:50
LIEO 092050Z 08004KT CAVOK 24/19 Q1016

2010/08/09 20:50
LIMC 092050Z VRB01KT CAVOK 21/17 Q1015 NOSIG

2010/08/09 20:50
LIME 092050Z 01005KT 9999 FEW040 21/17 Q1016

2010/08/09 20:50
LIMF 092050Z 01005KT 9999 SCT080 22/18 1015

2010/08/09 20:50
LIMJ 092050Z VRB03KT 9999 FEW015 24/20 Q1015

2010/08/09 20:50
LIML 092050Z VRB01KT CAVOK 23/18 Q1015 NOSIG

2010/08/09 20:45
LIRA 092045Z 10002KT CAVOK 24/19 Q1015

2010/08/09 20:50
LIRF 092050Z 08003KT CAVOK 22/18 Q1015 NOSIG

2010/08/09 20:50
LIRN 092050Z VRB01KT CAVOK 23/19 Q1015

2010/08/09 20:45
LIRP 092045Z 18002KT 9999 FEW015 SCT025 23/22 Q1015 NOSIG

2010/08/09 20:50
LIRQ 092050Z 22005KT 9999 FEW025 23/19 Q1016

2010/08/09 20:52
KRAP 092052Z 17005KT 10SM CLR 29/19 A2991 RMK AO2 LTG DSNT S SLP100 T02940189 56010

2010/08/09 20:51
KRKR 092051Z AUTO 26008KT 7SM SCT070 SCT100 39/24 A2989 RMK AO2

2010/08/09 20:50
KSAW 092050Z 04012KT 10SM SCT060 27/20 A2989

2010/08/09 20:49
KSEZ 092049Z AUTO 14006KT 10SM SCT120 30/09 A3012 RMK AO2 T02980088

2010/08/09 20:52
KSGF 092052Z 21009KT 10SM FEW060 36/22 A2993 RMK AO2 SLP116 T03610217 58014

2010/08/09 20:53
KSNL 092053Z AUTO 20011G16KT 10SM SCT065 39/21 A2991 RMK AO2

2010/08/09 20:55
KSOP 092055Z AUTO 13004KT 10SM CLR 33/20 A3000 RMK AO1 57010

2010/08/09 20:52
KSPI 092052Z 16004KT 10SM CLR 34/26 A2990 RMK AO2 SLP118 T03440261 56006

2010/08/09 20:52
KSUX 092052Z 03005KT 10SM OVC022 28/24 A2988 RMK AO2 SLP108 T02830239 50000

2010/08/09 20:50
KSVC 092050Z AUTO 28011KT 030V040 10SM FEW080 30/09 A3014 RMK AO2

2010/08/09 20:50
KSZT 092050Z AUTO 11003KT 10SM SCT090 26/15 A2982 RMK AO2

2010/08/09 20:52
KTAN 092052Z AUTO 22009G18KT 10SM FEW055 29/21 A2991 RMK AO2 SLP128 T02940206 56012

2010/08/09 20:50
KTEX 092050Z AUTO 26003KT 10SM SCT055 SCT065 BKN090 20/08 A3040 RMK AO2

2010/08/09 20:50
KTIF 092050Z AUTO 09003KT 10SM CLR 32/17 A2996 RMK AO2 P0001 60001 T03150168

2010/08/09 20:50
KTIX 092050Z 11012KT 7SM SCT030 29/23 A2991

2010/08/09 20:54
KTMK 092054Z AUTO 31008KT 10SM SCT027 OVC033 17/13 A3004 RMK AO2

2010/08/09 20:53
KTQH 092053Z AUTO 15006KT 10SM CLR 39/23 A2991 RMK AO2

2010/08/09 20:52
KTRM 092052Z AUTO 15008G15KT 10SM CLR 38/01 A2973 RMK AO2 SLP072 T03830011 58016

2010/08/09 20:55
KUDG 092055Z 14007KT 10SM CLR 33/23 A3002 RMK AO1 57010

2010/08/09 20:52
KUGN 092052Z 22004KT 10SM BKN035 29/22 A2990 RMK AO2 SLP110 T02940217 56005

2010/08/09 20:49
PAWI 092049Z 06020G27KT 10SM CLR 07/02 A2978 RMK ASOS VIA PHONE

2010/08/09 20:53
KACV 092053Z AUTO 33008KT 10SM OVC005 13/11 A2996 RMK AO2 SLP150 T01280106 53003

2010/08/09 20:55
KADM 092055Z 16008KT 10SM SKC 38/23 A2987

2010/08/09 20:47
KADS 092047Z 21004KT 10SM SCT060 36/17 A2989

2010/08/09 20:53
KAEX 092053Z 01004KT 10SM CLR 38/20 A2988 RMK AO2 SLP119 T03780200 58024

2010/08/09 20:53
KAGS 092053Z 13005KT 10SM FEW055 34/22 A2997 RMK AO2 SLP145 T03390222 55012

2010/08/09 20:53
KALI 092053Z AUTO 13011G17KT 10SM SCT047 BKN060 36/24 A2986 RMK AO2 SLP109 T03560239 56022

2010/08/09 20:53
KANB 092053Z AUTO 09004KT 10SM CLR 35/21 A2996 RMK AO2 SLP134 T03500206 57016

2010/08/09 20:53
KARA 092053Z 06004KT 10SM CLR 36/24 A2992 RMK AO2 SLP130 T03610239 58019

2010/08/09 20:53
KASD 092053Z AUTO 00000KT 7SM CLR 27/24 A2994 RMK AO2 LTG DSNT E TSE30RAB14E27 SLP138 P0001 60020 T02720244 58008

2010/08/09 20:53
KAUS 092053Z 14007KT 10SM FEW065 36/19 A2990 RMK AO2 SLP112 T03610194 56020

2010/08/09 20:53
KBFD 092053Z AUTO 24007KT 10SM CLR 27/16 A3004 RMK AO2 SLP157 T02670161 58010

2010/08/09 20:53
KBFM 092053Z 16010G17KT 10SM SCT037 33/24 A2994 RMK AO2 SLP139 T03280244 58016

2010/08/09 20:48
KBJC 092048Z 31010G15KT 40SM SCT060 BKN080 BKN140 28/08 A3009 RMK OCNL LTG W

2010/08/09 20:53
KBMQ 092053Z AUTO VRB05G14KT 10SM CLR 35/16 A2995 RMK AO2 SLP119 T03500156 58019 $

2010/08/09 20:55
KBOW 092055Z AUTO 06003KT 7SM CLR 29/23 A2989 RMK AO2

2010/08/09 20:53
KBPT 092053Z 17006KT 10SM FEW060 BKN080 34/25 A2992 RMK AO2 SLP130 T03440250 58014

2010/08/09 20:53
KCCR 092053Z 30011KT 10SM CLR 24/12 A2988 RMK AO2 SLP103 T02440117 58013

2010/08/09 20:55
KCDN 092055Z AUTO 07006KT 10SM CLR 34/23 A3001 RMK A02 P000

2010/08/09 20:53
KCHO 092053Z 21010G16KT 180V250 9SM CLR 33/19 A2998 RMK AO2 SLP145 T03330189 58009

2010/08/09 20:55
KCKI 092055Z AUTO 05006KT 10SM SCT050 32/20 A2998 RMK AO2

2010/08/09 20:53
KCOT 092053Z AUTO VRB05G14KT 10SM CLR 38/18 A2985 RMK AO2 SLP098 T03780183 58028

2010/08/09 20:53
KCSV 092053Z AUTO 29005KT 10SM CLR 28/21 A3006 RMK AO2 TSE03 SLP153 T02780211 58010

2010/08/09 20:53
KCXO 092053Z 14007KT 110V170 10SM CLR 36/22 A2990 RMK AO2 SLP122 T03610217 58017

2010/08/09 20:53
KDAN 092053Z AUTO 22007KT 8SM CLR 34/20 A3000 RMK AO2 SLP146 T03440200 58012

2010/08/09 20:53
KDHT 092053Z AUTO 17009G15KT 10SM BKN075 BKN120 33/15 A2998 RMK AO2 SLP088 T03280150 58016

2010/08/09 20:53
KMLU 092053Z AUTO 00000KT 10SM OVC055 37/23 A2990 RMK AO2 SLP123 T03720228 56022 TSNO

2010/08/09 20:53
K40J 092053Z AUTO 03010KT 34/22 A2989 RMK AO2 SLP121 T03440217 56018 PWINO TSNO

2010/08/09 20:53
KPDX 092053Z VRB05KT 10SM BKN028 17/10 A3002 RMK AO2 SLP163 T01670100 50000

2010/08/09 20:53
KPGA 092053Z AUTO 20009G14KT 160V240 10SM CLR 32/01 A3004 RMK AO2 SLP105 T03170006 56016

2010/08/09 20:53
KPOF 092053Z AUTO 20004KT 10SM CLR 37/24 A2987 RMK AO2 SLP108 T03670244 58018

2010/08/09 20:53
KSTC 092053Z VRB03KT 10SM CLR 33/19 A2991 RMK AO2 SLP128 T03280194 58005 $

2010/08/09 20:53
KRIW 092053Z AUTO 17014G21KT 10SM CLR 31/04 A2999 RMK AO2 SLP077 T03060039 58019

2010/08/09 20:51
KSAN 092051Z VRB06KT 10SM FEW020 22/14 A2994 RMK AO2 SLP137 T02170139 58006

2010/08/09 20:53
KSEA 092053Z 19005KT 10SM SCT016 OVC023 18/12 A3000 RMK AO2 SLP166 T01780122 53004

2010/08/09 20:53
KYKM 092053Z VRB03KT 10SM SCT080 28/07 A2978 RMK AO2 SLP078 T02830067 58017

2010/08/09 20:53
KGNT 092053Z AUTO 33006KT 26/08 A3023 RMK AO2 SLP147 T02560078 58005 PWINO TSNO

2010/08/09 20:53
KJBR 092053Z AUTO 14007KT 10SM CLR 34/25 A2989 RMK AO2 SLP119 T03440250 56017

2010/08/09 20:53
KJLN 092053Z 19009KT 10SM CLR 36/22 A2991 RMK AO2 SLP114 T03560222 58015

2010/08/09 20:53
KLAN 092053Z 24012KT 10SM SCT021 BKN050 28/22 A2993 RMK AO2 SLP130 60000 T02780217 56013

2010/08/09 20:53
KLBB 092053Z 18013G18KT 10SM SCT060TCU SCT180 BKN250 34/17 A2998 RMK AO2 SLP093 CB DSNT SE AND DSNT SW-NW MOV NE TCU ALQDS T03390172 58019

2010/08/09 20:53
KLIT 092053Z 16005KT 10SM SCT055 BKN250 37/23 A2989 RMK AO2 SLP118 TCU DSNT W N 60000 T03670228 58018

2010/08/09 20:53
KODX 092053Z AUTO 00000KT 10SM CLR 31/21 A2990 RMK AO2 SLP111 T03110211 58010

2010/08/09 20:51
KORF 092051Z 11009KT 10SM FEW035 31/20 A3001 RMK AO2 SLP162 T03060200 58005 $

2010/08/09 20:54
PHOG 092054Z 07022G29KT 10SM FEW040 SCT065 30/16 A3009 RMK AO2 PK WND 07032/2019 SLP193 T03000161 58002

2010/08/09 20:55
KGPZ 092055Z AUTO 00000KT 10SM CLR 31/21 A2993 RMK AO1 54000

2010/08/09 20:54
KLYH 092054Z 14006KT 10SM FEW055 32/21 A3002 RMK AO2 SLP155 T03170211 57011

2010/08/09 20:54
KDSM 092054Z 17004KT 10SM OVC035 31/24 A2987 RMK AO2 SLP104 T03110244 56004

2010/08/09 20:55
KDVL 092055Z AUTO 22009KT 10SM CLR 32/19 A2984 RMK AO1 57003

2010/08/09 20:55
KEAR 092055Z AUTO 08005KT 10SM CLR 32/24 A2993 RMK AO1 57010

2010/08/09 20:54
KPIA 092054Z 13004KT 10SM CLR 32/24 A2991 RMK AO2 SLP121 T03170239 56008

2010/08/09 20:54
KSUS 092054Z 19005KT 10SM CLR 36/24 A2988 RMK AO2 SLP106 T03560239 56007

2010/08/09 20:53
PABE 092053Z 17017G24KT 5SM R19R/5500VP6000FT -RA BR BKN009 OVC015 10/09 A2937 RMK AO2 SLP948 P0000 60002 T01000094 53008

2010/08/09 20:53
PABT 092053Z 00000KT 10SM FEW016 SCT050 OVC110 16/10 A2957 RMK AO2 RAE1958 SLP018 SHRA VC N P0000 60000 T01560100 56003

2010/08/09 20:53
PACD 092053Z 17013G19KT 10SM SCT031 OVC040 13/08 A2953 RMK AO2 PK WND 19027/2002 WSHFT 1945 SLP001 T01330078 53009

2010/08/09 20:53
PAFA 092053Z 06003KT 10SM SCT075 BKN100 BKN120 17/09 A2957 RMK AO2 SLP016 ACSL DSNT SE T01720094 58001

2010/08/09 20:53
PAHO 092053Z 25007KT 10SM SCT044 BKN200 16/11 A2965 RMK AO2 SLP041 T01560111 50009

2010/08/09 20:53
PAJN 092053Z 13011KT 10SM FEW027 BKN042 OVC065 15/10 A2998 RMK AO2 RAB29E40 SLP151 MTN TPS PRTLY OBSCD ALQDS PRESENT WX VCSH S P0000 60000 T01500100 58001

2010/08/09 20:53
PAMC 092053Z VRB03KT 7SM -RA BKN016 OVC021 13/12 A2953 RMK AO2 SLP004 P0001 60002 T01280117 51010

2010/08/09 20:53
PANC 092053Z 14010G19KT 10SM SCT060 BKN070 BKN085 18/09 A2963 RMK AO2 SLP034 T01780094 51002

2010/08/09 20:53
PANN 092053Z AUTO 08003KT 10SM SCT080 17/08 A2955 RMK AO2 SLP010 T01720083 56003 TSNO

2010/08/09 20:53
PANT 092053Z 15005KT 10SM OVC003 14/12 A3003 RMK AO2 SLP168 T01440117 51004

2010/08/09 20:53
PAOM 092053Z 12011KT 10SM SCT007 BKN013 OVC032 11/09 A2934 RMK AO2 RAB04E47DZB05E06 SLP936 P0003 60003 T01110094 51008

2010/08/09 20:53
KSTJ 092053Z 20009KT 10SM CLR 34/25 A2983 RMK AO2 SLP088 T03440250 58010

2010/08/09 20:53
KSTP 092053Z AUTO 06006KT 10SM CLR 33/21 A2989 RMK AO2 SLP114 T03280206 58004 TSNO

2010/08/09 20:53
KSWO 092053Z 16010KT 10SM CLR 39/20 A2987 RMK AO2 SLP096 T03890200 58010

2010/08/09 20:53
KTDZ 092053Z AUTO 23006KT 6SM HZ CLR 31/19 A2994 RMK AO2 SLP134 T03110194 58014

2010/08/09 20:53
KTHV 092053Z AUTO 00000KT 10SM FEW090 33/21 A2996 RMK AO2 SLP144 T03330206 56013

2010/08/09 20:53
KTIW 092053Z 18007KT 10SM SCT020 BKN026 17/12 A3000 RMK AO2 SLP158 T01720122 53004

2010/08/09 20:53
KTKI 092053Z 12009KT 10SM CLR 36/21 A2989 RMK AO2 SLP111 T03610211 56017

2010/08/09 20:53
KTMB 092053Z 19009KT 10SM FEW021 31/24 A2989 RMK AO2 SLP120 60000 T03060244 56016

2010/08/09 20:53
KTOP 092053Z 18012KT 10SM CLR 39/22 A2984 RMK AO2 SLP090 T03940217 58009

2010/08/09 20:53
KTOR 092053Z AUTO 34005KT 10SM FEW019 BKN044 OVC090 24/16 A3000 RMK AO2 RAB24E51 SLP112 P0002 60002 T02440156 58012

2010/08/09 20:53
KTPA 092053Z 27005KT 7SM SCT025TCU BKN065 BKN250 29/24 A2988 RMK AO2 SLP119 TCU E AND SW VCSH SW 60019 T02940244 55009

2010/08/09 20:53
KTRL 092053Z AUTO 17012G16KT 10SM FEW065 36/18 A2990 RMK AO2 SLP116 T03610178 58017

2010/08/09 20:53
KTTD 092053Z VRB05KT 10SM OVC035 19/11 A3000 RMK AO2 SLP157 T01940106 51000

2010/08/09 20:53
KTTN 092053Z 25010G17KT 8SM CLR 34/18 A2994 RMK AO2 SLP131 T03390178 56017

2010/08/09 20:53
KTUL 092053Z 19008KT 10SM SCT070 38/19 A2987 RMK AO2 SLP102 T03780194 58014

2010/08/09 20:53
KTVC 092053Z 27008KT 10SM SCT032 BKN070 30/22 A2986 RMK AO2 SLP107 T03000222 50000

2010/08/09 20:53
KTVR 092053Z AUTO VRB03KT 10SM CLR 37/23 A2989 RMK AO2 LTG DSNT W-NE SLP126 T03720233 56024

2010/08/09 20:53
KTWF 092053Z AUTO 17019G24KT 10SM CLR 30/06 A2992 RMK AO2 PK WND 19027/1954 LTG DSNT SW SLP069 T03000056 55006

2010/08/09 20:53
KTXK 092053Z 06004KT 10SM CLR 36/22 A2990 RMK AO2 SLP117 T03610222 58020

2010/08/09 20:53
KPTK 092053Z 16006KT 10SM FEW007 SCT030 BKN080 24/22 A2993 RMK AO2 RAE09B38E48 SLP129 CB DSNT N MOV E P0000 60003 T02390217 58014

2010/08/09 20:53
KPUB 092053Z 24004KT 10SM FEW110 28/14 A3004 RMK AO2 SLP106 T02780144 56013 $

2010/08/09 20:53
KPUW 092053Z AUTO 23009KT 10SM BKN095 27/06 A2987 RMK AO2 SLP103 T02670061 57012

2010/08/09 20:53
KPWA 092053Z 18014G19KT 10SM CLR 37/19 A2988 RMK AO2 SLP096 T03720194 58015

2010/08/09 20:53
KRAC 092053Z AUTO 12006KT 7SM BKN035 28/22 A2992 RMK AO2 SLP125 T02830222 55006

2010/08/09 20:53
KRAL 092053Z 26008G15KT 10SM CLR 29/10 A2989 RMK AO2 SLP105 T02940100 58009

2010/08/09 20:53
KRBD 092053Z 00000KT 10SM CLR 37/19 A2988 RMK AO2 SLP108 T03720194 58018

2010/08/09 20:53
KRBG 092053Z AUTO 36008KT 10SM CLR 22/13 A2997 RMK AO2 SLP146 T02220128 58006

2010/08/09 20:53
KRHI 092053Z AUTO 29006KT 10SM CLR 31/19 A2995 RMK AO2 SLP130 T03060189 50003

2010/08/09 20:53
KRME 092053Z AUTO 25009KT 10SM FEW075 29/18 A2992 RMK AO2 SLP125 T02940183 56019 TSNO

2010/08/09 20:53
KRNT 092053Z 13003KT 10SM BKN026 OVC032 18/12 A2999 RMK AO2 SLP160 T01780122 51003

2010/08/09 20:53
KRSL 092053Z AUTO 18012G19KT 10SM CLR 38/19 A2984 RMK AO2 SLP080 T03780189 58009

2010/08/09 20:53
KRSW 092053Z AUTO 19012KT 8SM -RA SCT015 BKN021 OVC055 26/24 A2986 RMK AO2 SLP110 P0047 60047 T02560239 56009 TSNO

2010/08/09 20:53
KRUE 092053Z AUTO VRB03KT 10SM CLR 38/21 A2988 RMK AO2 SLP108 T03830211 58021

2010/08/09 20:53
KRVS 092053Z 21007KT 10SM CLR 39/21 A2987 RMK AO2 SLP114 T03890211 58015

2010/08/09 20:53
KRWF 092053Z AUTO 11007KT 10SM CLR 32/21 A2990 RMK AO2 SLP118 T03170206 56004

2010/08/09 20:53
KRWL 092053Z AUTO 22010G18KT 10SM OVC110 22/06 A3019 RMK AO2 SLP132 6//// T02220056 58007 PNO $

2010/08/09 20:53
KRXE 092053Z AUTO 25008KT 10SM FEW040 SCT070 22/11 A3001 RMK AO2 LTG DSNT E AND SE RAB23E52 SLP123 P0000 60000 T02170111 58009

2010/08/09 20:53
KSBA 092053Z 20006KT 10SM FEW001 18/13 A2994 RMK AO2 SLP137 FG BNK ONSHR E-W T01780133 50001

2010/08/09 20:53
KAOO 092053Z AUTO 22004KT 10SM CLR 31/14 A3002 RMK AO2 SLP156 T03060144 56013

2010/08/09 20:53
KAPA 092053Z 15008G17KT 10SM SCT060 BKN120 26/14 A3010 RMK AO2 SLP120 T02560139 56016

2010/08/09 20:53
KAPF 092053Z 15007KT 10SM FEW016 BKN060 26/24 A2989 RMK AO2 LTG DSNT N TSE18RAB32E49 SLP121 P0000 60037 T02610244 55004

2010/08/09 20:53
KARB 092053Z 17005KT 9SM -RA SCT029 BKN090 24/22 A2993 RMK AO2 SLP131 P0004 60005 T02390217 58019

2010/08/09 20:53
KASE 092053Z VRB03KT 10SM SCT045 18/09 A3027 RMK AO2 SLP137 60001 T01830089 58016

2010/08/09 20:53
KASX 092053Z AUTO 30004KT 10SM CLR 31/21 A2991 RMK AO2 SLP125 T03060211 50000

2010/08/09 20:53
KATY 092053Z AUTO 07009KT 10SM CLR 32/16 A2993 RMK AO2 SLP120 T03170161 58004

2010/08/09 20:53
KAUG 092053Z AUTO VRB04KT 10SM CLR 29/18 A2987 RMK AO2 SLP115 T02940178 58015

2010/08/09 20:53
KAWM 092053Z AUTO 14004KT 10SM -RA CLR 27/24 A2990 RMK AO2 LTG DSNT S AND SW TSE47RAB32 SLP121 P0000 60000 T02720239 56005

2010/08/09 20:53
KAXN 092053Z AUTO VRB06KT 10SM CLR 31/18 A2995 RMK AO2 SLP134 T03110183 57003

2010/08/09 20:53
KAZO 092053Z 19006KT 9SM FEW020 28/23 A2993 RMK AO2 SLP130 60001 T02830228 58014

2010/08/09 20:53
KBAF 092053Z 24013KT 10SM CLR 34/16 A2990 RMK AO2 SLP121 T03390156 56015

2010/08/09 20:53
KBBW 092053Z AUTO 14003KT 10SM CLR 31/20 A2994 RMK AO2 SLP112 T03060200 58005

2010/08/09 20:53
KBCE 092053Z AUTO 25010KT 10SM CLR 21/M03 A3028 RMK AO2 SLP145 T02111033 58003

2010/08/09 20:53
KBDE 092053Z AUTO 17003KT 10SM CLR 32/19 A2988 RMK AO2 SLP113 T03170194 58004

2010/08/09 20:53
KLVM 092053Z AUTO 30007KT 10SM VCTS SCT080 BKN095 26/07 A2993 RMK AO2 WSHFT 2001 LTG DSNT E-SW TSB32 SLP096 T02610072 55009

2010/08/09 20:53
KLWV 092053Z AUTO 21004KT 8SM FEW050 35/22 A2991 RMK AO2 SLP122 T03500217 58009

2010/08/09 20:53
KLXT 092053Z AUTO 18010KT 10SM CLR 35/24 A2988 RMK AO2 SLP105 T03500244 56014

2010/08/09 20:53
KMAE 092053Z AUTO 26007KT 10SM CLR 31/14 A2985 RMK AO2 SLP104 T03060139 56014

2010/08/09 20:53
KMAF 092053Z 16009KT 10SM FEW065 35/17 A2993 RMK AO2 SLP082 T03500172 58024

2010/08/09 20:53
KMAI 092053Z AUTO 05011KT 10SM CLR 37/21 A2992 RMK AO2 SLP129 T03670206 58015

2010/08/09 20:53
KMBS 092053Z 20005KT 10SM SCT007 BKN020 OVC043 24/23 A2992 RMK AO2 RAB1958E44 SLP128 P0010 60011 T02390228 58003

2010/08/09 20:53
KMCI 092053Z 21012KT 10SM BKN250 37/24 A2986 RMK AO2 SLP095 T03720239 56012

2010/08/09 20:53
KMCK 092053Z AUTO 06007KT 10SM FEW044 33/23 A2992 RMK AO2 SLP102 T03280233 58006

2010/08/09 20:53
KMCO 092053Z 10011KT 10SM SCT031TCU BKN075 BKN190 32/23 A2989 RMK AO2 SLP118 TCU SW-W T03220228 55009

2010/08/09 20:53
KMCW 092053Z AUTO 10005KT 10SM BKN030 BKN038 30/24 A2992 RMK AO2 SLP119 T03000239 58005

2010/08/09 20:53
KMEM 092053Z 19009KT 10SM FEW080 BKN150 OVC250 29/23 A2994 RMK AO2 TSE41 SLP132 T02940233 55006

2010/08/09 20:53
KMFR 092053Z 31004KT 10SM CLR 29/09 A2987 RMK AO2 SLP103 T02890094 56016

2010/08/09 20:53
KMGY 092053Z AUTO 00000KT 9SM FEW060 32/19 A2997 RMK AO2 SLP139 T03170189 57014

2010/08/09 20:53
KMHE 092053Z AUTO 12008KT 10SM SCT032 31/23 A2989 RMK AO2 SLP111 T03060233 58004 TSNO

2010/08/09 20:53
KMHT 092053Z 24008G15KT 10SM SCT060 32/16 A2987 RMK AO2 SLP122 T03170161 56013

2010/08/09 20:53
KMIA 092053Z 18004KT 10SM SCT022 SCT075 BKN130 BKN250 30/23 A2989 RMK AO2 SLP122 60000 T03000233 56016

2010/08/09 20:53
KMIC 092053Z 07006KT 10SM CLR 34/22 A2988 RMK AO2 SLP111 T03390217 58006

2010/08/09 20:53
KMIE 092053Z 00000KT 10SM CLR 32/21 A2996 RMK AO2 SLP132 T03170211 56011

2010/08/09 20:53
KMIW 092053Z AUTO 00000KT 10SM OVC042 30/24 A2988 RMK AO2 SLP108 T03000244 56006

2010/08/09 20:53
KMKL 092053Z 27008KT 10SM SCT035TCU 35/24 A2992 RMK AO2 SLP124 T03500244 58017

2010/08/09 20:53
KMKO 092053Z AUTO 18007KT 10SM FEW070 37/21 A2989 RMK AO2 SLP113 T03670206 58015

2010/08/09 20:53
KMLB 092053Z 11012KT 10SM FEW030 29/24 A2990 RMK AO2 SLP124 T02940239 56009

2010/08/09 20:52
KABI 092052Z 20007KT 10SM FEW070 36/18 A2992 RMK AO2 SLP098 T03560178 58022

2010/08/09 20:52
KP69 092052Z AUTO VRB06KT 28/14 A2979 RMK AO2 SLP065 T02830139 55010 PWINO TSNO

2010/08/09 20:52
KN60 092052Z AUTO 17006KT 32/18 A2984 RMK AO1 SLP093 T03220178 56010

2010/08/09 20:50
KSOW 092050Z AUTO 26009KT 10SM FEW065 FEW110 26/09 A3025 RMK AO2

2010/08/09 20:52
KSPS 092052Z 20011KT 10SM SCT080 SCT150 BKN250 39/18 A2985 RMK AO2 LTG DSNT E SLP090 P0003 60011 T03890178 58019

2010/08/09 20:52
KTOL 092052Z 00000KT 7SM FEW050 30/21 A2993 RMK AO2 SLP130 T03000206 58017

2010/08/09 20:52
KVTN 092052Z AUTO VRB03KT 10SM CLR 34/14 A2992 RMK AO2 SLP106 T03390144 58014

2010/08/09 20:52
KSDB 092052Z AUTO 19016G20KT 10SM CLR 27/M07 A3007 RMK AO2 SLP126 T02671067 53001 TSNO

2010/08/09 20:52
K9V9 092052Z AUTO 13011KT 31/23 A2989 RMK AO2 SLP106 T03060228 58010 PWINO TSNO

2010/08/09 20:53
KCLL 092053Z 18008KT 10SM FEW065 37/19 A2990 RMK AO2 SLP119 T03720194 58020

2010/08/09 20:53
KDMN 092053Z AUTO VRB04KT 10SM CLR 33/08 A3004 RMK AO2 SLP090 T03330083 58014

2010/08/09 20:53
KDRT 092053Z AUTO 15014G19KT 10SM FEW060 37/19 A2984 RMK AO2 SLP084 T03670189 58032

2010/08/09 20:51
KCAK 092051Z COR 26009KT 7SM SCT065 BKN130 BKN180 29/17 A3000 RMK AO2 SLP148 8/579 T02940172 56012

2010/08/09 20:53
KRMG 092053Z AUTO VRB06KT 10SM SCT065 36/19 A2996 RMK AO2 SLP133 T03610194 56015

2010/08/09 20:53
KTUS 092053Z 24008KT 10SM FEW090 34/13 A2995 RMK AO2 SLP086 T03440133 58015

2010/08/09 20:53
PHTO 092053Z VRB04KT 10SM FEW030 OVC060 26/18 A3012 RMK AO2 SLP197 T02610183 50003

2010/08/09 20:53
PHKO 092053Z 19013KT 10SM OVC055 27/19 A3004 RMK AO2 SLP173 6//// T02720189 51004

2010/08/09 20:53
PHLI 092053Z 07014KT 10SM SCT024 BKN030 OVC050 27/20 A3015 RMK AO2 SLP206 T02720200 50006

2010/08/09 20:53
KLND 092053Z AUTO 17013G20KT 10SM FEW110 30/04 A2996 RMK AO2 SLP068 T03000039 58022

2010/08/09 20:51
KSAN 092051Z VRB06KT 10SM FEW020 22/14 A2994 RMK AO2 SLP137 T02170139 58006

2010/08/09 20:53
K6R6 092053Z AUTO 10010KT 32/21 A2989 RMK AO2 SLP082 T03220206 58026 PWINO TSNO

2010/08/09 20:53
KBTR 092053Z 33005G14KT 2SM +TSRA BR FEW014 BKN039CB OVC050 24/24 A2997 RMK AO2 PK WND 06036/2027 WSHFT 2013 TSB20RAB28 SLP149 CONS LTGICCG TS AT AP MOVG SW P0012 60012 T02440239 53016

2010/08/09 20:53
KELY 092053Z AUTO 16007G17KT 10SM FEW110 26/M02 A3012 RMK AO2 SLP102 T02561017 56006

2010/08/09 20:53
KTRI 092053Z 35004KT 10SM SCT050 SCT060 SCT250 34/17 A3003 RMK AO2 SLP148 T03390172 56016

2010/08/09 20:53
KDAB 092053Z 09009G18KT 10SM FEW025 SCT250 30/23 A2992 RMK AO2 SLP131 TCU DSNT E SW T03000233 55006

2010/08/09 20:53
KCQC 092053Z AUTO 28010G14KT 10SM FEW080 26/08 A3020 RMK AO2 SLP119 T02560083 56013 TSNO

2010/08/09 20:53
KLAX 092053Z 27010KT 10SM FEW015 19/12 A2994 RMK AO2 SLP137 T01940122 58001 $

2010/08/09 20:53
KSDM 092053Z 29009G14KT 270V340 10SM CLR 22/13 A2993 RMK AO2 SLP131 T02220128 56004

2010/08/09 20:51
KVCT 092051Z 12012KT 10SM CLR 36/25 A2990 RMK AO2 SLP122 T03610250 56018

2010/08/09 20:53
KMGM 092053Z 19003KT 10SM SCT070 36/20 A2993 RMK AO2 SLP130 T03560200 58018

2010/08/09 20:53
KTYS 092053Z 28004KT 10SM FEW060 34/20 A2997 RMK AO2 SLP136 T03440200 56019

2010/08/09 20:53
KTUP 092053Z 14010KT 10SM CLR 33/25 A2994 RMK AO2 SLP132 T03280250 56013

2010/08/09 20:53
KBNO 092053Z AUTO 09004KT 10SM SCT090 26/06 A2992 RMK AO2 SLP095 T02610061 58013 TSNO

2010/08/09 20:53
KTCS 092053Z AUTO 00000KT 10SM CLR 32/09 A3006 RMK AO2 SLP091 T03170094 58017 TSNO

2010/08/09 20:53
KHTL 092053Z AUTO 26003KT 10SM CLR 27/22 A2991 RMK AO2 SLP121 60003 T02720222 58004

2010/08/09 20:53
KTLH 092053Z 03006KT 10SM FEW060 35/20 A2992 RMK AO2 SLP131 T03500200 56016

2010/08/09 20:53
KCHA 092053Z 18004KT 10SM FEW055 SCT095 SCT250 35/21 A2996 RMK AO2 SLP136 T03500206 56017 $

2010/08/09 20:53
KNUI 092053Z AUTO 16009KT 10SM CLR 31/17 A2999 RMK AO2 SLP153 T03110172 58008

2010/08/09 20:53
KP92 092053Z AUTO VRB05KT 33/27 A2993 RMK AO2 SLP134 T03280267 56016 PWINO TSNO

2010/08/09 20:53
KLMT 092053Z 33008KT 10SM FEW045 SCT100 SCT250 27/04 A2995 RMK AO2 SLP102 T02670039 56009

2010/08/09 20:53
KLNS 092053Z 24007G14KT 10SM CLR 33/19 A2996 RMK AO2 SLP142 T03280189 58012

2010/08/09 20:53
KLOU 092053Z 27005KT 10SM FEW065 36/20 A2993 RMK AO2 SLP128 T03560200 56016

2010/08/09 20:53
KLOZ 092053Z AUTO 09007KT 10SM BKN046 31/22 A3000 RMK AO2 SLP145 T03110222 56015

2010/08/09 20:53
KLPR 092053Z AUTO 25007KT 10SM CLR 31/19 A2997 RMK AO2 SLP143 T03110194 58009

2010/08/09 20:53
KLSE 092053Z VRB05KT 10SM CLR 32/23 A2989 RMK AO2 SLP108 T03220233 58008

2010/08/09 20:53
KLUK 092053Z 15007KT 8SM SCT070 33/21 A2995 RMK AO2 SLP136 T03280211 56014

2010/08/09 20:53
KMMK 092053Z AUTO 18013KT 8SM CLR 30/21 A2992 RMK AO2 SLP131 T03000211 56011

2010/08/09 20:53
KMMV 092053Z AUTO 00000KT 10SM SCT034 19/11 A3001 RMK AO2 SLP160 T01890111 58006

2010/08/09 20:53
KMNN 092053Z AUTO 24005KT 10SM FEW055 30/18 A2998 RMK AO2 SLP145 T03000183 58012

2010/08/09 20:53
KMSL 092053Z AUTO 18011KT 10SM FEW040 29/23 A2997 RMK AO2 LTG DSNT ALQDS TSB04E29 SLP143 T02890233 56002

2010/08/09 20:53
KMSO 092053Z 20008KT 10SM -RA SCT085 SCT110 23/13 A2985 RMK AO2 RAB15E27B49 SLP090 P0000 60000 T02330133 55015

2010/08/09 20:53
KMSP 092053Z 10008KT 10SM FEW070 34/18 A2989 RMK AO2 SLP114 T03440178 58005

2010/08/09 20:53
KMSS 092053Z AUTO 30005KT 10SM SCT040 26/21 A2989 RMK AO2 LTG DSNT SE-SW SLP120 T02610211 55009

2010/08/09 20:53
KMTH 092053Z AUTO 23008G17KT 10SM SCT020 BKN026 OVC032 28/23 A2989 RMK AO2 SLP120 T02780233 56013

2010/08/09 20:53
KMTJ 092053Z AUTO VRB04KT 10SM CLR 26/09 A3017 RMK AO2 SLP136 60000 T02610094 58011

2010/08/09 20:53
KMTO 092053Z AUTO 18007KT 10SM FEW055 33/24 A2992 RMK AO2 SLP123 T03330244 56006 $

2010/08/09 20:53
KMVY 092053Z 23012G19KT 10SM CLR 29/22 A2996 RMK AO2 SLP143 T02890217 56014

2010/08/09 20:53
KMWL 092053Z AUTO 16011G16KT 10SM SCT070 38/19 A2987 RMK AO2 SLP096 T03780189 58022

2010/08/09 20:53
KMYF 092053Z 25009G16KT 10SM CLR 23/14 A2992 RMK AO2 SLP129 T02280139 58006

2010/08/09 20:53
KMYV 092053Z AUTO 15007KT 10SM CLR 28/14 A2984 RMK AO2 SLP109 6//// T02830139 56014

2010/08/09 20:53
KODO 092053Z AUTO 13009G17KT 10SM FEW065 34/16 A2994 RMK AO2 SLP085 T03440161 58024

2010/08/09 20:53
KOGB 092053Z AUTO 10008KT 10SM CLR 33/20 A2999 RMK AO2 SLP153 T03330200 56010

2010/08/09 20:53
KOGD 092053Z AUTO 25008G16KT 10SM CLR 28/03 A3001 RMK AO2 SLP100 T02780033 56006

2010/08/09 20:53
KOJC 092053Z 19010G17KT 10SM CLR 36/23 A2987 RMK AO2 SLP098 T03610228 56013

2010/08/09 20:53
KOLF 092053Z AUTO 11005KT 10SM CLR 32/11 A2982 RMK AO2 SLP087 T03220106 58015 TSNO

2010/08/09 20:53
KOMK 092053Z AUTO 18008G19KT 10SM CLR 29/09 A2975 RMK AO2 SLP065 T02890089 58018

2010/08/09 20:53
KONO 092053Z AUTO VRB03KT 10SM CLR 30/11 A2981 RMK AO2 SLP075 T03000111 58020

2010/08/09 20:53
KONT 092053Z 27010KT 10SM CLR 29/08 A2990 RMK AO2 SLP112 T02890083 58007

2010/08/09 20:53
KOPF 092053Z 16007KT 10SM FEW028 SCT038 29/23 A2989 RMK AO2 SLP123 60000 T02940233 58012

2010/08/09 20:53
KORL 092053Z 10012G15KT 10SM SCT039 BKN070 32/23 A2989 RMK AO2 SLP123 60000 T03170233 55009

2010/08/09 20:53
KOSH 092053Z 00000KT 10SM CLR 30/22 A2989 RMK AO2 SLP106 T03000222 58002

2010/08/09 20:53
KOSU 092053Z 25006KT 10SM FEW050 31/19 A2998 RMK AO2 SLP144 T03110189 56014 $

2010/08/09 20:53
KOTM 092053Z AUTO 15004KT 10SM CLR 30/24 A2988 RMK AO2 SLP109 T03000244 56009

2010/08/09 20:53
KOVS 092053Z AUTO 33004KT 10SM CLR 33/23 A2989 RMK AO2 SLP118 T03330228 58010

2010/08/09 20:54
PHMK 092054Z 04014G26KT 10SM FEW030 29/16 A3010 RMK AO2 PK WND 04029/2035 SLP194 T02890156 51005

2010/08/09 20:55
KFAM 092055Z AUTO 20004KT 10SM CLR 35/24 A2993 RMK AO1 57014

2010/08/09 20:51
KFFZ 092051Z VRB06KT 50SM SCT150 38/10 A2985

2010/08/09 20:55
KFLP 092055Z AUTO 20005KT 9SM FEW050 36/24 A2991 RMK AO1 57017

2010/08/09 20:55
KFOD 092055Z AUTO 09004KT 10SM OVC030 28/26 A2990 RMK AO1 54000

2010/08/09 20:55
KFRM 092055Z 08008KT 10SM FEW027 29/24 A2993 RMK AO1 57007

2010/08/09 20:53
KHUF 092053Z 14006KT 10SM SCT044 34/23 A2993 RMK AO2 SLP128 T03390228 58009

2010/08/09 20:53
KHUL 092053Z AUTO 25005KT 10SM BKN095 25/17 A2983 RMK AO2 SLP101 T02500172 56011

2010/08/09 20:53
KHVN 092053Z 19009G17KT 9SM CLR 29/22 A2994 RMK AO2 SLP137 T02940217 56011

2010/08/09 20:53
KHWO 092053Z VRB03KT 10SM FEW040 30/22 A2990 RMK AO2 SLP125 60001 T03000222 56013

2010/08/09 20:53
KHYR 092053Z AUTO 00000KT 10SM CLR 31/20 A2993 RMK AO2 SLP128 T03110200 58001

2010/08/09 20:53
KHZY 092053Z AUTO 31003KT 8SM FEW090 28/20 A2998 RMK AO2 SLP145 T02830200 56011

2010/08/09 20:53
KICR 092053Z AUTO 13005KT 10SM CLR 33/19 A2990 RMK AO2 SLP103 T03330189 58012 TSNO

2010/08/09 20:53
KICT 092053Z 16012KT 10SM SCT070 SCT200 39/20 A2986 RMK AO2 PK WND 14026/2012 SLP090 TCU DSNT SW T03890200 58014

2010/08/09 20:53
KIDA 092053Z 24008KT 10SM SCT025 SCT050 BKN100 22/11 A3003 RMK AO2 RAE13 SLP132 P0001 60001 T02220106 58003

2010/08/09 20:53
KIML 092053Z AUTO VRB05KT 10SM CLR 32/20 A2996 RMK AO2 SLP106 T03220200 58012

2010/08/09 20:53
KIPL 092053Z AUTO 00000KT 10SM CLR 37/06 A2975 RMK AO2 SLP073 T03670061 58017

2010/08/09 20:53
KITR 092053Z AUTO VRB06KT 10SM FEW085 32/18 A2999 RMK AO2 SLP093 T03170178 58012

2010/08/09 20:53
KIWI 092053Z AUTO 18005KT 10SM CLR 28/20 A2988 RMK AO2 SLP119 T02830200 58011

2010/08/09 20:53
KEYE 092053Z AUTO 29003KT 10SM CLR 34/20 A2994 RMK AO2 SLP130 T03390200 56009

2010/08/09 20:53
KEYW 092053Z 30011KT 3SM -RA BR SCT013 SCT021 BKN031 26/24 A2989 RMK AO2 WSHFT 2002 SLP121 P0033 60033 T02560239 57011

2010/08/09 20:53
KFCM 092053Z 08005KT 10SM CLR 34/18 A2988 RMK AO2 SLP112 T03440178 58006

2010/08/09 20:53
KFDR 092053Z AUTO 18012KT 10SM 39/17 A2983 RMK AO2 WSHFT 2015 SLP079 T03940172 58017

2010/08/09 20:53
KFDY 092053Z AUTO 15005KT 7SM CLR 30/21 A2995 RMK AO2 SLP132 T03000211 56015

2010/08/09 20:53
KFFT 092053Z AUTO 28003KT 10SM CLR 34/19 A2996 RMK AO2 SLP135 T03440194 56014

2010/08/09 20:53
KFHR 092053Z AUTO 13003KT 5SM -RA BR SCT003 BKN015 BKN095 13/12 A2999 RMK AO2 SLP155 P0004 60006 T01330122 58000

2010/08/09 20:53
KFLD 092053Z AUTO 29004KT 10SM CLR 29/22 A2990 RMK AO2 SLP120 T02940222 58003

2010/08/09 20:53
KFLL 092053Z 15009KT 10SM FEW026 SCT060 28/24 A2988 RMK AO2 SLP119 T02830244 56012

2010/08/09 20:53
KFLO 092053Z 14005KT 10SM CLR 33/21 A2999 RMK AO2 SLP153 T03280211 56008

2010/08/09 20:53
KFMY 092053Z 17010G21KT 4SM TSRA BR FEW010 BKN026 BKN070 26/24 A2986 RMK AO2 LTG DSNT E-S TSB1959E14B16E31B43 SLP112 P0037 60049 T02560239 56001

2010/08/09 20:53
KFOE 092053Z 20010KT 10SM CLR 39/20 A2985 RMK AO2 SLP092 T03890200 58010

2010/08/09 20:53
KFOK 092053Z 21010G19KT 9SM CLR 27/20 A2998 RMK AO2 SLP152 T02670200 56013

2010/08/09 20:53
KFPR 092053Z 13015KT 10SM FEW025 31/24 A2989 RMK AO2 SLP122 T03060239 56012

2010/08/09 20:53
KFRG 092053Z AUTO 21014KT 10SM CLR 28/19 A2996 RMK AO2 SLP146 T02830189 57010

2010/08/09 20:53
KFSM 092053Z 28004KT 10SM SCT070 37/22 A2988 RMK AO2 SLP111 T03720222 58018

2010/08/09 20:53
KFTW 092053Z 17007G16KT 10SM FEW065 38/21 A2987 RMK AO2 SLP103 T03780206 58018

2010/08/09 20:53
KFUL 092053Z 22007KT 10SM CLR 23/13 A2991 RMK AO2 SLP127 T02330128 56004

2010/08/09 20:53
KFVE 092053Z AUTO 16003KT 8SM SCT075 BKN100 22/19 A2981 RMK AO2 SLP091 60052 T02220189 58009

2010/08/09 20:53
KFWN 092053Z AUTO 22005KT 9SM CLR 32/18 A2994 RMK AO2 SLP134 T03220183 58014

2010/08/09 20:53
KFXE 092053Z 14008KT 10SM SCT050 SCT080 30/23 A2988 RMK AO2 SLP121 60000 T03000228 56011

2010/08/09 20:53
KFYV 092053Z 19008KT 10SM BKN065 35/19 A2994 RMK AO2 SLP121 T03500194 58014

2010/08/09 20:53
KGAG 092053Z AUTO 19007G17KT 10SM VCTS FEW001 36/18 A2989 RMK AO2 TSB44 SLP084 T03610178 56010

2010/08/09 20:53
KGEY 092053Z AUTO 15005KT 10SM CLR 32/06 A2985 RMK AO2 SLP062 T03170056 58025

2010/08/09 20:53
KGEZ 092053Z AUTO 20003KT 10SM CLR 33/21 A2993 RMK AO2 SLP127 T03330206 56012

2010/08/09 20:53
KGFK 092053Z 21013G16KT 10SM FEW250 34/19 A2983 RMK AO2 SLP095 T03440194 58006

2010/08/09 20:53
KDLN 092053Z AUTO 15006KT 10SM FEW065 BKN090 22/06 A3000 RMK AO2 LTG DSNT E SLP112 60000 T02170061 58009

2010/08/09 20:53
KDLS 092053Z AUTO 33015G24KT 10SM CLR 26/05 A2983 RMK AO2 PK WND 32028/2042 SLP097 T02560050 56009

2010/08/09 20:53
KDMO 092053Z AUTO 20010KT 10SM CLR 36/24 A2990 RMK AO2 SLP112 T03610244 57011

2010/08/09 20:53
KDNL 092053Z AUTO 08008KT 10SM SCT060 34/19 A2999 RMK AO2 SLP148 T03440194 56013

2010/08/09 20:53
KDRO 092053Z AUTO 24009G17KT 10SM CLR 28/04 A3020 RMK AO2 SLP130 6//// T02780044 58010

2010/08/09 20:53
KDTN 092053Z VRB05KT 10SM CLR 37/21 A2989 RMK AO2 SLP117 T03670211 58021

2010/08/09 20:53
KDTO 092053Z 20009G18KT 10SM SCT065 37/21 A2987 RMK AO2 SLP103 T03720206 58018

2010/08/09 20:53
KDTW 092053Z 23006KT 7SM -RA FEW020 BKN060 OVC130 25/22 A2995 RMK AO2 RAB16 SLP140 P0001 60001 T02500217 58006

2010/08/09 20:53
KDVT 092053Z VRB04KT 10SM CLR 37/07 A2986 RMK AO2 SLP082 T03670072 58013

2010/08/09 20:53
KDXR 092053Z 20008G16KT 6SM HZ FEW065 32/20 A2994 RMK AO2 SLP134 T03170200 56016

2010/08/09 20:53
KECP 092053Z AUTO 06004KT 10SM FEW060 35/22 A2990 RMK AO2 SLP136 T03500217 58018 TSNO

2010/08/09 20:53
KEEO 092053Z AUTO 11003KT 10SM -RA BKN040 BKN055 OVC085 18/14 A3021 RMK AO2 RAB36 SLP165 P0001 60007 T01830139 58009 TSNO

2010/08/09 20:53
KELD 092053Z AUTO 00000KT 10SM CLR 37/19 A2989 RMK AO2 LTG DSNT NE SLP118 T03670189 58020

2010/08/09 20:53
KELM 092053Z AUTO 24008KT 10SM CLR 31/17 A2993 RMK AO2 SLP127 T03110167 56017

2010/08/09 20:53
KELN 092053Z AUTO 31022G31KT 10SM CLR 26/11 A2981 RMK AO2 PK WND 31031/2046 SLP084 T02560106 56009

2010/08/09 20:53
KENW 092053Z 28007KT 10SM SCT029 BKN034 30/23 A2991 RMK AO2 SLP122 T03000228 55005

2010/08/09 20:53
KEPH 092053Z AUTO 21013G16KT 10SM CLR 28/08 A2977 RMK AO2 SLP073 T02780083 58012

2010/08/09 20:53
KEWB 092053Z 22012G18KT 10SM CLR 29/20 A2993 RMK AO2 SLP134 T02940200 56013

2010/08/09 20:53
KCAG 092053Z AUTO 01009KT 10SM -RA SCT050 SCT090 19/12 A3021 RMK AO2 RAB34 SLP182 P0001 60001 T01890117 57006

2010/08/09 20:53
KCDC 092053Z AUTO 23009G17KT 10SM CLR 26/03 A3014 RMK AO2 SLP139 T02560033 58005

2010/08/09 20:53
KCDS 092053Z AUTO 21007KT 10SM CLR 34/19 A2990 RMK AO2 SLP093 T03440194 58016

2010/08/09 20:53
KCDW 092053Z 24005KT CLR 33/18 A2993 RMK AO2 SLP139 T03330178 56014 $

2010/08/09 20:53
KCEW 092053Z AUTO 06004KT 10SM FEW055 35/24 A2993 RMK AO2 LTG DSNT SW SLP130 T03500239 58019

2010/08/09 20:53
KCEZ 092053Z AUTO 25004KT 10SM CLR 28/06 A3018 RMK AO2 SLP137 T02780056 58008

2010/08/09 20:53
KCGI 092053Z 19006KT 10SM CLR 34/26 A2989 RMK AO2 SLP116 T03440261 56014

2010/08/09 20:53
KCKB 092053Z 26006KT 9SM CLR 31/18 A3002 RMK AO2 SLP150 T03110178 58008

2010/08/09 20:53
KCLM 092053Z AUTO 33004KT 9SM -RA SCT020 BKN095 13/12 A2999 RMK AO2 SLP154 P0000 60000 T01330122 58001

2010/08/09 20:53
KCMI 092053Z 17004KT 10SM CLR 33/26 A2992 RMK AO2 SLP125 T03330261 58008

2010/08/09 20:53
KCMX 092053Z AUTO 29010KT 10SM CLR 27/19 A2991 RMK AO2 SLP122 T02720189 53003

2010/08/09 20:53
KCNM 092053Z AUTO 09007KT 10SM FEW070 34/16 A2995 RMK AO2 SLP081 T03390161 58023

2010/08/09 20:53
KCNO 092053Z 28008KT 10SM CLR 29/10 A2991 RMK AO2 SLP122 T02940100 56008

2010/08/09 20:53
KCPR 092053Z 23023G29KT 10SM CLR 27/04 A3005 RMK AO2 PK WND 22029/2046 SLP110 T02720039 55002

2010/08/09 20:53
KCPS 092053Z 17003KT 10SM HZ CLR 33/26 A2989 RMK AO2 SLP117 T03330261 56008

2010/08/09 20:53
KCRE 092053Z 15007KT 10SM SCT040 29/25 A3000 RMK AO2 SLP161 T02890250 56007

2010/08/09 20:53
KCRG 092053Z 10009KT 10SM FEW021 SCT029 SCT039 31/24 A2994 RMK AO2 SLP137 60026 T03060244 58007

2010/08/09 20:53
KCRS 092053Z AUTO 15007KT 10SM FEW070 37/20 A2989 RMK AO2 SLP114 T03670200 58019

2010/08/09 20:53
KCSM 092053Z 20011G18KT 10SM CLR 39/14 A2989 RMK AO2 SLP090 T03940139 58015

2010/08/09 20:53
KCUB 092053Z AUTO VRB04KT 10SM CLR 35/21 A2999 RMK AO2 SLP153 T03500206 56009

2010/08/09 20:50
KCWA 092050Z 31006KT 10SM SCT043 31/22 A2992

2010/08/09 20:53
KGFL 092053Z AUTO 25008KT 10SM CLR 31/18 A2987 RMK AO2 LTG DSNT NE SLP112 T03110183 56015

2010/08/09 20:53
KGGG 092053Z AUTO 24005KT 10SM CLR 36/20 A2991 RMK AO2 SLP119 T03610200 58019

2010/08/09 20:53
KGGW 092053Z AUTO 22005KT 10SM CLR 31/09 A2983 RMK AO2 SLP086 T03110089 58015 TSNO

2010/08/09 20:53
KGIF 092053Z AUTO 08006KT 10SM FEW070 31/22 A2989 RMK AO2 SLP121 T03060222 56013 TSNO

2010/08/09 20:53
KGJT 092053Z VRB04KT 10SM SCT100 29/08 A3008 RMK AO2 SLP117 60000 T02890083 58016

2010/08/09 20:53
KGKJ 092053Z AUTO 23004KT 10SM FEW095 28/17 A3001 RMK AO2 SLP150 T02780167 58010

2010/08/09 20:53
KGKY 092053Z 17011G14KT 10SM CLR 37/21 A2988 RMK AO2 SLP108 T03670206 58019

2010/08/09 20:53
KGLD 092053Z AUTO 13010G16KT 10SM CLR 33/17 A2996 RMK AO2 SLP092 T03280172 58016

2010/08/09 20:53
KGLH 092053Z 35004KT 10SM CLR 38/23 A2989 RMK AO2 TSB35E50 SLP124 T03780228 56018

2010/08/09 20:53
KGLR 092053Z AUTO 19003KT 5SM HZ FEW019 OVC027 26/22 A2990 RMK AO2 SLP117 T02610222 55003

2010/08/09 20:53
KGMU 092053Z 10006KT 10SM FEW060 34/18 A3002 RMK AO2 SLP152 T03390183 56013

2010/08/09 20:53
KGNV 092053Z 08009G21KT 10SM -RA FEW036 SCT047 BKN055 32/24 A2991 RMK AO2 RAB47 SLP124 P0000 60000 T03170239 56008

2010/08/09 20:53
KGOK 092053Z AUTO 17012G17KT 10SM CLR 38/21 A2986 RMK AO2 SLP098 T03780206 58013

2010/08/09 20:53
KGRB 092053Z 22006KT 10SM SCT040 30/23 A2987 RMK AO2 SLP111 T03000233 58002

2010/08/09 20:53
KGRI 092053Z 03005KT 10SM CLR 33/22 A2989 RMK AO2 SLP102 T03280222 57008

2010/08/09 20:53
KGSH 092053Z AUTO 19007KT 6SM HZ SCT090 29/24 A2994 RMK AO2 RAE13 SLP133 P0000 60001 T02890239 58013

2010/08/09 20:53
KGTF 092053Z VRB04KT 10SM CLR 29/06 A2983 RMK AO2 SLP069 60000 T02940061 58022

2010/08/09 20:53
KGUY 092053Z AUTO 20014G19KT 10SM SCT095 38/12 A2989 RMK AO2 SLP061 T03830122 58015

2010/08/09 20:53
KGWO 092053Z AUTO 18010G16KT 9SM TS BKN042 OVC055 29/26 A2993 RMK AO2 LTG DSNT E AND SE TSB43 SLP132 T02940261 56003

2010/08/09 20:53
KGZH 092053Z AUTO 10005KT 10SM SCT048 SCT065 34/23 A2994 RMK AO2 SLP135 60001 T03440233 58020

2010/08/09 20:53
KHAO 092053Z AUTO VRB04KT 9SM FEW065 35/18 A2996 RMK AO2 SLP138 T03500183 56014

2010/08/09 20:53
KHBR 092053Z AUTO 24011G17KT 10SM CLR 39/15 A2987 RMK AO2 SLP089 T03940150 58015

2010/08/09 20:53
KHEI 092053Z AUTO 15014G23KT 10SM CLR 34/16 A2986 RMK AO2 SLP085 T03390156 58012

2010/08/09 20:53
KHFD 092053Z 18010KT 8SM FEW095 31/19 A2991 RMK AO2 SLP127 T03110194 55011

2010/08/09 20:53
KHHR 092053Z 23010G14KT 10SM CLR 21/13 A2994 RMK AO2 SLP136 T02110128 51000 $

2010/08/09 20:53
KHIB 092053Z AUTO 28005KT 10SM CLR 31/19 A2993 RMK AO2 SLP131 T03110189 50001

2010/08/09 20:53
KABR 092053Z AUTO 16009KT 10SM CLR 33/18 A2989 RMK AO2 SLP110 T03330183 58006

2010/08/09 20:53
KABY 092053Z 10009G15KT 10SM FEW065 35/19 A2996 RMK AO2 SLP143 T03500194 56011

2010/08/09 20:53
KACK 092053Z 21010KT 8SM SCT004 24/22 A2997 RMK AO2 SLP147 T02440222 56014

2010/08/09 20:53
KADG 092053Z AUTO 13005KT 9SM CLR 27/23 A2994 RMK AO2 RAB1956E29 SLP136 P0000 60000 T02670228 58017

2010/08/09 20:53
KAFW 092053Z 17007KT 10SM SCT070 38/20 A2987 RMK AO2 SLP095 T03830200 58019 $

2010/08/09 20:53
KAGC 092053Z 18006KT 10SM CLR 31/16 A2999 RMK AO2 SLP150 T03110161 58015

2010/08/09 20:53
KAIA 092053Z AUTO 28014KT 10SM CLR 32/11 A2997 RMK AO2 LTG DSNT NE SLP103 T03220111 58012 $

2010/08/09 20:53
KAKO 092053Z AUTO 15015G18KT 10SM FEW060 BKN095 29/14 A3004 RMK AO2 SLP106 T02940139 58014 TSNO

2010/08/09 20:53
KALW 092053Z 26010G15KT 10SM CLR 27/06 A2983 RMK AO2 SLP092 T02720061 57013

2010/08/09 20:53
KAMA 092053Z 18013G21KT 10SM SCT070 33/16 A2998 RMK AO2 SLP089 T03280156 58015

2010/08/09 20:53
KAMG 092053Z AUTO VRB05KT 10SM CLR 35/20 A2994 RMK AO2 SLP134 T03500200 56013

2010/08/09 20:53
KAMW 092053Z AUTO 12003KT 10SM OVC034 29/24 A2989 RMK AO2 SLP111 T02890239 56002

2010/08/09 20:53
KAOH 092053Z AUTO 20004KT 10SM CLR 31/21 A2997 RMK AO2 SLP140 T03060206 56013

2010/08/09 20:55
KSGU 092055Z AUTO 23005KT 10SM CLR 32/06 A2998 RMK AO1 57020

2010/08/09 20:54
KSJN 092054Z AUTO 15005KT 10SM CLR 27/08 A3017 RMK AO2 SLP128 T02720078 58012

2010/08/09 20:55
KSKX 092055Z AUTO 27006KT 10SM BKN090 27/08 A3019 RMK AO1 LTG DSNT NW

2010/08/09 20:55
KSLG 092055Z AUTO 18004KT 10SM FEW065 36/21 A2994 RMK AO1 57017

2010/08/09 20:55
KSMN 092055Z AUTO 10004KT 10SM CLR 21/11 A2999 RMK AO1 60002 54000

2010/08/09 20:55
KSQI 092055Z AUTO 16003KT 10SM FEW030 31/23 RMK AO1

2010/08/09 20:55
KSUE 092055Z AUTO 09005KT 10SM BKN029 BKN035 29/24 A2991 RMK AO1 54000

2010/08/09 20:53
KBAF 092053Z 24013KT 10SM CLR 34/16 A2990 RMK AO2 SLP121 T03390156 56015

2010/08/09 20:53
KBUR 092053Z 19009KT 10SM CLR 26/12 A2991 RMK AO2 SLP116 T02560117 58005

2010/08/09 20:53
KTOI 092053Z 04003KT 10SM CLR 35/21 A2995 RMK AO2 SLP136 T03500211 58016

2010/08/09 20:53
PHJR 092053Z 08007G16KT 10SM OVC050 29/16 A3011 RMK AO2 SLP204 T02890156 53004

2010/08/09 20:54
PAAP 092054Z 00000KT 3/4SM -DZ BR BKN000 OVC001 13/12 A3002 RMK -DZ BR BKN000 NO SPECI

2010/08/09 20:53
PAAQ 092053Z 13015G26KT 10SM OVC090 19/06 A2965 RMK AO2 PK WND 13026/2044 SLP035 T01890061 53002

2010/08/09 20:53
PABR 092053Z 06019KT 10SM OVC004 02/01 A2987 RMK AO2 PK WND 06026/2051 CIG 003V008 SLP114 60000 T00170011

2010/08/09 20:53
PACV 092053Z 12007KT 10SM FEW015 OVC033 14/11 A2985 RMK AO2 SLP108 60001 T01390106 51011

2010/08/09 20:53
PADE 092053Z AUTO 06013KT 10SM -RA CLR 14/12 A2938 RMK AO2 RAE24B46 SLP950 P0000 60002 T01390122 50000 TSNO

2010/08/09 20:53
PAEG 092053Z AUTO 11005KT 10SM SCT055 BKN090 19/11 A2959 RMK AO2 SLP020 T01940106 58006 TSNO

2010/08/09 20:53
PAEN 092053Z 27003KT 10SM OVC070 17/12 A2964 RMK AO2 SLP038 T01720122 51009

2010/08/09 20:50
PAFK 092050Z 15008KT 20SM SCT030 BKN060 OVC080 16/07 A2953 RMK EST PASS MGNL NOSPECI

2010/08/09 20:53
PAGK 092053Z 15019G30KT 10SM FEW060 SCT080 SCT100 SCT150 16/07 A2969 RMK AO2 PK WND 15031/2043 SLP052 T01610072 58004

2010/08/09 20:53
PAGY 092053Z AUTO 19017G23KT 10SM OVC070 16/09 A2993 RMK AO2 PK WND 21026/2006 SLP133 T01560094 58003 TSNO

2010/08/09 20:53
PAIL 092053Z 12006KT 10SM BKN038 OVC046 12/09 A2960 RMK AO2 SLP026 T01220094 53011

2010/08/09 20:53
PAKT 092053Z 13006KT 10SM FEW006 BKN017 OVC026 14/12 A3003 RMK AO2 SLP169 COND LWR VC E HARBOR WIND 11006KT T01440122 51004

2010/08/09 20:53
PAKV 092053Z AUTO 20004KT 3SM -RA BR BKN007 OVC014 12/12 A2949 RMK AO2 RAB01 SLP987 P0003 60009 T01220117 53005 TSNO

2010/08/09 20:53
PAKW 092053Z AUTO 23003KT 10SM FEW008 BKN023 OVC028 15/12 A3000 RMK AO2 SLP159 60000 T01500122 51006 TSNO

2010/08/09 20:53
PALH 092053Z 12008G17KT 10SM OVC070 19/09 A2964 RMK AO2 SLP038 T01890089 51004

2010/08/09 20:53
PAMR 092053Z 31005KT 10SM SCT050 OVC070 16/12 A2963 RMK AO2 SLP034 T01610117 52004

2010/08/09 20:53
PAPB 092053Z AUTO 21008KT 1/4SM FG VV001 08/08 A2932 RMK AO2 SLP916 T00830083 51015 TSNO

2010/08/09 20:53
PASC 092053Z 06020KT 10SM OVC005 06/03 A2973 RMK AO2 PK WND 05026/2037 SLP069 T00560033 56006

2010/08/09 20:53
PASI 092053Z 23004KT 10SM BKN008 OVC031 14/12 A2999 RMK AO2 SLP156 T01390117 53006

2010/08/09 20:53
PASO 092053Z AUTO 02010KT 10SM BKN021 OVC028 14/12 A2965 RMK AO2 SLP042 T01390117 53010 TSNO

2010/08/09 20:53
PATO 092053Z AUTO 12014G27KT 080V150 4SM -RA BR BKN023 OVC029 13/11 A2975 RMK AO2 PK WND 11035/2034 SLP075 P0003 60008 T01280106 53006 TSNO

2010/08/09 20:53
PAVL 092053Z AUTO 09007KT 8SM -RA BKN060 BKN075 18/09 A2945 RMK AO2 SLP973 P0000 60000 T01780094 56003 TSNO

2010/08/09 20:53
PAWD 092053Z AUTO A2972 RMK AO2 SLP066 52007 PWINO FZRANO TSNO $

2010/08/09 20:50
PHJH 092050Z 07017KT 15SM FEW040 29/17 A3011

2010/08/09 20:54
PGUM 092054Z 00000KT 10SM OVC055 26/24 A2992 RMK AO2 SLP125 T02560244 53008

2010/08/09 20:54
PGSN 092054Z 20003KT 9SM -RA FEW015 SCT055 SCT110 24/23 A2993 RMK AO2 SLP132 P0017 60039 T02390233 51007

2010/08/09 20:52
PGRO 092052Z 20002KT 7SM FEW018 BKN150 25/25 A2993 RMK OCNL LTGICCC DSNT NW

2010/08/09 20:50
LOWW 092050Z 17006KT 9999 FEW060 17/14 Q1017 NOSIG

2010/08/09 20:50
LOWL 092050Z VRB01KT CAVOK 17/14 Q1018 NOSIG

2010/08/09 20:50
LOWS 092050Z 15002KT CAVOK 16/13 Q1018 NOSIG

2010/08/09 20:50
LOWI 092050Z VRB01KT CAVOK 17/14 Q1018 NOSIG

2010/08/09 20:50
LOWG 092050Z 00000KT 9999 FEW050 19/17 Q1019 NOSIG

2010/08/09 20:50
LOWK 092050Z VRB02KT 9999 SCT062 17/15 Q1018 NOSIG

2010/08/09 20:54
CYKJ 092054Z AUTO 08003KT 5SM -RA SCT006 OVC010 16/15 A2980 RMK SLP107 DENSITY ALT 2300FT PCPN 1.2MM PAST HR

2010/08/09 20:53
CYKZ 092053Z 29006KT 5SM -SHRA BR FEW010 BKN030 OVC050 RETSRA RMK SF1SC6SC2 CU ASOCTD

2010/08/09 20:53
CYLD 092053Z 29002KT 15SM TS VCSH SCT025CB BKN035 RMK CB2CF2 WND L/V

2010/08/09 20:51
CYRV 092051Z AUTO 17004KT 9SM FEW027 BKN081 BKN095 19/16 A2982

2010/08/09 20:52
CYSJ 092052Z 23010G20KT 1/2SM R23/6000FT/D FG VV002 16/ RMK FG8

2010/08/09 20:52
CYTZ 092052Z AUTO 29018G27KT 2 1/4SM RA TS 22/21 A2993 RMK PRESRR SLP135 DENSITY ALT 1100FT PCPN 14.4MM PAST HR MAX WND 23029KT AT 2024Z VIS VRB 1 1/2-3 LTNG DIST ALQDS CLD MISG RVR MISG

2010/08/09 20:50
CYXC 092050Z 04005KT 20SM FEW050CB SCT085 BKN260 RETS RMK CB2AC2CI1 SH N

2010/08/09 20:52
EYVI 092052Z 12002KT 0800 R20/0600VP1500D FG NSC 15/15 Q1017 TEMPO 0600 FG

2010/08/09 20:54
KCBM 092054Z AUTO 07010KT 2 1/2SM TSRA BR OVC050 26/23 A2993 RMK AO2 PK WND 05032/2029 WSHFT 2012 RAB2028 TSB2010E2039B2054 SLP134 $

2010/08/09 20:49
KNQX 092049Z 31008KT 6SM -TSRA FEW002 BKN010CB BKN020 BKN140 26/24 A2989 RMK AO2 OCNL LTGICCC OHD TS OHD MOV S T1 SET P0009 $

2010/08/09 20:48
RJAH 092048Z 12003KT 9999 FEW020 SCT150 24/24 Q1015 RMK 1CU020 4AC150 A2998

2010/08/09 20:50
RJCJ 092050Z 19004KT 3000 BR SCT001 BKN002 BKN003 22/21 Q1014 RMK 3ST001 7ST002 7ST003 A2994

2010/08/09 20:49
RJSH 092049Z 27003KT 0800 R25/0550U FG FEW001 BKN002 22/22 Q1014 RMK 2ST001 6ST002 A2995 3000NE-E

2010/08/09 20:47
RJTJ 092047Z 30001KT 9999 BKN025 BKN050 BKN250 25/23 Q1015 RMK 5CU025 5SC050 A3000

2010/08/09 20:53
PAOR 092053Z VRB05KT 10SM FEW070 SCT095 BKN150 18/08 A2966 RMK AO2 RAB33E42 SLP042 ACSL DSNT SE W P0000 60000 T01830083 56007

2010/08/09 20:53
PAOT 092053Z 10012KT 10SM -RA BKN019 OVC022 14/12 A2944 RMK AO2 RAB25 SLP968 P0000 60000 T01440122 52004

2010/08/09 20:53
PAQT 092053Z AUTO 05016G23KT 3SM BR OVC004 05/04 A2976 RMK AO2 SLP078 T00500044 56012 TSNO

2010/08/09 20:53
PASN 092053Z 26012KT 7SM OVC003 10/10 A2928 RMK AO2 DZE13 SLP915 SUN VIS THRU OVC P0000 60000 T01000100 53017

2010/08/09 20:53
PATK 092053Z 00000KT 10SM -RA FEW050 OVC060 13/12 A2967 RMK AO2 RAB1954 SLP051 P0001 60002 T01280117 53003

2010/08/09 20:53
PAYA 092053Z 10006KT 10SM OVC013 14/11 A2993 RMK AO2 RAB41E51 SLP136 BAY TWR WND 110MMKT P0000 60000 T01440111 53001

2010/08/09 20:54
KROC 092054Z 28010KT 5SM -RA FEW009 SCT040 BKN055 OVC130 26/21 A2994 RMK AO2 RAB34 SLP136 P0001 60001 T02560211 55004

2010/08/09 20:54
KROA 092054Z 11008KT 10SM FEW080 32/20 A3003 RMK AO2 SLP156 T03170200 56012

2010/08/09 20:54
KMTP 092054Z AUTO 21008G15KT 26/21 A2997 RMK AO2 SLP149 T02560206 57013 PWINO TSNO

2010/08/09 20:54
KMQE 092054Z AUTO 22014G20KT 32/ A2992 RMK AO1 SLP137 T0317 56015 $

2010/08/09 20:54
KGSO 092054Z 19007KT 10SM SCT055 33/19 A3002 RMK AO2 SLP154 T03280189 56008

2010/08/09 20:54
KWAL 092054Z 19011KT 10SM BKN075 28/22 A3002 RMK AO2 SLP164 T02780217 56008

2010/08/09 20:54
KRIC 092054Z 21009KT 8SM SCT060 SCT250 33/19 A2998 RMK AO2 SLP156 T03330189 58008 $

2010/08/09 20:54
KNAK 092054Z AUTO 17013KT 8SM CLR 31/20 A2997 RMK AO2 SLP150 T03060200 56012 TSNO

2010/08/09 20:54
KAVP 092054Z 28010G21KT 10SM CLR 32/14 A2995 RMK AO2 SLP128 T03220144 58017 $

2010/08/09 20:54
KCAR 092054Z AUTO 24008KT 10SM CLR 24/17 A2982 RMK AO2 SLP097 60000 T02440172 56013

2010/08/09 20:54
K12N 092054Z AUTO VRB04KT 32/19 A2996 RMK AO2 SLP135 T03170194 58015 PWINO TSNO

2010/08/09 20:54
K1V4 092054Z AUTO 28/19 A2987 RMK AO2 SLP104 T02780189 58015 PWINO TSNO

2010/08/09 20:54
KDMH 092054Z AUTO 33/21 A2996 RMK AO2 SLP146 T03330206 58011 PWINO TSNO

2010/08/09 20:53
KMLC 092053Z AUTO 19007KT 10SM FEW075 38/18 A2990 RMK AO2 SLP113 T03780183 58015

2010/08/09 20:53
KMLP 092053Z AUTO VRB03KT 10SM CLR 18/04 A3001 RMK AO2 SLP070 T01780039 57002 TSNO

2010/08/09 20:53
KMLS 092053Z AUTO 08003KT 10SM CLR 33/08 A2982 RMK AO2 SLP072 T03330083 $

2010/08/09 20:53
KMLT 092053Z AUTO 00000KT 10SM CLR 26/17 A2987 RMK AO2 SLP117 T02610167 58015

2010/08/09 20:53
KOWD 092053Z 24012G17KT 10SM CLR 33/14 A2990 RMK AO2 SLP123 T03280144 56014

2010/08/09 20:53
KOXB 092053Z AUTO VRB05KT 9SM CLR 28/25 A3001 RMK AO2 SLP163 T02780250 56010

2010/08/09 20:53
KPAE 092053Z 26003KT 10SM OVC022 17/12 A3000 RMK AO2 SLP157 T01670122 51006

2010/08/09 20:53
KPAH 092053Z VRB04KT 10SM CLR 34/24 A2990 RMK AO2 SLP118 T03390244 56014

2010/08/09 20:53
KPBF 092053Z AUTO 00000KT 10SM CLR 37/23 A2991 RMK AO2 LTG DSNT NW SLP123 T03720228 57014

2010/08/09 20:53
KPBG 092053Z AUTO 05003KT 10SM VCTS SCT042 SCT085 26/21 A2987 RMK AO2 LTG DSNT SE AND SW TSE17B47 SLP114 60021 T02560211 56008

2010/08/09 20:53
KPBI 092053Z 15011KT 10SM SCT024TCU SCT075 SCT250 30/23 A2988 RMK AO2 SLP118 TCU E CB DSNT SE AND SW T03000233 56014

2010/08/09 20:53
KPDK 092053Z 12006KT 10SM BKN060 BKN080 34/19 A3000 RMK AO2 SLP136 T03440189 56014

2010/08/09 20:53
KPDT 092053Z 28008KT 10SM CLR 28/04 A2981 RMK AO2 SLP079 T02780044 58015

2010/08/09 20:53
KPEO 092053Z AUTO 00000KT 10SM FEW070 28/19 A2994 RMK AO2 SLP131 T02780194 56016

2010/08/09 20:53
KPGD 092053Z AUTO 09009KT 10SM SCT037 SCT049 BKN060 31/24 A2987 RMK AO2 RAE00 SLP114 P0000 60000 T03110239 56017 TSNO

2010/08/09 20:53
KPHD 092053Z AUTO 22004KT 10SM CLR 30/18 A3000 RMK AO2 SLP152 T03000178 58014

2010/08/09 20:53
KPIE 092053Z 30008KT 10SM BKN028 28/24 A2989 RMK AO2 LTG DSNT W TSB19E42 SLP121 60004 T02780239 56002

2010/08/09 20:53
KPIH 092053Z 23023G29KT 10SM FEW050 BKN060CB 22/09 A3004 RMK AO2 PK WND 22030/2040 TSB1957E28RAE17 SLP132 CB NE-E MOV NE P0008 60010 T02220089 56001

2010/08/09 20:53
KPIR 092053Z AUTO 11012KT 10SM CLR 33/19 A2986 RMK AO2 SLP095 T03280189 58014

2010/08/09 20:53
KPKB 092053Z 25003KT 8SM CLR 31/17 A3002 RMK AO2 SLP157 T03110167 56014

2010/08/09 20:53
KPKD 092053Z AUTO 23006KT 10SM CLR 32/18 A2992 RMK AO2 SLP126 T03220178 58005

2010/08/09 20:53
KPMD 092053Z 35006KT 10SM CLR 32/01 A2992 RMK AO2 SLP102 T03220011 58013

2010/08/09 20:53
KPMP 092053Z 15010KT 10SM CLR 29/24 A2989 RMK AO2 RAE02 SLP122 P0000 60013 T02890244 56013

2010/08/09 20:53
KPNC 092053Z AUTO 15012KT 10SM CLR 38/20 A2986 RMK AO2 SLP093 T03780200 58013

2010/08/09 20:53
KPNS 092053Z AUTO 17008KT 10SM CLR 32/24 A2992 RMK AO2 SLP134 T03220239 56020 TSNO

2010/08/09 20:53
KPOU 092053Z 23006KT 10SM CLR 33/18 A2990 RMK AO2 SLP120 T03280178 58018

2010/08/09 20:53
KPRC 092053Z 21010G17KT 10SM BKN100TCU 28/08 A3013 RMK AO2 SLP121 TCU ALQDS VIRGA DSNT NE T02830078 58005

2010/08/09 20:53
KPSC 092053Z 25013KT 10SM CLR 31/06 A2977 RMK AO2 SLP078 T03060061 58018

2010/08/09 20:53
KPSP 092053Z 10006G14KT 10SM CLR 38/01 A2978 RMK AO2 SLP078 T03830011 58013

2010/08/09 20:53
KSLN 092053Z 18016G21KT 10SM CLR 39/18 A2983 RMK AO2 PK WND 19031/2043 SLP081 T03890178 56009

2010/08/09 20:53
KSMQ 092053Z AUTO VRB05KT 10SM FEW070 33/18 A2991 RMK AO2 SLP128 T03330183 56016

2010/08/09 20:53
KSNA 092053Z 21007KT 10SM FEW085 24/13 A2992 RMK AO2 SLP132 T02390128 56004

2010/08/09 20:53
KSNY 092053Z AUTO 19012G19KT 10SM CLR 35/11 A3001 RMK AO2 SLP097 T03500106 58015

2010/08/09 20:53
KSPB 092053Z AUTO 00000KT 10SM OVC025 17/12 A3000 RMK AO2 SLP160 T01720117 53000

2010/08/09 20:53
KSPG 092053Z 35006KT 10SM SCT055 31/24 A2986 RMK AO2 RAB1957E13 SLP112 P0000 60000 T03060244 56012

2010/08/09 20:53
KSPW 092053Z AUTO 09008KT 10SM OVC021 27/23 A2992 RMK AO2 SLP122 T02720233 58001

2010/08/09 20:53
KSRQ 092053Z AUTO 04004KT 10SM CLR 33/23 A2985 RMK AO2 SLP107 T03280233 56014 TSNO

2010/08/09 20:53
KSSI 092053Z AUTO 10010KT 10SM BKN090 29/24 A2996 RMK AO2 SLP146 60000 T02890244 58003

2010/08/09 20:55
KGAD 092055Z AUTO 20005KT 10SM CLR 36/21 A2996 RMK AO1 57017

2010/08/09 20:55
KGAI 092055Z 16007KT 10SM SCT050 BKN065 33/21 A3000 RMK AO1 57010

2010/08/09 20:55
KGBD 092055Z AUTO 19017G25KT 10SM FEW080 39/18 A2986 RMK AO1 57010

2010/08/09 20:54
KGCK 092054Z 16012G20KT 10SM CLR 38/14 A2989 RMK AO2 SLP076 T03780139 58016 TSNO

2010/08/09 20:54
KGCN 092054Z 20008G20KT 10SM CLR 24/03 A3024 RMK AO2 SLP152 T02440028 58006

2010/08/09 20:55
KHEF 092055Z AUTO 16009KT 10SM 32/22 A2997 RMK AO1 57010

2010/08/09 20:55
KHEZ 092055Z AUTO 07017G21KT 7SM TS FEW047 SCT060 32/24 A2994 RMK AO1 LTG DSNT W TSE06B08 57014

2010/08/09 20:55
KHNB 092055Z AUTO 18003KT 10SM CLR 36/20 A2992 RMK AO1 57014

2010/08/09 20:51
KHSA 092051Z 24005KT 5SM BR SCT050 SCT070 27/27 A2992

2010/08/09 20:54
KHWD 092054Z 29012KT 10SM CLR 21/12 A2991 RMK AO2 SLP135 T02110122 58008

2010/08/09 20:55
KHYS 092055Z AUTO 16013G19KT 10SM FEW090 39/17 A2986 RMK AO1 57010

2010/08/09 20:54
KIMT 092054Z AUTO 34007KT 10SM CLR 31/19 A2989 RMK AO2 SLP112 T03110189 50001

2010/08/09 20:54
KINT 092054Z 18006KT 10SM FEW095 32/19 A3003 RMK AO2 SLP156 T03220189 56009

2010/08/09 20:54
KISW 092054Z AUTO 32008KT 10SM CLR 32/22 A2992 RMK AO2 SLP123 T03220217 58006 TSNO

2010/08/09 20:47
KIWA 092047Z 25008KT 45SM SCT120 SCT200 39/09 A2987

2010/08/09 20:55
KIWD 092055Z AUTO 35007KT 10SM CLR 29/19 A2990 RMK AO1 54000

2010/08/09 20:55
KKLS 092055Z AUTO 28004KT 10SM OVC031 18/12 A3000 RMK AO1 54000

2010/08/09 20:54
KLAF 092054Z 00000KT 9SM BKN035 33/25 A2992 RMK AO2 SLP126 T03280250 58007

2010/08/09 20:53
KLAL 092053Z 11007KT 15SM VCSH SCT040 BKN120 BKN250 32/22 A2987

2010/08/09 20:55
KLBL 092055Z 19012G18KT 10SM FEW095 39/14 A2990 RMK AO1 57020

2010/08/09 20:54
KLBT 092054Z AUTO 15005KT 10SM CLR 34/19 A2998 RMK AO2 SLP150 T03390194 58011

2010/08/09 20:55
KLGD 092055Z AUTO 00000KT 10SM SCT090 28/07 A2982 RMK AO1 57017

2010/08/09 20:54
KLNK 092054Z VRB03KT 10SM CLR 34/25 A2985 RMK AO2 SLP092 T03440250 58003

2010/08/09 20:55
KLPC 092055Z AUTO 28012G17KT 10SM CLR 19/12 A2995 RMK AO1 54000 PNO

2010/08/09 20:54
KLWT 092054Z AUTO VRB06KT 10SM CLR 28/08 A2988 RMK AO2 SLP080 T02830078 58018

2010/08/09 20:55
KMBL 092055Z AUTO 28010KT 10SM SCT031 27/21 A2991 RMK AO1 54000

2010/08/09 20:54
KMFI 092054Z AUTO 29006KT 10SM CLR 31/22 A2992 RMK AO2 SLP123 T03060222 58003

2010/08/09 20:54
KMKC 092054Z 17012KT 10SM CLR 37/24 A2984 RMK AO2 SLP094 T03670244 56013

2010/08/09 20:55
KMKT 092055Z AUTO 09004KT 10SM SCT031 31/23 A2990 RMK AO1 57007

2010/08/09 20:54
KTQE 092054Z AUTO 36004KT 10SM BKN023 30/26 A2986 RMK AO2 SLP096 T03000256 51001

2010/08/09 20:55
KTVF 092055Z AUTO 21010G18KT 10SM CLR 33/18 A2987 RMK AO1 54000

2010/08/09 20:54
KUIN 092054Z AUTO 16007KT 9SM CLR 33/27 A2988 RMK AO2 SLP107 T03330267 56013

2010/08/09 20:54
KUZA 092054Z AUTO 17005KT 7SM FEW065 32/21 A3002 RMK AO2 SLP149 T03220211 56009

2010/08/09 20:55
KVBT 092055Z AUTO 23008KT 170V240 10SM CLR 37/21 A2993 RMK AO1 57014

2010/08/09 20:55
KVIS 092055Z AUTO 26006KT 10SM CLR 30/13 A2985 RMK AO1 57014

2010/08/09 20:54
KWLD 092054Z AUTO 15010G19KT 10SM CLR 38/22 A2988 RMK AO2 SLP100 T03780217 58014

2010/08/09 20:55
KYKN 092055Z AUTO 08008KT 10SM OVC022 28/24 A2989 RMK AO1 57003

2010/08/09 20:54
KAAO 092054Z AUTO 15015G19KT 10SM SCT070 38/19 A2986 RMK AO2 SLP092 T03830189 58013

2010/08/09 20:55
KAIZ 092055Z AUTO 12004KT 10SM CLR 36/24 A2990 RMK AO1 57014

2010/08/09 20:54
KALO 092054Z AUTO 07008KT 10SM CLR 30/24 A2989 RMK AO2 SLP113 T03000244 57007

2010/08/09 20:54
KAPC 092054Z 21010KT 10SM CLR 20/12 A2990 RMK AO2 SLP116 T02000122 58012 $

2010/08/09 20:55
KARG 092055Z AUTO 17008KT 10SM CLR 36/24 A2988 RMK AO1 LTG DSNT N 57017

2010/08/09 20:55
KAUO 092055Z AUTO 10006KT 10SM SCT110 35/19 A2996 RMK AO1 57017

2010/08/09 20:54
KAUW 092054Z AUTO 31008KT 10SM CLR 33/18 A2990 RMK AO2 SLP118 T03280178 58001

2010/08/09 20:54
KAVL 092054Z 14009KT 10SM FEW050 SCT065 SCT090 28/20 A3009 RMK AO2 SLP160 T02830200 55009

2010/08/09 20:55
KAWO 092055Z AUTO 33003KT 10SM 16/13 A3000 RMK AO1 52003

2010/08/09 20:54
KBFL 092054Z 32009KT 10SM CLR 32/13 A2983 RMK AO2 SLP096 T03170128 58014

2010/08/09 20:55
KBKX 092055Z AUTO 08011G14KT 10SM CLR 30/19 A2994 RMK AO1 57003

2010/08/09 20:54
KBUY 092054Z AUTO 14005KT 10SM CLR 32/21 A3001 RMK AO2 SLP154 T03220211 55008

2010/08/09 20:55
KBVX 092055Z AUTO 14007KT 10SM VCTS CLR 36/24 A2991 RMK AO1 LTG DSNT ALQDS TSB52 57017

2010/08/09 20:54
KBWI 092054Z 14007G14KT 8SM SCT055 SCT250 31/21 A2996 RMK AO2 SLP143 T03110211 56009

2010/08/09 20:55
KCGZ 092055Z AUTO 19003KT 10SM CLR 38/11 A2987 RMK AO1 57014

2010/08/09 20:47
KCHD 092047Z VRB05KT 40SM FEW150 38/08 A2984

2010/08/09 20:55
KCIU 092055Z AUTO 21006KT 10SM FEW037 SCT044 27/19 A2990 RMK AO1 54000

2010/08/09 20:55
KCOE 092055Z AUTO 00000KT 10SM BKN060 OVC080 26/11 A2984 RMK AO1 57014

2010/08/09 20:55
KCVN 092055Z 19011KT 10SM FEW065 FEW100 31/13 A3005 RMK AO1 LTG DSNT S

2010/08/09 20:55
KCVO 092055Z AUTO 31007G15KT 10SM CLR 20/10 A3001 RMK AO1 57003

2010/08/09 20:55
KCWI 092055Z 00000KT 10SM FEW024 29/24 A2994 RMK AO1 52003

2010/08/09 20:54
KDEC 092054Z 25003KT 10SM FEW049 35/24 A2991 RMK AO2 SLP121 T03500239 56008

2010/08/09 20:55
KDYR 092055Z AUTO 23003KT 10SM CLR 36/23 A2990 RMK AO1 57020

2010/08/09 20:55
KEHR 092055Z AUTO 35003KT 10SM CLR 36/22 A2990 RMK AO1 57020

2010/08/09 20:55
KENV 092055Z AUTO 06009KT 10SM CLR 26/08 A3000 RMK AO1 60005 57007

2010/08/09 20:55
KESC 092055Z AUTO 18006KT 10SM VCTS SCT060 SCT085 28/22 A2988 RMK AO1 LTG DSNT E TSB46 52003

2010/08/09 20:54
KEUG 092054Z 00000KT 10SM BKN019 BKN150 18/12 A3000 RMK AO2 SLP159 T01830122 58003

2010/08/09 20:55
KEUL 092055Z AUTO 06003KT 10SM CLR 29/11 A2984 RMK AO1 57020

2010/08/09 20:55
KEWK 092055Z AUTO 17014G17KT 10SM FEW080 38/19 A2985 RMK AO1 57010

2010/08/09 20:54
KEWN 092054Z 13005KT 10SM FEW034 31/23 A3001 RMK AO2 SLP162 T03110233 56009

2010/08/09 20:55
KMML 092055Z AUTO 09008KT 10SM CLR 30/21 A2992 RMK AO1 57003

2010/08/09 20:55
KMNM 092055Z AUTO 18003KT 6SM FEW017 SCT034 BKN045 26/22 A2986 RMK AO1 P0021 60021 57007

2010/08/09 20:54
KMOT 092054Z 19003KT 10SM CLR 34/14 A2983 RMK AO2 SLP089 T03390139 56009

2010/08/09 20:55
KMRF 092055Z AUTO 03012KT 10SM FEW060 FEW070 OVC120 A3010 RMK AO1 LTG DSNT ALQDS TSE16 60030

2010/08/09 20:54
KMRY 092054Z 23007KT 200V260 10SM OVC015 17/11 A2995 RMK AO2 SLP154 T01720111 57003

2010/08/09 20:55
KMTW 092055Z 23006KT 10SM CLR 29/22 A2988 RMK AO1 57003

2010/08/09 20:55
KMVN 092055Z AUTO 00000KT 10SM CLR 37/22 A2990 RMK AO1 57014

2010/08/09 20:54
KOFP 092054Z AUTO 24008KT 10SM FEW070 35/17 A3000 RMK AO2 SLP155 T03500167 58008

2010/08/09 20:54
KOLM 092054Z 00000KT 10SM OVC019 17/13 A3001 RMK AO2 SLP161 T01720128 53005

2010/08/09 20:54
KOLS 092054Z AUTO VRB04KT 10SM FEW075 32/13 A3004 RMK AO2 SLP097 T03220128 58010

2010/08/09 20:55
KOLU 092055Z AUTO 10SM FEW120 33/24 A2987 RMK AO1 57003

2010/08/09 20:55
KOTG 092055Z AUTO 05009G15KT 10SM CLR 29/22 A2994 RMK AO1 57007

2010/08/09 20:55
KOTH 092055Z 35015G19KT 10SM OVC020 16/11 A3006 RMK AO1 52003

2010/08/09 20:54
KPHF 092054Z 09009KT 10SM CLR 31/17 A3001 RMK AO2 SLP161 T03110172 58005

2010/08/09 20:55
KPIB 092055Z AUTO 07006KT 10SM CLR 34/23 A2994 RMK AO1 57020

2010/08/09 20:54
KPLN 092054Z AUTO 01005KT 8SM FEW033 SCT055 SCT075 28/22 A2988 RMK AO2 SLP115 T02830222 50000

2010/08/09 20:55
KPTN 092055Z AUTO 19007KT 10SM VCTS BKN043 BKN050 33/18 A2996 RMK AO1 LTG DSNT NE TSB55 57017

2010/08/09 20:55
KPTV 092055Z AUTO 33004KT 10SM CLR 31/15 A2987 RMK AO1 57010

2010/08/09 20:55
KPWT 092055Z AUTO 22006KT 10SM OVC025 18/12 A3002 RMK AO1 52007

2010/08/09 20:54
KRBL 092054Z AUTO 17007G15KT 10SM CLR 30/13 A2984 RMK AO2 SLP101 T03000128 56011

2010/08/09 20:54
KRKS 092054Z AUTO 20024G30KT 10SM CLR 26/M03 A3013 RMK AO2 PK WND 21037/2026 SLP113 T02611028 56011

2010/08/09 20:54
KRST 092054Z 00000KT 10SM FEW034 31/23 A2993 RMK AO2 SLP126 T03110228 57008

2010/08/09 20:54
KSBY 092054Z 17010KT 10SM CLR 31/18 A3000 RMK AO2 SLP161 T03110183 56007

2010/08/09 20:54
KSET 092054Z AUTO VRB04KT 10SM CLR 36/24 A2988 RMK AO2 SLP111 T03560244 56008

2010/08/09 20:55
KSGT 092055Z 15004KT CLR 37/23 A2990 RMK AO1 57017

2010/08/09 20:50
ENSG 092050Z VRB04KT 9999 -SHRA FEW/// FEW005 BKN050 14/12 Q1010

2010/08/09 20:50
ENBN 092050Z 30004KT 9999 FEW004 SCT005 BKN006 12/11 Q1010

2010/08/09 20:50
ENBV 092050Z 06008KT 9999 BKN007 08/07 Q1016

2010/08/09 20:50
ENHF 092050Z 05006KT 9999 FEW039 09/07 Q1014 

2010/08/09 20:50
EBAW 092050Z 15005KT 9999 FEW015 17/12 Q1015 NOSIG

2010/08/09 20:50
EBBR 092050Z 17004KT CAVOK 17/12 Q1015 NOSIG

2010/08/09 20:50
EBCI 092050Z 19003KT CAVOK 18/11 Q1016 NOSIG

2010/08/09 20:50
EBLG 092050Z 14005KT CAVOK 19/11 Q1016 NOSIG

2010/08/09 20:50
EBOS 092050Z 24007KT CAVOK 14/10 Q1015 NOSIG

2010/08/09 20:50
ELLX 092050Z 00000KT CAVOK 19/12 Q1017 NOSIG

2010/08/09 21:00
SBCR 092100Z 22007KT CAVOK 27/05 Q1014

2010/08/09 20:50
BGSF 092050Z 07009KT 9999 BKN042 14/05 Q1008

2010/08/09 20:50
BGBW 092050Z AUTO 05002KT 8000NDV RA FEW003/// BKN006/// OVC022/// 10/09 Q1008

2010/08/09 20:50
BGGH 092050Z 20006KT 9999 BKN020 BKN060 10/08 Q1008 RMK 6ST 7AS 

2010/08/09 20:50
BGJN 092050Z 14010KT 9999 FEW029 BKN110 13/04 Q1008 RMK 2SC 6AC 

2010/08/09 20:50
BGSS 092050Z AUTO 27014KT 9999NDV NCD 11/09 Q1008

2010/08/09 20:50
BGAA 092050Z AUTO 24005KT 210V280 9999NDV OVC100/// 10/07 Q1008

2010/08/09 20:50
BGUK 092050Z AUTO 34010KT 0400NDV -RA NCD 05/05 Q1009

2010/08/09 20:50
BGQQ 092050Z AUTO 28009KT 9999NDV NCD 05/03 Q1012

2010/08/09 20:50
BGPT 092050Z AUTO 18006KT 140V220 //// BKN004/// BKN046/// 09/08 Q1007

2010/08/09 20:50
ENEK 092050Z 18017KT 9999 BKN030 16/13 Q1009 W16/S3

2010/08/09 20:50
ENGC 092050Z 14007KT 9999 BKN030 13/10 Q1010

2010/08/09 20:50
ENHE 092050Z 04020KT 9999 BKN013 10/08 Q1012

2010/08/09 20:50
ENOA 092050Z 16012KT 9999 SCT030 13/09 Q1010

2010/08/09 20:50
OAKN 092050Z 00000KT 9000 DU FEW150 32/M01 Q1005 BLU NOSIG RMK A2969 DA6200

2010/08/09 21:00
OPPS 092100Z NW-06KTS 4000 BR FEW040 BKN100 28/27 Q1002.7

2010/08/09 20:52
CYSJ 092052Z 23010G20KT 1/2SM R23/6000FT/D FG VV002 16/ RMK FG8

2010/08/09 20:51
KSAD 092051Z AUTO VRB05KT 10SM CLR 35/11 A2996 RMK AO2 SLP084 T03500111 58016 TSNO 

2010/08/09 20:54
KFWA 092054Z 20006KT 9SM FEW048 BKN140 BKN250 30/23 A2995 RMK AO2 SLP137 T03000233 56013 

2010/08/09 20:54
KCOU 092054Z 18005KT 10SM FEW090 33/26 A2991 RMK AO2 SLP117 T03280256 57008 

2010/08/09 20:54
KACY 092054Z 17012KT 10SM CLR 31/17 A3000 RMK AO2 SLP156 T03060172 56010 

2010/08/09 20:50
EDVK 092050Z 19004KT CAVOK 13/11 Q1017

2010/08/09 20:50
EDXW 092050Z AUTO 19006KT 9999NDV NCD 14/11 Q1015

2010/08/09 20:50
EDLP 092050Z 15004KT 110V180 CAVOK 15/13 Q1017

2010/08/09 20:50
EDQM 092050Z AUTO VRB01KT 9999NDV NCD 12/11 Q1018

2010/08/09 20:50
EDDF 092050Z 07001KT CAVOK 17/13 Q1016 NOSIG

2010/08/09 20:50
EDDH 092050Z 31001KT CAVOK 16/15 Q1016 NOSIG

2010/08/09 20:50
EDDK 092050Z 12004KT CAVOK 16/13 Q1016 NOSIG

2010/08/09 20:50
EDDL 092050Z VRB02KT CAVOK 16/13 Q1016 NOSIG

2010/08/09 20:50
EDDM 092050Z 08004KT CAVOK 16/14 Q1018 NOSIG

2010/08/09 20:50
EDDN 092050Z VRB01KT 9999 MIFG NSC 15/13 Q1017

2010/08/09 20:50
EDDS 092050Z VRB03KT CAVOK 17/12 Q1018

2010/08/09 20:50
EDDW 092050Z 17004KT 9999 FEW025 BKN080 16/13 Q1016 NOSIG

2010/08/09 20:50
EKAH 092050Z AUTO 25005KT 220V280 9999NDV OVC043/// 16/11 Q1015

2010/08/09 20:50
EKCH 092050Z 29004KT 9999 BKN045 16/11 Q1015 NOSIG

2010/08/09 20:50
EKEB 092050Z AUTO 17005KT 9999NDV NCD 13/11 Q1015

2010/08/09 20:50
EKKA 092050Z 19005KT 9999 FEW030 SCT250 13/11 Q1014

2010/08/09 20:50
EKRK 092050Z AUTO 21002KT 9999NDV SCT044/// 14/11 Q1015

2010/08/09 20:50
EKRN 092050Z AUTO 26004KT 9999NDV NCD 17/15 Q1016

2010/08/09 20:50
EKSB 092050Z 23003KT 9999 FEW041 13/10 Q1015

2010/08/09 20:50
EKSP 092050Z VRB03KT CAVOK 12/10 Q1016 RMK FEW055 SCT250

2010/08/09 20:50
EKVD 092050Z AUTO 19005KT //// ///////// 13/11 Q1015

2010/08/09 20:50
EKYT 092050Z 26008KT 9999 FEW018 BKN035 16/13 Q1013

2010/08/09 20:50
EETN 092050Z 19008KT 9999 FEW022 BKN061 19/16 Q1012 NOSIG

2010/08/09 20:50
EFHF 092050Z AUTO 18011KT 140V210 9999 FEW024 SCT037 BKN065 20/17 Q1011

2010/08/09 20:50
EFHK 092050Z 17012KT 9999 -RA FEW017 BKN030 BKN060 20/16 Q1011 NOSIG

2010/08/09 20:50
EFJY 092050Z AUTO 16005KT 9999 SCT037 18/16 Q1010

2010/08/09 20:50
EFKK 092050Z 34002KT 2500 BR OVC003 17/17 Q1008

2010/08/09 20:50
EFKU 092050Z AUTO 20006KT CAVOK 19/15 Q1011

2010/08/09 20:50
EFMA 092050Z AUTO 19006KT 150V220 9999 FEW008 SCT029 BKN034 BKN039 18/17 Q1008

2010/08/09 20:50
EFOU 092050Z 00000KT 9999 BKN013 BKN200 18/17 Q1008

2010/08/09 20:50
EFPO 092050Z AUTO 18006KT 150V230 2400 +SHRA SCT007 BKN012 BKN042 18/17 Q1008

2010/08/09 20:50
EFRO 092050Z AUTO 35010KT 9000NDV FEW003 BKN005 BKN009 12/12 Q1009

2010/08/09 20:50
EFTP 092050Z 15006KT 120V210 9999 SCT010 BKN020 OVC030 18/17 Q1009

2010/08/09 20:50
EFTU 092050Z AUTO 22006KT 190V250 9999 -RA SCT008 BKN010 OVC013 18/17 Q1008

2010/08/09 20:50
EFVA 092050Z 16001KT 6000 SCT034 BKN055 18/18 Q1008

2010/08/09 20:50
ENCN 092050Z 23007KT 190V260 CAVOK 15/10 Q1011

2010/08/09 20:50
ENHD 092050Z AUTO 14006KT 9999NDV NCD 10/08 Q1011

2010/08/09 20:50
ENKR 092050Z 04009KT 9999 -RA OVC005 09/08 Q1014 REDZ

2010/08/09 20:50
ENSB 092050Z 27022KT 9999 FEW007 SCT010 BKN020 06/04 Q1001

2010/08/09 20:50
ENTC 092050Z 02012KT 9999 SCT018 BKN026 10/07 Q1013

2010/08/09 20:50
EVRA 092050Z 16004KT CAVOK 17/15 Q1015 NOSIG

2010/08/09 20:50
EYVI 092050Z 12003KT 1500 BR PRFG NSC 16/16 Q1017 TEMPO 0600 FG

2010/08/09 20:50
LXGB 092050Z 08005KT CAVOK 25/22 Q1015

2010/08/09 20:50
ENEK 092050Z 18017KT 9999 BKN030 16/13 Q1009 W16/S3

2010/08/09 20:50
ENGC 092050Z 14007KT 9999 BKN030 13/10 Q1010

2010/08/09 20:50
ENHE 092050Z 04020KT 9999 BKN013 10/08 Q1012

2010/08/09 20:50
ENOA 092050Z 16012KT 9999 SCT030 13/09 Q1010

2010/08/09 20:50
EBAW 092050Z 15005KT 9999 FEW015 17/12 Q1015 NOSIG

2010/08/09 20:50
EBBR 092050Z 17004KT CAVOK 17/12 Q1015 NOSIG

2010/08/09 20:50
EBCI 092050Z 19003KT CAVOK 18/11 Q1016 NOSIG

2010/08/09 20:50
EBLG 092050Z 14005KT CAVOK 19/11 Q1016 NOSIG

2010/08/09 20:50
EBOS 092050Z 24007KT CAVOK 14/10 Q1015 NOSIG

2010/08/09 20:50
ELLX 092050Z 00000KT CAVOK 19/12 Q1017 NOSIG

2010/08/09 20:50
ENRM 092050Z 02005KT 320V060 9999 BKN005 12/11 Q1011

2010/08/09 20:50
ENVD 092050Z 05015KT 9999 VV005 08/07 Q1014

2010/08/09 20:50
EFJO 092050Z AUTO 21007KT 180V250 CAVOK 22/15 Q1011

2010/08/09 20:50
EFLP 092050Z AUTO 18002KT CAVOK 19/16 Q1013

2010/08/09 20:50
EFMI 092050Z AUTO 15003KT CAVOK 18/15 Q1012

2010/08/09 20:50
EFSA 092050Z AUTO 19003KT CAVOK 20/16 Q1012

2010/08/09 20:50
EFUT 092050Z AUTO 16003KT CAVOK 18/15 Q1012

2010/08/09 20:50
EFVR 092050Z AUTO 16002KT CAVOK 18/15 Q1011

2010/08/09 20:50
LOWW 092050Z 17006KT 9999 FEW060 17/14 Q1017 NOSIG

2010/08/09 20:50
LOWL 092050Z VRB01KT CAVOK 17/14 Q1018 NOSIG

2010/08/09 20:50
LOWS 092050Z 15002KT CAVOK 16/13 Q1018 NOSIG

2010/08/09 20:50
LOWI 092050Z VRB01KT CAVOK 17/14 Q1018 NOSIG

2010/08/09 20:50
LOWG 092050Z 00000KT 9999 FEW050 19/17 Q1019 NOSIG

2010/08/09 20:50
LOWK 092050Z VRB02KT 9999 SCT062 17/15 Q1018 NOSIG

2010/08/09 20:50
LIBD 092050Z 26004KT 230V290 CAVOK 22/16 Q1014

2010/08/09 20:45
LIBR 092045Z 33009KT CAVOK 24/20 Q1014 NOSIG

2010/08/09 20:50
LICC 092050Z 28007KT CAVOK 25/21 Q1014

2010/08/09 20:50
LICJ 092050Z 05008KT CAVOK 25/19 Q1016

2010/08/09 20:50
LIPB 092050Z 00000KT 9999 FEW070 SCT100 24/15 Q1015

2010/08/09 20:50
LIPE 092050Z 21007KT CAVOK 24/18 Q1014

2010/08/09 20:50
LIPK 092050Z VRB03KT CAVOK 23/16 Q1014

2010/08/09 20:50
LIPQ 092050Z 09005KT CAVOK 22/18 Q1015

2010/08/09 20:45
LIPR 092045Z 16001KT CAVOK 24/21 Q1014

2010/08/09 20:45
LIPX 092045Z 34004KT CAVOK 24/23 Q1015

2010/08/09 20:50
LIPZ 092050Z VRB03KT 9999 SCT055 25/20 Q1015

2010/08/09 20:50
ENBS 092050Z 01005KT 9999 SCT004 BKN007 07/06 Q1015

2010/08/09 20:50
ENHV 092050Z VRB02KT 9999 FEW016 BKN026 10/06 Q1015

2010/08/09 20:50
ENMH 092050Z 09005KT 9999 BKN014 09/06 Q1015 

2010/08/09 21:00
GVAC 092100Z 08006KT 9999 BKN014 25/19 Q1014 NOSIG

2010/08/09 20:50
EGCN 092050Z 22005KT 9999 FEW040 16/11 Q1010

2010/08/09 20:50
EGDL 092050Z 19007KT 9999 OVC008 17/16 Q1012 NOSIG

2010/08/09 20:50
EGSH 092050Z 18006KT 9999 SCT040 20/13 Q1012

2010/08/09 20:50
EGVN 092050Z 20008KT 9999 BKN010 OVC040 18/16 Q1012 TEMPO SCT006

2010/08/09 20:50
LIEA 092050Z VRB02KT CAVOK 19/15 Q1017

2010/08/09 20:45
LIEE 092045Z 29007KT 9999 FEW020 SCT040 26/09 Q1015 NOSIG

2010/08/09 20:50
LIEO 092050Z 08004KT CAVOK 24/19 Q1016

2010/08/09 20:50
LIMC 092050Z VRB01KT CAVOK 21/17 Q1015 NOSIG

2010/08/09 20:50
LIME 092050Z 01005KT 9999 FEW040 21/17 Q1016

2010/08/09 20:50
LIMF 092050Z 01005KT 9999 SCT080 22/18 1015

2010/08/09 20:50
LIMJ 092050Z VRB03KT 9999 FEW015 24/20 Q1015

2010/08/09 20:50
LIML 092050Z VRB01KT CAVOK 23/18 Q1015 NOSIG

2010/08/09 20:45
LIRA 092045Z 10002KT CAVOK 24/19 Q1015

2010/08/09 20:50
LIRF 092050Z 08003KT CAVOK 22/18 Q1015 NOSIG

2010/08/09 20:50
LIRN 092050Z VRB01KT CAVOK 23/19 Q1015

2010/08/09 20:45
LIRP 092045Z 18002KT 9999 FEW015 SCT025 23/22 Q1015 NOSIG

2010/08/09 20:50
LIRQ 092050Z 22005KT 9999 FEW025 23/19 Q1016

2010/08/09 21:00
GVNP 092100Z 05005KT 9999 FEW019 BKN031 26/21 Q1014 NOSIG

2010/08/09 21:00
MNMG 092100Z 36004KT 9000 -TS FEW020CB SCT022 27/25 Q1009 A2981 CB/N/NW/W/SW/S/SE 9KM/RA/SW/W/NW/N

2010/08/09 20:46
MMCE 092046Z 09010KT 8SM FEW015 SCT200 32/25 A2982 RMK SLP097 57014 951 8/105

2010/08/09 20:45
MMCM 092045Z 12012KT 7SM SCT015 32/26 A2987 RMK SLP106 5//// 8/500 971

2010/08/09 20:50
MMMT 092050Z 36010KT 10SM SCT020 SCT180 31/24 A2982 RMK SLP169 55057 900 8/101

2010/08/09 20:55
EHEH 092055Z AUTO 12003KT 9999NDV NCD 17/13 Q1015 BLU

2010/08/09 20:50
MMTP 092050Z 18010KT 10SM BKN020TCU BKN300 29/26 A2987 RMK SLP099 57017 918 8/206

2010/08/09 20:50
ENML 092050Z 28006KT 9999 FEW012 BKN030 18/13 Q1010

2010/08/09 20:50
ENNA 092050Z 35006KT 9999 SCT010 BKN014 10/08 Q1015

2010/08/09 20:50
ENRO 092050Z AUTO 33002KT 2200NDV BCFG BKN082/// OVC150/// 13/12 Q1010

2010/08/09 20:50
ENRY 092050Z 18007KT 9999 SCT007 BKN220 18/17 Q1009

2010/08/09 20:50
ENSG 092050Z VRB04KT 9999 -SHRA FEW/// FEW005 BKN050 14/12 Q1010

2010/08/09 20:50
ENTO 092050Z 20003KT CAVOK 17/16 Q1009

2010/08/09 20:50
ENAL 092050Z 04006KT 9999 FEW015 BKN030 15/13 Q1011

2010/08/09 20:50
ENAT 092050Z 17004KT 9999 FEW025 SCT053 12/10 Q1014

2010/08/09 20:50
ENBN 092050Z 30004KT 9999 FEW004 SCT005 BKN006 12/11 Q1010

2010/08/09 20:50
ENBV 092050Z 06008KT 9999 BKN007 08/07 Q1016

2010/08/09 20:50
ENEV 092050Z 35007KT 9999 FEW020 11/09 Q1012

2010/08/09 20:50
ENHF 092050Z 05006KT 9999 FEW039 09/07 Q1014

2010/08/09 20:50
ENKB 092050Z 01005KT 9999 SCT007 BKN010 14/12 Q1010

2010/08/09 20:50
ESDF 092050Z AUTO 22004KT 9999NDV SCT042/// 15/12 Q1014

2010/08/09 20:50
ESGG 092050Z 23006KT 9999 BKN027 15/11 Q1012

2010/08/09 20:50
ESGJ 092050Z 24008KT 9999 FEW012 SCT014 OVC022 15/13 Q1012

2010/08/09 20:50
ESGP 092050Z 23008KT 9999 OVC025 16/12 Q1012

2010/08/09 20:50
ESKN 092050Z 24011KT 9999 OVC009 18/16 Q1009

2010/08/09 20:50
ESMK 092050Z AUTO 23004KT 9999NDV NCD 13/11 Q1015

2010/08/09 20:50
ESMS 092050Z 22002KT 9999 SCT042 13/12 Q1015

2010/08/09 20:50
ESMX 092050Z 23005KT 9999 OVC032 15/13 Q1013

2010/08/09 20:50
ESNN 092050Z 34003KT 250V050 9999 OVC006 17/16 Q1007

2010/08/09 20:50
ESNO 092050Z AUTO 07007KT 030V120 7000NDV RA FEW003/// OVC004/// 16/14 Q1008

2010/08/09 20:50
ESNQ 092050Z AUTO 02003KT 9999NDV BKN018/// OVC036/// 13/10 Q1013

2010/08/09 20:50
ESNS 092050Z AUTO 04004KT 8000NDV BR ////// 15/14 Q1010 REDZ RERA

2010/08/09 20:50
ESNU 092050Z AUTO 03004KT 360V060 9000NDV -DZ FEW006/// SCT008/// BKN016/// 16/14 Q1009 RERA

2010/08/09 20:50
ESOK 092050Z 22005KT 9999 FEW030 SCT042 17/17 Q1008

2010/08/09 20:50
ESOW 092050Z AUTO 22002KT 7000NDV BKN004/// OVC008/// 18/17 Q1008 RERA REDZ

2010/08/09 20:50
ESPA 092050Z 01006KT 330V050 9999 OVC016 16/13 Q1010

2010/08/09 20:50
ESSA 092050Z 18005KT CAVOK 18/17 Q1008 NOSIG

2010/08/09 20:50
ESSB 092050Z AUTO 22006KT 9999NDV BKN096/// 18/17 Q1008

2010/08/09 20:50
ESSD 092050Z AUTO 27004KT 9999NDV NCD 16/15 Q1007

2010/08/09 20:50
ESSP 092050Z AUTO 24011KT 9999NDV OVC010/// 17/15 Q1009

2010/08/09 20:50
ESSV 092050Z 22013KT 9999 BKN037 17/14 Q1011

2010/08/09 20:50
LSGG 092050Z 33004KT 290V010 9999 FEW070 BKN080 20/13 Q1017 NOSIG

2010/08/09 20:50
LSZH 092050Z 32002KT 9999 FEW055 17/14 Q1017 NOSIG

2010/08/09 20:50
EGAA 092050Z 23008KT 180V250 9999 FEW020 14/10 Q1008

2010/08/09 20:50
EGBB 092050Z 21004KT 9999 -SHRA SCT012 SCT018 17/15 Q1011

2010/08/09 20:50
EGCC 092050Z 20004KT 9999 FEW030 15/11 Q1010

2010/08/09 20:50
EGFF 092050Z 23007KT 9999 +DZ FEW014 BKN018 18/16 Q1012

2010/08/09 20:50
EGGD 092050Z 19008KT 9000 SCT003 BKN010 17/17 Q1012

2010/08/09 20:50
EGGP 092050Z 26005KT 9999 SCT022 16/13 Q1010

2010/08/09 20:50
EGGW 092050Z 21005KT 160V240 9999 FEW013 17/14 Q1013

2010/08/09 20:50
EGHH 092050Z 25008KT 9999 OVC005 17/16 Q1014

2010/08/09 20:50
EGHI 092050Z 21010KT 7000 -DZ SCT006 BKN008 17/15 Q1014

2010/08/09 20:50
EGKK 092050Z 22007KT 170V250 9999 BKN010 17/15 Q1014

2010/08/09 20:50
EGLL 092050Z 22011KT 9999 FEW016 SCT047 18/14 Q1013

2010/08/09 20:50
EGMC 092050Z 21008KT CAVOK 18/14 Q1013

2010/08/09 20:50
EGCC 092050Z 20004KT 9999 FEW030 15/11 Q1010 NOSIG

2010/08/09 20:50
EGGP 092050Z 26005KT 9999 SCT022 16/13 Q1010

2010/08/09 20:50
EGGW 092050Z 21005KT 160V240 9999 FEW013 17/14 Q1013

2010/08/09 20:50
EGLC 092050Z AUTO 24009KT 9999 BKN020/// 19/14 Q1013

2010/08/09 20:50
EGNT 092050Z 00000KT 9999 FEW030 14/09 Q1008

2010/08/09 20:50
EGNM 092050Z VRB03KT CAVOK 13/12 Q1009

2010/08/09 20:50
EGNS 092050Z 28005KT 9999 FEW020 14/10 Q1009

2010/08/09 20:50
EGNT 092050Z 00000KT 9999 FEW030 14/09 Q1008

2010/08/09 20:50
EGNV 092050Z 21006KT 9999 SCT039 15/13 Q1009

2010/08/09 20:50
EGNX 092050Z 19013KT 9999 FEW025 18/14 Q1010

2010/08/09 20:50
EGPB 092050Z AUTO 11006KT 9999NDV NCD 14/13 Q1007

2010/08/09 20:50
EGPD 092050Z VRB02KT 5000 SCT003 SCT006 BKN023 14/13 Q1005 NOSIG

2010/08/09 20:50
EGPF 092050Z 25005KT CAVOK 12/11 Q1007

2010/08/09 20:50
EGPH 092050Z 26005KT 9999 FEW035 14/10 Q1007

2010/08/09 20:50
EGPK 092050Z 12002KT 9999 FEW015 SCT045 13/11 Q1008

2010/08/09 20:50
EGTE 092050Z 20008KT 9999 SCT012 18/16 Q1013

2010/08/09 20:50
EGPF 092050Z 25005KT CAVOK 12/11 Q1007

2010/08/09 20:50
EGSS 092050Z 23007KT CAVOK 17/14 Q1013

2010/08/09 20:46
MMCT 092046Z 08007KT 7SM BKN015CB OVC090 27/24 A2988 RMK 8/36/ RA N MSGTX MMMD

2010/08/09 20:46
MMVA 092046Z 07010KT 6SM SCT017 SCT090 34/25 A2978 RMK SLP096 57008 908 8/120 HZY

2010/08/09 20:50
ENAN 092050Z 03014KT 9999 FEW008 BKN020 11/09 Q1013

2010/08/09 20:50
ENBR 092050Z 09003KT 060V120 9999 FEW014 SCT030 BKN045 13/11 Q1011 

2010/08/09 20:50
ENBO 092050Z 01006KT CAVOK 12/10 Q1010 NOSIG

2010/08/09 20:50
ENDU 092050Z VRB01KT 9999 FEW045 12/09 Q1012

2010/08/09 20:50
ENOL 092050Z 35004KT 9999 FEW006 12/11 Q1010 

2010/08/09 20:50
ENVA 092050Z VRB01KT CAVOK 17/14 Q1009 

2010/08/09 20:50
ENZV 092050Z 11005KT 9999 FEW025 SCT050 13/09 Q1012

2010/08/09 20:50
EGAA 092050Z 23008KT 180V250 9999 FEW020 14/10 Q1008

2010/08/09 20:50
EGBB 092050Z 21004KT 9999 -SHRA SCT012 SCT018 17/15 Q1011

2010/08/09 20:50
EGCC 092050Z 20004KT 9999 FEW030 15/11 Q1010

2010/08/09 20:50
EGDL 092050Z 19007KT 9999 OVC008 17/16 Q1012 NOSIG

2010/08/09 20:50
EGFF 092050Z 23007KT 9999 +DZ FEW014 BKN018 18/16 Q1012

2010/08/09 20:50
EGGD 092050Z 19008KT 9000 SCT003 BKN010 17/17 Q1012

2010/08/09 20:50
EGGP 092050Z 26005KT 9999 SCT022 16/13 Q1010

2010/08/09 20:50
EGGW 092050Z 21005KT 160V240 9999 FEW013 17/14 Q1013

2010/08/09 20:50
EGHH 092050Z 25008KT 9999 OVC005 17/16 Q1014

2010/08/09 20:50
EGHI 092050Z 21010KT 7000 -DZ SCT006 BKN008 17/15 Q1014

2010/08/09 20:50
EGKK 092050Z 22007KT 170V250 9999 BKN010 17/15 Q1014

2010/08/09 20:50
EGLC 092050Z AUTO 24009KT 9999 BKN020/// 19/14 Q1013

2010/08/09 20:50
EGLL 092050Z 22011KT 9999 FEW016 SCT047 18/14 Q1013

2010/08/09 20:50
EGMC 092050Z 21008KT CAVOK 18/14 Q1013

2010/08/09 20:50
EGNM 092050Z VRB03KT CAVOK 13/12 Q1009

2010/08/09 20:50
EGNS 092050Z 28005KT 9999 FEW020 14/10 Q1009

2010/08/09 20:50
EGNT 092050Z 00000KT 9999 FEW030 14/09 Q1008

2010/08/09 20:50
EGNV 092050Z 21006KT 9999 SCT039 15/13 Q1009

2010/08/09 20:50
EGNX 092050Z 19013KT 9999 FEW025 18/14 Q1010

2010/08/09 20:50
EGPB 092050Z AUTO 11006KT 9999NDV NCD 14/13 Q1007

2010/08/09 20:50
EGPD 092050Z VRB02KT 5000 SCT003 SCT006 BKN023 14/13 Q1005 NOSIG

2010/08/09 20:50
EGPF 092050Z 25005KT CAVOK 12/11 Q1007

2010/08/09 20:50
EGPH 092050Z 26005KT 9999 FEW035 14/10 Q1007

2010/08/09 20:50
EGPK 092050Z 12002KT 9999 FEW015 SCT045 13/11 Q1008

2010/08/09 20:50
EGSH 092050Z 18006KT 9999 SCT040 20/13 Q1012

2010/08/09 20:50
EGSS 092050Z 23007KT CAVOK 17/14 Q1013

2010/08/09 20:50
EGTE 092050Z 20008KT 9999 SCT012 18/16 Q1013

2010/08/09 20:50
EGVN 092050Z 20008KT 9999 BKN010 OVC040 18/16 Q1012 TEMPO SCT006

2010/08/09 20:50
KBYH 092050Z 00000KT 10SM BKN050 BKN250 37/24 A2989

2010/08/09 20:55
KCBM 092055Z AUTO 07011KT 2 1/2SM TSRA BR OVC050 26/23 A2993 RMK AO2 PK WND 05032/2029 WSHFT 2012 RAB2028 TSB2010E2039B2054 SLP135 P0014 60014 T02560234 56015 $

2010/08/09 20:55
KDAA 092055Z AUTO 21008KT 10SM CLR 34/19 A2997 RMK AO2 SLP150 T03410189 57011

2010/08/09 20:55
KDYS 092055Z AUTO 15009KT 090V260 10SM FEW065 36/19 A2990 RMK AO2 SLP096 T03640193 58021 $

2010/08/09 20:55
KGBN 092055Z 23007KT 12SM FEW130 39/07 A2982 RMK SLP071 57017

2010/08/09 20:55
KMUI 092055Z AUTO 17007KT 10SM FEW060 33/18 A2996 RMK AO2 SLP143 T03280180 58013 $

2010/08/09 20:55
KOZR 092055Z AUTO 06008KT 10SM CLR 35/21 A2993 RMK AO2 SLP132 T03540212 58018 $

2010/08/09 20:55
KRND 092055Z AUTO 15011G16KT 10SM CLR 35/21 A2991 RMK AO2 SLP117 T03530207 58020

2010/08/09 20:55
KVBG 092055Z 33008KT 10SM FEW008 SCT014 17/12 A2996 RMK AO2 SLP137 T01720122 58001

2010/08/09 20:55
KWRI 092055Z AUTO 27010KT 10SM CLR 34/18 A2993 RMK AO2 SLP134 T03410178 56017 $

2010/08/09 20:53
PABI 092053Z 18017G23KT 10SM FEW090 SCT110 SCT180 19/05 A2959 RMK AO2 PK WND 17028/1958 SLP018 T01940050 56006

2010/08/09 20:53
PASC 092053Z 06020KT 10SM OVC005 06/03 A2973 RMK AO2 PK WND 05026/2037 SLP069 T00560033 56006

2010/08/09 20:55
PGUA 092055Z AUTO 24003KT 10SM BKN047 25/ A2993 RMK AO2 DZE1956 SLP117 60000 T0247 53010 VISNO RWY24L $

2010/08/09 20:53
TIST 092053Z 11013KT 10SM CLR 29/25 A2992 RMK AO2 SLP133 60001 T02940250 57013

2010/08/09 20:53
TISX 092053Z 11011KT 10SM FEW028 BKN085 29/24 A2993 RMK AO2 SLP134 P0001 60004 T02890239 56009

2010/08/09 20:55
KBAD 092055Z AUTO 20008KT 10SM CLR 37/19 A2990 RMK AO2 SLP123 T03750195 58020

2010/08/09 20:55
KBLV 092055Z AUTO 00000KT 10SM CLR 35/24 A2989 RMK AO2 SLP118 T03490239 56009

2010/08/09 20:55
KCBM 092055Z AUTO 07011KT 2 1/2SM TSRA BR OVC050 26/23 A2993 RMK AO2 PK WND 05032/2029 WSHFT 2012 RAB2028 TSB2010E2039B2054 SLP135 P0014 60014 T02560234 56015 $

2010/08/09 20:55
KCEF 092055Z AUTO 20009KT 10SM SCT090 33/17 A2989 RMK AO2 SLP123 T03300173 56018 PWINO $

2010/08/09 20:55
KDAA 092055Z AUTO 21008KT 10SM CLR 34/19 A2997 RMK AO2 SLP150 T03410189 57011

2010/08/09 20:55
KDYS 092055Z AUTO 15009KT 090V260 10SM FEW065 36/19 A2990 RMK AO2 SLP096 T03640193 58021 $

2010/08/09 20:55
KGBN 092055Z 23007KT 12SM FEW130 39/07 A2982 RMK SLP071 57017

2010/08/09 20:55
KGRF 092055Z 25004KT 10SM BKN021 OVC026 17/12 A3000 RMK AO2A CIG 021V026 SLP160 T01740124 53006

2010/08/09 20:55
KHFF 092055Z AUTO 17005KT 10SM CLR 34/21 A3001 RMK AO2 SLP158 T03390207 58013 $

2010/08/09 20:55
KHMN 092055Z 27009KT 10SM CLR 32/12 A3001 RMK AO2A SLP082 T03170122 58017 $

2010/08/09 20:55
KHST 092055Z AUTO 21010KT 10SM SCT024 29/24 A2990 RMK AO2 SLP126 60002 T02920238 56015

2010/08/09 20:55
KIAB 092055Z AUTO 16015G20KT 10SM CLR 38/19 A2987 RMK AO2 SLP096 T03800190 58012 $

2010/08/09 20:55
KLRF 092055Z AUTO 16006KT 10SM CLR 37/24 A2990 RMK AO2 LTG DSNT NE SLP121 T03690245 57017

2010/08/09 20:55
KMGE 092055Z 16006KT 10SM BKN060 33/21 A3000 RMK AO2A SLP148 T03310211 56015 $

2010/08/09 20:55
KMUI 092055Z AUTO 17007KT 10SM FEW060 33/18 A2996 RMK AO2 SLP143 T03280180 58013 $

2010/08/09 20:50
EBAW 092050Z 15005KT 9999 FEW015 17/12 Q1015 NOSIG

2010/08/09 20:50
EBBR 092050Z 17004KT CAVOK 17/12 Q1015 NOSIG

2010/08/09 20:50
EBCI 092050Z 19003KT CAVOK 18/11 Q1016 NOSIG

2010/08/09 20:50
EBLG 092050Z 14005KT CAVOK 19/11 Q1016 NOSIG

2010/08/09 20:50
EBOS 092050Z 24007KT CAVOK 14/10 Q1015 NOSIG

2010/08/09 20:50
EDFH 092050Z 21005KT CAVOK 17/10 Q1017

2010/08/09 20:50
EDLP 092050Z 15004KT 110V180 CAVOK 15/13 Q1017

2010/08/09 20:50
EDQM 092050Z AUTO VRB01KT 9999NDV NCD 12/11 Q1018

2010/08/09 20:50
EDSB 092050Z 00000KT CAVOK 16/14 Q1017

2010/08/09 20:50
EDTL 092050Z 07002KT CAVOK 17/13 Q1016

2010/08/09 20:50
EDVK 092050Z 19004KT CAVOK 13/11 Q1017

2010/08/09 20:50
EDXW 092050Z AUTO 19006KT 9999NDV NCD 14/11 Q1015

2010/08/09 20:50
EGDL 092050Z 19007KT 9999 OVC008 17/16 Q1012 NOSIG

2010/08/09 20:50
EGNS 092050Z 28005KT 9999 FEW020 14/10 Q1009

2010/08/09 20:50
EGSH 092050Z 18006KT 9999 SCT040 20/13 Q1012

2010/08/09 20:55
EGUL 092055Z AUTO 23012KT 9999 FEW050 BKN090 20/15 A2987 RMK AO2 SLP116 T01990146 53003

2010/08/09 20:50
EGVN 092050Z 20008KT 9999 BKN010 OVC040 18/16 Q1012 TEMPO SCT006

2010/08/09 20:50
ELLX 092050Z 00000KT CAVOK 19/12 Q1017 NOSIG

2010/08/09 20:50
ENBN 092050Z 30004KT 9999 FEW004 SCT005 BKN006 12/11 Q1010

2010/08/09 20:50
ENBV 092050Z 06008KT 9999 BKN007 08/07 Q1016

2010/08/09 20:50
ENHF 092050Z 05006KT 9999 FEW039 09/07 Q1014

2010/08/09 20:50
LOWG 092050Z 00000KT 9999 FEW050 19/17 Q1019 NOSIG

2010/08/09 20:50
LOWI 092050Z VRB01KT CAVOK 17/14 Q1018 NOSIG

2010/08/09 20:50
LOWK 092050Z VRB02KT 9999 SCT062 17/15 Q1018 NOSIG

2010/08/09 20:50
LOWL 092050Z VRB01KT CAVOK 17/14 Q1018 NOSIG

2010/08/09 20:50
LOWS 092050Z 15002KT CAVOK 16/13 Q1018 NOSIG

2010/08/09 20:50
LOWW 092050Z 17006KT 9999 FEW060 17/14 Q1017 NOSIG

2010/08/09 21:00
LWSK 092100Z 36012KT CAVOK 23/14 Q1016 NOSIG

2010/08/09 20:55
CYKJ 092055Z AUTO 08003KT 6SM -RA BKN006 OVC012 16/15 A2980 RMK SLP107 DENSITY ALT 2300FT PCPN 1.2MM PAST HR

2010/08/09 20:52
KNHK 092052Z 13011KT 10SM BKN250 31/18 A2999 RMK AO2 SLP154 T03110183 58009

2010/08/09 20:56
KNSI 092056Z VRB05KT 7SM SCT015 18/12 A2995 RMK AO2 SLP137 T01830122 53009 TSNO

2010/08/09 20:55
KOFF 092055Z AUTO 23006KT 10SM CLR 34/25 A2985 RMK AO2 SLP088 T03410252 50000 $

2010/08/09 20:55
KOZR 092055Z AUTO 06008KT 10SM CLR 35/21 A2993 RMK AO2 SLP132 T03540212 58018 $

2010/08/09 20:55
KRDR 092055Z AUTO 21013KT 10SM CLR 36/17 A2984 RMK AO2 SLP114 T03580171 58005 TSNO $

2010/08/09 20:55
KRND 092055Z AUTO 15011G16KT 10SM CLR 35/21 A2991 RMK AO2 SLP117 T03530207 58020

2010/08/09 20:55
KSUU 092055Z AUTO 25014KT 10SM CLR 24/13 A2986 RMK AO2 SLP114 T02420130 58011 RVRNO $

2010/08/09 20:55
KSZL 092055Z AUTO 19014KT 10SM CLR 36/24 A2988 RMK AO2 SLP109 T03620239 56012 PNO $

2010/08/09 20:55
KVBG 092055Z 33008KT 10SM FEW008 SCT014 17/12 A2996 RMK AO2 SLP137 T01720122 58001

2010/08/09 20:55
KWRI 092055Z AUTO 27010KT 10SM CLR 34/18 A2993 RMK AO2 SLP134 T03410178 56017 $

2010/08/09 20:50
MSLP 092050Z 18006KT 9999 FEW027 FEW040CB SCT300 31/25 Q1009 A2981 CB TO W/NW/NNE

2010/08/09 21:00
SPIM 092100Z 17008KT 5000 HZ SCT018 17/13 Q1015 NOSIG RMK BIRD HAZARD RWY 15 PP000

2010/08/09 20:53
NSTU 092053Z 09013KT 12SM SCT023 29/25 A3000 RMK SLP161 8/100 T02880246 51012

2010/08/09 20:54
PGSN 092054Z 20003KT 9SM -RA FEW015 SCT055 SCT110 24/23 A2993 RMK AO2 SLP132 P0017 60039 T02390233 51007

2010/08/09 20:55
PGUA 092055Z AUTO 24003KT 10SM BKN047 25/ A2993 RMK AO2 DZE1956 SLP117 60000 T0247 53010 VISNO RWY24L $

2010/08/09 20:53
PHJR 092053Z 08007G16KT 10SM OVC050 29/16 A3011 RMK AO2 SLP204 T02890156 53004

2010/08/09 20:53
PHKO 092053Z 19013KT 10SM OVC055 27/19 A3004 RMK AO2 SLP173 6//// T02720189 51004

2010/08/09 20:54
PHMK 092054Z 04014G26KT 10SM FEW030 29/16 A3010 RMK AO2 PK WND 04029/2035 SLP194 T02890156 51005

2010/08/09 20:53
PHNL 092053Z 06019G26KT 10SM FEW034 SCT047 BKN055 29/15 A3010 RMK AO2 PK WND 06026/2047 SLP194 T02940150 51004

2010/08/09 20:54
PHOG 092054Z 07022G29KT 10SM FEW040 SCT065 30/16 A3009 RMK AO2 PK WND 07032/2019 SLP193 T03000161 58002

2010/08/09 20:53
PHTO 092053Z VRB04KT 10SM FEW030 OVC060 26/18 A3012 RMK AO2 SLP197 T02610183 50003

2010/08/09 20:50
PKMJ 092050Z 05018KT 15SM FEW015 SCT050 BKN120 OVC300 28/25 A2987

2010/08/09 20:55
KQA4 092055Z AUTO 35015G22KT 6000 HZ CLR 28/M03 A2977 RMK AO2 SLP981 T02831029 50000

2010/08/09 20:55
KQIR 092055Z 00000KT 9999 CLR 32/28 A2946 RMK AO2A SLP975 T03180280 404460294 58007

2010/08/09 20:55
KQLD 092055Z AUTO 00000KT 9999 OVC120 16/13 A3019 RMK AO2 SLP074 T01600128 57009

2010/08/09 20:55
KQRH 092055Z AUTO 00000KT 9999 BKN110 33/25 A2965 RMK AO2 SLP040

2010/08/09 20:55
KQSL 092055Z 32009KT 9999 CLR 34/02 A2959 RMK SLP010 Q1002MB 52002

2010/08/09 20:55
KQTI 092055Z AUTO 34009KT 9999 CLR 32/05 A2964 RMK AO2 SLP009 T03160046 54001

2010/08/09 20:55
KQTO 092055Z 34005KT 9999 CLR 34/05 A2953 RMK SLP996 50000

2010/08/09 20:53
KRTN 092053Z AUTO 15013G25KT 10SM -RA SCT042 BKN095 23/13 A3015 RMK AO2 PK WND 15034/2041 RAB50 SLP116 P0000 60000 T02280128 55005 TSNO $ 

2010/08/09 21:00
LWSK 092100Z 36012KT CAVOK 23/14 Q1016 NOSIG

2010/08/09 20:50
ENAL 092050Z 04006KT 9999 FEW015 BKN030 15/13 Q1011

2010/08/09 20:50
ENAT 092050Z 17004KT 9999 FEW025 SCT053 12/10 Q1014

2010/08/09 20:50
ENCN 092050Z 23007KT 190V260 CAVOK 15/10 Q1011

2010/08/09 20:50
ENEK 092050Z 18017KT 9999 BKN030 16/13 Q1009 W16/S3

2010/08/09 20:50
ENEV 092050Z 35007KT 9999 FEW020 11/09 Q1012

2010/08/09 20:50
ENGC 092050Z 14007KT 9999 BKN030 13/10 Q1010

2010/08/09 20:50
ENHD 092050Z AUTO 14006KT 9999NDV NCD 10/08 Q1011

2010/08/09 20:50
ENHE 092050Z 04020KT 9999 BKN013 10/08 Q1012

2010/08/09 20:50
ENKB 092050Z 01005KT 9999 SCT007 BKN010 14/12 Q1010

2010/08/09 20:50
ENKR 092050Z 04009KT 9999 -RA OVC005 09/08 Q1014 REDZ

2010/08/09 20:50
ENML 092050Z 28006KT 9999 FEW012 BKN030 18/13 Q1010

2010/08/09 20:50
ENNA 092050Z 35006KT 9999 SCT010 BKN014 10/08 Q1015

2010/08/09 20:50
ENOA 092050Z 16012KT 9999 SCT030 13/09 Q1010

2010/08/09 20:50
ENRO 092050Z AUTO 33002KT 2200NDV BCFG BKN082/// OVC150/// 13/12 Q1010

2010/08/09 20:50
ENRY 092050Z 18007KT 9999 SCT007 BKN220 18/17 Q1009

2010/08/09 20:50
ENSB 092050Z 27022KT 9999 FEW007 SCT010 BKN020 06/04 Q1001

2010/08/09 20:50
ENSG 092050Z VRB04KT 9999 -SHRA FEW/// FEW005 BKN050 14/12 Q1010

2010/08/09 20:50
ENTC 092050Z 02012KT 9999 SCT018 BKN026 10/07 Q1013

2010/08/09 20:50
ENTO 092050Z 20003KT CAVOK 17/16 Q1009

2010/08/09 20:55
ETEB 092055Z AUTO 08003KT 9999 OVC070 16/13 A3007 RMK AO2 SLP172 T01640127 52005

2010/08/09 21:00
LEJR 092100Z 18004KT 9999 FEW020 28/10 Q1014

2010/08/09 20:50
LIEA 092050Z VRB02KT CAVOK 19/15 Q1017

2010/08/09 20:45
LIEE 092045Z 29007KT 9999 FEW020 SCT040 26/09 Q1015 NOSIG

2010/08/09 20:50
LIEO 092050Z 08004KT CAVOK 24/19 Q1016

2010/08/09 20:50
LIMC 092050Z VRB01KT CAVOK 21/17 Q1015 NOSIG

2010/08/09 20:50
LIMF 092050Z 01005KT 9999 SCT080 22/18 1015

2010/08/09 20:50
LIMJ 092050Z VRB03KT 9999 FEW015 24/20 Q1015

2010/08/09 20:50
LIRF 092050Z 08003KT CAVOK 22/18 Q1015 NOSIG

2010/08/09 20:54
KCBM 092054Z AUTO 07010KT 2 1/2SM TSRA BR OVC050 26/23 A2993 RMK AO2 PK WND 05032/2029 WSHFT 2012 RAB2028 TSB2010E2039B2054 SLP134 $

2010/08/09 20:48
PPIZ 092048Z AUTO 07026G33KT 10SM SCT017 07/02 A2968 RMK AO2 TSNO PK WND 07033/2039 $

2010/08/09 20:45
MMAA 092045Z 15005KT 10SM FEW010 SCT300 31/25 A2978 RMK SLP091 57013 900 8/102

2010/08/09 20:45
MMAN 092045Z 12010KT 7SM SCT035 36/23 A2987 RMK SLP087 57017 901 8/500 HZY

2010/08/09 20:48
MMLT 092048Z 03010KT 8SM FEW200 34/22 A2976 RMK SLP078 8/009

2010/08/09 20:47
MMMA 092047Z 11010KT 8SM BKN020 33/26 A2990 RMK SLP115 57017 900 8/100 DSNT CB 1 2 QUAD

2010/08/09 20:45
MMOX 092045Z 16009KT 12SM SCT030CB SCT100 BKN200 27/18 A3008 RMK SLP064 58013 951 8/368 DSNT CB SE S SW STN

2010/08/09 20:45
MMQT 092045Z 34008KT 5SM BKN020 BKN250 27/14 A3018 RMK 8/102 HZY

2010/08/09 20:50
MMTJ 092050Z 35008KT 7SM SKC 22/13 A2994 RMK SLP147 54000 905 HZY ST W ISOL CI

2010/08/09 20:46
MMTM 092046Z 09010KT 8SM FEW010 BKN200 33/26 A2985 RMK SLP106 57008 958 8/108

2010/08/09 20:45
MMVR 092045Z 03006KT 7SM FEW015TCU SCT220 33/25 A2983 RMK SLP099 57006 900 8/208 HZY

2010/08/09 20:45
MMZH 092045Z 20010KT 7SM SCT020CB SCT100 BKN250 32/26 A2980 RMK SLP089 57016 900 8/963

2010/08/09 20:55
PAFB 092055Z 06005KT 13SM BKN075 BKN120 18/09 A2958 RMK SLP014 58002

2010/08/09 20:55
PGUA 092055Z AUTO 24003KT 10SM BKN047 25/ A2993 RMK AO2 DZE1956 SLP117 60000 T0247 53010 VISNO RWY24L $

2010/08/09 20:55
RODN 092055Z 16015G23KT 9999 -RA FEW019 SCT035 BKN065 BKN090 27/26 A2974 RMK AO2A PK WND 15028/2000 CIG 016 RWY05 SLP071 P0007 60007 T02740259 52006

2010/08/09 20:55
KBKF 092055Z 17014G18KT 70SM FEW080 BKN180 28/14 A3008 RMK SLP116 58015

2010/08/09 20:55
KFAF 092055Z AUTO VRB06KT 10SM CLR 32/18 A3000 RMK AO2 SLP159 T03220177 58006 $

2010/08/09 20:55
KFBG 092055Z 10004KT 10SM CLR 33/21 A2999 RMK AO2A SLP154 T03330207 56010 $

2010/08/09 20:55
KFSI 092055Z AUTO 20009G17KT 10SM CLR 39/18 A2985 RMK AO2 SLP080 T03900176 58017

2010/08/09 20:55
KLHW 092055Z AUTO 12010KT 10SM FEW043 SCT060 SCT100 33/24 A2994 RMK AO2 SLP138 T03260245 57010

2010/08/09 20:55
KLSF 092055Z AUTO 12009KT 10SM FEW065 SCT100 37/21 A2994 RMK AO2 SLP136 T03650209 58013 PNO $

2010/08/09 20:55
KMTC 092055Z VRB04KT 5SM -SHRA HZ FEW025 SCT040 BKN065 OVC120 26/22 A2993 RMK SLP140 60002 58005

2010/08/09 20:54
KNFG 092054Z 22007KT 7SM CLR 23/13 A2991 RMK AO2 SLP128 T02280133 58006

2010/08/09 20:53
KNIP 092053Z 05009KT 10SM SCT035CB SCT080 BKN130 BKN250 31/24 A2993 RMK AO2 RAE1956 SLP132 CB DSNT W T2 SET P0000 60000 T03060244 58007

2010/08/09 20:54
KNKT 092054Z 10005KT 10SM BKN075 29/24 A3001 RMK AO2 SLP158 T02940239 56013

2010/08/09 20:53
KNQX 092053Z 31005KT 6SM -TSRA FEW002 BKN010CB BKN020 BKN140 26/24 A2989 RMK AO2 SLP119 OCNL LTGICCC OHD TS OHD MOV S T1 SET P0009 60028 T02610244 56009 $

2010/08/09 20:55
KTIK 092055Z 16009G18KT 10SM FEW065 37/19 A2989 RMK AO2A SLP105 T03740189 58012

2010/08/09 20:55
RODN 092055Z 16015G23KT 9999 -RA FEW019 SCT035 BKN065 BKN090 27/26 A2974 RMK AO2A PK WND 15028/2000 CIG 016 RWY05 SLP071 P0007 60007 T02740259 52006

2010/08/09 20:55
KBAD 092055Z AUTO 20008KT 10SM CLR 37/19 A2990 RMK AO2 SLP123 T03750195 58020

2010/08/09 20:53
KBRO 092053Z AUTO 13014KT 10SM CLR 36/23 A2987 RMK AO2 SLP114 T03560233 56012 TSNO

2010/08/09 20:53
KFLL 092053Z 15009KT 10SM FEW026 SCT060 28/24 A2988 RMK AO2 SLP119 T02830244 56012

2010/08/09 20:55
KHST 092055Z AUTO 21010KT 10SM SCT024 29/24 A2990 RMK AO2 SLP126 60002 T02920238 56015

2010/08/09 20:51
KJFK 092051Z 18019KT 9SM FEW140 BKN250 28/20 A2996 RMK AO2 SLP146 T02780200 58013

2010/08/09 20:53
KMCO 092053Z 10011KT 10SM SCT031TCU BKN075 BKN190 32/23 A2989 RMK AO2 SLP118 TCU SW-W T03220228 55009

2010/08/09 20:52
KNHK 092052Z 13011KT 10SM BKN250 31/18 A2999 RMK AO2 SLP154 T03110183 58009

2010/08/09 20:55
KOFF 092055Z AUTO 23006KT 10SM CLR 34/25 A2985 RMK AO2 SLP088 T03410252 50000 $

2010/08/09 20:53
KPBI 092053Z 15011KT 10SM SCT024TCU SCT075 SCT250 30/23 A2988 RMK AO2 SLP118 TCU E CB DSNT SE AND SW T03000233 56014

2010/08/09 20:54
KSYR 092054Z 25010G18KT 180V270 10SM BKN060 OVC100 29/18 A2990 RMK AO2 SLP119 BKN V OVC T02940183 56012

2010/08/09 20:55
KWRI 092055Z AUTO 27010KT 10SM CLR 34/18 A2993 RMK AO2 SLP134 T03410178 56017 $

2010/08/09 20:45
MMVR 092045Z 03006KT 7SM FEW015TCU SCT220 33/25 A2983 RMK SLP099 57006 900 8/208 HZY

2010/08/09 21:00
SPIM 092100Z 17008KT 5000 HZ SCT018 17/13 Q1015 NOSIG RMK BIRD HAZARD RWY 15 PP000

2010/08/09 20:53
TIST 092053Z 11013KT 10SM CLR 29/25 A2992 RMK AO2 SLP133 60001 T02940250 57013

2010/08/09 20:53
TISX 092053Z 11011KT 10SM FEW028 BKN085 29/24 A2993 RMK AO2 SLP134 P0001 60004 T02890239 56009

2010/08/09 20:54
CYYZ 092054Z 02015KT 7SM -SHRA FEW020 BKN030 OVC045 22/ RETSRA RMK SF1SC5SC3 WSHFT 2054Z

2010/08/09 20:54
KRFD 092054Z VRB03KT 10SM FEW030 SCT085 SCT250 30/22 A2993 RMK AO2 SLP127 T03000217 58002 $ 

2010/08/09 20:49
KMWN 092049Z 28022KT 0SM FG VV000 12/12 RMK 

2010/08/09 20:54
KWAL 092054Z 19011KT 10SM BKN075 28/22 A3002 RMK AO2 SLP164 T02780217 56008 

2010/08/09 20:55
KDRA 092055Z AUTO 21017G28KT 10SM CLR 34/M06 A2994 RMK AO2 PK WND 21029/2020 WSHFT 1953 SLP088 T03391061 56012 TSNO 

2010/08/09 20:53
KRQE 092053Z AUTO 27004KT 10SM SCT080 SCT100 25/07 A3025 RMK AO2 SLP125 T02500072 58006 TSNO 

2010/08/09 20:54
KAKQ 092054Z AUTO VRB04KT 10SM FEW060 33/18 A3000 RMK AO2 SLP156 T03330178 56008 TSNO 

2010/08/09 20:53
KMSY 092053Z 24004KT 10SM -RA FEW016 SCT041 SCT150 OVC200 26/24 A2996 RMK AO2 TSE26 PRESFR SLP149 P0022 60022 T02610239 52001 

2010/08/09 21:00
FAVV 092100Z AUTO 22005KT //// // ////// 04/M10 Q1027

2010/08/09 21:00
FAJB 092100Z AUTO 19004KT //// // ////// 05/M10 Q1028

2010/08/09 21:00
FASI 092100Z AUTO 20005KT //// // ////// 06/M09 Q1028

2010/08/09 21:00
FAGC 092100Z AUTO 19013KT //// // ////// 05/M11 Q1028

2010/08/09 20:55
ETAD 092055Z AUTO 00000KT 9999 OVC080 18/11 A3004 RMK AO2 SLP166 60000 T01840111 51005 $

2010/08/09 20:55
ETAR 092055Z AUTO 00000KT 9999 SCT080 16/14 A3003 RMK AO2 SLP164 60000 T01580142 51006 $

2010/08/09 20:55
KADW 092055Z AUTO 20010KT 10SM FEW060 33/21 A2997 RMK AO2 SLP149 T03280213 56011 $

2010/08/09 20:55
KAPG 092055Z 18007KT 7SM SCT200 33/21 A2998

2010/08/09 20:55
KDOV 092055Z AUTO 13008KT 10SM CLR 30/22 A2997 RMK AO2 SLP152 60000 T03010221 56012

2010/08/09 20:55
KFCS 092055Z AUTO 28003KT 10SM BKN100 BKN130 24/14 A3014 RMK AO2 SLP127 T02410142 58008

2010/08/09 20:55
KFMH 092055Z AUTO 24011KT 10SM CLR 28/21 A2995 RMK AO2

2010/08/09 20:55
KGTB 092055Z AUTO 28005KT 10SM CLR 25/20 A2993 RMK AO2 SLP133 T02530204 55002

2010/08/09 20:52
KNFW 092052Z 20011KT 10SM FEW070 39/20 A2991 RMK AO2 SLP112 T03890200 58019

2010/08/09 20:52
KNRB 092052Z 08011KT 10SM FEW035 SCT070 BKN150 32/24 A2995 RMK AO2 SLP140 T2 SET 60000 T03170244 56007

2010/08/09 20:55
KPOB 092055Z AUTO 11005KT 10SM CLR 33/22 A2999 RMK AO2 SLP154 T03330221 57009 $

2010/08/09 20:55
KSLI 092055Z 22009KT 10SM CLR 22/14 A2993 RMK AO2A SLP136 T02150141 58002

2010/08/09 20:55
KSSC 092055Z 08006KT 10SM CLR 34/21 A2999 RMK AO2A SLP152 T03390210 56010 $

2010/08/09 20:55
KXMR 092055Z AUTO 12010KT 10SM CLR 30/25 A2991 RMK AO2 SLP129 T02990246 55006

2010/08/09 20:55
PAEI 092055Z AUTO 02005KT 10SM BKN120 BKN140 19/09 A2956 RMK AO2 SLP010 T01850092 58008 $

2010/08/09 20:55
PHHI 092055Z AUTO 08013KT 10SM OVC034 25/18 A3013 RMK AO2 SLP192 T02450176 52006 $

2010/08/09 20:55
EGUN 092055Z AUTO 23010KT 9999 FEW060 OVC085 20/17 A2988 RMK AO2 SLP107 T01970173 53003

2010/08/09 20:50
ENBS 092050Z 01005KT 9999 SCT004 BKN007 07/06 Q1015

2010/08/09 20:50
ENHV 092050Z VRB02KT 9999 FEW016 BKN026 10/06 Q1015

2010/08/09 20:50
ENMH 092050Z 09005KT 9999 BKN014 09/06 Q1015

2010/08/09 20:50
ENRM 092050Z 02005KT 320V060 9999 BKN005 12/11 Q1011

2010/08/09 20:50
ENVD 092050Z 05015KT 9999 VV005 08/07 Q1014

2010/08/09 20:55
ETAD 092055Z AUTO 00000KT 9999 OVC080 18/11 A3004 RMK AO2 SLP166 60000 T01840111 51005 $

2010/08/09 20:55
ETAR 092055Z AUTO 00000KT 9999 SCT080 16/14 A3003 RMK AO2 SLP164 60000 T01580142 51006 $

2010/08/09 21:00
GVAC 092100Z 08006KT 9999 BKN014 25/19 Q1014 NOSIG

2010/08/09 20:50
LIBD 092050Z 26004KT 230V290 CAVOK 22/16 Q1014

2010/08/09 20:45
LIBR 092045Z 33009KT CAVOK 24/20 Q1014 NOSIG

2010/08/09 20:50
LICC 092050Z 28007KT CAVOK 25/21 Q1014

2010/08/09 20:50
LICJ 092050Z 05008KT CAVOK 25/19 Q1016

2010/08/09 20:50
LIME 092050Z 01005KT 9999 FEW040 21/17 Q1016

2010/08/09 20:50
LIML 092050Z VRB01KT CAVOK 23/18 Q1015 NOSIG

2010/08/09 20:50
LIPB 092050Z 00000KT 9999 FEW070 SCT100 24/15 Q1015

2010/08/09 20:50
LIPE 092050Z 21007KT CAVOK 24/18 Q1014

2010/08/09 20:50
LIPK 092050Z VRB03KT CAVOK 23/16 Q1014

2010/08/09 20:50
LIPQ 092050Z 09005KT CAVOK 22/18 Q1015

2010/08/09 20:45
LIPR 092045Z 16001KT CAVOK 24/21 Q1014

2010/08/09 20:45
LIPX 092045Z 34004KT CAVOK 24/23 Q1015

2010/08/09 20:50
LIPZ 092050Z VRB03KT 9999 SCT055 25/20 Q1015

2010/08/09 20:45
LIRA 092045Z 10002KT CAVOK 24/19 Q1015

2010/08/09 20:50
LIRN 092050Z VRB01KT CAVOK 23/19 Q1015

2010/08/09 20:45
LIRP 092045Z 18002KT 9999 FEW015 SCT025 23/22 Q1015 NOSIG

2010/08/09 20:50
LIRQ 092050Z 22005KT 9999 FEW025 23/19 Q1016

2010/08/09 20:55
KADW 092055Z AUTO 20010KT 10SM FEW060 33/21 A2997 RMK AO2 SLP149 T03280213 56011 $

2010/08/09 20:54
KBOS 092054Z 23015KT 10SM SCT070 BKN100 BKN220 32/15 A2988 RMK AO2 SLP118 T03220150 56017

2010/08/09 20:53
KDAB 092053Z 09009G18KT 10SM FEW025 SCT250 30/23 A2992 RMK AO2 SLP131 TCU DSNT E SW T03000233 55006

2010/08/09 20:55
KDOV 092055Z AUTO 13008KT 10SM CLR 30/22 A2997 RMK AO2 SLP152 60000 T03010221 56012

2010/08/09 20:53
KNIP 092053Z 05009KT 10SM SCT035CB SCT080 BKN130 BKN250 31/24 A2993 RMK AO2 RAE1956 SLP132 CB DSNT W T2 SET P0000 60000 T03060244 58007

2010/08/09 20:54
KNKT 092054Z 10005KT 10SM BKN075 29/24 A3001 RMK AO2 SLP158 T02940239 56013

2010/08/09 20:53
KNQX 092053Z 31005KT 6SM -TSRA FEW002 BKN010CB BKN020 BKN140 26/24 A2989 RMK AO2 SLP119 OCNL LTGICCC OHD TS OHD MOV S T1 SET P0009 60028 T02610244 56009 $

2010/08/09 20:52
KNRB 092052Z 08011KT 10SM FEW035 SCT070 BKN150 32/24 A2995 RMK AO2 SLP140 T2 SET 60000 T03170244 56007

2010/08/09 20:54
KPHL 092054Z 22013KT 10SM FEW065 SCT250 34/18 A2996 RMK AO2 SLP146 T03390178 56012

2010/08/09 20:55
KPOB 092055Z AUTO 11005KT 10SM CLR 33/22 A2999 RMK AO2 SLP154 T03330221 57009 $

2010/08/09 20:53
KSAV 092053Z 08006KT 10SM 32/24 A2996 RMK AO2 RAB13E27 SLP144 VCSH P0000 60000 T03170239 56004 $

2010/08/09 20:55
KSSC 092055Z 08006KT 10SM CLR 34/21 A2999 RMK AO2A SLP152 T03390210 56010 $

2010/08/09 20:55
KVAD 092055Z AUTO 04009KT 10SM CLR 35/21 A2993 RMK AO2 SLP134 T03450211 56013 $

2010/08/09 20:55
KVPS 092055Z 16005KT 10SM SCT020 SCT220 33/25 A2992 RMK AO2A CB 20W MOV SW SLP132 T03300247 58020 $

2010/08/09 20:55
KVBG 092055Z 35008KT 10SM FEW008 SCT014 17/12 A2996 RMK AO2 SLP136 T01720122 58001 VISNO RWY12 $ 

2010/08/09 20:55
CZMT 092055Z 34003KT 6SM -DZ BR BKN004 OVC020 RMK SC5SC3

2010/08/09 20:56
TJSJ 092056Z 08012KT 10SM FEW020 SCT039 BKN080 28/25 A2992 RMK AO2 SLP131 SHRA DSNT NW 60012 T02830250 58005 

2010/08/09 20:56
KABQ 092056Z 32004KT 10SM SCT080 31/10 A3010 RMK AO2 SLP096 T03060100 58018 

2010/08/09 20:56
KCHS 092056Z 12009G16KT 10SM SCT028 SCT033 BKN043 31/25 A2998 RMK AO2 SLP151 60014 T03110250 56003 

2010/08/09 20:55
KANJ 092055Z AUTO 15005KT 10SM FEW034 28/19 A2988 RMK AO2 SLP112 T02780194 55003 

2010/08/09 20:55
KLRO 092055Z AUTO 13005KT 10SM SCT018 29/24 A2999 RMK AO2

2010/08/09 20:55
KLUX 092055Z AUTO 20003KT 10SM BKN080 33/26 A3001 RMK AO2

2010/08/09 20:54
KLWM 092054Z 26011G17KT 10SM FEW070 33/16 A2989 RMK AO2 SLP120 T03330161 56016

2010/08/09 20:54
KMGJ 092054Z AUTO 22008KT 9SM CLR 32/19 A2992 RMK AO2 SLP128 T03170194 56016

2010/08/09 20:54
KMIV 092054Z AUTO VRB06KT 10SM CLR 31/18 A2997 RMK AO2 SLP148 T03110178 56009

2010/08/09 20:55
KMJX 092055Z AUTO 17011G17KT 10SM CLR 32/19 A2995 RMK AO1 57010

2010/08/09 20:55
KMNI 092055Z AUTO 06005KT 10SM CLR 33/25 A2997 RMK AO2

2010/08/09 20:55
KMSV 092055Z AUTO 27006KT 10SM CLR 30/15 A2999 RMK AO1 57017

2010/08/09 20:54
KMVL 092054Z AUTO 34003KT 10SM FEW075 26/20 A2990 RMK AO2 LTG DSNT SE-W SLP123 T02560200 58012

2010/08/09 20:55
KOCH 092055Z AUTO 21005KT 10SM BKN065 OVC080 37/20 A2990 RMK AO1 57020

2010/08/09 20:55
KOKK 092055Z AUTO 25006KT 10SM SCT050 BKN120 33/22 A2994 RMK AO1

2010/08/09 20:54
KORH 092054Z 26011KT 10SM FEW060 31/15 A2995 RMK AO2 SLP136 T03060150 56016

2010/08/09 20:54
KPHL 092054Z 22013KT 10SM FEW065 SCT250 34/18 A2996 RMK AO2 SLP146 T03390178 56012

2010/08/09 20:54
KPNE 092054Z AUTO 25010KT 10SM SCT065 33/19 A2996 RMK AO2 SLP145 T03330189 56016

2010/08/09 20:55
KPQI 092055Z AUTO 24007KT 10SM SCT034 24/17 A2980 RMK AO1 57014

2010/08/09 20:55
KPRX 092055Z 19012KT 10SM CLR 37/21 A2990 RMK AO1 57017

2010/08/09 20:55
KAEG 092055Z AUTO 25004KT 10SM FEW080 SCT110 28/09 A3014 RMK AO1

2010/08/09 20:55
KAIK 092055Z AUTO 13007KT 10SM SCT055 33/26 A3003 RMK AO2 PNO

2010/08/09 20:54
KAKH 092054Z AUTO 12007KT 9SM CLR 33/22 A3001 RMK AO2 SLP151 T03330222 56011

2010/08/09 20:54
KAKR 092054Z AUTO 24008KT 10SM CLR 31/18 A2999 RMK AO2 SLP145 T03060183 58013

2010/08/09 20:55
KBBP 092055Z AUTO 10004KT 10SM CLR 34/18 A2999 RMK AO2

2010/08/09 20:55
KBHB 092055Z AUTO 20009G14KT 10SM CLR 23/20 A2988 RMK AO1 57010

2010/08/09 20:55
KBID 092055Z AUTO 22015G21KT 10SM CLR 26/22 A2996 RMK AO1 57014

2010/08/09 20:55
KBLM 092055Z AUTO 16010G16KT 10SM CLR 30/17 A2998 RMK AO1 57014

2010/08/09 20:55
KBNL 092055Z AUTO 09006KT 9SM FEW050 33/20 A2999 RMK AO2

2010/08/09 20:54
KBOS 092054Z 23015KT 10SM SCT070 BKN100 BKN220 32/15 A2988 RMK AO2 SLP118 T03220150 56017

2010/08/09 20:55
KBTP 092055Z AUTO 19004KT 10SM CLR 31/17 A2999 RMK AO1

2010/08/09 20:54
KBUF 092054Z 24006KT 7SM -RA FEW030 BKN050 BKN075 OVC130 24/19 A2994 RMK AO2 RAE08B37 SLP134 P0000 60000 T02390194 55008

2010/08/09 20:55
KBWD 092055Z AUTO 15011G17KT 130V190 10SM FEW070 37/17 A2991 RMK AO2

2010/08/09 20:55
KCGC 092055Z AUTO 09012KT 10SM FEW035 31/24 A2990 RMK

2010/08/09 20:55
KCOD 092055Z AUTO 32010G14KT 10SM FEW100 26/11 A2994 RMK AO1 TSE1957

2010/08/09 20:54
KCOS 092054Z 18008KT 10SM FEW120 24/13 A3016 RMK AO2 SLP128 T02440128 58009

2010/08/09 20:55
KCQW 092055Z AUTO 14006KT 5SM HZ CLR 33/21 A3000 RMK AO2

2010/08/09 20:54
KCRW 092054Z 22004KT 10SM FEW060 32/16 A3000 RMK AO2 SLP150 T03220161 57011

2010/08/09 20:55
KDCM 092055Z AUTO 14007KT 5SM HZ CLR 33/26 A3001 RMK AO2

2010/08/09 20:54
KDDH 092054Z AUTO 00000KT 9SM SCT065 BKN075 29/18 A2992 RMK AO2 SLP125 T02890183 56019

2010/08/09 20:54
KDSV 092054Z AUTO 00000KT 10SM BKN070 29/19 A2994 RMK AO2 RAB33E42 SLP142 P0000 60000 T02940194 56012

2010/08/09 20:54
KDYL 092054Z AUTO 23008KT 10SM FEW065 32/18 A2995 RMK AO2 SLP136 T03220178 56016 TSNO

2010/08/09 20:55
KE80 092055Z AUTO 29006KT 250V310 10SM SCT085 32/07 A3010 RMK AO2 T03200070

2010/08/09 20:55
KEDC 092055Z AUTO 18007KT 10SM CLR 35/18 A2991 RMK AO1

2010/08/09 20:55
KEEN 092055Z AUTO 23006KT 10SM FEW070 FEW120 31/18 A2990 RMK AO1 57017

2010/08/09 20:55
KEOE 092055Z AUTO 13005KT 10SM CLR 34/20 A3002 RMK AO2

2010/08/09 20:54
KEVV 092054Z 18005KT 10SM CLR 36/20 A2991 RMK AO2 SLP123 T03560200 56015

2010/08/09 20:54
KFIG 092054Z AUTO 25006KT 10SM FEW095 31/14 A3001 RMK AO2 SLP153 T03060144 56015

2010/08/09 20:55
KFKL 092055Z AUTO 22007KT 10SM CLR 29/17 A3004 RMK AO1

2010/08/09 20:55
KFMH 092055Z AUTO 24011KT 10SM CLR 28/21 A2995 RMK AO2

2010/08/09 20:55
KFNL 092055Z AUTO 23007KT 9SM CLR 28/13 A3001 RMK AO1 LTG DSNT SE 57030

2010/08/09 20:54
KPSF 092054Z AUTO 21006KT 10SM SCT060 SCT075 29/17 A2994 RMK AO2 SLP109 T02890167 56016

2010/08/09 20:54
KPTW 092054Z AUTO 20007G15KT 7SM FEW070 34/19 A2997 RMK AO2 SLP144 T03390189 56012

2010/08/09 20:55
KPVC 092055Z 21014G22KT 10SM CLR 27/21 A2992 RMK AO1 57014

2010/08/09 20:55
KPWG 092055Z AUTO 17012G17KT 10SM CLR 37/18 A2989 RMK AO1 57024

2010/08/09 20:55
KRBW 092055Z AUTO 12010G15KT 10SM SCT085 32/24 A2998 RMK AO2

2010/08/09 20:54
KRDG 092054Z 20009KT 10SM CLR 33/19 A2994 RMK AO2 SLP140 T03280194 58012

2010/08/09 20:55
KRKD 092055Z AUTO 17007KT 10SM CLR 25/19 A2988 RMK AO1 57010

2010/08/09 20:54
KROC 092054Z 28010KT 5SM -RA FEW009 SCT040 BKN055 OVC130 26/21 A2994 RMK AO2 RAB34 SLP136 P0001 60001 T02560211 55004

2010/08/09 20:55
KRUT 092055Z 19004KT 9SM FEW048 SCT065 SCT095 27/19 A2991 RMK AO1 LTG DSNT W P0004 60004 57010

2010/08/09 20:55
KSDY 092055Z AUTO 00000KT 10SM CLR 32/16 A2984 RMK AO1 57010

2010/08/09 20:55
KSFM 092055Z 00000KT 10SM SCT065 SCT075 OVC110 31/18 A2987 RMK AO1 57017

2010/08/09 20:55
KSFZ 092055Z 22006KT 10SM SCT048 SCT050 30/21 A2992 RMK AO1 57014

2010/08/09 20:55
KSPL 092055Z AUTO 08011KT CLR 33/27 A2989 RMK AO2 PWINO PNO

2010/08/09 20:54
KSYR 092054Z 25010G18KT 180V270 10SM BKN060 OVC100 29/18 A2990 RMK AO2 SLP119 BKN V OVC T02940183 56012

2010/08/09 20:54
KTAD 092054Z AUTO 27006KT 10SM -RA FEW045 SCT065 OVC100 19/16 A3012 RMK AO2 WSHFT 1953 LTG DSNT ALQDS TSE24B34E53RAB1959 SLP131 P0006 60006 T01940156 58007

2010/08/09 20:55
KTME 092055Z AUTO 18006KT 10SM CLR 36/22 A2992 RMK AO2

2010/08/09 20:55
KTPL 092055Z 20012G15KT 10SM CLR 36/22 A2991 RMK AO1

2010/08/09 20:55
KTSP 092055Z AUTO RMK AO2 PWINO PNO FZRANO TSNO

2010/08/09 20:56
KUCP 092056Z AUTO 27005KT 10SM FEW100 31/19 A3000 RMK AO2 56013 60000 T03110188 SLP166

2010/08/09 20:55
KUTA 092055Z AUTO 10005KT 4SM TSRA SCT009 BKN014 OVC027 27/24 A2995 RMK AO2 LTG DSNT ALQS

2010/08/09 20:54
KVAY 092054Z AUTO VRB04KT 10SM BKN070 33/17 A2995 RMK AO2 SLP141 T03330167 56015

2010/08/09 20:54
KVSF 092054Z AUTO VRB03KT 10SM FEW031 30/18 A2990 RMK AO2 LTG DSNT NE RAB29E40 SLP122 P0000 60000 T03000183 58016

2010/08/09 20:54
KVTA 092054Z AUTO 21006KT 10SM CLR 30/18 A2998 RMK AO2 SLP147 T03000183 56015

2010/08/09 20:55
KWVL 092055Z AUTO 28005KT 10SM FEW110 28/18 A2984 RMK AO1 57014

2010/08/09 20:55
KX40 092055Z AUTO 00000KT 7SM SCT050 BKN070 OVC085 29/26 A2991 RMK AO2 LTG DSNT SW AND W T02870261

2010/08/09 20:55
KGUC 092055Z AUTO 27006KT 10SM SCT085 SCT120 21/04 A3029 RMK AO1 57007

2010/08/09 20:55
KGXY 092055Z AUTO 00000KT 10SM FEW110 31/13 A3002 RMK AO1 LTG DSNT SW 57027

2010/08/09 20:55
KHDN 092055Z 07007KT 10SM SCT080 OVC110 18/11 A3024 RMK AO1 57007

2010/08/09 20:50
KHXD 092050Z 08007KT 10SM FEW016 SCT030 30/26 A2997

2010/08/09 20:55
KHYI 092055Z AUTO 12007G15KT 10SM CLR 36/22 A2990 RMK AO1 57020

2010/08/09 20:55
KHYW 092055Z AUTO 13005KT 7SM CLR 31/27 A2999 RMK AO2

2010/08/09 20:55
KIFP 092055Z AUTO 24007KT 10SM CLR 37/00 A2981 RMK AO2

2010/08/09 20:55
KILE 092055Z AUTO 20009G15KT 10SM CLR 37/19 A2990 RMK AO1 57020

2010/08/09 20:54
KILN 092054Z AUTO VRB03KT 9SM FEW050 31/21 A2998 RMK AO2 SLP140 T03110211 56014

2010/08/09 20:54
KIND 092054Z VRB06KT 10SM FEW055 SCT140 BKN250 34/20 A2993 RMK AO2 SLP128 T03440200 57010

2010/08/09 20:54
KIPT 092054Z 10009KT 10SM CLR 32/16 A2993 RMK AO2 SLP130 T03170161 56019

2010/08/09 20:54
KIZG 092054Z AUTO 00000KT 10SM -RA FEW060 28/18 A2988 RMK AO2 RAB48 SLP117 P0000 60000 T02830183 56013

2010/08/09 20:55
KJHW 092055Z AUTO 21009G15KT 10SM CLR 27/18 A3000 RMK AO1

2010/08/09 20:54
KJST 092054Z AUTO 27004KT 10SM FEW090 28/14 A3007 RMK AO2 SLP168 T02780144 56010

2010/08/09 20:56
KJWG 092056Z AUTO 19007KT 10SM SCT080 SCT110 36/21 A2988 RMK AO2

2010/08/09 20:55
KLCI 092055Z AUTO 33008KT 10SM BKN065 BKN080 28/18 A2988 RMK AO1 LTG DSNT W 57014

2010/08/09 20:55
KLEW 092055Z 19003KT 10SM CLR 29/17 A2990 RMK AO1 57014

2010/08/09 20:54
KLEX 092054Z 00000KT 10SM FEW055 34/19 A2998 RMK AO2 SLP139 T03390189 56014

2010/08/09 20:55
KLQK 092055Z AUTO 16004KT 10SM SCT050 34/20 A3001 RMK AO2 6//// T03440197 PNO

2010/08/09 20:54
KFZY 092054Z AUTO 27010G25KT 3SM -RA FEW037 BKN055 OVC085 23/20 A2994 RMK AO2 RAB47 PRESRR SLP136 P0003 60003 T02330200 53002

2010/08/09 20:55
KGDV 092055Z AUTO 09007KT 10SM CLR 33/07 A2984 RMK AO1 57017

2010/08/09 20:54
KGED 092054Z AUTO 19011KT 10SM CLR 33/17 A2999 RMK AO2 SLP155 T03280172 56012

2010/08/09 20:55
KMKG 092055Z 21010KT 10SM SCT016 28/22 A2992 RMK AO2 SLP128 T02780217 55006

2010/08/09 20:48
KMOX 092048Z AUTO 13004KT 10SM CLR 32/18 A2989 RMK AO2

2010/08/09 20:53
KMSN 092053Z 29004KT 10SM SCT030 29/23 A2991 RMK AO2 SLP122 T02940228 58004

2010/08/09 20:53
KMWM 092053Z AUTO 08005KT 10SM SCT030 30/24 A2991 RMK AO2

2010/08/09 20:53
KMWT 092053Z AUTO VRB04KT 10SM CLR 36/21 A2991 RMK AO2 SLP112 T03560211 58018 TSNO

2010/08/09 20:53
KOVE 092053Z AUTO VRB03KT 10SM CLR 28/14 A2987 RMK AO2 SLP114 T02830139 58010 TSNO $

2010/08/09 20:53
KPNM 092053Z AUTO 35005KT 10SM CLR 33/20 A2991 RMK AO2

2010/08/09 20:53
KPQN 092053Z AUTO 08007KT 10SM CLR 31/22 A2992 RMK AO2

2010/08/09 20:53
KPWC 092053Z AUTO 20005KT 10SM CLR 31/19 A2993 RMK AO2

2010/08/09 20:55
KRNO 092055Z VRB04KT 10SM SCT080 29/02 A2996 RMK AO2 SLP093 TCU DSNT S SW T02940022 58016

2010/08/09 20:54
KROA 092054Z 11008KT 10SM FEW080 32/20 A3003 RMK AO2 SLP156 T03170200 56012

2010/08/09 20:53
KSAV 092053Z 08006KT 10SM 32/24 A2996 RMK AO2 RAB13E27 SLP144 VCSH P0000 60000 T03170239 56004 $

2010/08/09 20:55
KSCK 092055Z 00000KT 10SM CLR 27/13 A2985 RMK AO2 SLP109 T02720133 58011

2010/08/09 20:53
KSGR 092053Z 17006KT 10SM SCT065 35/22 A2990 RMK AO2 SLP133 T03500217 58018

2010/08/09 20:53
KTLH 092053Z 03006KT 10SM FEW060 35/20 A2992 RMK AO2 SLP131 T03500200 56016

2010/08/09 20:53
KTRI 092053Z 35004KT 10SM SCT050 SCT060 SCT250 34/17 A3003 RMK AO2 SLP148 T03390172 56016

2010/08/09 20:53
KTWM 092053Z AUTO 20009KT 10SM CLR 29/22 A2989 RMK AO2

2010/08/09 20:53
KTYS 092053Z 28004KT 10SM FEW060 34/20 A2997 RMK AO2 SLP136 T03440200 56019

2010/08/09 20:50
KWDG 092050Z 16013G19KT 10SM BKN130 38/19 A2985

2010/08/09 20:53
KLAX 092053Z 27010KT 10SM FEW015 19/12 A2994 RMK AO2 SLP137 T01940122 58001 $

2010/08/09 20:54
KRIC 092054Z 21009KT 8SM SCT060 SCT250 33/19 A2998 RMK AO2 SLP156 T03330189 58008 $

2010/08/09 20:52
KABI 092052Z 20007KT 10SM FEW070 36/18 A2992 RMK AO2 SLP098 T03560178 58022

2010/08/09 20:53
KAIT 092053Z AUTO 27004KT 10SM CLR 32/18 A2992 RMK AO2

2010/08/09 20:54
KAVP 092054Z 28010G21KT 10SM CLR 32/14 A2995 RMK AO2 SLP128 T03220144 58017 $

2010/08/09 20:53
KBBB 092053Z AUTO 13005KT 10SM CLR 33/19 A2994 RMK AO2

2010/08/09 20:56
KBMI 092056Z 12004KT 10SM CLR 33/26 A2994 RMK AO2 56008 T03270255 SLP120 $

2010/08/09 20:56
KBOK 092056Z AUTO 25004KT 7SM OVC003 13/12 A2996 RMK AO2 50000 T01330116 OVC V BKN SLP145

2010/08/09 20:53
KBTR 092053Z 33005G14KT 2SM +TSRA BR FEW014 BKN039CB OVC050 24/24 A2997 RMK AO2 PK WND 06036/2027 WSHFT 2013 TSB20RAB28 SLP149 CONS LTGICCG TS AT AP MOVG SW P0012 60012 T02440239 53016

2010/08/09 20:54
KBTV 092054Z 18005KT 4SM -TSRA BR FEW047CB BKN070 OVC095 23/21 A2988 RMK AO2 TSB09RAB10 SLP115 OCNL LTGIC SE TS SE MOV SE P0013 60025 T02280211 55005

2010/08/09 20:51
KCAK 092051Z COR 26009KT 7SM SCT065 BKN130 BKN180 29/17 A3000 RMK AO2 SLP148 8/579 T02940172 56012

2010/08/09 20:53
KCHA 092053Z 18004KT 10SM FEW055 SCT095 SCT250 35/21 A2996 RMK AO2 SLP136 T03500206 56017 $

2010/08/09 20:55
KCMA 092055Z 23011KT 10SM CLR 21/13 A2993 RMK AO2 SLP143 T02060133 50000

2010/08/09 20:55
KCNK 092055Z AUTO 18012KT 10SM CLR 39/19 A2984 RMK AO2 SLP081 T03940194 58012

2010/08/09 20:53
KDAB 092053Z 09009G18KT 10SM FEW025 SCT250 30/23 A2992 RMK AO2 SLP131 TCU DSNT E SW T03000233 55006

2010/08/09 20:55
KDLH 092055Z 29004KT 10SM FEW035 31/18 A2993 RMK AO2 SLP129 T03110178 50000

2010/08/09 20:55
KEAT 092055Z AUTO VRB04KT 10SM CLR 27/09 A2977 RMK AO2 SLP071 T02720094 56015

2010/08/09 20:53
KFFM 092053Z AUTO 18003KT 10SM CLR 31/19 A2988 RMK AO2

2010/08/09 20:54
KFGN 092054Z AUTO 00000KT 10SM CLR 28/20 A2987 RMK AO2

2010/08/09 20:53
KLJF 092053Z AUTO 10003KT 10SM CLR 32/20 A2991 RMK AO2

2010/08/09 20:56
KXVG 092056Z AUTO 23004KT 10SM CLR 32/21 A2991 RMK AO2

2010/08/09 20:54
KORB 092054Z AUTO 00000KT 10SM CLR 31/17 A2990 RMK AO2

2010/08/09 20:50
KMZH 092050Z AUTO 00000KT 10SM CLR 31/19 A2990 RMK AO2

2010/08/09 20:53
KBFW 092053Z AUTO 19005KT 10SM CLR 32/21 A2988 RMK AO2

2010/08/09 20:49
KVWU 092049Z AUTO 26003KT 10SM SCT110 31/23 A2990 RMK AO2

2010/08/09 20:50
KAEL 092050Z AUTO 10004KT 10SM CLR 30/22 A2991 RMK AO2

2010/08/09 20:53
KOWA 092053Z AUTO 09004KT 10SM CLR 30/22 A2991 RMK AO2

2010/08/09 20:53
K29G 092053Z AUTO 22005KT 10SM CLR 29/18 A3000 RMK AO2 T02930178 PWINO

2010/08/09 20:53
KMRT 092053Z AUTO 22004KT 10SM CLR 30/20 A3001 RMK AO2 T02950202

2010/08/09 20:54
KIKW 092054Z AUTO 22005KT 10SM SCT012 SCT100 26/22 A2989 RMK AO2 P0018 60037 T02600220

2010/08/09 20:52
KGDB 092052Z AUTO 06004KT 10SM CLR 32/19 A2992 RMK AO2 T03160194

2010/08/09 20:53
KGHW 092053Z AUTO 10003KT 10SM CLR 33/14 A2996 RMK AO2

2010/08/09 20:55
KGPI 092055Z VRB03KT 10SM CLR 26/07 A2982 RMK AO2 SLP087 T02610072 58020

2010/08/09 20:54
KGSO 092054Z 19007KT 10SM SCT055 33/19 A3002 RMK AO2 SLP154 T03280189 56008

2010/08/09 20:50
KGTU 092050Z 16007G16KT 10SM FEW050 37/18 A2993

2010/08/09 20:50
KHUM 092050Z 02008KT 6SM TSRA SCT016BKN041 27/27 A2999 RMK TS ALGDS

2010/08/09 20:55
KIRK 092055Z AUTO 22005KT 10SM CLR 32/26 A2989 RMK AO2 SLP113 T03170256 56009

2010/08/09 20:55
KLIC 092055Z AUTO VRB03KT 10SM CLR 28/15 A3008 RMK AO2 SLP105 T02780150 58016

2010/08/09 20:53
KLND 092053Z AUTO 17013G20KT 10SM FEW110 30/04 A2996 RMK AO2 SLP068 T03000039 58022

2010/08/09 20:53
KLXV 092053Z AUTO 30010G19KT 7SM -RA BKN048 OVC060 14/09 A3040 RMK AO2 RAB41 SLP133 P0000 60000 T01390089 58001 TSNO

2010/08/09 20:55
KMGG 092055Z AUTO 00000KT 10SM CLR 32/22 A2992 RMK AO2 T03240223

2010/08/09 20:53
PADQ 092053Z 20010KT 10SM FEW023 SCT140 BKN250 15/10 A2967 RMK SLP046 T01500100 51006

2010/08/09 20:54
PAHN 092054Z AUTO 12010KT 10SM OVC060 16/11 A2995 RMK AO2 SLP143 T01610111 58003 TSNO

2010/08/09 20:54
PAKN 092054Z 21011KT 10SM OVC018 13/10 A2957 RMK AO2 SLP011 T01330100 53013

2010/08/09 20:54
KONZ 092054Z AUTO 29003KT 10SM CLR 28/21 A2994 RMK AO2

2010/08/09 20:53
KTEW 092053Z AUTO 25006KT 10SM CLR 26/21 A2994 RMK AO2

2010/08/09 20:50
KCVH 092050Z AUTO 26008KT 030V040 10SM CLR 23/13 A2992 RMK AO1

2010/08/09 20:56
KDVP 092056Z AUTO 07010KT 10SM CLR 30/20 A2994 RMK AO2 T02980197

2010/08/09 20:54
KDYT 092054Z AUTO 05003KT 10SM CLR 24/22 A2989 RMK AO2

2010/08/09 20:59
KFSO 092059Z AUTO 36003KT 10SM SCT033 SCT047 BKN055 26/21 A2988 RMK AO2

2010/08/09 20:54
KFBL 092054Z AUTO 00000KT 10SM SCT037 30/21 A2991 RMK AO2

2010/08/09 20:58
KLYV 092058Z AUTO 08008KT 10SM SCT029 30/22 A2990 RMK AO2

2010/08/09 20:56
KEFK 092056Z AUTO 29005KT 10SM SCT048 BKN060 24/18 A2991 RMK AO2

2010/08/09 20:54
KRRT 092054Z AUTO 05008KT 10SM CLR 28/23 A2987 RMK AO2 TSNO

2010/08/09 20:55
KTOB 092055Z AUTO 00000KT 10SM CLR 31/23 A2993 RMK AO2

2010/08/09 20:54
KLXL 092054Z AUTO 10003KT 10SM CLR 31/17 A2991 RMK AO2

2010/08/09 20:52
KEVM 092052Z AUTO 33004KT 10SM CLR 31/16 A2991 RMK AO1

2010/08/09 20:53
KELO 092053Z AUTO 00000KT 10SM SCT090 29/17 A2992 RMK AO2

2010/08/09 20:55
KROX 092055Z AUTO 22008KT 10SM CLR 33/23 A2986 RMK AO2

2010/08/09 20:54
KSYN 092054Z AUTO 03003KT 10SM CLR 32/22 A2989 RMK AO2 T03240219

2010/08/09 20:56
KVVV 092056Z AUTO 08006KT 10SM CLR 31/19 A2991 RMK AO2

2010/08/09 21:02
KFKA 092102Z AUTO 00000KT 10SM SCT031 SCT038 31/23 A2993 RMK AO2 T03100232

2010/08/09 20:55
KROS 092055Z AUTO 00000KT 10SM CLR 31/21 A2992 RMK AO2 T03110214

2010/08/09 20:52
KHCD 092052Z AUTO 07004KT 10SM CLR 31/20 A2991 RMK AO2 T03050201

2010/08/09 20:53
KSGS 092053Z AUTO 08006KT 10SM CLR 33/20 A2989 RMK AO2 T03310196

2010/08/09 20:52
KMJQ 092052Z AUTO 06008KT 10SM CLR 27/23 A2992 RMK AO2

2010/08/09 20:54
KHCO 092054Z AUTO 21005G15KT 10SM CLR 35/21 A2985 RMK AO2

2010/08/09 20:54
KLVN 092054Z AUTO 09005KT 10SM CLR 32/21 A2990 RMK AO2

2010/08/09 20:53
KPEX 092053Z AUTO 09005KT 10SM CLR 32/19 A2992 RMK AO2 T03190193

2010/08/09 20:55
KJMR 092055Z AUTO 00000KT 10SM CLR 31/20 A2993 RMK AO2

2010/08/09 20:54
KJKJ 092054Z AUTO 20007KT 10SM CLR 33/23 A2987 RMK AO2

2010/08/09 20:54
KMVE 092054Z AUTO 13005KT 10SM CLR 31/24 A2989 RMK AO2

2010/08/09 20:53
KTKC 092053Z AUTO 07008KT 10SM CLR 30/22 A2992 RMK AO2 T03010222

2010/08/09 20:54
KGYL 092054Z AUTO 06003KT 10SM CLR 32/20 A2990 RMK AO2 T03150203

2010/08/09 20:54
KDXX 092054Z AUTO 00000KT 10SM CLR 31/21 A2990 RMK AO2

2010/08/09 20:51
KHZX 092051Z AUTO 26004KT 10SM CLR 31/17 A2993 RMK AO2

2010/08/09 20:52
KCDD 092052Z AUTO 32003KT 10SM SCT070 32/24 A2992 RMK AO2

2010/08/09 20:54
KSAZ 092054Z AUTO 00000KT 10SM CLR 32/17 A2993 RMK AO2

2010/08/09 20:51
KONA 092051Z AUTO 35003KT 10SM CLR 31/22 A2988 RMK AO2

2010/08/09 20:53
KFOZ 092053Z AUTO 22007KT 173V233 10SM CLR 32/20 A2993 RMK AO2

2010/08/09 20:54
KAQP 092054Z AUTO 09004KT 10SM CLR 31/24 A2990 RMK AO2

2010/08/09 20:54
KETH 092054Z AUTO 11003KT 10SM CLR 31/19 A2994 RMK AO2

2010/08/09 20:54
KOVL 092054Z AUTO 09006KT 10SM CLR 31/19 A2991 RMK AO2 T03060189

2010/08/09 20:54
PAIW 092054Z AUTO 07008KT 10SM -RA BKN011 OVC070 15/13 A2937 RMK AO2 P0000

2010/08/09 20:50
LIBD 092050Z 26004KT 230V290 CAVOK 22/16 Q1014

2010/08/09 20:45
LIBR 092045Z 33009KT CAVOK 24/20 Q1014 NOSIG

2010/08/09 20:50
LICC 092050Z 28007KT CAVOK 25/21 Q1014

2010/08/09 20:50
LICJ 092050Z 05008KT CAVOK 25/19 Q1016

2010/08/09 20:50
LIPB 092050Z 00000KT 9999 FEW070 SCT100 24/15 Q1015

2010/08/09 20:50
LIPE 092050Z 21007KT CAVOK 24/18 Q1014

2010/08/09 20:50
LIPK 092050Z VRB03KT CAVOK 23/16 Q1014

2010/08/09 20:50
LIPQ 092050Z 09005KT CAVOK 22/18 Q1015

2010/08/09 20:45
LIPR 092045Z 16001KT CAVOK 24/21 Q1014

2010/08/09 20:45
LIPX 092045Z 34004KT CAVOK 24/23 Q1015

2010/08/09 20:50
LIPZ 092050Z VRB03KT 9999 SCT055 25/20 Q1015

2010/08/09 21:00
SBGL 092100Z 23011KT 9999 SCT015 BKN040 22/16 Q1021

2010/08/09 20:50
EFJO 092050Z AUTO 21007KT 180V250 CAVOK 22/15 Q1011

2010/08/09 20:50
EFLP 092050Z AUTO 18002KT CAVOK 19/16 Q1013

2010/08/09 20:50
EFMI 092050Z AUTO 15003KT CAVOK 18/15 Q1012

2010/08/09 20:50
EFSA 092050Z AUTO 19003KT CAVOK 20/16 Q1012

2010/08/09 20:50
EFUT 092050Z AUTO 16003KT CAVOK 18/15 Q1012

2010/08/09 20:50
EFVR 092050Z AUTO 16002KT CAVOK 18/15 Q1011

2010/08/09 20:50
ENBS 092050Z 01005KT 9999 SCT004 BKN007 07/06 Q1015

2010/08/09 20:50
ENHV 092050Z VRB02KT 9999 FEW016 BKN026 10/06 Q1015

2010/08/09 20:50
ENMH 092050Z 09005KT 9999 BKN014 09/06 Q1015 

2010/08/09 20:50
ENRM 092050Z 02005KT 320V060 9999 BKN005 12/11 Q1011

2010/08/09 20:50
ENVD 092050Z 05015KT 9999 VV005 08/07 Q1014

2010/08/09 20:50
ENAN 092050Z 03014KT 9999 FEW008 BKN020 11/09 Q1013

2010/08/09 20:50
ENBR 092050Z 09003KT 060V120 9999 FEW014 SCT030 BKN045 13/11 Q1011 

2010/08/09 20:50
ENBO 092050Z 01006KT CAVOK 12/10 Q1010 NOSIG

2010/08/09 20:50
ENDU 092050Z VRB01KT 9999 FEW045 12/09 Q1012

2010/08/09 20:50
ENOL 092050Z 35004KT 9999 FEW006 12/11 Q1010 

2010/08/09 20:50
ENVA 092050Z VRB01KT CAVOK 17/14 Q1009 

2010/08/09 20:50
ENZV 092050Z 11005KT 9999 FEW025 SCT050 13/09 Q1012

2010/08/09 21:00
SBSV 092100Z 11006KT 9999 SCT017 24/18 Q1017

2010/08/09 20:51
PTKK 092051Z 06006KT 15SM VCSH SCT014CB BKN120 OVC280 27/25 A2987 RMK VCSH W SHRAE29 CB SE-SW-W MOV SW SLP116 60021 8/371 T02680249 52015

2010/08/09 21:00
FAVV 092100Z AUTO 22005KT //// // ////// 04/M10 Q1027

2010/08/09 21:00
FAJB 092100Z AUTO 19004KT //// // ////// 05/M10 Q1028

2010/08/09 21:00
FASI 092100Z AUTO 20005KT //// // ////// 06/M09 Q1028

2010/08/09 21:00
FAGC 092100Z AUTO 19013KT //// // ////// 05/M11 Q1028

2010/08/09 21:00
SVMI 092100Z 36004KT 9999 FEW016 BKN100 32/27 Q1009 NOSIG

2010/08/09 21:00
SBPV 092100Z 09004KT CAVOK 36/12 Q1010

2010/08/09 21:00
MROC 092100Z 25008KT 9999 SCT020 BKN045 25/24 A2996 RMK FEW250 TCU ARND RN DST NE NOSIG

2010/08/09 20:49
MMGL 092049Z 10007KT 12SM BKN030TCU 28/18 A3006 RMK SLP040 57016 900 8/200 S

2010/08/09 20:47
MMPR 092047Z 24010KT 15SM SCT020CB SCT230 32/26 A2980 RMK SLP073 57025 954 8/302

2010/08/09 20:49
MMZC 092049Z 06010KT 10SM FEW025 27/10 A3021 RMK 8/100

2010/08/09 20:45
MMZO 092045Z 12012KT 12SM SCT020 SCT100 BKN250 32/26 A2980 RMK 8/136 CBS DSNT N

2010/08/09 21:00
SBCF 092100Z 21002KT CAVOK 24/05 Q1020

2010/08/09 21:00
SBCB 092100Z 24016KT 9999 SCT035 BKN090 23/17 Q1020

2010/08/09 21:00
SBBR 092100Z 09009KT CAVOK 27/M03 Q1021 

2010/08/09 21:00
LQBK 092100Z 31002KT CAVOK 19/17 Q1017 NOSIG

2010/08/09 20:56
EYVI 092056Z VRB01KT 0150 R20/0375N FG NSC 15/15 Q1017 NOSIG

2010/08/09 21:00
SABE 092100Z 36002KT CAVOK 14/07 Q1024

2010/08/09 20:49
PADL 092049Z 17008G16KT 10SM VCSH SCT007 OVC013 11/10 A2955

2010/08/09 21:00
RPLL 092100Z 00000KT 8000 FEW023 BKN300 26/24 Q1008 NOSIG RMK A2977

2010/08/09 21:00
RPVM 092100Z 00000KT 9999 FEW020 BKN250 26/25 Q1009 A2981

2010/08/09 21:00
RPLB 092100Z 00000KT 9999 -RA SCT020 OVC080 25/23 Q1009 LGT RA INTMT

2010/08/09 21:00
SBFZ 092100Z 09012KT CAVOK 26/22 Q1012

2010/08/09 20:50
EGDL 092050Z 19007KT 9999 OVC008 17/16 Q1012 GRN NOSIG

2010/08/09 20:50
EGDY 092050Z 20005KT 9999 BKN010 18/16 Q1013 GRN NOSIG

2010/08/09 20:50
EGOV 092050Z 20008KT 9999 FEW018 SCT060 15/14 Q1009 BLU NOSIG

2010/08/09 20:50
EGQK 092050Z 18002KT 9999 SCT027 BKN035 13/12 Q1005 BLU NOSIG

2010/08/09 20:50
EGQL 092050Z 24009KT 9999 FEW022 13/10 Q1006 BLU NOSIG

2010/08/09 20:50
EGQS 092050Z 17002KT 9999 FEW028 SCT060 13/12 Q1005 BLU NOSIG

2010/08/09 20:50
EGUB 092050Z 19010KT 9999 FEW012 BKN014 BKN035 18/15 Q1012 GRN TEMPO 7000 -RADZ GRN

2010/08/09 20:50
EGUW 092050Z 20009KT CAVOK 19/11 Q1012 BLU NOSIG

2010/08/09 20:50
EGVN 092050Z 20008KT 9999 BKN010 OVC040 18/16 Q1012 GRN TEMPO SCT006 YLO1

2010/08/09 20:50
EGVO 092050Z 20009KT 9999 OVC008 17/15 Q1013 GRN TEMPO BKN006 YLO1

2010/08/09 20:50
EGXC 092050Z 23008KT 9999 FEW038 BKN080 19/14 Q1010 BLU NOSIG

2010/08/09 20:50
EGXD 092050Z 21002KT 9999 FEW025 SCT080 14/13 Q1009 BLU NOSIG

2010/08/09 20:50
EGXW 092050Z 23012KT 9999 FEW025 BKN080 19/15 Q1010 BLU NOSIG

2010/08/09 20:50
EGYM 092050Z 23011KT CAVOK 20/14 Q1011 BLU NOSIG

2010/08/09 21:00
SVBC 092100Z 18005KT 9999 SCT010 SCT060 29/23 Q1012

2010/08/09 21:00
RPLC 092100Z VRBO2G23KT 9999 FEW042 BKN300 24/23 Q1009 A2981 RMK NOSIG 

2010/08/09 20:55
KADW 092055Z AUTO 20010KT 10SM FEW060 33/21 A2997 RMK AO2 SLP149 T03280213 56011 $

2010/08/09 20:55
KAPG 092055Z 18007KT 7SM SCT200 33/21 A2998

2010/08/09 20:55
KBKF 092055Z 17014G18KT 70SM FEW080 BKN180 28/14 A3008 RMK SLP116 58015

2010/08/09 20:50
KBYH 092050Z 00000KT 10SM BKN050 BKN250 37/24 A2989

2010/08/09 20:55
KDOV 092055Z AUTO 13008KT 10SM CLR 30/22 A2997 RMK AO2 SLP152 60000 T03010221 56012

2010/08/09 20:55
KFAF 092055Z AUTO VRB06KT 10SM CLR 32/18 A3000 RMK AO2 SLP159 T03220177 58006 $

2010/08/09 20:55
KFBG 092055Z 10004KT 10SM CLR 33/21 A2999 RMK AO2A SLP154 T03330207 56010 $

2010/08/09 20:55
KFCS 092055Z AUTO 28003KT 10SM BKN100 BKN130 24/14 A3014 RMK AO2 SLP127 T02410142 58008

2010/08/09 20:55
KFMH 092055Z AUTO 24011KT 10SM CLR 28/21 A2995 RMK AO2

2010/08/09 20:55
KFSI 092055Z AUTO 20009G17KT 10SM CLR 39/18 A2985 RMK AO2 SLP080 T03900176 58017

2010/08/09 20:55
KHIF 092055Z AUTO 25009KT 10SM FEW110 27/06 A3003 RMK AO2 SLP057 T02710056 58006

2010/08/09 20:47
KIWA 092047Z 25008KT 45SM SCT120 SCT200 39/09 A2987

2010/08/09 20:55
KLHW 092055Z AUTO 12010KT 10SM FEW043 SCT060 SCT100 33/24 A2994 RMK AO2 SLP138 T03260245 57010

2010/08/09 20:55
KLSF 092055Z AUTO 12009KT 10SM FEW065 SCT100 37/21 A2994 RMK AO2 SLP136 T03650209 58013 PNO $

2010/08/09 20:55
KMMT 092055Z 09006KT 10SM FEW055 OVC250 33/21 A3000 RMK AO2A SLP156 T03300212 56010

2010/08/09 20:55
KMTC 092055Z VRB04KT 5SM -SHRA HZ FEW025 SCT040 BKN065 OVC120 26/22 A2993 RMK SLP140 60002 58005

2010/08/09 20:52
KNFW 092052Z 20011KT 10SM FEW070 39/20 A2991 RMK AO2 SLP112 T03890200 58019

2010/08/09 20:45
LIPH 092045Z 00000KT 9999 SCT080 24/20 Q1015

2010/08/09 20:54
CYYZ 092054Z 02015KT 7SM -SHRA FEW020 BKN030 OVC045 22/ RETSRA RMK SF1SC5SC3 WSHFT 2054Z

2010/08/09 20:48
RJAH 092048Z 12003KT 9999 FEW020 SCT150 24/24 Q1015 RMK 1CU020 4AC150 A2998

2010/08/09 20:49
RJSH 092049Z 27003KT 0800 R25/0550U FG FEW001 BKN002 22/22 Q1014 RMK 2ST001 6ST002 A2995 3000NE-E

2010/08/09 20:50
RJCJ 092050Z 19004KT 3000 BR SCT001 BKN002 BKN003 22/21 Q1014 RMK 3ST001 7ST002 7ST003 A2994

2010/08/09 20:47
RJTJ 092047Z 30001KT 9999 BKN025 BKN050 BKN250 25/23 Q1015 RMK 5CU025 5SC050 A3000

2010/08/09 20:55
KPHP 092055Z AUTO 13013G19KT 10SM CLR 34/14 A2986 RMK AO2 SLP088 T03440139 58016 TSNO 

2010/08/09 20:55
KHON 092055Z AUTO 13011KT 10SM CLR 32/18 A2988 RMK AO2 SLP107 T03220183 56007 TSNO 

2010/08/09 20:57
YPLM 092057Z AUTO 04007KT 9999NDV // NCD 17/15 Q1017

2010/08/09 20:55
KMBG 092055Z AUTO 16011KT 10SM CLR 33/18 A2984 RMK AO2 SLP091 T03330178 58013 TSNO 

2010/08/09 20:55
KINL 092055Z AUTO 00000KT 10SM CLR 31/19 A2990 RMK AO2 SLP121 T03110194 58002 

2010/08/09 20:56
KSHV 092056Z 00000KT 10SM SCT070 37/22 A2989 RMK AO2 SLP116 T03670217 58021 

2010/08/09 20:49
KMWN 092049Z 28022KT 0SM FG VV000 12/12 RMK

2010/08/09 21:00
SVMI 092100Z 36004KT 9999 FEW016 BKN100 32/27 Q1009 NOSIG

2010/08/09 20:45
LIPH 092045Z 00000KT 9999 SCT080 24/20 Q1015

2010/08/09 20:50
EFET 092050Z AUTO 04004KT 010V070 9999 OVC033 11/08 Q1013

2010/08/09 20:50
EFIV 092050Z AUTO 01011KT 350V050 9999 -DZ FEW009 OVC011 11/10 Q1012

2010/08/09 20:50
EFKE 092050Z AUTO 35010KT 9999 OVC012 15/12 Q1008

2010/08/09 20:50
EFKI 092050Z AUTO 16002KT //// FEW031 SCT053 BKN113 19/18 Q1008

2010/08/09 20:50
EFKS 092050Z AUTO 25003KT 9999 BKN009 BKN029 18/17 Q1008

2010/08/09 20:50
EFKT 092050Z AUTO 36006KT 320V070 9999 OVC012 12/09 Q1012

2010/08/09 20:55
EHDL 092055Z AUTO 10002KT 9999NDV NCD 14/12 Q1015 BLU

2010/08/09 20:55
EHEH 092055Z AUTO 12003KT 9999NDV NCD 17/13 Q1015 BLU

2010/08/09 20:55
EHGR 092055Z AUTO 14005KT 9999NDV SCT240 17/12 Q1015 BLU

2010/08/09 20:55
EHLW 092055Z AUTO 14005KT 9999NDV NCD 17/13 Q1014 BLU

2010/08/09 20:55
EHVK 092055Z AUTO 14001KT 9999NDV FEW200 15/13 Q1015 BLU

2010/08/09 20:55
EHVL 092055Z AUTO 15013KT 9999NDV NCD 18/14 Q1014 BLU

2010/08/09 20:55
EHWO 092055Z AUTO 15002KT 9999NDV FEW052 SCT060 16/12 Q1014 BLU

2010/08/09 20:50
HLLM 092050Z 08005KT 7000 SKC 26/18 Q1016 

2010/08/09 21:00
RPLC 092100Z VRBO2G23KT 9999 FEW042 BKN300 24/23 Q1009 A2981 RMK NOSIG

2010/08/09 20:57
YPLM 092057Z AUTO 04007KT 9999NDV // NCD 17/15 Q1017

2010/08/09 20:55
BGTL 092055Z AUTO 26007KT 9999 CLR 06/03 A2986 RMK AO2 SLP117 T00580031 58005

2010/08/09 20:55
ETOU 092055Z AUTO 00000KT 9999 FEW080 16/13 A3003 RMK AO2 SLP168 T01630128 51006

2010/08/09 20:55
KDLF 092055Z AUTO 16008KT 10SM FEW065 37/19 A2985 RMK AO2 SLP089 T03680195 58031

2010/08/09 20:55
KEDW 092055Z 34003KT 80SM CLR 32/M01 A2989 RMK AO2A SLP077 T03221005 58015

2010/08/09 20:55
KFFO 092055Z 23006KT 10SM FEW050 BKN170 32/20 A2996 RMK AO2A CLDS LWR RWY05L SLP141 57015

2010/08/09 20:55
KFHU 092055Z VRB06KT 50SM SCT050 29/16 A3010 RMK SLP124 58007

2010/08/09 20:55
KFRI 092055Z AUTO 20010KT 10SM SCT090 40/19 A2982 RMK AO2 SLP077 T04000186 56007

2010/08/09 20:55
KGSB 092055Z 00000KT 10SM CLR 33/14 A2999 RMK AO2A SLP156 T03350145 56009

2010/08/09 20:55
KHIF 092055Z AUTO 25009KT 10SM FEW110 27/06 A3003 RMK AO2 SLP057 T02710056 58006

2010/08/09 20:55
KLFI 092055Z 12007KT 10SM CLR 30/18 A3001 RMK AO2A SLP164 T03050181 58004

2010/08/09 20:55
KLTS 092055Z AUTO 17009KT 10SM CLR 38/18 A2986 RMK AO2 SLP089 T03830175 58016 $

2010/08/09 20:55
KMMT 092055Z 09006KT 10SM FEW055 OVC250 33/21 A3000 RMK AO2A SLP156 T03300212 56010

2010/08/09 20:55
KVAD 092055Z AUTO 04009KT 10SM CLR 35/21 A2993 RMK AO2 SLP134 T03450211 56013 $

2010/08/09 20:55
KVPS 092055Z 16005KT 10SM SCT020 SCT220 33/25 A2992 RMK AO2A CB 20W MOV SW SLP132 T03300247 58020 $

2010/08/09 20:55
MHSC 092055Z AUTO 13009KT 9999 VCTS -RA SCT045 BKN060 BKN180 26/22 A2993 RMK AO2 RAB2006E2019B2047DZB2003E2006B2044E2047 SLP098 P0001 60001 T02570224 55018 $

2010/08/09 20:55
KGTB 092055Z AUTO 28005KT 10SM CLR 25/20 A2993 RMK AO2 SLP133 T02530204 55002

2010/08/09 20:54
KNFG 092054Z 22007KT 7SM CLR 23/13 A2991 RMK AO2 SLP128 T02280133 58006

2010/08/09 20:53
KNIP 092053Z 05009KT 10SM SCT035CB SCT080 BKN130 BKN250 31/24 A2993 RMK AO2 RAE1956 SLP132 CB DSNT W T2 SET P0000 60000 T03060244 58007

2010/08/09 20:54
KNKT 092054Z 10005KT 10SM BKN075 29/24 A3001 RMK AO2 SLP158 T02940239 56013

2010/08/09 20:53
KNQX 092053Z 31005KT 6SM -TSRA FEW002 BKN010CB BKN020 BKN140 26/24 A2989 RMK AO2 SLP119 OCNL LTGICCC OHD TS OHD MOV S T1 SET P0009 60028 T02610244 56009 $

2010/08/09 20:52
KNRB 092052Z 08011KT 10SM FEW035 SCT070 BKN150 32/24 A2995 RMK AO2 SLP140 T2 SET 60000 T03170244 56007

2010/08/09 20:55
KPOB 092055Z AUTO 11005KT 10SM CLR 33/22 A2999 RMK AO2 SLP154 T03330221 57009 $

2010/08/09 20:55
KSKA 092055Z AUTO 19010G15KT 10SM FEW180 26/07 A2984 RMK AO2 SLP094 T02560074 58010

2010/08/09 20:55
KSKF 092055Z 14007G15KT 130V200 10SM FEW060 36/24 A2989 RMK AO2A SLP111 T03610240 58022 $

2010/08/09 20:55
KSLI 092055Z 22009KT 10SM CLR 22/14 A2993 RMK AO2A SLP136 T02150141 58002

2010/08/09 20:55
KSSC 092055Z 08006KT 10SM CLR 34/21 A2999 RMK AO2A SLP152 T03390210 56010 $

2010/08/09 20:55
KTIK 092055Z 16009G18KT 10SM FEW065 37/19 A2989 RMK AO2A SLP105 T03740189 58012

2010/08/09 20:55
KVAD 092055Z AUTO 04009KT 10SM CLR 35/21 A2993 RMK AO2 SLP134 T03450211 56013 $

2010/08/09 20:55
KVPS 092055Z 16005KT 10SM SCT020 SCT220 33/25 A2992 RMK AO2A CB 20W MOV SW SLP132 T03300247 58020 $

2010/08/09 20:55
KAST 092055Z AUTO 29006KT 10SM BKN012 OVC017 15/12 A3003 RMK AO2 SLP169 60000 T01500122 52004 

2010/08/09 20:55
KAAT 092055Z AUTO 26016G24KT 10SM CLR 29/M01 A2995 RMK AO2 SLP093 T02891011 58013 TSNO 

2010/08/09 20:56
KJAX 092056Z 06008KT 10SM FEW035 SCT065 BKN090 BKN200 28/24 A2994 RMK AO2 RAB01E11 SLP139 P0000 60000 T02830244 58002 

2010/08/09 20:55
KPOE 092055Z AUTO 16007KT 10SM FEW055 36/22 A2991 RMK AO2 SLP127 T03610222 58022 

2010/08/09 20:56
KSDF 092056Z VRB03KT 10SM SCT065 SCT150 SCT250 37/20 A2992 RMK AO2 SLP125 T03720200 56015 

2010/08/09 21:00
SBGL 092100Z 23011KT 9999 SCT015 BKN040 22/16 Q1021

2010/08/09 21:00
SBBR 092100Z 09009KT CAVOK 27/M03 Q1021 

2010/08/09 20:48
KBJC 092048Z 31010G15KT 40SM SCT060 BKN080 BKN140 28/08 A3009

2010/08/09 20:49
KNQX 092049Z 31008KT 6SM -TSRA FEW002 BKN010CB BKN020 BKN140 26/24 A2989 RMK AO2 OCNL LTGICCC OHD TS OHD MOV S T1 SET P0009 $

2010/08/09 20:56
KNJK 092056Z VRB03KT 10SM CLR 37/09 A2975 RMK AO2 SLP089 T03670094 58017 

2010/08/09 20:55
KNBG 092055Z 00000KT 9SM FEW006 SCT080 BKN110 OVC250 25/23 A2996 RMK AO2 SLP145 T1 SET P0001 60035 T02500233 58002 $ 

2010/08/09 20:54
KWAL 092054Z 19011KT 10SM BKN075 28/22 A3002 RMK AO2 SLP164 T02780217 56008 

2010/08/09 20:55
CZUM 092055Z AUTO 25004KT 9SM BKN032 15/11 A2964

2010/08/09 20:47
KIWA 092047Z 25008KT 45SM SCT120 SCT200 39/09 A2987

2010/08/09 20:49
PADL 092049Z 17008G16KT 10SM VCSH SCT007 OVC013 11/10 A2955

2010/08/09 20:50
EGDY 092050Z 20005KT 9999 BKN010 18/16 Q1013 GRN NOSIG

2010/08/09 20:50
EGOV 092050Z 20008KT 9999 FEW018 SCT060 15/14 Q1009 BLU NOSIG

2010/08/09 20:50
EGQK 092050Z 18002KT 9999 SCT027 BKN035 13/12 Q1005 BLU NOSIG

2010/08/09 20:50
EGQS 092050Z 17002KT 9999 FEW028 SCT060 13/12 Q1005 BLU NOSIG

2010/08/09 20:50
EGUB 092050Z 19010KT 9999 FEW012 BKN014 BKN035 18/15 Q1012 GRN TEMPO 7000 -RADZ GRN

2010/08/09 20:50
EGUW 092050Z 20009KT CAVOK 19/11 Q1012 BLU NOSIG

2010/08/09 20:50
EGVN 092050Z 20008KT 9999 BKN010 OVC040 18/16 Q1012 GRN TEMPO SCT006 YLO1

2010/08/09 20:50
EGVO 092050Z 20009KT 9999 OVC008 17/15 Q1013 GRN TEMPO BKN006 YLO1

2010/08/09 20:50
EGXD 092050Z 21002KT 9999 FEW025 SCT080 14/13 Q1009 BLU NOSIG

2010/08/09 20:50
EGXW 092050Z 23012KT 9999 FEW025 BKN080 19/15 Q1010 BLU NOSIG

2010/08/09 20:50
EGYM 092050Z 23011KT CAVOK 20/14 Q1011 BLU NOSIG

2010/08/09 20:50
ENAN 092050Z 03014KT 9999 FEW008 BKN020 11/09 Q1013

2010/08/09 20:50
ENBO 092050Z 01006KT CAVOK 12/10 Q1010 NOSIG

2010/08/09 20:50
ENBR 092050Z 09003KT 060V120 9999 FEW014 SCT030 BKN045 13/11 Q1011

2010/08/09 20:50
ENDU 092050Z VRB01KT 9999 FEW045 12/09 Q1012

2010/08/09 20:50
ENOL 092050Z 35004KT 9999 FEW006 12/11 Q1010

2010/08/09 20:50
ENVA 092050Z VRB01KT CAVOK 17/14 Q1009

2010/08/09 20:50
ENZV 092050Z 11005KT 9999 FEW025 SCT050 13/09 Q1012

2010/08/09 20:56
ETIC 092056Z AUTO 00000KT 9999 CLR 13/13 A3006 RMK AO2 SLP175 T01300130 52009

2010/08/09 20:55
ETOU 092055Z AUTO 00000KT 9999 FEW080 16/13 A3003 RMK AO2 SLP168 T01630128 51006

2010/08/09 20:45
LIPH 092045Z 00000KT 9999 SCT080 24/20 Q1015

2010/08/09 20:55
LIYW 092055Z AUTO 03003KT 9999 CLR 21/19 A2999 RMK AO2 SLP154 T02110189 51008

2010/08/09 21:00
LQBK 092100Z 31002KT CAVOK 19/17 Q1017 NOSIG

2010/08/09 20:55
KAFF 092055Z 22004KT 7SM -TSRA FEW005 FEW017 SCT035 SCT080 BKN110 18/16 A3019 RMK AO2A TSB2004 SLP130 P0007 60008 T01810158 56006

2010/08/09 20:55
KEND 092055Z 17014G20KT 10SM SCT070 37/18 A2986 RMK AO2A SLP092 T03740184 58012

2010/08/09 20:55
KGRK 092055Z 13011KT 7SM FEW060 37/18 A2989 RMK SLP099 58020

2010/08/09 20:55
KMCF 092055Z AUTO 32005KT 10SM SCT045 SCT055 28/26 A2988 RMK AO2 DZE1956 SLP120 60063 T02820265 56010

2010/08/09 20:55
KMIB 092055Z AUTO 00000KT 10SM CLR 31/16 A2983 RMK AO2 DZB2012E2021 SLP094 P0000 60000 T03120158 56007

2010/08/09 20:55
KPAM 092055Z AUTO VRB05KT 10SM FEW190 35/22 A2991 RMK AO2 CLDS LWR RWY13 SLP129 T03470223 58016 $

2010/08/09 20:55
KRIV 092055Z VRB05KT 10SM CLR 30/10 A2991 RMK AO2A SLP125 T02950104 57004

2010/08/09 20:55
KSKA 092055Z AUTO 19010G15KT 10SM FEW180 26/07 A2984 RMK AO2 SLP094 T02560074 58010

2010/08/09 20:55
KSKF 092055Z 14007G15KT 130V200 10SM FEW060 36/24 A2989 RMK AO2A SLP111 T03610240 58022 $

2010/08/09 20:55
KTBN 092055Z 17004KT 10SM FEW060 36/22 A2992 RMK AO2A SLP106 T03630216 56016 $

2010/08/09 20:55
KTCM 092055Z AUTO 23005KT 10SM BKN022 OVC028 18/12 A3000 RMK AO2 CIG 021V026 BKN V OVC SLP162 T01800121 53005

2010/08/09 20:55
KVOK 092055Z 28003KT 10SM SCT035 SCT200 32/24 A2990 RMK AO2A SLP117 58007

2010/08/09 21:00
LQBK 092100Z 31002KT CAVOK 19/17 Q1017 NOSIG

2010/08/09 21:00
MROC 092100Z 25008KT 9999 SCT020 BKN045 25/24 A2996 RMK FEW250 TCU ARND RN DST NE NOSIG

2010/08/09 20:55
PAED 092055Z AUTO 32008KT 10SM BKN070 OVC085 16/12 A2964 RMK AO2 SLP037 60001 T01580121 53005

2010/08/09 20:55
PHSF 092055Z 28008KT 7SM FEW200 24/09 A3032 RMK SLPNO 52003

2010/08/09 21:00
SBCB 092100Z 24016KT 9999 SCT035 BKN090 23/17 Q1020

2010/08/09 20:56
KGFA 092056Z AUTO VRB03KT 10SM CLR 29/07 A2982 RMK AO2 SLP090 T02890067 58022 

2010/08/09 20:56
KFLG 092056Z VRB06KT 10SM FEW060 21/08 A3029 RMK AO2 PK WND 20026/2022 RAB23E39 SLP165 P0000 60000 T02110083 58003 

2010/08/09 20:56
KLWS 092056Z 00000KT 10SM CLR 29/06 A2977 RMK AO2 SLP072 T02940061 56021 

2010/08/09 20:56
KNXP 092056Z 11009G18KT 7SM CLR 35/M04 A2993 RMK AO2 SLP097 T03501044 58017 $ 

2010/08/09 20:56
KSXT 092056Z AUTO VRB05KT 8SM CLR 21/13 A3002 RMK AO2 RAE16 SLP126 P0000 60000 T02060128 52003 TSNO 

2010/08/09 21:00
SBFL 092100Z 11010KT 9999 SCT040 15/09 Q1024

2010/08/09 20:55
KAFF 092055Z 22004KT 7SM -TSRA FEW005 FEW017 SCT035 SCT080 BKN110 18/16 A3019 RMK AO2A TSB2004 SLP130 P0007 60008 T01810158 56006

2010/08/09 20:55
KBAB 092055Z 19006KT 10SM CLR 28/14 A2984 RMK AO2A SLP107 T02820144 58011

2010/08/09 20:55
KCOF 092055Z 13012KT 10SM CLR 30/24 A2991 RMK AO2A SLP129 T02970237 56008

2010/08/09 20:55
KDLF 092055Z AUTO 16008KT 10SM FEW065 37/19 A2985 RMK AO2 SLP089 T03680195 58031

2010/08/09 20:55
KEDW 092055Z 34003KT 80SM CLR 32/M01 A2989 RMK AO2A SLP077 T03221005 58015

2010/08/09 20:55
KEND 092055Z 17014G20KT 10SM SCT070 37/18 A2986 RMK AO2A SLP092 T03740184 58012

2010/08/09 20:55
KFFO 092055Z 23006KT 10SM FEW050 BKN170 32/20 A2996 RMK AO2A CLDS LWR RWY05L SLP141 57015

2010/08/09 20:55
KFHU 092055Z VRB06KT 50SM SCT050 29/16 A3010 RMK SLP124 58007

2010/08/09 20:55
KFRI 092055Z AUTO 20010KT 10SM SCT090 40/19 A2982 RMK AO2 SLP077 T04000186 56007

2010/08/09 20:55
KGRK 092055Z 13011KT 7SM FEW060 37/18 A2989 RMK SLP099 58020

2010/08/09 20:55
KGSB 092055Z 00000KT 10SM CLR 33/14 A2999 RMK AO2A SLP156 T03350145 56009

2010/08/09 20:55
KLFI 092055Z 12007KT 10SM CLR 30/18 A3001 RMK AO2A SLP164 T03050181 58004

2010/08/09 20:55
KLTS 092055Z AUTO 17009KT 10SM CLR 38/18 A2986 RMK AO2 SLP089 T03830175 58016 $

2010/08/09 20:55
KLUF 092055Z 24008KT 10SM CLR 38/10 A2984 RMK AO2A SLP073 T03770101 58015 $

2010/08/09 20:55
KMCF 092055Z AUTO 32005KT 10SM SCT045 SCT055 28/26 A2988 RMK AO2 DZE1956 SLP120 60063 T02820265 56010

2010/08/09 20:55
KMIB 092055Z AUTO 00000KT 10SM CLR 31/16 A2983 RMK AO2 DZB2012E2021 SLP094 P0000 60000 T03120158 56007

2010/08/09 20:56
KNGP 092056Z 12009KT 10SM FEW035TCU SCT045 SCT250 32/27 A2988 RMK AO2 SLP119 TCU DSNT SE T03220267 58017 

2010/08/09 20:56
KNQI 092056Z 11013KT 10SM SCT047CB SCT070 BKN250 36/24 A2987 RMK AO2 SLP111 CB DSNT SW T03560237 56017 

2010/08/09 20:55
CYMH 092055Z AUTO 22015G22KT 9SM FEW032 FEW042 SCT076 19/15 A2970

2010/08/09 20:56
KNYG 092056Z 18009KT 8SM CLR 32/23 A2997 RMK AO2 SLP149 T03170228 58010 $ 

2010/08/09 20:56
KP53 092056Z AUTO 05010KT 26/22 A2989 RMK AO2 SLP119 T02560217 53008 PWINO TSNO 

2010/08/09 20:56
KNBT 092056Z AUTO 27003KT 1SM -RA SCT001 SCT015 28/25 A3001 RMK AO2 RAB33 SLP166 P0006 60006 T02780250 56005 TSNO 

2010/08/09 20:56
KGNR 092056Z AUTO VRB03KT 24/17 A2989 RMK AO1 SLP117 T02440172 58012 

2010/08/09 20:50
VECC 092050Z 00000KT 2000 HZ FEW020 29/26 Q1000 NOSIG

2010/08/09 20:56
PAJC 092056Z AUTO 23011G16KT 10SM SCT006 OVC018 14/07 A2960 RMK AO1 52014 PNO

2010/08/09 20:56
PAKK 092056Z AUTO 23004KT 3SM BKN005 OVC011 12/11 A2938 RMK AO1 52007 PNO

2010/08/09 20:56
PAKP 092056Z AUTO 03006KT 10SM OVC050 09/07 A2958 RMK AO1 57003

2010/08/09 20:56
PAKU 092056Z 06024KT 2 1/2SM BR OVC004 04/04 A2975

2010/08/09 20:56
PAMD 092056Z AUTO 16007KT 3SM BKN004 BKN014 OVC027 13/11 A2981 RMK AO1 52014 PNO

2010/08/09 20:56
PAMH 092056Z RMK AO1 PNO

2010/08/09 20:56
PAMM 092056Z AUTO 25005KT 10SM OVC024 13/11 A3005 RMK AO1 52003 PNO

2010/08/09 20:50
PAMX 092050Z 00000KT 25SM FEW010 BKN050 OVC070 15/12 A2983 RMK NOSPECI

2010/08/09 20:56
PAMY 092056Z 19010KT 10SM OVC013 11/09 A2919 RMK AO1 52010

2010/08/09 20:56
PANI 092056Z AUTO 12008KT 10SM BKN060 OVC090 13/10 A2941 RMK AO1 52003 PNO

2010/08/09 20:56
PANV 092056Z AUTO 10005KT 10SM FEW012 SCT018 OVC060 12/10 A2940 RMK AO1 52003 PNO

2010/08/09 20:56
PAOU 092056Z AUTO 00000KT 8SM BKN021 OVC026 12/09 A2955 RMK AO2 PWINO TSNO 53003 T01220088 SLP010 $

2010/08/09 20:56
PAPG 092056Z 00000KT 10SM SCT022 SCT036 OVC044 14/11 A3001 RMK AO1 WEA

2010/08/09 20:56
PAPN 092056Z AUTO 00000KT 10SM OVC032 13/10 A2960 RMK AO2 PWINO TSNO 51007 T01270100 SLP025

2010/08/09 20:56
PARC 092056Z AUTO 03006KT 10SM CLR 14/05 A2962 RMK AO1 57014 PNO

2010/08/09 20:56
PASA 092056Z AUTO 09011KT 10SM SCT005 OVC014 11/08 A2929 RMK AO1 52014 PNO

2010/08/09 20:56
PASD 092056Z 19017G22KT 4SM SCT014 BKN017 OVC022 11/08 A2964 RMK AO1 WEA

2010/08/09 20:56
KSDF 092056Z VRB03KT 10SM SCT065 SCT150 SCT250 37/20 A2992 RMK AO2 SLP125 T03720200 56015

2010/08/09 20:53
K04W 092053Z AUTO 00000KT 10SM BKN043 32/22 A2991 RMK AO2 T03210215

2010/08/09 20:55
K0A9 092055Z AUTO 00000KT 10SM FEW085 31/21 A3004 RMK

2010/08/09 20:56
K1M4 092056Z AUTO VRB04KT 10SM CLR 31/23 A3001 RMK AO2 56014 60000 T03110233 LTG DSNT NE SLP157

2010/08/09 20:55
K21D 092055Z AUTO 05005KT 10SM CLR 32/21 A2991 RMK AO2

2010/08/09 20:56
KAND 092056Z AUTO 11006KT 10SM CLR 34/19 A2999 RMK AO2 SLP144 T03440189 56014

2010/08/09 20:55
KAPG 092055Z 18007KT 7SM SCT200 33/21 A2998

2010/08/09 20:56
KART 092056Z AUTO 23007KT 7SM CLR 26/20 A2990 RMK AO2 SLP121 T02560200 56009

2010/08/09 20:55
KARW 092055Z AUTO 10009G14KT 10SM SCT025 32/22 A2996 RMK AO2

2010/08/09 20:55
KBDN 092055Z AUTO 29010G17KT 10SM CLR 25/05 A2993 RMK AO2

2010/08/09 20:56
KBED 092056Z 29010KT 9SM CLR 33/16 A2988 RMK AO2 SLP127 T03330161 56016

2010/08/09 20:53
KBHM 092053Z COR 00000KT 10SM FEW 060 36/19 A2997 RMK AO2 SLP137 T03560194 58017

2010/08/09 20:54
KBJI 092054Z AUTO 23006KT 10SM CLR 32/14 A2991 RMK AO2

2010/08/09 20:56
KBJJ 092056Z AUTO 25005KT 10SM CLR 29/19 A3000 RMK AO2 SLP149 T02940189 56014

2010/08/09 20:55
KBKN 092055Z AUTO 16014G20KT 10SM 38/19 A2984 RMK AO2

2010/08/09 20:56
KBZN 092056Z VRB05KT 10SM BKN085 26/09 A2994 RMK AO2 SLP104 T02610089 56017

2010/08/09 20:53
KC29 092053Z AUTO 02003KT 10SM SCT029 30/22 A2992 RMK AO2 T03040219

2010/08/09 20:56
KCEC 092056Z AUTO 28005KT 10SM BKN010 14/11 A2996 RMK AO2 CIG 008V012 SLP147 T01440111 55000

2010/08/09 20:56
KCTB 092056Z AUTO 00000KT 10SM CLR 26/07 A2985 RMK AO2 LTG DSNT S SLP084 T02560067 58015 PWINO

2010/08/09 20:53
KD39 092053Z AUTO 09005KT 10SM CLR 33/16 A2993 RMK AO2 T03340162

2010/08/09 20:56
KDAY 092056Z 24004KT 9SM SCT050 BKN150 OVC250 32/19 A2998 RMK AO2 SLP144 T03170189 56013

2010/08/09 20:56
KDIK 092056Z AUTO 18014G21KT 10SM FEW080 35/15 A2982 RMK AO2 LTG DSNT N SLP075 T03500150 57013

2010/08/09 20:56
KDUG 092056Z AUTO 28004KT 10SM CLR 32/14 A3005 RMK AO2 SLP100 T03170139 58013

2010/08/09 20:56
KDUJ 092056Z AUTO 22007KT 10SM CLR 29/16 A3003 RMK AO2 SLP153 T02940161 58012

2010/08/09 20:55
KDVK 092055Z AUTO 15003KT 10SM SCT050 34/20 A2996 RMK AO1

2010/08/09 20:56
KEAU 092056Z 34004KT 10SM CLR 33/21 A2990 RMK AO2 SLP117 T03280211 58002

2010/08/09 20:56
KEED 092056Z AUTO VRB06KT 10SM CLR 38/M02 A2982 RMK AO2 SLP061 T03831017 58020 TSNO

2010/08/09 20:55
KEIK 092055Z AUTO 29017G21KT 10SM VCTS SCT075 BKN090 BKN120 27/10 A3004 RMK AO2 LTG DSNT SW AND W

2010/08/09 20:56
KEKO 092056Z AUTO 22012G19KT 10SM CLR 31/02 A2998 RMK AO2 SLP086 T03060017 58013

2010/08/09 20:56
KELZ 092056Z AUTO 22004KT 10SM FEW060 SCT095 26/17 A3004 RMK AO2 SLP157 T02560172 56012

2010/08/09 20:55
KFAF 092055Z AUTO VRB06KT 10SM CLR 32/18 A3000 RMK AO2 SLP159 T03220177 58006 $

2010/08/09 20:55
KFBG 092055Z 10004KT 10SM CLR 33/21 A2999 RMK AO2A SLP154 T03330207 56010 $

2010/08/09 20:55
KGGE 092055Z AUTO 13006KT 10SM SCT065 BKN110 30/25 A2999 RMK AO2

2010/08/09 20:56
KGON 092056Z 21009KT 5SM HZ CLR 26/22 A2994 RMK AO2 SLP139 T02610217 56013

2010/08/09 20:56
KGRD 092056Z AUTO 10005KT 10SM CLR 33/21 A3001 RMK AO2 SLP153 T03330211 56013

2010/08/09 20:56
KHND 092056Z 14008KT 10SM CLR 36/02 A2992 RMK AO2 58018 T03550016 SLP080

2010/08/09 20:56
KHPN 092056Z 20008G15KT 9SM SCT100 30/18 A2994 RMK AO2 SLP133 T03000183 56011

2010/08/09 20:56
KHWV 092056Z AUTO 21010KT 9SM CLR 28/22 A2997 RMK AO2 SLP146 T02780217 58014

2010/08/09 20:56
KHYA 092056Z 22014G18KT 10SM CLR 28/21 A2994 RMK AO2 SLP138 T02780211 58015

2010/08/09 20:56
KIGX 092056Z AUTO 12004KT 8SM SCT050 SCT065 BKN080 32/20 A3001 RMK AO2 SLP155 T03170200 56010

2010/08/09 20:56
KINW 092056Z AUTO 00000KT 10SM FEW080 30/07 A3010 RMK AO2 SLP117 T03000067 58016

2010/08/09 20:56
KISP 092056Z 20012KT 10SM FEW150 OVC250 28/18 A2995 RMK AO2 SLP140 T02780183 58011

2010/08/09 20:56
KITH 092056Z 27007KT 10SM SCT070 BKN100 29/18 A2996 RMK AO2 56019 T02940183 SLP137

2010/08/09 20:56
KJMS 092056Z AUTO 21010KT 10SM CLR 33/20 A2988 RMK AO2 SLP110 T03330200 58005

2010/08/09 20:56
KLAS 092056Z 11007KT 080V140 10SM CLR 34/03 A2986 RMK AO2 SLP084 T03440033 58020

2010/08/09 20:56
KLNR 092056Z AUTO 36003KT 10SM FEW033 32/22 A2990 RMK AO2 SLP115 T03170217 58008

2010/08/09 20:56
KM19 092056Z AUTO 19006KT 10SM FEW049 A2990 RMK AO2 56013 LTG DSNT NW SLPNO $

2010/08/09 20:55
KMAO 092055Z AUTO 10003KT 10SM CLR 33/20 A2998 RMK AO2

2010/08/09 20:56
KMDT 092056Z 12004KT 8SM FEW050 SCT250 32/19 A2994 RMK AO2 SLP136 T03220189 58015

2010/08/09 20:55
KMKS 092055Z AUTO 11006KT 10SM SCT090 30/24 A2998 RMK AO2 TSNO

2010/08/09 20:55
KMMT 092055Z 09006KT 10SM FEW055 OVC250 33/21 A3000 RMK AO2A SLP156 T03300212 56010

2010/08/09 20:45
KMMU 092045Z 26010G15KT 8SM SCT150 33/17 A2994

2010/08/09 20:56
KMQY 092056Z 16005KT 10SM FEW055 36/22 A2993 RMK AO2 56021 T00000000 SLP124 $

2010/08/09 20:56
KMRH 092056Z AUTO 19007KT 10SM SCT060 28/23 A3001 RMK AO2 SLP164 T02830233 56010 TSNO

2010/08/09 20:55
KNQA 092055Z COR 14004KT 10SM SCT080 BKN150 BKN250 29/26 A2993 RMK

2010/08/09 20:55
KO22 092055Z AUTO 22005KT 10SM CLR 30/08 A2994 RMK AO1

2010/08/09 20:50
KOCF 092050Z 16004KT 10SM SCT030 BKN080 28/25 A2991 RMK TSE48

2010/08/09 20:56
KOFK 092056Z AUTO 07003KT 10SM CLR 30/23 A2989 RMK AO2 SLP108 T03000233 58004

2010/08/09 20:56
KOWB 092056Z 30004KT 9SM FEW075 38/22 A2991 RMK AO2 56018 T03770222 SLP123

2010/08/09 20:55
KPVF 092055Z AUTO 20008KT 10SM CLR 28/08 A2997 RMK AO1

2010/08/09 20:55
KRCE 092055Z AUTO 17011G16KT 10SM FEW070 SCT090 35/20 A2989 RMK AO2

2010/08/09 20:56
KRDM 092056Z 32010G18KT 10SM FEW080 28/05 A2990 RMK AO2 SLP100 T02780050 56012

2010/08/09 20:47
KRHV 092047Z 31009KT 10SM SKC 27/13 A2988

2010/08/09 20:56
KSBP 092056Z 31005KT 10SM CLR 22/13 A2993 RMK AO2 SLP132 T02220128 56006 $

2010/08/09 20:45
KSCH 092045Z 30007KT 10SM SCT090 32/17 A2990

2010/08/09 20:56
KSFO 092056Z 33011KT 10SM FEW010 20/12 A2991 RMK AO2 SLP127 T02000117 58007

2010/08/09 20:56
KSGH 092056Z AUTO VRB06KT 5SM HZ CLR 31/24 A2999 RMK AO2 58013 60000 T03110238 SLP147 $

2010/08/09 20:58
KSGJ 092058Z 11011KT 10SM FEW018 BKN024 BKN070 31/24 A2994 RMK AO2 SLP139 T03060244 56010

2010/08/09 20:56
KSLE 092056Z 08005KT 10SM SCT038 21/09 A2998 RMK AO2 SLP153 T02060089 58006

2010/08/09 20:55
KSME 092055Z AUTO 00000KT 10SM 35/22 A2997 RMK AO2

2010/08/09 20:55
KSMS 092055Z AUTO 09004KT 5SM HZ CLR 32/23 A3000 RMK AO2

2010/08/09 20:56
KSRC 092056Z AUTO 06008KT 10SM SCT060 37/24 A2990 RMK AO2 TSNO 56014 T03720244 SLP125

2010/08/09 20:54
KSUS 092054Z COR 19005KT 10SM FEW050 BKN200 36/24 A2988 RMK AO2 SLP106 T03560239 56007

2010/08/09 20:56
K20V 092056Z AUTO 24006G09KT 10SM BKN070 OVC090 21/05 A3026 RMK AO2 LTG DSNT E

2010/08/09 20:53
K4BM 092053Z AUTO 00000KT 10SM -TSRA 12/07 A3053 RMK AO2 LTG DSNT ALQS

2010/08/09 20:52
K5SM 092052Z AUTO 00000KT 10SM 12/09 A3051 RMK AO2 LTG DSNT NW

2010/08/09 20:54
K7BM 092054Z AUTO 36007G14KT 330V040 10SM VCTS SCT039 SCT080 BKN110 19/08 A3039 RMK AO2 LTG DSNT N THRU S

2010/08/09 20:58
KBDU 092058Z AUTO 25010G16KT 10SM VCTS OVC110 26/11 A3007 RMK AO2 LTG DSNT SW THRU NW

2010/08/09 20:57
KCCU 092057Z AUTO 27014G19KT 10SM BKN013 OVC021 12/07 A3056 RMK AO2 LTG DSNT NE AND S

2010/08/09 20:55
KCEF 092055Z AUTO 20009KT 10SM SCT090 33/17 A2989 RMK AO2 SLP123 T03300173 56018 PWINO $

2010/08/09 21:02
KCPW 092102Z AUTO 23009G19KT 211V271 10SM BKN019 BKN028 OVC065 11/06 A3056 RMK AO2 LTG DSNT NW THRU SE

2010/08/09 20:55
KHFF 092055Z AUTO 17005KT 10SM CLR 34/21 A3001 RMK AO2 SLP158 T03390207 58013 $

2010/08/09 20:55
KLRF 092055Z AUTO 16006KT 10SM CLR 37/24 A2990 RMK AO2 LTG DSNT NE SLP121 T03690245 57017

2010/08/09 20:55
KMHR 092055Z 19005KT 10SM SKC 28/12 A2986

2010/08/09 20:56
KMOB 092056Z 16009KT 10SM SCT035 BKN200 33/24 A2995 RMK AO2 SLP137 T03280239 58013

2010/08/09 20:55
KOZR 092055Z AUTO 06008KT 10SM CLR 35/21 A2993 RMK AO2 SLP132 T03540212 58018 $

2010/08/09 20:53
KSNA 092053Z COR 21007KT 10SM FEW019 24/13 A2992 RMK AO2 SLP132 T02390128 56004

2010/08/09 21:00
KVTP 092100Z AUTO 12003KT 10SM TS SCT029 BKN039 OVC045 12/11 A3045 RMK AO2 LTG DSNT ALQS

2010/08/09 20:50
KWYS 092050Z AUTO 23010G20KT 10SM SCT050 SCT090 19/07 A3010 RMK AO2

2010/08/09 20:56
PASH 092056Z AUTO 11013KT 10SM CLR 16/11 A2940 RMK AO1 52003 PNO

2010/08/09 20:56
PASK 092056Z AUTO 09013KT 10SM BKN037 OVC046 14/11 A2945 RMK AO1 54000 PNO

2010/08/09 20:56
PASM 092056Z AUTO 15013G17KT 9SM SCT008 BKN015 OVC037 10/08 A2932 RMK AO1 52003 PNO

2010/08/09 20:56
PASX 092056Z AUTO 25009KT 10SM OVC080 17/10 A2964 RMK AO1 52010 PNO

2010/08/09 20:56
PATG 092056Z AUTO 19020KT 4SM OVC008 10/09 A2947 RMK AO1 52014 PNO

2010/08/09 20:56
PAUN 092056Z AUTO 11006KT 10SM OVC050 12/08 A2939 RMK AO1 52003 PNO

2010/08/09 20:56
PAVD 092056Z 25003KT 2SM SCT001 BKN020 OVC030 12/09 A2983 RMK AO1 2047Z WEA

2010/08/09 20:56
PAWG 092056Z 35003KT 10SM SCT010 BKN045 OVC060 14/11 A3002 RMK AO1 WEA

2010/08/09 20:56
PAWN 092056Z AUTO 15005KT 10SM BKN045 18/09 A2947 RMK AO1 57007 PNO

2010/08/09 20:56
PAWS 092056Z AUTO 27004KT 10SM OVC070 14/12 A2964 RMK AO1 52007 PNO

2010/08/09 20:56
PAZK 092056Z AUTO 12008KT 090V170 10SM CLR 14/05 A2969 RMK AO1 57007 PNO

2010/08/09 20:56
PAAK 092056Z AUTO 28019G25KT 3SM OVC004 09/07 A2972 RMK AO1 52024 PNO

2010/08/09 20:56
PABL 092056Z AUTO 11010G15KT 10SM SCT030 OVC036 14/11 A2942 RMK AO1 54000 PNO

2010/08/09 20:56
PABV 092056Z AUTO 13004KT 10SM OVC080 14/09 A2964 RMK AO1 52007 PNO

2010/08/09 20:56
PACM 092056Z AUTO 14012G17KT 7SM SCT016 BKN047 OVC080 11/09 A2925 RMK AO2 PWINO TSNO 51004 60001 T01050088 RAEMM P0000 SLP900 $

2010/08/09 20:56
PADK 092056Z 27015KT 10SM OVC034 11/08 A2977 RMK AO1 52017 PNO

2010/08/09 20:56
PAEM 092056Z AUTO 14011G17KT 10SM BKN017 BKN022 OVC027 11/08 A2926 RMK AO1 52003 PNO

2010/08/09 20:56
PAFE 092056Z AUTO 21004KT 10SM OVC039 14/11 A3004 RMK AO1 52007 PNO

2010/08/09 20:56
PAFM 092056Z AUTO 03004KT 10SM FEW019 BKN023 OVC043 12/11 A2951 RMK AO1 54000 PNO

2010/08/09 20:56
PAGL 092056Z AUTO 16012KT 10SM FEW022 SCT036 BKN048 12/09 A2943 RMK AO1 52010 PNO

2010/08/09 20:56
PAGM 092056Z AUTO 05014KT 1/4SM OVC002 09/08 A2928 RMK AO1 52007

2010/08/09 20:56
PAGS 092056Z AUTO 11006KT 10SM BKN060 17/11 A2997 RMK AO1 54000 PNO

2010/08/09 20:56
PAHP 092056Z AUTO 11014KT 7SM BKN009 OVC016 10/08 A2920 RMK AO1 52007 PNO TSNO

2010/08/09 20:56
PAHY 092056Z AUTO 00000KT 5SM OVC017 14/12 A3002 RMK AO1 52007 PNO

2010/08/09 20:56
PAII 092056Z AUTO 23010KT 10SM SCT015 BKN021 OVC035 12/11 A2963 RMK AO1 PNO

2010/08/09 20:56
PAIN 092056Z AUTO 16005KT 10SM OVC048 16/09 A2962 RMK AO1 52003 PNO

2010/08/09 20:55
PAIM 092055Z AUTO 14004KT 10SM SCT011 OVC021 12/12 A2954 RMK AO1 T01220117

2010/08/09 20:55
PAEH 092055Z AUTO 16018G36KT 130V190 4SM OVC005 09/07 RMK AO1 9 T00890073

2010/08/09 20:55
PALU 092055Z AUTO 07017KT 5SM 08/07 A2960 RMK AO1 T00830073

2010/08/09 20:55
PATC 092055Z AUTO 08006KT 5SM SCT013 BKN028 OVC035 14/12 A2935 RMK AO1 T01390117

2010/08/09 20:55
PATL 092055Z AUTO 13007KT 080V200 10SM OVC013 11/11 A2953 RMK AO1 0 T01110106

2010/08/09 20:55
PASV 092055Z AUTO 18012KT 10SM BKN017 OVC023 10/08 A2956 RMK AO1 T01000084

2010/08/09 20:50
EFET 092050Z AUTO 04004KT 010V070 9999 OVC033 11/08 Q1013

2010/08/09 20:50
EFIV 092050Z AUTO 01011KT 350V050 9999 -DZ FEW009 OVC011 11/10 Q1012

2010/08/09 20:50
EFKE 092050Z AUTO 35010KT 9999 OVC012 15/12 Q1008

2010/08/09 20:50
EFKI 092050Z AUTO 16002KT //// FEW031 SCT053 BKN113 19/18 Q1008

2010/08/09 20:50
EFKS 092050Z AUTO 25003KT 9999 BKN009 BKN029 18/17 Q1008

2010/08/09 20:50
EFKT 092050Z AUTO 36006KT 320V070 9999 OVC012 12/09 Q1012

2010/08/09 20:56
KALS 092056Z AUTO 26008KT 10SM 22/12 A3025 RMK AO2 LTG DSNT W AND NW

2010/08/09 20:56
KLGU 092056Z AUTO 11012G18KT 10SM SCT090 BKN110 26/06 A3002 RMK AO2 WSHFT 2038 LTG DSNT E

2010/08/09 20:56
KTPH 092056Z AUTO 18017G23KT 10SM CLR 29/M06 A3006 RMK AO2 SLP099 T02891061 56011

2010/08/09 20:56
KUKI 092056Z AUTO 13006KT 10SM CLR 29/14 A2985 RMK AO2 SLP100 T02890139 56014

2010/08/09 20:56
KWJF 092056Z 00000KT 10SM CLR 33/M03 A2991 RMK AO2 SLP107 T03331028 58013

2010/08/09 20:55
KY51 092055Z AUTO 35003KT 10SM CLR 30/23 A2993 RMK AO1 T02960233

2010/08/09 20:56
PAAK 092056Z AUTO 28019G25KT 3SM OVC004 09/07 A2972 RMK AO1 52024 PNO

2010/08/09 20:56
PACM 092056Z AUTO 14012G17KT 7SM SCT016 BKN047 OVC080 11/09 A2925 RMK AO2 PWINO TSNO 51004 60001 T01050088 RAEMM P0000 SLP900 $

2010/08/09 20:56
PAHP 092056Z AUTO 11014KT 7SM BKN009 OVC016 10/08 A2920 RMK AO1 52007 PNO TSNO

2010/08/09 20:55
PGUA 092055Z AUTO 24003KT 10SM BKN047 25/ A2993 RMK AO2 DZE1956 SLP117 60000 T0247 53010 VISNO RWY24L $

2010/08/09 20:56
TJSJ 092056Z 08012KT 10SM FEW020 SCT039 BKN080 28/25 A2992 RMK AO2 SLP131 SHRA DSNT NW 60012 T02830250 58005

2010/08/09 20:52
PADT 092052Z 29005KT 20SM BKN030 BKN060 16/08 A2968 RMK NOSPECI

2010/08/09 20:50
EETU 092050Z AUTO 16005KT 9999NDV BKN170/// 18/17 Q1014

2010/08/09 20:54
KCOU 092054Z 18005KT 10SM FEW090 33/26 A2991 RMK AO2 SLP117 T03280256 57008

2010/08/09 20:54
KFWA 092054Z 20006KT 9SM FEW048 BKN140 BKN250 30/23 A2995 RMK AO2 SLP137 T03000233 56013

2010/08/09 20:51
KSAD 092051Z AUTO VRB05KT 10SM CLR 35/11 A2996 RMK AO2 SLP084 T03500111 58016 TSNO

2010/08/09 20:54
KACY 092054Z 17012KT 10SM CLR 31/17 A3000 RMK AO2 SLP156 T03060172 56010

2010/08/09 20:53
KRTN 092053Z AUTO 15013G25KT 10SM -RA SCT042 BKN095 23/13 A3015 RMK AO2 PK WND 15034/2041 RAB50 SLP116 P0000 60000 T02280128 55005 TSNO $

2010/08/09 20:54
KRFD 092054Z VRB03KT 10SM FEW030 SCT085 SCT250 30/22 A2993 RMK AO2 SLP127 T03000217 58002 $

2010/08/09 20:49
KMWN 092049Z 28022KT 0SM FG VV000 12/12 RMK

2010/08/09 20:55
KDRA 092055Z AUTO 21017G28KT 10SM CLR 34/M06 A2994 RMK AO2 PK WND 21029/2020 WSHFT 1953 SLP088 T03391061 56012 TSNO

2010/08/09 20:53
KRQE 092053Z AUTO 27004KT 10SM SCT080 SCT100 25/07 A3025 RMK AO2 SLP125 T02500072 58006 TSNO

2010/08/09 20:53
KMSY 092053Z 24004KT 10SM -RA FEW016 SCT041 SCT150 OVC200 26/24 A2996 RMK AO2 TSE26 PRESFR SLP149 P0022 60022 T02610239 52001

2010/08/09 20:54
KAKQ 092054Z AUTO VRB04KT 10SM FEW060 33/18 A3000 RMK AO2 SLP156 T03330178 56008 TSNO

2010/08/09 20:55
KVBG 092055Z 35008KT 10SM FEW008 SCT014 17/12 A2996 RMK AO2 SLP136 T01720122 58001 VISNO RWY12 $

2010/08/09 20:54
KONZ 092054Z AUTO 29003KT 10SM CLR 28/21 A2994 RMK AO2

2010/08/09 20:53
KTEW 092053Z AUTO 25006KT 10SM CLR 26/21 A2994 RMK AO2

2010/08/09 20:50
KCVH 092050Z AUTO 26008KT 030V040 10SM CLR 23/13 A2992 RMK AO1

2010/08/09 20:56
KDVP 092056Z AUTO 07010KT 10SM CLR 30/20 A2994 RMK AO2 T02980197

2010/08/09 20:54
KDYT 092054Z AUTO 05003KT 10SM CLR 24/22 A2989 RMK AO2

2010/08/09 20:59
KFSO 092059Z AUTO 36003KT 10SM SCT033 SCT047 BKN055 26/21 A2988 RMK AO2

2010/08/09 20:54
KFBL 092054Z AUTO 00000KT 10SM SCT037 30/21 A2991 RMK AO2

2010/08/09 20:58
KLYV 092058Z AUTO 08008KT 10SM SCT029 30/22 A2990 RMK AO2

2010/08/09 20:56
KEFK 092056Z AUTO 29005KT 10SM SCT048 BKN060 24/18 A2991 RMK AO2

2010/08/09 20:54
KRRT 092054Z AUTO 05008KT 10SM CLR 28/23 A2987 RMK AO2 TSNO

2010/08/09 20:55
KTOB 092055Z AUTO 00000KT 10SM CLR 31/23 A2993 RMK AO2

2010/08/09 20:54
KLXL 092054Z AUTO 10003KT 10SM CLR 31/17 A2991 RMK AO2

2010/08/09 20:52
KEVM 092052Z AUTO 33004KT 10SM CLR 31/16 A2991 RMK AO1

2010/08/09 20:53
KELO 092053Z AUTO 00000KT 10SM SCT090 29/17 A2992 RMK AO2

2010/08/09 20:55
KROX 092055Z AUTO 22008KT 10SM CLR 33/23 A2986 RMK AO2

2010/08/09 20:54
KSYN 092054Z AUTO 03003KT 10SM CLR 32/22 A2989 RMK AO2 T03240219

2010/08/09 20:56
KVVV 092056Z AUTO 08006KT 10SM CLR 31/19 A2991 RMK AO2

2010/08/09 20:55
KROS 092055Z AUTO 00000KT 10SM CLR 31/21 A2992 RMK AO2 T03110214

2010/08/09 20:52
KHCD 092052Z AUTO 07004KT 10SM CLR 31/20 A2991 RMK AO2 T03050201

2010/08/09 20:53
KSGS 092053Z AUTO 08006KT 10SM CLR 33/20 A2989 RMK AO2 T03310196

2010/08/09 20:52
KMJQ 092052Z AUTO 06008KT 10SM CLR 27/23 A2992 RMK AO2

2010/08/09 20:54
KHCO 092054Z AUTO 21005G15KT 10SM CLR 35/21 A2985 RMK AO2

2010/08/09 20:54
KLVN 092054Z AUTO 09005KT 10SM CLR 32/21 A2990 RMK AO2

2010/08/09 20:53
KPEX 092053Z AUTO 09005KT 10SM CLR 32/19 A2992 RMK AO2 T03190193

2010/08/09 20:55
KJMR 092055Z AUTO 00000KT 10SM CLR 31/20 A2993 RMK AO2

2010/08/09 20:54
KJKJ 092054Z AUTO 20007KT 10SM CLR 33/23 A2987 RMK AO2

2010/08/09 20:54
KMVE 092054Z AUTO 13005KT 10SM CLR 31/24 A2989 RMK AO2

2010/08/09 20:53
KTKC 092053Z AUTO 07008KT 10SM CLR 30/22 A2992 RMK AO2 T03010222

2010/08/09 20:54
KGYL 092054Z AUTO 06003KT 10SM CLR 32/20 A2990 RMK AO2 T03150203

2010/08/09 20:54
KDXX 092054Z AUTO 00000KT 10SM CLR 31/21 A2990 RMK AO2

2010/08/09 20:51
KHZX 092051Z AUTO 26004KT 10SM CLR 31/17 A2993 RMK AO2

2010/08/09 20:52
KCDD 092052Z AUTO 32003KT 10SM SCT070 32/24 A2992 RMK AO2

2010/08/09 20:54
KSAZ 092054Z AUTO 00000KT 10SM CLR 32/17 A2993 RMK AO2

2010/08/09 21:02
KFKA 092102Z AUTO 00000KT 10SM SCT031 SCT038 31/23 A2993 RMK AO2 T03100232

2010/08/09 20:54
KWAL 092054Z 19011KT 10SM BKN075 28/22 A3002 RMK AO2 SLP164 T02780217 56008

2010/08/09 20:54
KWAL 092054Z 19011KT 10SM BKN075 28/22 A3002 RMK AO2 SLP164 T02780217 56008

2010/08/09 20:51
KONA 092051Z AUTO 35003KT 10SM CLR 31/22 A2988 RMK AO2

2010/08/09 20:53
KFOZ 092053Z AUTO 22007KT 173V233 10SM CLR 32/20 A2993 RMK AO2

2010/08/09 20:54
KAQP 092054Z AUTO 09004KT 10SM CLR 31/24 A2990 RMK AO2

2010/08/09 20:54
KETH 092054Z AUTO 11003KT 10SM CLR 31/19 A2994 RMK AO2

2010/08/09 20:54
KOVL 092054Z AUTO 09006KT 10SM CLR 31/19 A2991 RMK AO2 T03060189

2010/08/09 20:53
KLJF 092053Z AUTO 10003KT 10SM CLR 32/20 A2991 RMK AO2

2010/08/09 20:56
KXVG 092056Z AUTO 23004KT 10SM CLR 32/21 A2991 RMK AO2

2010/08/09 20:54
KORB 092054Z AUTO 00000KT 10SM CLR 31/17 A2990 RMK AO2

2010/08/09 20:50
KMZH 092050Z AUTO 00000KT 10SM CLR 31/19 A2990 RMK AO2

2010/08/09 20:53
KBFW 092053Z AUTO 19005KT 10SM CLR 32/21 A2988 RMK AO2

2010/08/09 20:49
KVWU 092049Z AUTO 26003KT 10SM SCT110 31/23 A2990 RMK AO2

2010/08/09 20:50
KAEL 092050Z AUTO 10004KT 10SM CLR 30/22 A2991 RMK AO2

2010/08/09 20:53
KOWA 092053Z AUTO 09004KT 10SM CLR 30/22 A2991 RMK AO2

2010/08/09 20:53
K29G 092053Z AUTO 22005KT 10SM CLR 29/18 A3000 RMK AO2 T02930178 PWINO

2010/08/09 20:53
KMRT 092053Z AUTO 22004KT 10SM CLR 30/20 A3001 RMK AO2 T02950202

2010/08/09 20:54
KIKW 092054Z AUTO 22005KT 10SM SCT012 SCT100 26/22 A2989 RMK AO2 P0018 60037 T02600220

2010/08/09 20:56
KABQ 092056Z 32004KT 10SM SCT080 31/10 A3010 RMK AO2 SLP096 T03060100 58018

2010/08/09 20:55
KANJ 092055Z AUTO 15005KT 10SM FEW034 28/19 A2988 RMK AO2 SLP112 T02780194 55003

2010/08/09 20:56
TJSJ 092056Z 08012KT 10SM FEW020 SCT039 BKN080 28/25 A2992 RMK AO2 SLP131 SHRA DSNT NW 60012 T02830250 58005

2010/08/09 20:56
KCHS 092056Z 12009G16KT 10SM SCT028 SCT033 BKN043 31/25 A2998 RMK AO2 SLP151 60014 T03110250 56003

2010/08/09 20:55
KHON 092055Z AUTO 13011KT 10SM CLR 32/18 A2988 RMK AO2 SLP107 T03220183 56007 TSNO

2010/08/09 20:55
KPHP 092055Z AUTO 13013G19KT 10SM CLR 34/14 A2986 RMK AO2 SLP088 T03440139 58016 TSNO

2010/08/09 20:55
KINL 092055Z AUTO 00000KT 10SM CLR 31/19 A2990 RMK AO2 SLP121 T03110194 58002

2010/08/09 20:56
KSHV 092056Z 00000KT 10SM SCT070 37/22 A2989 RMK AO2 SLP116 T03670217 58021

2010/08/09 20:55
KMBG 092055Z AUTO 16011KT 10SM CLR 33/18 A2984 RMK AO2 SLP091 T03330178 58013 TSNO

2010/08/09 20:55
KAST 092055Z AUTO 29006KT 10SM BKN012 OVC017 15/12 A3003 RMK AO2 SLP169 60000 T01500122 52004

2010/08/09 20:55
KAAT 092055Z AUTO 26016G24KT 10SM CLR 29/M01 A2995 RMK AO2 SLP093 T02891011 58013 TSNO

2010/08/09 20:56
KJAX 092056Z 06008KT 10SM FEW035 SCT065 BKN090 BKN200 28/24 A2994 RMK AO2 RAB01E11 SLP139 P0000 60000 T02830244 58002

2010/08/09 20:55
KPOE 092055Z AUTO 16007KT 10SM FEW055 36/22 A2991 RMK AO2 SLP127 T03610222 58022

2010/08/09 20:56
KSDF 092056Z VRB03KT 10SM SCT065 SCT150 SCT250 37/20 A2992 RMK AO2 SLP125 T03720200 56015

2010/08/09 20:56
KGFA 092056Z AUTO VRB03KT 10SM CLR 29/07 A2982 RMK AO2 SLP090 T02890067 58022

2010/08/09 20:56
KFLG 092056Z VRB06KT 10SM FEW060 21/08 A3029 RMK AO2 PK WND 20026/2022 RAB23E39 SLP165 P0000 60000 T02110083 58003

2010/08/09 20:56
KSXT 092056Z AUTO VRB05KT 8SM CLR 21/13 A3002 RMK AO2 RAE16 SLP126 P0000 60000 T02060128 52003 TSNO

2010/08/09 20:56
KLWS 092056Z 00000KT 10SM CLR 29/06 A2977 RMK AO2 SLP072 T02940061 56021

2010/08/09 20:56
KNXP 092056Z 11009G18KT 7SM CLR 35/M04 A2993 RMK AO2 SLP097 T03501044 58017 $

2010/08/09 20:56
KNGP 092056Z 12009KT 10SM FEW035TCU SCT045 SCT250 32/27 A2988 RMK AO2 SLP119 TCU DSNT SE T03220267 58017

2010/08/09 20:56
KNBT 092056Z AUTO 27003KT 1SM -RA SCT001 SCT015 28/25 A3001 RMK AO2 RAB33 SLP166 P0006 60006 T02780250 56005 TSNO

2010/08/09 20:56
KGNR 092056Z AUTO VRB03KT 24/17 A2989 RMK AO1 SLP117 T02440172 58012

2010/08/09 20:56
KP53 092056Z AUTO 05010KT 26/22 A2989 RMK AO2 SLP119 T02560217 53008 PWINO TSNO

2010/08/09 20:55
PAIM 092055Z AUTO 14004KT 10SM SCT011 OVC021 12/12 A2954 RMK AO1 T01220117

2010/08/09 20:55
PAEH 092055Z AUTO 16018G36KT 130V190 4SM OVC005 09/07 RMK AO1 9 T00890073

2010/08/09 20:55
PALU 092055Z AUTO 07017KT 5SM 08/07 A2960 RMK AO1 T00830073

2010/08/09 20:55
PATC 092055Z AUTO 08006KT 5SM SCT013 BKN028 OVC035 14/12 A2935 RMK AO1 T01390117

2010/08/09 20:55
PATL 092055Z AUTO 13007KT 080V200 10SM OVC013 11/11 A2953 RMK AO1 0 T01110106

2010/08/09 20:55
PASV 092055Z AUTO 18012KT 10SM BKN017 OVC023 10/08 A2956 RMK AO1 T01000084

2010/08/09 20:54
KFZY 092054Z AUTO 27010G25KT 3SM -RA FEW037 BKN055 OVC085 23/20 A2994 RMK AO2 RAB47 PRESRR SLP136 P0003 60003 T02330200 53002

2010/08/09 20:50
KBYH 092050Z 00000KT 10SM BKN050 BKN250 37/24 A2989

2010/08/09 20:55
KCBM 092055Z AUTO 07011KT 2 1/2SM TSRA BR OVC050 26/23 A2993 RMK AO2 PK WND 05032/2029 WSHFT 2012 RAB2028 TSB2010E2039B2054 SLP135 P0014 60014 T02560234 56015 $

2010/08/09 20:55
KDAA 092055Z AUTO 21008KT 10SM CLR 34/19 A2997 RMK AO2 SLP150 T03410189 57011

2010/08/09 20:55
KDYS 092055Z AUTO 15009KT 090V260 10SM FEW065 36/19 A2990 RMK AO2 SLP096 T03640193 58021 $

2010/08/09 20:55
KGBN 092055Z 23007KT 12SM FEW130 39/07 A2982 RMK SLP071 57017

2010/08/09 20:55
KMUI 092055Z AUTO 17007KT 10SM FEW060 33/18 A2996 RMK AO2 SLP143 T03280180 58013 $

2010/08/09 20:55
KOZR 092055Z AUTO 06008KT 10SM CLR 35/21 A2993 RMK AO2 SLP132 T03540212 58018 $

2010/08/09 20:55
KRND 092055Z AUTO 15011G16KT 10SM CLR 35/21 A2991 RMK AO2 SLP117 T03530207 58020

2010/08/09 20:55
KVBG 092055Z 33008KT 10SM FEW008 SCT014 17/12 A2996 RMK AO2 SLP137 T01720122 58001

2010/08/09 20:55
KWRI 092055Z AUTO 27010KT 10SM CLR 34/18 A2993 RMK AO2 SLP134 T03410178 56017 $

2010/08/09 20:53
PABI 092053Z 18017G23KT 10SM FEW090 SCT110 SCT180 19/05 A2959 RMK AO2 PK WND 17028/1958 SLP018 T01940050 56006

2010/08/09 20:55
PGUA 092055Z AUTO 24003KT 10SM BKN047 25/ A2993 RMK AO2 DZE1956 SLP117 60000 T0247 53010 VISNO RWY24L $

2010/08/09 20:55
KBAD 092055Z AUTO 20008KT 10SM CLR 37/19 A2990 RMK AO2 SLP123 T03750195 58020

2010/08/09 20:55
KBLV 092055Z AUTO 00000KT 10SM CLR 35/24 A2989 RMK AO2 SLP118 T03490239 56009

2010/08/09 20:55
KCBM 092055Z AUTO 07011KT 2 1/2SM TSRA BR OVC050 26/23 A2993 RMK AO2 PK WND 05032/2029 WSHFT 2012 RAB2028 TSB2010E2039B2054 SLP135 P0014 60014 T02560234 56015 $

2010/08/09 20:55
KCEF 092055Z AUTO 20009KT 10SM SCT090 33/17 A2989 RMK AO2 SLP123 T03300173 56018 PWINO $

2010/08/09 20:55
KDAA 092055Z AUTO 21008KT 10SM CLR 34/19 A2997 RMK AO2 SLP150 T03410189 57011

2010/08/09 20:55
KDYS 092055Z AUTO 15009KT 090V260 10SM FEW065 36/19 A2990 RMK AO2 SLP096 T03640193 58021 $

2010/08/09 20:55
KGBN 092055Z 23007KT 12SM FEW130 39/07 A2982 RMK SLP071 57017

2010/08/09 20:55
KGRF 092055Z 25004KT 10SM BKN021 OVC026 17/12 A3000 RMK AO2A CIG 021V026 SLP160 T01740124 53006

2010/08/09 20:55
KHMN 092055Z 27009KT 10SM CLR 32/12 A3001 RMK AO2A SLP082 T03170122 58017 $

2010/08/09 20:55
KHST 092055Z AUTO 21010KT 10SM SCT024 29/24 A2990 RMK AO2 SLP126 60002 T02920238 56015

2010/08/09 20:55
KIAB 092055Z AUTO 16015G20KT 10SM CLR 38/19 A2987 RMK AO2 SLP096 T03800190 58012 $

2010/08/09 20:55
KLRF 092055Z AUTO 16006KT 10SM CLR 37/24 A2990 RMK AO2 LTG DSNT NE SLP121 T03690245 57017

2010/08/09 20:55
KMGE 092055Z 16006KT 10SM BKN060 33/21 A3000 RMK AO2A SLP148 T03310211 56015 $

2010/08/09 20:55
KMUI 092055Z AUTO 17007KT 10SM FEW060 33/18 A2996 RMK AO2 SLP143 T03280180 58013 $

2010/08/09 20:52
KNHK 092052Z 13011KT 10SM BKN250 31/18 A2999 RMK AO2 SLP154 T03110183 58009

2010/08/09 20:56
KNSI 092056Z VRB05KT 7SM SCT015 18/12 A2995 RMK AO2 SLP137 T01830122 53009 TSNO

2010/08/09 20:55
KOFF 092055Z AUTO 23006KT 10SM CLR 34/25 A2985 RMK AO2 SLP088 T03410252 50000 $

2010/08/09 20:55
KOZR 092055Z AUTO 06008KT 10SM CLR 35/21 A2993 RMK AO2 SLP132 T03540212 58018 $

2010/08/09 20:55
KRDR 092055Z AUTO 21013KT 10SM CLR 36/17 A2984 RMK AO2 SLP114 T03580171 58005 TSNO $

2010/08/09 20:55
KRND 092055Z AUTO 15011G16KT 10SM CLR 35/21 A2991 RMK AO2 SLP117 T03530207 58020

2010/08/09 20:55
KSUU 092055Z AUTO 25014KT 10SM CLR 24/13 A2986 RMK AO2 SLP114 T02420130 58011 RVRNO $

2010/08/09 20:55
KSZL 092055Z AUTO 19014KT 10SM CLR 36/24 A2988 RMK AO2 SLP109 T03620239 56012 PNO $

2010/08/09 20:55
KVBG 092055Z 33008KT 10SM FEW008 SCT014 17/12 A2996 RMK AO2 SLP137 T01720122 58001

2010/08/09 20:55
KWRI 092055Z AUTO 27010KT 10SM CLR 34/18 A2993 RMK AO2 SLP134 T03410178 56017 $

2010/08/09 20:54
KCOU 092054Z 18005KT 10SM FEW090 33/26 A2991 RMK AO2 SLP117 T03280256 57008

2010/08/09 20:54
KFWA 092054Z 20006KT 9SM FEW048 BKN140 BKN250 30/23 A2995 RMK AO2 SLP137 T03000233 56013

2010/08/09 20:51
KSAD 092051Z AUTO VRB05KT 10SM CLR 35/11 A2996 RMK AO2 SLP084 T03500111 58016 TSNO

2010/08/09 20:54
KACY 092054Z 17012KT 10SM CLR 31/17 A3000 RMK AO2 SLP156 T03060172 56010

2010/08/09 20:54
KROC 092054Z 28010KT 5SM -RA FEW009 SCT040 BKN055 OVC130 26/21 A2994 RMK AO2 RAB34 SLP136 P0001 60001 T02560211 55004

2010/08/09 20:54
KSYR 092054Z 25010G18KT 180V270 10SM BKN060 OVC100 29/18 A2990 RMK AO2 SLP119 BKN V OVC T02940183 56012

2010/08/09 20:54
KLEX 092054Z 00000KT 10SM FEW055 34/19 A2998 RMK AO2 SLP139 T03390189 56014

2010/08/09 20:54
KORH 092054Z 26011KT 10SM FEW060 31/15 A2995 RMK AO2 SLP136 T03060150 56016

2010/08/09 20:54
KBUF 092054Z 24006KT 7SM -RA FEW030 BKN050 BKN075 OVC130 24/19 A2994 RMK AO2 RAE08B37 SLP134 P0000 60000 T02390194 55008

2010/08/09 20:54
KCOS 092054Z 18008KT 10SM FEW120 24/13 A3016 RMK AO2 SLP128 T02440128 58009

2010/08/09 20:54
KCRW 092054Z 22004KT 10SM FEW060 32/16 A3000 RMK AO2 SLP150 T03220161 57011

2010/08/09 20:53
PHKO 092053Z 19013KT 10SM OVC055 27/19 A3004 RMK AO2 SLP173 6//// T02720189 51004

2010/08/09 20:54
PHOG 092054Z 07022G29KT 10SM FEW040 SCT065 30/16 A3009 RMK AO2 PK WND 07032/2019 SLP193 T03000161 58002

2010/08/09 20:53
PHTO 092053Z VRB04KT 10SM FEW030 OVC060 26/18 A3012 RMK AO2 SLP197 T02610183 50003

2010/08/09 20:54
KSYR 092054Z 25010G18KT 180V270 10SM BKN060 OVC100 29/18 A2990 RMK AO2 SLP119 BKN V OVC T02940183 56012

2010/08/09 20:54
KRFD 092054Z VRB03KT 10SM FEW030 SCT085 SCT250 30/22 A2993 RMK AO2 SLP127 T03000217 58002 $

2010/08/09 20:49
KMWN 092049Z 28022KT 0SM FG VV000 12/12 RMK

2010/08/09 20:55
KDRA 092055Z AUTO 21017G28KT 10SM CLR 34/M06 A2994 RMK AO2 PK WND 21029/2020 WSHFT 1953 SLP088 T03391061 56012 TSNO

2010/08/09 20:55
KMKG 092055Z 21010KT 10SM SCT016 28/22 A2992 RMK AO2 SLP128 T02780217 55006

2010/08/09 20:53
KMSN 092053Z 29004KT 10SM SCT030 29/23 A2991 RMK AO2 SLP122 T02940228 58004

2010/08/09 20:53
KMWT 092053Z AUTO VRB04KT 10SM CLR 36/21 A2991 RMK AO2 SLP112 T03560211 58018 TSNO

2010/08/09 20:55
KRNO 092055Z VRB04KT 10SM SCT080 29/02 A2996 RMK AO2 SLP093 TCU DSNT S SW T02940022 58016

2010/08/09 20:54
KROA 092054Z 11008KT 10SM FEW080 32/20 A3003 RMK AO2 SLP156 T03170200 56012

2010/08/09 20:53
KSAV 092053Z 08006KT 10SM 32/24 A2996 RMK AO2 RAB13E27 SLP144 VCSH P0000 60000 T03170239 56004 $

2010/08/09 20:55
KSCK 092055Z 00000KT 10SM CLR 27/13 A2985 RMK AO2 SLP109 T02720133 58011

2010/08/09 20:53
KTLH 092053Z 03006KT 10SM FEW060 35/20 A2992 RMK AO2 SLP131 T03500200 56016

2010/08/09 20:53
KTRI 092053Z 35004KT 10SM SCT050 SCT060 SCT250 34/17 A3003 RMK AO2 SLP148 T03390172 56016

2010/08/09 20:53
KTYS 092053Z 28004KT 10SM FEW060 34/20 A2997 RMK AO2 SLP136 T03440200 56019

2010/08/09 20:53
KLAX 092053Z 27010KT 10SM FEW015 19/12 A2994 RMK AO2 SLP137 T01940122 58001 $

2010/08/09 20:54
KRIC 092054Z 21009KT 8SM SCT060 SCT250 33/19 A2998 RMK AO2 SLP156 T03330189 58008 $

2010/08/09 20:52
KABI 092052Z 20007KT 10SM FEW070 36/18 A2992 RMK AO2 SLP098 T03560178 58022

2010/08/09 20:54
KAVP 092054Z 28010G21KT 10SM CLR 32/14 A2995 RMK AO2 SLP128 T03220144 58017 $

2010/08/09 20:53
KBTR 092053Z 33005G14KT 2SM +TSRA BR FEW014 BKN039CB OVC050 24/24 A2997 RMK AO2 PK WND 06036/2027 WSHFT 2013 TSB20RAB28 SLP149 CONS LTGICCG TS AT AP MOVG SW P0012 60012 T02440239 53016

2010/08/09 20:54
KBTV 092054Z 18005KT 4SM -TSRA BR FEW047CB BKN070 OVC095 23/21 A2988 RMK AO2 TSB09RAB10 SLP115 OCNL LTGIC SE TS SE MOV SE P0013 60025 T02280211 55005

2010/08/09 20:51
KCAK 092051Z COR 26009KT 7SM SCT065 BKN130 BKN180 29/17 A3000 RMK AO2 SLP148 8/579 T02940172 56012

2010/08/09 20:53
KCHA 092053Z 18004KT 10SM FEW055 SCT095 SCT250 35/21 A2996 RMK AO2 SLP136 T03500206 56017 $

2010/08/09 20:55
KCNK 092055Z AUTO 18012KT 10SM CLR 39/19 A2984 RMK AO2 SLP081 T03940194 58012

2010/08/09 20:54
KPSF 092054Z AUTO 21006KT 10SM SCT060 SCT075 29/17 A2994 RMK AO2 SLP109 T02890167 56016

2010/08/09 20:54
KPTW 092054Z AUTO 20007G15KT 7SM FEW070 34/19 A2997 RMK AO2 SLP144 T03390189 56012

2010/08/09 20:55
KPVC 092055Z 21014G22KT 10SM CLR 27/21 A2992 RMK AO1 57014

2010/08/09 20:55
KPWG 092055Z AUTO 17012G17KT 10SM CLR 37/18 A2989 RMK AO1 57024

2010/08/09 20:55
KRBW 092055Z AUTO 12010G15KT 10SM SCT085 32/24 A2998 RMK AO2

2010/08/09 20:54
KRDG 092054Z 20009KT 10SM CLR 33/19 A2994 RMK AO2 SLP140 T03280194 58012

2010/08/09 20:55
KRKD 092055Z AUTO 17007KT 10SM CLR 25/19 A2988 RMK AO1 57010

2010/08/09 20:55
KRUT 092055Z 19004KT 9SM FEW048 SCT065 SCT095 27/19 A2991 RMK AO1 LTG DSNT W P0004 60004 57010

2010/08/09 20:55
KSDY 092055Z AUTO 00000KT 10SM CLR 32/16 A2984 RMK AO1 57010

2010/08/09 20:55
KSFM 092055Z 00000KT 10SM SCT065 SCT075 OVC110 31/18 A2987 RMK AO1 57017

2010/08/09 20:55
KSFZ 092055Z 22006KT 10SM SCT048 SCT050 30/21 A2992 RMK AO1 57014

2010/08/09 20:55
KSPL 092055Z AUTO 08011KT CLR 33/27 A2989 RMK AO2 PWINO PNO

2010/08/09 20:54
KTAD 092054Z AUTO 27006KT 10SM -RA FEW045 SCT065 OVC100 19/16 A3012 RMK AO2 WSHFT 1953 LTG DSNT ALQDS TSE24B34E53RAB1959 SLP131 P0006 60006 T01940156 58007

2010/08/09 20:55
KTME 092055Z AUTO 18006KT 10SM CLR 36/22 A2992 RMK AO2

2010/08/09 20:55
KTPL 092055Z 20012G15KT 10SM CLR 36/22 A2991 RMK AO1

2010/08/09 20:55
KTSP 092055Z AUTO RMK AO2 PWINO PNO FZRANO TSNO

2010/08/09 20:56
KUCP 092056Z AUTO 27005KT 10SM FEW100 31/19 A3000 RMK AO2 56013 60000 T03110188 SLP166

2010/08/09 20:55
KUTA 092055Z AUTO 10005KT 4SM TSRA SCT009 BKN014 OVC027 27/24 A2995 RMK AO2 LTG DSNT ALQS

2010/08/09 20:54
KVAY 092054Z AUTO VRB04KT 10SM BKN070 33/17 A2995 RMK AO2 SLP141 T03330167 56015

2010/08/09 20:54
KVSF 092054Z AUTO VRB03KT 10SM FEW031 30/18 A2990 RMK AO2 LTG DSNT NE RAB29E40 SLP122 P0000 60000 T03000183 58016

2010/08/09 20:54
KVTA 092054Z AUTO 21006KT 10SM CLR 30/18 A2998 RMK AO2 SLP147 T03000183 56015

2010/08/09 20:55
KWVL 092055Z AUTO 28005KT 10SM FEW110 28/18 A2984 RMK AO1 57014

2010/08/09 20:55
KX40 092055Z AUTO 00000KT 7SM SCT050 BKN070 OVC085 29/26 A2991 RMK AO2 LTG DSNT SW AND W T02870261

2010/08/09 20:55
KGUC 092055Z AUTO 27006KT 10SM SCT085 SCT120 21/04 A3029 RMK AO1 57007

2010/08/09 20:55
KGXY 092055Z AUTO 00000KT 10SM FEW110 31/13 A3002 RMK AO1 LTG DSNT SW 57027

2010/08/09 20:55
KHDN 092055Z 07007KT 10SM SCT080 OVC110 18/11 A3024 RMK AO1 57007

2010/08/09 20:50
KHXD 092050Z 08007KT 10SM FEW016 SCT030 30/26 A2997

2010/08/09 20:55
KHYI 092055Z AUTO 12007G15KT 10SM CLR 36/22 A2990 RMK AO1 57020

2010/08/09 20:55
KHYW 092055Z AUTO 13005KT 7SM CLR 31/27 A2999 RMK AO2

2010/08/09 20:55
KIFP 092055Z AUTO 24007KT 10SM CLR 37/00 A2981 RMK AO2

2010/08/09 20:55
KILE 092055Z AUTO 20009G15KT 10SM CLR 37/19 A2990 RMK AO1 57020

2010/08/09 20:54
KILN 092054Z AUTO VRB03KT 9SM FEW050 31/21 A2998 RMK AO2 SLP140 T03110211 56014

2010/08/09 20:54
KIND 092054Z VRB06KT 10SM FEW055 SCT140 BKN250 34/20 A2993 RMK AO2 SLP128 T03440200 57010

2010/08/09 20:54
KIPT 092054Z 10009KT 10SM CLR 32/16 A2993 RMK AO2 SLP130 T03170161 56019

2010/08/09 20:54
KIZG 092054Z AUTO 00000KT 10SM -RA FEW060 28/18 A2988 RMK AO2 RAB48 SLP117 P0000 60000 T02830183 56013

2010/08/09 20:55
KJHW 092055Z AUTO 21009G15KT 10SM CLR 27/18 A3000 RMK AO1

2010/08/09 20:54
KJST 092054Z AUTO 27004KT 10SM FEW090 28/14 A3007 RMK AO2 SLP168 T02780144 56010

2010/08/09 20:56
KJWG 092056Z AUTO 19007KT 10SM SCT080 SCT110 36/21 A2988 RMK AO2

2010/08/09 20:55
KLCI 092055Z AUTO 33008KT 10SM BKN065 BKN080 28/18 A2988 RMK AO1 LTG DSNT W 57014

2010/08/09 20:55
KLEW 092055Z 19003KT 10SM CLR 29/17 A2990 RMK AO1 57014

2010/08/09 20:55
KLQK 092055Z AUTO 16004KT 10SM SCT050 34/20 A3001 RMK AO2 6//// T03440197 PNO

2010/08/09 20:55
KLRO 092055Z AUTO 13005KT 10SM SCT018 29/24 A2999 RMK AO2

2010/08/09 20:55
KLUX 092055Z AUTO 20003KT 10SM BKN080 33/26 A3001 RMK AO2

2010/08/09 20:54
KLWM 092054Z 26011G17KT 10SM FEW070 33/16 A2989 RMK AO2 SLP120 T03330161 56016

2010/08/09 20:54
KMGJ 092054Z AUTO 22008KT 9SM CLR 32/19 A2992 RMK AO2 SLP128 T03170194 56016

2010/08/09 20:53
KRTN 092053Z AUTO 15013G25KT 10SM -RA SCT042 BKN095 23/13 A3015 RMK AO2 PK WND 15034/2041 RAB50 SLP116 P0000 60000 T02280128 55005 TSNO $

2010/08/09 20:53
KBRO 092053Z AUTO 13014KT 10SM CLR 36/23 A2987 RMK AO2 SLP114 T03560233 56012 TSNO

2010/08/09 20:53
KFLL 092053Z 15009KT 10SM FEW026 SCT060 28/24 A2988 RMK AO2 SLP119 T02830244 56012

2010/08/09 20:51
KJFK 092051Z 18019KT 9SM FEW140 BKN250 28/20 A2996 RMK AO2 SLP146 T02780200 58013

2010/08/09 20:53
KMCO 092053Z 10011KT 10SM SCT031TCU BKN075 BKN190 32/23 A2989 RMK AO2 SLP118 TCU SW-W T03220228 55009

2010/08/09 20:53
KPBI 092053Z 15011KT 10SM SCT024TCU SCT075 SCT250 30/23 A2988 RMK AO2 SLP118 TCU E CB DSNT SE AND SW T03000233 56014

2010/08/09 20:53
TIST 092053Z 11013KT 10SM CLR 29/25 A2992 RMK AO2 SLP133 60001 T02940250 57013

2010/08/09 20:53
TISX 092053Z 11011KT 10SM FEW028 BKN085 29/24 A2993 RMK AO2 SLP134 P0001 60004 T02890239 56009

2010/08/09 20:48
KMOX 092048Z AUTO 13004KT 10SM CLR 32/18 A2989 RMK AO2

2010/08/09 20:53
KMWM 092053Z AUTO 08005KT 10SM SCT030 30/24 A2991 RMK AO2

2010/08/09 20:53
KOVE 092053Z AUTO VRB03KT 10SM CLR 28/14 A2987 RMK AO2 SLP114 T02830139 58010 TSNO $

2010/08/09 20:53
KPNM 092053Z AUTO 35005KT 10SM CLR 33/20 A2991 RMK AO2

2010/08/09 20:53
KPQN 092053Z AUTO 08007KT 10SM CLR 31/22 A2992 RMK AO2

2010/08/09 20:53
KPWC 092053Z AUTO 20005KT 10SM CLR 31/19 A2993 RMK AO2

2010/08/09 20:53
KSGR 092053Z 17006KT 10SM SCT065 35/22 A2990 RMK AO2 SLP133 T03500217 58018

2010/08/09 20:53
KTWM 092053Z AUTO 20009KT 10SM CLR 29/22 A2989 RMK AO2

2010/08/09 20:50
KWDG 092050Z 16013G19KT 10SM BKN130 38/19 A2985

2010/08/09 20:53
KAIT 092053Z AUTO 27004KT 10SM CLR 32/18 A2992 RMK AO2

2010/08/09 20:53
KBBB 092053Z AUTO 13005KT 10SM CLR 33/19 A2994 RMK AO2

2010/08/09 20:56
KBMI 092056Z 12004KT 10SM CLR 33/26 A2994 RMK AO2 56008 T03270255 SLP120 $

2010/08/09 20:56
KBOK 092056Z AUTO 25004KT 7SM OVC003 13/12 A2996 RMK AO2 50000 T01330116 OVC V BKN SLP145

2010/08/09 20:55
KCMA 092055Z 23011KT 10SM CLR 21/13 A2993 RMK AO2 SLP143 T02060133 50000

2010/08/09 20:55
KEAT 092055Z AUTO VRB04KT 10SM CLR 27/09 A2977 RMK AO2 SLP071 T02720094 56015

2010/08/09 20:53
KFFM 092053Z AUTO 18003KT 10SM CLR 31/19 A2988 RMK AO2

2010/08/09 20:54
KFGN 092054Z AUTO 00000KT 10SM CLR 28/20 A2987 RMK AO2

2010/08/09 20:52
KGDB 092052Z AUTO 06004KT 10SM CLR 32/19 A2992 RMK AO2 T03160194

2010/08/09 20:53
KGHW 092053Z AUTO 10003KT 10SM CLR 33/14 A2996 RMK AO2

2010/08/09 20:50
KGTU 092050Z 16007G16KT 10SM FEW050 37/18 A2993

2010/08/09 20:50
KHUM 092050Z 02008KT 6SM TSRA SCT016BKN041 27/27 A2999 RMK TS ALGDS

2010/08/09 20:55
KMGG 092055Z AUTO 00000KT 10SM CLR 32/22 A2992 RMK AO2 T03240223

2010/08/09 20:54
PAHN 092054Z AUTO 12010KT 10SM OVC060 16/11 A2995 RMK AO2 SLP143 T01610111 58003 TSNO

2010/08/09 20:54
PAKN 092054Z 21011KT 10SM OVC018 13/10 A2957 RMK AO2 SLP011 T01330100 53013

2010/08/09 20:53
KMSY 092053Z 24004KT 10SM -RA FEW016 SCT041 SCT150 OVC200 26/24 A2996 RMK AO2 TSE26 PRESFR SLP149 P0022 60022 T02610239 52001

2010/08/09 20:55
KAPG 092055Z 18007KT 7SM SCT200 33/21 A2998

2010/08/09 20:55
KFMH 092055Z AUTO 24011KT 10SM CLR 28/21 A2995 RMK AO2

2010/08/09 20:54
KBOS 092054Z 23015KT 10SM SCT070 BKN100 BKN220 32/15 A2988 RMK AO2 SLP118 T03220150 56017

2010/08/09 20:54
KPHL 092054Z 22013KT 10SM FEW065 SCT250 34/18 A2996 RMK AO2 SLP146 T03390178 56012

2010/08/09 20:55
KAPG 092055Z 18007KT 7SM SCT200 33/21 A2998

2010/08/09 20:55
KFMH 092055Z AUTO 24011KT 10SM CLR 28/21 A2995 RMK AO2

2010/08/09 20:47
KIWA 092047Z 25008KT 45SM SCT120 SCT200 39/09 A2987

2010/08/09 20:56
K20V 092056Z AUTO 24006G09KT 10SM BKN070 OVC090 21/05 A3026 RMK AO2 LTG DSNT E

2010/08/09 20:52
K5SM 092052Z AUTO 00000KT 10SM 12/09 A3051 RMK AO2 LTG DSNT NW

2010/08/09 20:54
K7BM 092054Z AUTO 36007G14KT 330V040 10SM VCTS SCT039 SCT080 BKN110 19/08 A3039 RMK AO2 LTG DSNT N THRU S

2010/08/09 20:58
KBDU 092058Z AUTO 25010G16KT 10SM VCTS OVC110 26/11 A3007 RMK AO2 LTG DSNT SW THRU NW

2010/08/09 20:57
KCCU 092057Z AUTO 27014G19KT 10SM BKN013 OVC021 12/07 A3056 RMK AO2 LTG DSNT NE AND S

2010/08/09 20:55
KHFF 092055Z AUTO 17005KT 10SM CLR 34/21 A3001 RMK AO2 SLP158 T03390207 58013 $

2010/08/09 20:54
KMIV 092054Z AUTO VRB06KT 10SM CLR 31/18 A2997 RMK AO2 SLP148 T03110178 56009

2010/08/09 20:55
KMJX 092055Z AUTO 17011G17KT 10SM CLR 32/19 A2995 RMK AO1 57010

2010/08/09 20:55
KMNI 092055Z AUTO 06005KT 10SM CLR 33/25 A2997 RMK AO2

2010/08/09 20:55
KMSV 092055Z AUTO 27006KT 10SM CLR 30/15 A2999 RMK AO1 57017

2010/08/09 20:54
KMVL 092054Z AUTO 34003KT 10SM FEW075 26/20 A2990 RMK AO2 LTG DSNT SE-W SLP123 T02560200 58012

2010/08/09 20:55
KOCH 092055Z AUTO 21005KT 10SM BKN065 OVC080 37/20 A2990 RMK AO1 57020

2010/08/09 20:55
KOKK 092055Z AUTO 25006KT 10SM SCT050 BKN120 33/22 A2994 RMK AO1

2010/08/09 20:54
KPHL 092054Z 22013KT 10SM FEW065 SCT250 34/18 A2996 RMK AO2 SLP146 T03390178 56012

2010/08/09 20:54
KPNE 092054Z AUTO 25010KT 10SM SCT065 33/19 A2996 RMK AO2 SLP145 T03330189 56016

2010/08/09 20:55
KPQI 092055Z AUTO 24007KT 10SM SCT034 24/17 A2980 RMK AO1 57014

2010/08/09 20:55
KPRX 092055Z 19012KT 10SM CLR 37/21 A2990 RMK AO1 57017

2010/08/09 20:55
KAEG 092055Z AUTO 25004KT 10SM FEW080 SCT110 28/09 A3014 RMK AO1

2010/08/09 20:55
KAIK 092055Z AUTO 13007KT 10SM SCT055 33/26 A3003 RMK AO2 PNO

2010/08/09 20:54
KAKH 092054Z AUTO 12007KT 9SM CLR 33/22 A3001 RMK AO2 SLP151 T03330222 56011

2010/08/09 20:54
KAKR 092054Z AUTO 24008KT 10SM CLR 31/18 A2999 RMK AO2 SLP145 T03060183 58013

2010/08/09 20:55
KBBP 092055Z AUTO 10004KT 10SM CLR 34/18 A2999 RMK AO2

2010/08/09 20:55
KBHB 092055Z AUTO 20009G14KT 10SM CLR 23/20 A2988 RMK AO1 57010

2010/08/09 20:55
KBID 092055Z AUTO 22015G21KT 10SM CLR 26/22 A2996 RMK AO1 57014

2010/08/09 20:55
KBLM 092055Z AUTO 16010G16KT 10SM CLR 30/17 A2998 RMK AO1 57014

2010/08/09 20:55
KBNL 092055Z AUTO 09006KT 9SM FEW050 33/20 A2999 RMK AO2

2010/08/09 20:54
KBOS 092054Z 23015KT 10SM SCT070 BKN100 BKN220 32/15 A2988 RMK AO2 SLP118 T03220150 56017

2010/08/09 20:55
KBTP 092055Z AUTO 19004KT 10SM CLR 31/17 A2999 RMK AO1

2010/08/09 20:55
KBWD 092055Z AUTO 15011G17KT 130V190 10SM FEW070 37/17 A2991 RMK AO2

2010/08/09 20:55
KCGC 092055Z AUTO 09012KT 10SM FEW035 31/24 A2990 RMK

2010/08/09 20:55
KCOD 092055Z AUTO 32010G14KT 10SM FEW100 26/11 A2994 RMK AO1 TSE1957

2010/08/09 20:55
KCQW 092055Z AUTO 14006KT 5SM HZ CLR 33/21 A3000 RMK AO2

2010/08/09 20:55
KDCM 092055Z AUTO 14007KT 5SM HZ CLR 33/26 A3001 RMK AO2

2010/08/09 20:54
KDDH 092054Z AUTO 00000KT 9SM SCT065 BKN075 29/18 A2992 RMK AO2 SLP125 T02890183 56019

2010/08/09 20:54
KDSV 092054Z AUTO 00000KT 10SM BKN070 29/19 A2994 RMK AO2 RAB33E42 SLP142 P0000 60000 T02940194 56012

2010/08/09 20:54
KDYL 092054Z AUTO 23008KT 10SM FEW065 32/18 A2995 RMK AO2 SLP136 T03220178 56016 TSNO

2010/08/09 20:55
KE80 092055Z AUTO 29006KT 250V310 10SM SCT085 32/07 A3010 RMK AO2 T03200070

2010/08/09 20:55
KEDC 092055Z AUTO 18007KT 10SM CLR 35/18 A2991 RMK AO1

2010/08/09 20:55
KEEN 092055Z AUTO 23006KT 10SM FEW070 FEW120 31/18 A2990 RMK AO1 57017

2010/08/09 20:55
KEOE 092055Z AUTO 13005KT 10SM CLR 34/20 A3002 RMK AO2

2010/08/09 20:54
KEVV 092054Z 18005KT 10SM CLR 36/20 A2991 RMK AO2 SLP123 T03560200 56015

2010/08/09 20:54
KFIG 092054Z AUTO 25006KT 10SM FEW095 31/14 A3001 RMK AO2 SLP153 T03060144 56015

2010/08/09 20:55
KFKL 092055Z AUTO 22007KT 10SM CLR 29/17 A3004 RMK AO1

2010/08/09 20:55
KFMH 092055Z AUTO 24011KT 10SM CLR 28/21 A2995 RMK AO2

2010/08/09 20:55
KFNL 092055Z AUTO 23007KT 9SM CLR 28/13 A3001 RMK AO1 LTG DSNT SE 57030

2010/08/09 20:55
KGDV 092055Z AUTO 09007KT 10SM CLR 33/07 A2984 RMK AO1 57017

2010/08/09 20:54
KGED 092054Z AUTO 19011KT 10SM CLR 33/17 A2999 RMK AO2 SLP155 T03280172 56012

2010/08/09 20:53
PASC 092053Z 06020KT 10SM OVC005 06/03 A2973 RMK AO2 PK WND 05026/2037 SLP069 T00560033 56006

2010/08/09 20:53
TIST 092053Z 11013KT 10SM CLR 29/25 A2992 RMK AO2 SLP133 60001 T02940250 57013

2010/08/09 20:53
TISX 092053Z 11011KT 10SM FEW028 BKN085 29/24 A2993 RMK AO2 SLP134 P0001 60004 T02890239 56009

2010/08/09 20:55
KHFF 092055Z AUTO 17005KT 10SM CLR 34/21 A3001 RMK AO2 SLP158 T03390207 58013 $

2010/08/09 20:53
PHJR 092053Z 08007G16KT 10SM OVC050 29/16 A3011 RMK AO2 SLP204 T02890156 53004

2010/08/09 20:54
PHMK 092054Z 04014G26KT 10SM FEW030 29/16 A3010 RMK AO2 PK WND 04029/2035 SLP194 T02890156 51005

2010/08/09 20:55
PGUA 092055Z AUTO 24003KT 10SM BKN047 25/ A2993 RMK AO2 DZE1956 SLP117 60000 T0247 53010 VISNO RWY24L $

2010/08/09 20:53
PHNL 092053Z 06019G26KT 10SM FEW034 SCT047 BKN055 29/15 A3010 RMK AO2 PK WND 06026/2047 SLP194 T02940150 51004

2010/08/09 20:55
KBAD 092055Z AUTO 20008KT 10SM CLR 37/19 A2990 RMK AO2 SLP123 T03750195 58020

2010/08/09 20:55
KHST 092055Z AUTO 21010KT 10SM SCT024 29/24 A2990 RMK AO2 SLP126 60002 T02920238 56015

2010/08/09 20:52
KNHK 092052Z 13011KT 10SM BKN250 31/18 A2999 RMK AO2 SLP154 T03110183 58009

2010/08/09 20:55
KOFF 092055Z AUTO 23006KT 10SM CLR 34/25 A2985 RMK AO2 SLP088 T03410252 50000 $

2010/08/09 20:55
KWRI 092055Z AUTO 27010KT 10SM CLR 34/18 A2993 RMK AO2 SLP134 T03410178 56017 $

2010/08/09 20:55
KBKF 092055Z 17014G18KT 70SM FEW080 BKN180 28/14 A3008 RMK SLP116 58015

2010/08/09 20:55
KFAF 092055Z AUTO VRB06KT 10SM CLR 32/18 A3000 RMK AO2 SLP159 T03220177 58006 $

2010/08/09 20:55
KFBG 092055Z 10004KT 10SM CLR 33/21 A2999 RMK AO2A SLP154 T03330207 56010 $

2010/08/09 20:55
KFSI 092055Z AUTO 20009G17KT 10SM CLR 39/18 A2985 RMK AO2 SLP080 T03900176 58017

2010/08/09 20:55
KLHW 092055Z AUTO 12010KT 10SM FEW043 SCT060 SCT100 33/24 A2994 RMK AO2 SLP138 T03260245 57010

2010/08/09 20:55
KLSF 092055Z AUTO 12009KT 10SM FEW065 SCT100 37/21 A2994 RMK AO2 SLP136 T03650209 58013 PNO $

2010/08/09 20:55
KMTC 092055Z VRB04KT 5SM -SHRA HZ FEW025 SCT040 BKN065 OVC120 26/22 A2993 RMK SLP140 60002 58005

2010/08/09 20:54
KNFG 092054Z 22007KT 7SM CLR 23/13 A2991 RMK AO2 SLP128 T02280133 58006

2010/08/09 20:53
KNIP 092053Z 05009KT 10SM SCT035CB SCT080 BKN130 BKN250 31/24 A2993 RMK AO2 RAE1956 SLP132 CB DSNT W T2 SET P0000 60000 T03060244 58007

2010/08/09 20:54
KNKT 092054Z 10005KT 10SM BKN075 29/24 A3001 RMK AO2 SLP158 T02940239 56013

2010/08/09 20:53
KNQX 092053Z 31005KT 6SM -TSRA FEW002 BKN010CB BKN020 BKN140 26/24 A2989 RMK AO2 SLP119 OCNL LTGICCC OHD TS OHD MOV S T1 SET P0009 60028 T02610244 56009 $

2010/08/09 20:55
KTIK 092055Z 16009G18KT 10SM FEW065 37/19 A2989 RMK AO2A SLP105 T03740189 58012

2010/08/09 20:55
KNKX 092055Z 28008KT 10SM FEW020 24/13 A2992 RMK AO2 SLP127 T02390133 56006

2010/08/09 20:55
KADW 092055Z AUTO 20010KT 10SM FEW060 33/21 A2997 RMK AO2 SLP149 T03280213 56011 $

2010/08/09 20:55
KDOV 092055Z AUTO 13008KT 10SM CLR 30/22 A2997 RMK AO2 SLP152 60000 T03010221 56012

2010/08/09 20:55
KFCS 092055Z AUTO 28003KT 10SM BKN100 BKN130 24/14 A3014 RMK AO2 SLP127 T02410142 58008

2010/08/09 20:55
KGTB 092055Z AUTO 28005KT 10SM CLR 25/20 A2993 RMK AO2 SLP133 T02530204 55002

2010/08/09 20:52
KNFW 092052Z 20011KT 10SM FEW070 39/20 A2991 RMK AO2 SLP112 T03890200 58019

2010/08/09 20:52
KNRB 092052Z 08011KT 10SM FEW035 SCT070 BKN150 32/24 A2995 RMK AO2 SLP140 T2 SET 60000 T03170244 56007

2010/08/09 20:55
KPOB 092055Z AUTO 11005KT 10SM CLR 33/22 A2999 RMK AO2 SLP154 T03330221 57009 $

2010/08/09 20:55
KSLI 092055Z 22009KT 10SM CLR 22/14 A2993 RMK AO2A SLP136 T02150141 58002

2010/08/09 20:55
KSSC 092055Z 08006KT 10SM CLR 34/21 A2999 RMK AO2A SLP152 T03390210 56010 $

2010/08/09 20:55
KXMR 092055Z AUTO 12010KT 10SM CLR 30/25 A2991 RMK AO2 SLP129 T02990246 55006

2010/08/09 20:55
PAEI 092055Z AUTO 02005KT 10SM BKN120 BKN140 19/09 A2956 RMK AO2 SLP010 T01850092 58008 $

2010/08/09 20:55
PHHI 092055Z AUTO 08013KT 10SM OVC034 25/18 A3013 RMK AO2 SLP192 T02450176 52006 $

2010/08/09 20:55
KADW 092055Z AUTO 20010KT 10SM FEW060 33/21 A2997 RMK AO2 SLP149 T03280213 56011 $

2010/08/09 20:55
KDOV 092055Z AUTO 13008KT 10SM CLR 30/22 A2997 RMK AO2 SLP152 60000 T03010221 56012

2010/08/09 20:53
KNIP 092053Z 05009KT 10SM SCT035CB SCT080 BKN130 BKN250 31/24 A2993 RMK AO2 RAE1956 SLP132 CB DSNT W T2 SET P0000 60000 T03060244 58007

2010/08/09 20:54
KNKT 092054Z 10005KT 10SM BKN075 29/24 A3001 RMK AO2 SLP158 T02940239 56013

2010/08/09 20:53
KNQX 092053Z 31005KT 6SM -TSRA FEW002 BKN010CB BKN020 BKN140 26/24 A2989 RMK AO2 SLP119 OCNL LTGICCC OHD TS OHD MOV S T1 SET P0009 60028 T02610244 56009 $

2010/08/09 20:52
KNRB 092052Z 08011KT 10SM FEW035 SCT070 BKN150 32/24 A2995 RMK AO2 SLP140 T2 SET 60000 T03170244 56007

2010/08/09 20:55
KPOB 092055Z AUTO 11005KT 10SM CLR 33/22 A2999 RMK AO2 SLP154 T03330221 57009 $

2010/08/09 20:55
KSSC 092055Z 08006KT 10SM CLR 34/21 A2999 RMK AO2A SLP152 T03390210 56010 $

2010/08/09 20:55
KVAD 092055Z AUTO 04009KT 10SM CLR 35/21 A2993 RMK AO2 SLP134 T03450211 56013 $

2010/08/09 20:55
KVPS 092055Z 16005KT 10SM SCT020 SCT220 33/25 A2992 RMK AO2A CB 20W MOV SW SLP132 T03300247 58020 $

2010/08/09 20:55
KVBG 092055Z 35008KT 10SM FEW008 SCT014 17/12 A2996 RMK AO2 SLP136 T01720122 58001 VISNO RWY12 $

2010/08/09 20:55
KADW 092055Z AUTO 20010KT 10SM FEW060 33/21 A2997 RMK AO2 SLP149 T03280213 56011 $

2010/08/09 20:55
KBKF 092055Z 17014G18KT 70SM FEW080 BKN180 28/14 A3008 RMK SLP116 58015

2010/08/09 20:50
KBYH 092050Z 00000KT 10SM BKN050 BKN250 37/24 A2989

2010/08/09 20:55
KDOV 092055Z AUTO 13008KT 10SM CLR 30/22 A2997 RMK AO2 SLP152 60000 T03010221 56012

2010/08/09 20:55
KFAF 092055Z AUTO VRB06KT 10SM CLR 32/18 A3000 RMK AO2 SLP159 T03220177 58006 $

2010/08/09 20:55
KFBG 092055Z 10004KT 10SM CLR 33/21 A2999 RMK AO2A SLP154 T03330207 56010 $

2010/08/09 20:55
KFCS 092055Z AUTO 28003KT 10SM BKN100 BKN130 24/14 A3014 RMK AO2 SLP127 T02410142 58008

2010/08/09 20:55
KFSI 092055Z AUTO 20009G17KT 10SM CLR 39/18 A2985 RMK AO2 SLP080 T03900176 58017

2010/08/09 20:55
KHIF 092055Z AUTO 25009KT 10SM FEW110 27/06 A3003 RMK AO2 SLP057 T02710056 58006

2010/08/09 20:55
KLHW 092055Z AUTO 12010KT 10SM FEW043 SCT060 SCT100 33/24 A2994 RMK AO2 SLP138 T03260245 57010

2010/08/09 20:55
KLSF 092055Z AUTO 12009KT 10SM FEW065 SCT100 37/21 A2994 RMK AO2 SLP136 T03650209 58013 PNO $

2010/08/09 20:55
KMMT 092055Z 09006KT 10SM FEW055 OVC250 33/21 A3000 RMK AO2A SLP156 T03300212 56010

2010/08/09 20:55
KMTC 092055Z VRB04KT 5SM -SHRA HZ FEW025 SCT040 BKN065 OVC120 26/22 A2993 RMK SLP140 60002 58005

2010/08/09 20:52
KNFW 092052Z 20011KT 10SM FEW070 39/20 A2991 RMK AO2 SLP112 T03890200 58019

2010/08/09 20:55
KCEF 092055Z AUTO 20009KT 10SM SCT090 33/17 A2989 RMK AO2 SLP123 T03300173 56018 PWINO $

2010/08/09 20:55
KLRF 092055Z AUTO 16006KT 10SM CLR 37/24 A2990 RMK AO2 LTG DSNT NE SLP121 T03690245 57017

2010/08/09 20:55
KMHR 092055Z 19005KT 10SM SKC 28/12 A2986

2010/08/09 20:55
KOZR 092055Z AUTO 06008KT 10SM CLR 35/21 A2993 RMK AO2 SLP132 T03540212 58018 $

2010/08/09 20:55
KDLF 092055Z AUTO 16008KT 10SM FEW065 37/19 A2985 RMK AO2 SLP089 T03680195 58031

2010/08/09 20:55
KEDW 092055Z 34003KT 80SM CLR 32/M01 A2989 RMK AO2A SLP077 T03221005 58015

2010/08/09 20:55
KFFO 092055Z 23006KT 10SM FEW050 BKN170 32/20 A2996 RMK AO2A CLDS LWR RWY05L SLP141 57015

2010/08/09 20:55
KFHU 092055Z VRB06KT 50SM SCT050 29/16 A3010 RMK SLP124 58007

2010/08/09 20:55
KFRI 092055Z AUTO 20010KT 10SM SCT090 40/19 A2982 RMK AO2 SLP077 T04000186 56007

2010/08/09 20:55
KGSB 092055Z 00000KT 10SM CLR 33/14 A2999 RMK AO2A SLP156 T03350145 56009

2010/08/09 20:55
KHIF 092055Z AUTO 25009KT 10SM FEW110 27/06 A3003 RMK AO2 SLP057 T02710056 58006

2010/08/09 20:55
KLFI 092055Z 12007KT 10SM CLR 30/18 A3001 RMK AO2A SLP164 T03050181 58004

2010/08/09 20:55
KLTS 092055Z AUTO 17009KT 10SM CLR 38/18 A2986 RMK AO2 SLP089 T03830175 58016 $

2010/08/09 20:55
KMMT 092055Z 09006KT 10SM FEW055 OVC250 33/21 A3000 RMK AO2A SLP156 T03300212 56010

2010/08/09 20:55
KVAD 092055Z AUTO 04009KT 10SM CLR 35/21 A2993 RMK AO2 SLP134 T03450211 56013 $

2010/08/09 20:55
KVPS 092055Z 16005KT 10SM SCT020 SCT220 33/25 A2992 RMK AO2A CB 20W MOV SW SLP132 T03300247 58020 $

2010/08/09 20:55
MHSC 092055Z AUTO 13009KT 9999 VCTS -RA SCT045 BKN060 BKN180 26/22 A2993 RMK AO2 RAB2006E2019B2047DZB2003E2006B2044E2047 SLP098 P0001 60001 T02570224 55018 $

2010/08/09 20:55
KGTB 092055Z AUTO 28005KT 10SM CLR 25/20 A2993 RMK AO2 SLP133 T02530204 55002

2010/08/09 20:54
PGSN 092054Z 20003KT 9SM -RA FEW015 SCT055 SCT110 24/23 A2993 RMK AO2 SLP132 P0017 60039 T02390233 51007

2010/08/09 20:50
PKMJ 092050Z 05018KT 15SM FEW015 SCT050 BKN120 OVC300 28/25 A2987

2010/08/09 20:51
PTKK 092051Z 06006KT 15SM VCSH SCT014CB BKN120 OVC280 27/25 A2987 RMK VCSH W SHRAE29 CB SE-SW-W MOV SW SLP116 60021 8/371 T02680249 52015

2010/08/09 20:56
KSDF 092056Z VRB03KT 10SM SCT065 SCT150 SCT250 37/20 A2992 RMK AO2 SLP125 T03720200 56015

2010/08/09 20:56
KSDF 092056Z VRB03KT 10SM SCT065 SCT150 SCT250 37/20 A2992 RMK AO2 SLP125 T03720200 56015

2010/08/09 20:53
K04W 092053Z AUTO 00000KT 10SM BKN043 32/22 A2991 RMK AO2 T03210215

2010/08/09 20:55
K0A9 092055Z AUTO 00000KT 10SM FEW085 31/21 A3004 RMK

2010/08/09 20:56
K1M4 092056Z AUTO VRB04KT 10SM CLR 31/23 A3001 RMK AO2 56014 60000 T03110233 LTG DSNT NE SLP157

2010/08/09 20:55
K21D 092055Z AUTO 05005KT 10SM CLR 32/21 A2991 RMK AO2

2010/08/09 20:56
KAND 092056Z AUTO 11006KT 10SM CLR 34/19 A2999 RMK AO2 SLP144 T03440189 56014

2010/08/09 20:55
KAPG 092055Z 18007KT 7SM SCT200 33/21 A2998

2010/08/09 20:56
KART 092056Z AUTO 23007KT 7SM CLR 26/20 A2990 RMK AO2 SLP121 T02560200 56009

2010/08/09 20:55
KARW 092055Z AUTO 10009G14KT 10SM SCT025 32/22 A2996 RMK AO2

2010/08/09 20:55
KBDN 092055Z AUTO 29010G17KT 10SM CLR 25/05 A2993 RMK AO2

2010/08/09 20:56
KBED 092056Z 29010KT 9SM CLR 33/16 A2988 RMK AO2 SLP127 T03330161 56016

2010/08/09 20:53
KBHM 092053Z COR 00000KT 10SM FEW 060 36/19 A2997 RMK AO2 SLP137 T03560194 58017

2010/08/09 20:54
KBJI 092054Z AUTO 23006KT 10SM CLR 32/14 A2991 RMK AO2

2010/08/09 20:56
KBJJ 092056Z AUTO 25005KT 10SM CLR 29/19 A3000 RMK AO2 SLP149 T02940189 56014

2010/08/09 20:55
KBKN 092055Z AUTO 16014G20KT 10SM 38/19 A2984 RMK AO2

2010/08/09 20:53
KC29 092053Z AUTO 02003KT 10SM SCT029 30/22 A2992 RMK AO2 T03040219

2010/08/09 20:56
KCEC 092056Z AUTO 28005KT 10SM BKN010 14/11 A2996 RMK AO2 CIG 008V012 SLP147 T01440111 55000

2010/08/09 20:56
KCTB 092056Z AUTO 00000KT 10SM CLR 26/07 A2985 RMK AO2 LTG DSNT S SLP084 T02560067 58015 PWINO

2010/08/09 20:53
KD39 092053Z AUTO 09005KT 10SM CLR 33/16 A2993 RMK AO2 T03340162

2010/08/09 20:56
KDAY 092056Z 24004KT 9SM SCT050 BKN150 OVC250 32/19 A2998 RMK AO2 SLP144 T03170189 56013

2010/08/09 20:56
KDIK 092056Z AUTO 18014G21KT 10SM FEW080 35/15 A2982 RMK AO2 LTG DSNT N SLP075 T03500150 57013

2010/08/09 20:56
KDUG 092056Z AUTO 28004KT 10SM CLR 32/14 A3005 RMK AO2 SLP100 T03170139 58013

2010/08/09 20:56
KDUJ 092056Z AUTO 22007KT 10SM CLR 29/16 A3003 RMK AO2 SLP153 T02940161 58012

2010/08/09 20:56
KEAU 092056Z 34004KT 10SM CLR 33/21 A2990 RMK AO2 SLP117 T03280211 58002

2010/08/09 20:56
KEED 092056Z AUTO VRB06KT 10SM CLR 38/M02 A2982 RMK AO2 SLP061 T03831017 58020 TSNO

2010/08/09 20:55
KEIK 092055Z AUTO 29017G21KT 10SM VCTS SCT075 BKN090 BKN120 27/10 A3004 RMK AO2 LTG DSNT SW AND W

2010/08/09 20:56
KEKO 092056Z AUTO 22012G19KT 10SM CLR 31/02 A2998 RMK AO2 SLP086 T03060017 58013

2010/08/09 20:56
KELZ 092056Z AUTO 22004KT 10SM FEW060 SCT095 26/17 A3004 RMK AO2 SLP157 T02560172 56012

2010/08/09 20:55
KGGE 092055Z AUTO 13006KT 10SM SCT065 BKN110 30/25 A2999 RMK AO2

2010/08/09 20:56
KGON 092056Z 21009KT 5SM HZ CLR 26/22 A2994 RMK AO2 SLP139 T02610217 56013

2010/08/09 20:56
KGRD 092056Z AUTO 10005KT 10SM CLR 33/21 A3001 RMK AO2 SLP153 T03330211 56013

2010/08/09 20:56
KHND 092056Z 14008KT 10SM CLR 36/02 A2992 RMK AO2 58018 T03550016 SLP080

2010/08/09 20:56
KHPN 092056Z 20008G15KT 9SM SCT100 30/18 A2994 RMK AO2 SLP133 T03000183 56011

2010/08/09 20:56
KHWV 092056Z AUTO 21010KT 9SM CLR 28/22 A2997 RMK AO2 SLP146 T02780217 58014

2010/08/09 20:56
KHYA 092056Z 22014G18KT 10SM CLR 28/21 A2994 RMK AO2 SLP138 T02780211 58015

2010/08/09 20:56
KIGX 092056Z AUTO 12004KT 8SM SCT050 SCT065 BKN080 32/20 A3001 RMK AO2 SLP155 T03170200 56010

2010/08/09 20:56
KISP 092056Z 20012KT 10SM FEW150 OVC250 28/18 A2995 RMK AO2 SLP140 T02780183 58011

2010/08/09 20:56
KITH 092056Z 27007KT 10SM SCT070 BKN100 29/18 A2996 RMK AO2 56019 T02940183 SLP137

2010/08/09 20:56
KJMS 092056Z AUTO 21010KT 10SM CLR 33/20 A2988 RMK AO2 SLP110 T03330200 58005

2010/08/09 20:56
KLAS 092056Z 11007KT 080V140 10SM CLR 34/03 A2986 RMK AO2 SLP084 T03440033 58020

2010/08/09 20:56
KLNR 092056Z AUTO 36003KT 10SM FEW033 32/22 A2990 RMK AO2 SLP115 T03170217 58008

2010/08/09 20:56
KM19 092056Z AUTO 19006KT 10SM FEW049 A2990 RMK AO2 56013 LTG DSNT NW SLPNO $

2010/08/09 20:54
KNFG 092054Z 22007KT 7SM CLR 23/13 A2991 RMK AO2 SLP128 T02280133 58006

2010/08/09 20:53
KNIP 092053Z 05009KT 10SM SCT035CB SCT080 BKN130 BKN250 31/24 A2993 RMK AO2 RAE1956 SLP132 CB DSNT W T2 SET P0000 60000 T03060244 58007

2010/08/09 20:54
KNKT 092054Z 10005KT 10SM BKN075 29/24 A3001 RMK AO2 SLP158 T02940239 56013

2010/08/09 20:53
KNQX 092053Z 31005KT 6SM -TSRA FEW002 BKN010CB BKN020 BKN140 26/24 A2989 RMK AO2 SLP119 OCNL LTGICCC OHD TS OHD MOV S T1 SET P0009 60028 T02610244 56009 $

2010/08/09 20:52
KNRB 092052Z 08011KT 10SM FEW035 SCT070 BKN150 32/24 A2995 RMK AO2 SLP140 T2 SET 60000 T03170244 56007

2010/08/09 20:55
KPOB 092055Z AUTO 11005KT 10SM CLR 33/22 A2999 RMK AO2 SLP154 T03330221 57009 $

2010/08/09 20:55
KSKA 092055Z AUTO 19010G15KT 10SM FEW180 26/07 A2984 RMK AO2 SLP094 T02560074 58010

2010/08/09 20:55
KSKF 092055Z 14007G15KT 130V200 10SM FEW060 36/24 A2989 RMK AO2A SLP111 T03610240 58022 $

2010/08/09 20:55
KSLI 092055Z 22009KT 10SM CLR 22/14 A2993 RMK AO2A SLP136 T02150141 58002

2010/08/09 20:55
KSSC 092055Z 08006KT 10SM CLR 34/21 A2999 RMK AO2A SLP152 T03390210 56010 $

2010/08/09 20:55
KTIK 092055Z 16009G18KT 10SM FEW065 37/19 A2989 RMK AO2A SLP105 T03740189 58012

2010/08/09 20:55
KVAD 092055Z AUTO 04009KT 10SM CLR 35/21 A2993 RMK AO2 SLP134 T03450211 56013 $

2010/08/09 20:55
KVPS 092055Z 16005KT 10SM SCT020 SCT220 33/25 A2992 RMK AO2A CB 20W MOV SW SLP132 T03300247 58020 $

2010/08/09 20:55
KPOE 092055Z AUTO 16007KT 10SM FEW055 36/22 A2991 RMK AO2 SLP127 T03610222 58022

2010/08/09 20:55
KNBG 092055Z 00000KT 9SM FEW006 SCT080 BKN110 OVC250 25/23 A2996 RMK AO2 SLP145 T1 SET P0001 60035 T02500233 58002 $

2010/08/09 20:56
KNJK 092056Z VRB03KT 10SM CLR 37/09 A2975 RMK AO2 SLP089 T03670094 58017

2010/08/09 20:55
KAFF 092055Z 22004KT 7SM -TSRA FEW005 FEW017 SCT035 SCT080 BKN110 18/16 A3019 RMK AO2A TSB2004 SLP130 P0007 60008 T01810158 56006

2010/08/09 20:55
KEND 092055Z 17014G20KT 10SM SCT070 37/18 A2986 RMK AO2A SLP092 T03740184 58012

2010/08/09 20:55
KGRK 092055Z 13011KT 7SM FEW060 37/18 A2989 RMK SLP099 58020

2010/08/09 20:55
KMCF 092055Z AUTO 32005KT 10SM SCT045 SCT055 28/26 A2988 RMK AO2 DZE1956 SLP120 60063 T02820265 56010

2010/08/09 20:55
KMIB 092055Z AUTO 00000KT 10SM CLR 31/16 A2983 RMK AO2 DZB2012E2021 SLP094 P0000 60000 T03120158 56007

2010/08/09 20:55
KPAM 092055Z AUTO VRB05KT 10SM FEW190 35/22 A2991 RMK AO2 CLDS LWR RWY13 SLP129 T03470223 58016 $

2010/08/09 20:55
KRIV 092055Z VRB05KT 10SM CLR 30/10 A2991 RMK AO2A SLP125 T02950104 57004

2010/08/09 20:55
KSKA 092055Z AUTO 19010G15KT 10SM FEW180 26/07 A2984 RMK AO2 SLP094 T02560074 58010

2010/08/09 20:55
KSKF 092055Z 14007G15KT 130V200 10SM FEW060 36/24 A2989 RMK AO2A SLP111 T03610240 58022 $

2010/08/09 20:55
KTBN 092055Z 17004KT 10SM FEW060 36/22 A2992 RMK AO2A SLP106 T03630216 56016 $

2010/08/09 20:55
KTCM 092055Z AUTO 23005KT 10SM BKN022 OVC028 18/12 A3000 RMK AO2 CIG 021V026 BKN V OVC SLP162 T01800121 53005

2010/08/09 20:55
KVOK 092055Z 28003KT 10SM SCT035 SCT200 32/24 A2990 RMK AO2A SLP117 58007

2010/08/09 20:55
PAED 092055Z AUTO 32008KT 10SM BKN070 OVC085 16/12 A2964 RMK AO2 SLP037 60001 T01580121 53005

2010/08/09 20:55
PHSF 092055Z 28008KT 7SM FEW200 24/09 A3032 RMK SLPNO 52003

2010/08/09 20:56
PMDY 092056Z AUTO 08012KT 10SM FEW025 28/22 A3025 RMK AO2 TSNO 51007 T02830216 SLP553

2010/08/09 20:55
KFAF 092055Z AUTO VRB06KT 10SM CLR 32/18 A3000 RMK AO2 SLP159 T03220177 58006 $

2010/08/09 20:55
KFBG 092055Z 10004KT 10SM CLR 33/21 A2999 RMK AO2A SLP154 T03330207 56010 $

2010/08/09 20:55
KMMT 092055Z 09006KT 10SM FEW055 OVC250 33/21 A3000 RMK AO2A SLP156 T03300212 56010

2010/08/09 20:55
PGUA 092055Z AUTO 24003KT 10SM BKN047 25/ A2993 RMK AO2 DZE1956 SLP117 60000 T0247 53010 VISNO RWY24L $

2010/08/09 20:56
KNXP 092056Z 11009G18KT 7SM CLR 35/M04 A2993 RMK AO2 SLP097 T03501044 58017 $

2010/08/09 20:53
KSNA 092053Z COR 21007KT 10SM FEW019 24/13 A2992 RMK AO2 SLP132 T02390128 56004

2010/08/09 20:50
KWYS 092050Z AUTO 23010G20KT 10SM SCT050 SCT090 19/07 A3010 RMK AO2

2010/08/09 20:56
PASH 092056Z AUTO 11013KT 10SM CLR 16/11 A2940 RMK AO1 52003 PNO

2010/08/09 20:56
PASK 092056Z AUTO 09013KT 10SM BKN037 OVC046 14/11 A2945 RMK AO1 54000 PNO

2010/08/09 20:56
PASM 092056Z AUTO 15013G17KT 9SM SCT008 BKN015 OVC037 10/08 A2932 RMK AO1 52003 PNO

2010/08/09 20:56
PASX 092056Z AUTO 25009KT 10SM OVC080 17/10 A2964 RMK AO1 52010 PNO

2010/08/09 20:56
PATG 092056Z AUTO 19020KT 4SM OVC008 10/09 A2947 RMK AO1 52014 PNO

2010/08/09 20:56
PAUN 092056Z AUTO 11006KT 10SM OVC050 12/08 A2939 RMK AO1 52003 PNO

2010/08/09 20:56
PAVD 092056Z 25003KT 2SM SCT001 BKN020 OVC030 12/09 A2983 RMK AO1 2047Z WEA

2010/08/09 20:56
PAWG 092056Z 35003KT 10SM SCT010 BKN045 OVC060 14/11 A3002 RMK AO1 WEA

2010/08/09 20:56
PAWN 092056Z AUTO 15005KT 10SM BKN045 18/09 A2947 RMK AO1 57007 PNO

2010/08/09 20:56
PAWS 092056Z AUTO 27004KT 10SM OVC070 14/12 A2964 RMK AO1 52007 PNO

2010/08/09 20:56
PAZK 092056Z AUTO 12008KT 090V170 10SM CLR 14/05 A2969 RMK AO1 57007 PNO

2010/08/09 20:56
PAAK 092056Z AUTO 28019G25KT 3SM OVC004 09/07 A2972 RMK AO1 52024 PNO

2010/08/09 20:56
PABL 092056Z AUTO 11010G15KT 10SM SCT030 OVC036 14/11 A2942 RMK AO1 54000 PNO

2010/08/09 20:56
PABV 092056Z AUTO 13004KT 10SM OVC080 14/09 A2964 RMK AO1 52007 PNO

2010/08/09 20:56
PACM 092056Z AUTO 14012G17KT 7SM SCT016 BKN047 OVC080 11/09 A2925 RMK AO2 PWINO TSNO 51004 60001 T01050088 RAEMM P0000 SLP900 $

2010/08/09 20:56
PAEM 092056Z AUTO 14011G17KT 10SM BKN017 BKN022 OVC027 11/08 A2926 RMK AO1 52003 PNO

2010/08/09 20:56
PAFE 092056Z AUTO 21004KT 10SM OVC039 14/11 A3004 RMK AO1 52007 PNO

2010/08/09 20:56
PAFM 092056Z AUTO 03004KT 10SM FEW019 BKN023 OVC043 12/11 A2951 RMK AO1 54000 PNO

2010/08/09 20:56
PAGL 092056Z AUTO 16012KT 10SM FEW022 SCT036 BKN048 12/09 A2943 RMK AO1 52010 PNO

2010/08/09 20:56
PAGM 092056Z AUTO 05014KT 1/4SM OVC002 09/08 A2928 RMK AO1 52007

2010/08/09 20:56
PAGS 092056Z AUTO 11006KT 10SM BKN060 17/11 A2997 RMK AO1 54000 PNO

2010/08/09 20:56
PAHP 092056Z AUTO 11014KT 7SM BKN009 OVC016 10/08 A2920 RMK AO1 52007 PNO TSNO

2010/08/09 20:56
PAHY 092056Z AUTO 00000KT 5SM OVC017 14/12 A3002 RMK AO1 52007 PNO

2010/08/09 20:56
PAII 092056Z AUTO 23010KT 10SM SCT015 BKN021 OVC035 12/11 A2963 RMK AO1 PNO

2010/08/09 20:56
PAIN 092056Z AUTO 16005KT 10SM OVC048 16/09 A2962 RMK AO1 52003 PNO

2010/08/09 20:56
PAJC 092056Z AUTO 23011G16KT 10SM SCT006 OVC018 14/07 A2960 RMK AO1 52014 PNO

2010/08/09 20:56
PAKK 092056Z AUTO 23004KT 3SM BKN005 OVC011 12/11 A2938 RMK AO1 52007 PNO

2010/08/09 20:56
PAKP 092056Z AUTO 03006KT 10SM OVC050 09/07 A2958 RMK AO1 57003

2010/08/09 20:56
PAKU 092056Z 06024KT 2 1/2SM BR OVC004 04/04 A2975

2010/08/09 20:56
PAMD 092056Z AUTO 16007KT 3SM BKN004 BKN014 OVC027 13/11 A2981 RMK AO1 52014 PNO

2010/08/09 20:56
PAMH 092056Z RMK AO1 PNO

2010/08/09 20:56
PAMM 092056Z AUTO 25005KT 10SM OVC024 13/11 A3005 RMK AO1 52003 PNO

2010/08/09 20:50
PAMX 092050Z 00000KT 25SM FEW010 BKN050 OVC070 15/12 A2983 RMK NOSPECI

2010/08/09 20:56
PAMY 092056Z 19010KT 10SM OVC013 11/09 A2919 RMK AO1 52010

2010/08/09 20:56
PANI 092056Z AUTO 12008KT 10SM BKN060 OVC090 13/10 A2941 RMK AO1 52003 PNO

2010/08/09 20:56
PANV 092056Z AUTO 10005KT 10SM FEW012 SCT018 OVC060 12/10 A2940 RMK AO1 52003 PNO

2010/08/09 20:56
PAOU 092056Z AUTO 00000KT 8SM BKN021 OVC026 12/09 A2955 RMK AO2 PWINO TSNO 53003 T01220088 SLP010 $

2010/08/09 20:56
PAPG 092056Z 00000KT 10SM SCT022 SCT036 OVC044 14/11 A3001 RMK AO1 WEA

2010/08/09 20:56
PARC 092056Z AUTO 03006KT 10SM CLR 14/05 A2962 RMK AO1 57014 PNO

2010/08/09 20:56
PASA 092056Z AUTO 09011KT 10SM SCT005 OVC014 11/08 A2929 RMK AO1 52014 PNO

2010/08/09 20:56
PASD 092056Z 19017G22KT 4SM SCT014 BKN017 OVC022 11/08 A2964 RMK AO1 WEA

2010/08/09 20:53
KDAB 092053Z 09009G18KT 10SM FEW025 SCT250 30/23 A2992 RMK AO2 SLP131 TCU DSNT E SW T03000233 55006

2010/08/09 20:55
KDLH 092055Z 29004KT 10SM FEW035 31/18 A2993 RMK AO2 SLP129 T03110178 50000

2010/08/09 20:55
KGPI 092055Z VRB03KT 10SM CLR 26/07 A2982 RMK AO2 SLP087 T02610072 58020

2010/08/09 20:54
KGSO 092054Z 19007KT 10SM SCT055 33/19 A3002 RMK AO2 SLP154 T03280189 56008

2010/08/09 20:55
KIRK 092055Z AUTO 22005KT 10SM CLR 32/26 A2989 RMK AO2 SLP113 T03170256 56009

2010/08/09 20:55
KLIC 092055Z AUTO VRB03KT 10SM CLR 28/15 A3008 RMK AO2 SLP105 T02780150 58016

2010/08/09 20:53
KLND 092053Z AUTO 17013G20KT 10SM FEW110 30/04 A2996 RMK AO2 SLP068 T03000039 58022

2010/08/09 20:53
KLXV 092053Z AUTO 30010G19KT 7SM -RA BKN048 OVC060 14/09 A3040 RMK AO2 RAB41 SLP133 P0000 60000 T01390089 58001 TSNO

2010/08/09 20:53
PADQ 092053Z 20010KT 10SM FEW023 SCT140 BKN250 15/10 A2967 RMK SLP046 T01500100 51006

2010/08/09 20:53
KRQE 092053Z AUTO 27004KT 10SM SCT080 SCT100 25/07 A3025 RMK AO2 SLP125 T02500072 58006 TSNO

2010/08/09 20:54
KAKQ 092054Z AUTO VRB04KT 10SM FEW060 33/18 A3000 RMK AO2 SLP156 T03330178 56008 TSNO

2010/08/09 20:53
KDAB 092053Z 09009G18KT 10SM FEW025 SCT250 30/23 A2992 RMK AO2 SLP131 TCU DSNT E SW T03000233 55006

2010/08/09 20:53
KSAV 092053Z 08006KT 10SM 32/24 A2996 RMK AO2 RAB13E27 SLP144 VCSH P0000 60000 T03170239 56004 $

2010/08/09 20:56
KABQ 092056Z 32004KT 10SM SCT080 31/10 A3010 RMK AO2 SLP096 T03060100 58018

2010/08/09 20:55
KANJ 092055Z AUTO 15005KT 10SM FEW034 28/19 A2988 RMK AO2 SLP112 T02780194 55003

2010/08/09 20:56
TJSJ 092056Z 08012KT 10SM FEW020 SCT039 BKN080 28/25 A2992 RMK AO2 SLP131 SHRA DSNT NW 60012 T02830250 58005

2010/08/09 20:56
KCHS 092056Z 12009G16KT 10SM SCT028 SCT033 BKN043 31/25 A2998 RMK AO2 SLP151 60014 T03110250 56003

2010/08/09 20:55
KHON 092055Z AUTO 13011KT 10SM CLR 32/18 A2988 RMK AO2 SLP107 T03220183 56007 TSNO

2010/08/09 20:55
KPHP 092055Z AUTO 13013G19KT 10SM CLR 34/14 A2986 RMK AO2 SLP088 T03440139 58016 TSNO

2010/08/09 20:53
K4BM 092053Z AUTO 00000KT 10SM -TSRA 12/07 A3053 RMK AO2 LTG DSNT ALQS

2010/08/09 20:56
KMOB 092056Z 16009KT 10SM SCT035 BKN200 33/24 A2995 RMK AO2 SLP137 T03280239 58013

2010/08/09 20:56
PADK 092056Z 27015KT 10SM OVC034 11/08 A2977 RMK AO1 52017 PNO

2010/08/09 20:55
KINL 092055Z AUTO 00000KT 10SM CLR 31/19 A2990 RMK AO2 SLP121 T03110194 58002

2010/08/09 20:56
KSHV 092056Z 00000KT 10SM SCT070 37/22 A2989 RMK AO2 SLP116 T03670217 58021

2010/08/09 20:55
KMBG 092055Z AUTO 16011KT 10SM CLR 33/18 A2984 RMK AO2 SLP091 T03330178 58013 TSNO

2010/08/09 20:55
KAST 092055Z AUTO 29006KT 10SM BKN012 OVC017 15/12 A3003 RMK AO2 SLP169 60000 T01500122 52004

2010/08/09 20:55
KAAT 092055Z AUTO 26016G24KT 10SM CLR 29/M01 A2995 RMK AO2 SLP093 T02891011 58013 TSNO

2010/08/09 20:56
KJAX 092056Z 06008KT 10SM FEW035 SCT065 BKN090 BKN200 28/24 A2994 RMK AO2 RAB01E11 SLP139 P0000 60000 T02830244 58002

2010/08/09 20:56
KBZN 092056Z VRB05KT 10SM BKN085 26/09 A2994 RMK AO2 SLP104 T02610089 56017

2010/08/09 20:55
KDVK 092055Z AUTO 15003KT 10SM SCT050 34/20 A2996 RMK AO1

2010/08/09 20:56
KINW 092056Z AUTO 00000KT 10SM FEW080 30/07 A3010 RMK AO2 SLP117 T03000067 58016

2010/08/09 20:56
KOFK 092056Z AUTO 07003KT 10SM CLR 30/23 A2989 RMK AO2 SLP108 T03000233 58004

2010/08/09 20:56
KSFO 092056Z 33011KT 10SM FEW010 20/12 A2991 RMK AO2 SLP127 T02000117 58007

2010/08/09 20:55
KSMS 092055Z AUTO 09004KT 5SM HZ CLR 32/23 A3000 RMK AO2

2010/08/09 20:54
KSUS 092054Z COR 19005KT 10SM FEW050 BKN200 36/24 A2988 RMK AO2 SLP106 T03560239 56007

2010/08/09 20:56
TJSJ 092056Z 08012KT 10SM FEW020 SCT039 BKN080 28/25 A2992 RMK AO2 SLP131 SHRA DSNT NW 60012 T02830250 58005

2010/08/09 20:56
KFLG 092056Z VRB06KT 10SM FEW060 21/08 A3029 RMK AO2 PK WND 20026/2022 RAB23E39 SLP165 P0000 60000 T02110083 58003

2010/08/09 20:56
KSXT 092056Z AUTO VRB05KT 8SM CLR 21/13 A3002 RMK AO2 RAE16 SLP126 P0000 60000 T02060128 52003 TSNO

2010/08/09 20:56
KLWS 092056Z 00000KT 10SM CLR 29/06 A2977 RMK AO2 SLP072 T02940061 56021

2010/08/09 20:54
KWAL 092054Z 19011KT 10SM BKN075 28/22 A3002 RMK AO2 SLP164 T02780217 56008

2010/08/09 20:54
KWAL 092054Z 19011KT 10SM BKN075 28/22 A3002 RMK AO2 SLP164 T02780217 56008

2010/08/09 20:56
KGNR 092056Z AUTO VRB03KT 24/17 A2989 RMK AO1 SLP117 T02440172 58012

2010/08/09 20:56
KP53 092056Z AUTO 05010KT 26/22 A2989 RMK AO2 SLP119 T02560217 53008 PWINO TSNO

2010/08/09 21:00
KVTP 092100Z AUTO 12003KT 10SM TS SCT029 BKN039 OVC045 12/11 A3045 RMK AO2 LTG DSNT ALQS

2010/08/09 20:55
KAFF 092055Z 22004KT 7SM -TSRA FEW005 FEW017 SCT035 SCT080 BKN110 18/16 A3019 RMK AO2A TSB2004 SLP130 P0007 60008 T01810158 56006

2010/08/09 20:55
KBAB 092055Z 19006KT 10SM CLR 28/14 A2984 RMK AO2A SLP107 T02820144 58011

2010/08/09 20:55
KCOF 092055Z 13012KT 10SM CLR 30/24 A2991 RMK AO2A SLP129 T02970237 56008

2010/08/09 20:55
KDLF 092055Z AUTO 16008KT 10SM FEW065 37/19 A2985 RMK AO2 SLP089 T03680195 58031

2010/08/09 20:55
KEDW 092055Z 34003KT 80SM CLR 32/M01 A2989 RMK AO2A SLP077 T03221005 58015

2010/08/09 20:55
KEND 092055Z 17014G20KT 10SM SCT070 37/18 A2986 RMK AO2A SLP092 T03740184 58012

2010/08/09 20:55
KFFO 092055Z 23006KT 10SM FEW050 BKN170 32/20 A2996 RMK AO2A CLDS LWR RWY05L SLP141 57015

2010/08/09 20:55
KFHU 092055Z VRB06KT 50SM SCT050 29/16 A3010 RMK SLP124 58007

2010/08/09 20:55
KFRI 092055Z AUTO 20010KT 10SM SCT090 40/19 A2982 RMK AO2 SLP077 T04000186 56007

2010/08/09 20:55
KGRK 092055Z 13011KT 7SM FEW060 37/18 A2989 RMK SLP099 58020

2010/08/09 20:55
KGSB 092055Z 00000KT 10SM CLR 33/14 A2999 RMK AO2A SLP156 T03350145 56009

2010/08/09 20:55
KLFI 092055Z 12007KT 10SM CLR 30/18 A3001 RMK AO2A SLP164 T03050181 58004

2010/08/09 20:55
KLTS 092055Z AUTO 17009KT 10SM CLR 38/18 A2986 RMK AO2 SLP089 T03830175 58016 $

2010/08/09 20:55
KLUF 092055Z 24008KT 10SM CLR 38/10 A2984 RMK AO2A SLP073 T03770101 58015 $

2010/08/09 20:55
KMCF 092055Z AUTO 32005KT 10SM SCT045 SCT055 28/26 A2988 RMK AO2 DZE1956 SLP120 60063 T02820265 56010

2010/08/09 20:55
KMIB 092055Z AUTO 00000KT 10SM CLR 31/16 A2983 RMK AO2 DZB2012E2021 SLP094 P0000 60000 T03120158 56007

2010/08/09 20:56
KNQI 092056Z 11013KT 10SM SCT047CB SCT070 BKN250 36/24 A2987 RMK AO2 SLP111 CB DSNT SW T03560237 56017

2010/08/09 20:56
KNDZ 092056Z AUTO 21008G14KT 10SM FEW043 BKN050 34/23 A2991 RMK AO2 SLP114 T03440233 58022 PWINO $

2010/08/09 20:56
KNGP 092056Z 12009KT 10SM FEW035TCU SCT045 SCT250 32/27 A2988 RMK AO2 SLP119 TCU DSNT SE T03220267 58017

2010/08/09 20:56
K79J 092056Z 12004KT 10SM FEW060 36/20 A2992 RMK AO2 SLP126 T03610200 58019 PNO $

2010/08/09 20:56
KNYG 092056Z 18009KT 8SM CLR 32/23 A2997 RMK AO2 SLP149 T03170228 58010 $

2010/08/09 20:56
KNXX 092056Z 23008KT 9SM FEW050 BKN200 32/17 A2997 RMK AO2 SLP152 T03170172 56016 $

2010/08/09 20:56
KNBT 092056Z AUTO 27003KT 1SM -RA SCT001 SCT015 28/25 A3001 RMK AO2 RAB33 SLP166 P0006 60006 T02780250 56005 TSNO

2010/08/09 20:56
KNID 092056Z 16005KT 10SM CLR 34/M03 A2988 RMK AO2 SLP095 T03391033 58015 $

2010/08/09 20:55
PAIM 092055Z AUTO 14004KT 10SM SCT011 OVC021 12/12 A2954 RMK AO1 T01220117

2010/08/09 20:55
PAEH 092055Z AUTO 16018G36KT 130V190 4SM OVC005 09/07 RMK AO1 9 T00890073

2010/08/09 20:55
PALU 092055Z AUTO 07017KT 5SM 08/07 A2960 RMK AO1 T00830073

2010/08/09 20:55
PATC 092055Z AUTO 08006KT 5SM SCT013 BKN028 OVC035 14/12 A2935 RMK AO1 T01390117

2010/08/09 20:55
PATL 092055Z AUTO 13007KT 080V200 10SM OVC013 11/11 A2953 RMK AO1 0 T01110106

2010/08/09 20:55
PASV 092055Z AUTO 18012KT 10SM BKN017 OVC023 10/08 A2956 RMK AO1 T01000084

2010/08/09 20:52
KNZY 092052Z 27008KT 10SM FEW019 24/14 A2992 RMK AO2 SLP130 T02440139 57006 $

2010/08/09 20:56
KALS 092056Z AUTO 26008KT 10SM 22/12 A3025 RMK AO2 LTG DSNT W AND NW

2010/08/09 21:02
KCPW 092102Z AUTO 23009G19KT 211V271 10SM BKN019 BKN028 OVC065 11/06 A3056 RMK AO2 LTG DSNT NW THRU SE

2010/08/09 20:54
KCBM 092054Z AUTO 07010KT 2 1/2SM TSRA BR OVC050 26/23 A2993 RMK AO2 PK WND 05032/2029 WSHFT 2012 RAB2028 TSB2010E2039B2054 SLP134 $

2010/08/09 20:49
KNQX 092049Z 31008KT 6SM -TSRA FEW002 BKN010CB BKN020 BKN140 26/24 A2989 RMK AO2 OCNL LTGICCC OHD TS OHD MOV S T1 SET P0009 $

2010/08/09 20:54
PAIW 092054Z AUTO 07008KT 10SM -RA BKN011 OVC070 15/13 A2937 RMK AO2 P0000

2010/08/09 20:56
KLGU 092056Z AUTO 11012G18KT 10SM SCT090 BKN110 26/06 A3002 RMK AO2 WSHFT 2038 LTG DSNT E

2010/08/09 20:55
KMAO 092055Z AUTO 10003KT 10SM CLR 33/20 A2998 RMK AO2

2010/08/09 20:56
KMDT 092056Z 12004KT 8SM FEW050 SCT250 32/19 A2994 RMK AO2 SLP136 T03220189 58015

2010/08/09 20:55
KMKS 092055Z AUTO 11006KT 10SM SCT090 30/24 A2998 RMK AO2 TSNO

2010/08/09 20:45
KMMU 092045Z 26010G15KT 8SM SCT150 33/17 A2994

2010/08/09 20:56
KMQY 092056Z 16005KT 10SM FEW055 36/22 A2993 RMK AO2 56021 T00000000 SLP124 $

2010/08/09 20:56
KMRH 092056Z AUTO 19007KT 10SM SCT060 28/23 A3001 RMK AO2 SLP164 T02830233 56010 TSNO

2010/08/09 20:55
KNQA 092055Z COR 14004KT 10SM SCT080 BKN150 BKN250 29/26 A2993 RMK

2010/08/09 20:55
KO22 092055Z AUTO 22005KT 10SM CLR 30/08 A2994 RMK AO1

2010/08/09 20:50
KOCF 092050Z 16004KT 10SM SCT030 BKN080 28/25 A2991 RMK TSE48

2010/08/09 20:56
KOWB 092056Z 30004KT 9SM FEW075 38/22 A2991 RMK AO2 56018 T03770222 SLP123

2010/08/09 20:55
KPVF 092055Z AUTO 20008KT 10SM CLR 28/08 A2997 RMK AO1

2010/08/09 20:55
KRCE 092055Z AUTO 17011G16KT 10SM FEW070 SCT090 35/20 A2989 RMK AO2

2010/08/09 20:56
KRDM 092056Z 32010G18KT 10SM FEW080 28/05 A2990 RMK AO2 SLP100 T02780050 56012

2010/08/09 20:47
KRHV 092047Z 31009KT 10SM SKC 27/13 A2988

2010/08/09 20:56
KSBP 092056Z 31005KT 10SM CLR 22/13 A2993 RMK AO2 SLP132 T02220128 56006 $

2010/08/09 20:45
KSCH 092045Z 30007KT 10SM SCT090 32/17 A2990

2010/08/09 20:56
KSGH 092056Z AUTO VRB06KT 5SM HZ CLR 31/24 A2999 RMK AO2 58013 60000 T03110238 SLP147 $

2010/08/09 20:58
KSGJ 092058Z 11011KT 10SM FEW018 BKN024 BKN070 31/24 A2994 RMK AO2 SLP139 T03060244 56010

2010/08/09 20:56
KSLE 092056Z 08005KT 10SM SCT038 21/09 A2998 RMK AO2 SLP153 T02060089 58006

2010/08/09 20:55
KSME 092055Z AUTO 00000KT 10SM 35/22 A2997 RMK AO2

2010/08/09 20:56
KSRC 092056Z AUTO 06008KT 10SM SCT060 37/24 A2990 RMK AO2 TSNO 56014 T03720244 SLP125

2010/08/09 20:56
KTPH 092056Z AUTO 18017G23KT 10SM CLR 29/M06 A3006 RMK AO2 SLP099 T02891061 56011

2010/08/09 20:56
KUKI 092056Z AUTO 13006KT 10SM CLR 29/14 A2985 RMK AO2 SLP100 T02890139 56014

2010/08/09 20:56
KWJF 092056Z 00000KT 10SM CLR 33/M03 A2991 RMK AO2 SLP107 T03331028 58013

2010/08/09 20:55
KY51 092055Z AUTO 35003KT 10SM CLR 30/23 A2993 RMK AO1 T02960233

2010/08/09 20:56
PAAK 092056Z AUTO 28019G25KT 3SM OVC004 09/07 A2972 RMK AO1 52024 PNO

2010/08/09 20:56
PACM 092056Z AUTO 14012G17KT 7SM SCT016 BKN047 OVC080 11/09 A2925 RMK AO2 PWINO TSNO 51004 60001 T01050088 RAEMM P0000 SLP900 $

2010/08/09 20:56
PAHP 092056Z AUTO 11014KT 7SM BKN009 OVC016 10/08 A2920 RMK AO1 52007 PNO TSNO

2010/08/09 20:52
PADT 092052Z 29005KT 20SM BKN030 BKN060 16/08 A2968 RMK NOSPECI

2010/08/09 20:56
KGFA 092056Z AUTO VRB03KT 10SM CLR 29/07 A2982 RMK AO2 SLP090 T02890067 58022

2010/08/09 20:56
KNSE 092056Z 26006KT 8SM SCT042CB SCT070 BKN100 33/23 A2992 RMK AO2 SLP115 CB SE-S MOV SW T2 SET T03330233 56021 $

2010/08/09 20:57
YPLM 092057Z AUTO 04007KT 9999NDV // NCD 17/15 Q1017

2010/08/09 20:55
CYMH 092055Z AUTO 22015G22KT 9SM FEW032 FEW042 SCT076 19/15 A2970

2010/08/09 20:50
EBAW 092050Z 15005KT 9999 FEW015 17/12 Q1015 NOSIG

2010/08/09 20:50
EBBR 092050Z 17004KT CAVOK 17/12 Q1015 NOSIG

2010/08/09 20:50
EBCI 092050Z 19003KT CAVOK 18/11 Q1016 NOSIG

2010/08/09 20:50
EBLG 092050Z 14005KT CAVOK 19/11 Q1016 NOSIG

2010/08/09 20:50
EBOS 092050Z 24007KT CAVOK 14/10 Q1015 NOSIG

2010/08/09 20:50
ELLX 092050Z 00000KT CAVOK 19/12 Q1017 NOSIG

2010/08/09 20:56
EYVI 092056Z VRB01KT 0150 R20/0375N FG NSC 15/15 Q1017 NOSIG

2010/08/09 20:50
LOWG 092050Z 00000KT 9999 FEW050 19/17 Q1019 NOSIG

2010/08/09 20:50
LOWI 092050Z VRB01KT CAVOK 17/14 Q1018 NOSIG

2010/08/09 20:50
LOWK 092050Z VRB02KT 9999 SCT062 17/15 Q1018 NOSIG

2010/08/09 20:50
LOWL 092050Z VRB01KT CAVOK 17/14 Q1018 NOSIG

2010/08/09 20:50
LOWS 092050Z 15002KT CAVOK 16/13 Q1018 NOSIG

2010/08/09 20:50
LOWW 092050Z 17006KT 9999 FEW060 17/14 Q1017 NOSIG

2010/08/09 20:50
EFIV 092050Z AUTO 01011KT 350V050 9999 -DZ FEW009 OVC011 11/10 Q1012

2010/08/09 20:50
EFKE 092050Z AUTO 35010KT 9999 OVC012 15/12 Q1008

2010/08/09 20:50
ENBO 092050Z 01006KT CAVOK 12/10 Q1010 NOSIG

2010/08/09 20:50
ENBR 092050Z 09003KT 060V120 9999 FEW014 SCT030 BKN045 13/11 Q1011

2010/08/09 20:50
ENVA 092050Z VRB01KT CAVOK 17/14 Q1009

2010/08/09 20:50
ENZV 092050Z 11005KT 9999 FEW025 SCT050 13/09 Q1012

2010/08/09 20:50
LIBD 092050Z 26004KT 230V290 CAVOK 22/16 Q1014

2010/08/09 20:50
LICC 092050Z 28007KT CAVOK 25/21 Q1014

2010/08/09 20:50
LICJ 092050Z 05008KT CAVOK 25/19 Q1016

2010/08/09 20:50
LIEA 092050Z VRB02KT CAVOK 19/15 Q1017

2010/08/09 20:50
LIEO 092050Z 08004KT CAVOK 24/19 Q1016

2010/08/09 20:50
LIMC 092050Z VRB01KT CAVOK 21/17 Q1015 NOSIG

2010/08/09 20:50
LIME 092050Z 01005KT 9999 FEW040 21/17 Q1016

2010/08/09 20:50
LIMF 092050Z 01005KT 9999 SCT080 22/18 1015

2010/08/09 20:50
LIMJ 092050Z VRB03KT 9999 FEW015 24/20 Q1015

2010/08/09 20:50
LIML 092050Z VRB01KT CAVOK 23/18 Q1015 NOSIG

2010/08/09 20:45
LIBR 092045Z 33009KT CAVOK 24/20 Q1014 NOSIG

2010/08/09 20:45
LIEE 092045Z 29007KT 9999 FEW020 SCT040 26/09 Q1015 NOSIG

2010/08/09 20:50
LIPB 092050Z 00000KT 9999 FEW070 SCT100 24/15 Q1015

2010/08/09 20:50
LIPE 092050Z 21007KT CAVOK 24/18 Q1014

2010/08/09 20:50
LIPK 092050Z VRB03KT CAVOK 23/16 Q1014

2010/08/09 20:50
LIPQ 092050Z 09005KT CAVOK 22/18 Q1015

2010/08/09 20:50
LIPZ 092050Z VRB03KT 9999 SCT055 25/20 Q1015

2010/08/09 20:50
LIRF 092050Z 08003KT CAVOK 22/18 Q1015 NOSIG

2010/08/09 20:50
LIRQ 092050Z 22005KT 9999 FEW025 23/19 Q1016

2010/08/09 20:50
LIMC 092050Z VRB01KT CAVOK 21/17 Q1015 NOSIG

2010/08/09 20:45
LIPH 092045Z 00000KT 9999 SCT080 24/20 Q1015

2010/08/09 20:45
LIPR 092045Z 16001KT CAVOK 24/21 Q1014

2010/08/09 20:45
LIPX 092045Z 34004KT CAVOK 24/23 Q1015

2010/08/09 20:45
LIRA 092045Z 10002KT CAVOK 24/19 Q1015

2010/08/09 20:45
LIRP 092045Z 18002KT 9999 FEW015 SCT025 23/22 Q1015 NOSIG

2010/08/09 20:45
LIPX 092045Z 34004KT CAVOK 24/23 Q1015

2010/08/09 21:00
OYSY 092100Z 19004KT 120V240 9999 FEW040 BKN080 35/12 Q1005

2010/08/09 20:50
EGYP 092050Z 24013KT 9999 VCSH FEW015CB SCT025 BKN035 01/M01 Q0995 BLU TEMPO 0500 +SHSN VV/// RED

2010/08/09 20:50
LCRA 092050Z 28007KT CAVOK 27/25 Q1005

2010/08/09 20:45
MMAA 092045Z 15005KT 10SM FEW010 SCT300 31/25 A2978 RMK SLP091 57013 900 8/102

2010/08/09 20:46
MMTM 092046Z 09010KT 8SM FEW010 BKN200 33/26 A2985 RMK SLP106 57008 958 8/108

2010/08/09 20:45
MMVR 092045Z 03006KT 7SM FEW015TCU SCT220 33/25 A2983 RMK SLP099 57006 900 8/208 HZY

2010/08/09 21:00
OYHD 092100Z 36004KT 9999 BKN030 33/30 Q1001

2010/08/09 20:50
MMTJ 092050Z 35008KT 7SM SKC 22/13 A2994 RMK SLP147 54000 905 HZY ST W ISOL CI

2010/08/09 20:45
MMTO 092045Z 05004KT 5SM TS BKN015CB BKN070 BKN200 20/13 A3030 RMK SLP041 57032 975 8/963 TSB30 PCPN 2 QUAD

2010/08/09 20:45
MMZH 092045Z 20010KT 7SM SCT020CB SCT100 BKN250 32/26 A2980 RMK SLP089 57016 900 8/963

2010/08/09 20:48
MMLP 092048Z 01010KT 15SM SKC 37/13 A2977 RMK SLP098 57024 974 CU 2 QUAD

2010/08/09 20:47
MMMA 092047Z 11010KT 8SM BKN020 33/26 A2990 RMK SLP115 57017 900 8/100 DSNT CB 1 2 QUAD

2010/08/09 20:55
EHDL 092055Z AUTO 10002KT 9999NDV NCD 14/12 Q1015 BLU

2010/08/09 20:55
EHGR 092055Z AUTO 14005KT 9999NDV SCT240 17/12 Q1015 BLU

2010/08/09 20:55
EHLW 092055Z AUTO 14005KT 9999NDV NCD 17/13 Q1014 BLU

2010/08/09 20:55
EHVK 092055Z AUTO 14001KT 9999NDV FEW200 15/13 Q1015 BLU

2010/08/09 20:55
EHVL 092055Z AUTO 15013KT 9999NDV NCD 18/14 Q1014 BLU

2010/08/09 20:55
EHWO 092055Z AUTO 15002KT 9999NDV FEW052 SCT060 16/12 Q1014 BLU

2010/08/09 20:50
ENAN 092050Z 03014KT 9999 FEW008 BKN020 11/09 Q1013

2010/08/09 20:50
ENDU 092050Z VRB01KT 9999 FEW045 12/09 Q1012

2010/08/09 20:50
ENEK 092050Z 18017KT 9999 BKN030 16/13 Q1009 W16/S3

2010/08/09 20:50
ENGC 092050Z 14007KT 9999 BKN030 13/10 Q1010

2010/08/09 20:50
ENHV 092050Z VRB02KT 9999 FEW016 BKN026 10/06 Q1015

2010/08/09 20:50
ENMH 092050Z 09005KT 9999 BKN014 09/06 Q1015

2010/08/09 20:50
ENOA 092050Z 16012KT 9999 SCT030 13/09 Q1010

2010/08/09 20:50
ENOL 092050Z 35004KT 9999 FEW006 12/11 Q1010

2010/08/09 20:50
ENRM 092050Z 02005KT 320V060 9999 BKN005 12/11 Q1011

2010/08/09 20:50
ENVD 092050Z 05015KT 9999 VV005 08/07 Q1014

2010/08/09 20:50
EBAW 092050Z 15005KT 9999 FEW015 17/12 Q1015 NOSIG

2010/08/09 20:50
EBBR 092050Z 17004KT CAVOK 17/12 Q1015 NOSIG

2010/08/09 20:50
EBCI 092050Z 19003KT CAVOK 18/11 Q1016 NOSIG

2010/08/09 20:50
EBLG 092050Z 14005KT CAVOK 19/11 Q1016 NOSIG

2010/08/09 20:50
EBOS 092050Z 24007KT CAVOK 14/10 Q1015 NOSIG

2010/08/09 20:50
EDFH 092050Z 21005KT CAVOK 17/10 Q1017

2010/08/09 20:50
EDQM 092050Z AUTO VRB01KT 9999NDV NCD 12/11 Q1018

2010/08/09 20:50
EDSB 092050Z 00000KT CAVOK 16/14 Q1017

2010/08/09 20:50
EDTL 092050Z 07002KT CAVOK 17/13 Q1016

2010/08/09 20:50
EDVK 092050Z 19004KT CAVOK 13/11 Q1017

2010/08/09 20:50
EDXW 092050Z AUTO 19006KT 9999NDV NCD 14/11 Q1015

2010/08/09 20:55
EHBK 092055Z AUTO 15004KT 9999NDV NSC 16/11 Q1016

2010/08/09 20:55
EHDL 092055Z AUTO 10002KT 9999NDV NCD 14/12 Q1015 BLU

2010/08/09 20:55
EHGG 092055Z AUTO 12004KT 9999NDV NCD 15/14 Q1015

2010/08/09 20:55
EHGR 092055Z AUTO 14005KT 9999NDV SCT240 17/12 Q1015 BLU

2010/08/09 20:55
EHLW 092055Z AUTO 14005KT 9999NDV NCD 17/13 Q1014 BLU

2010/08/09 20:55
EHVK 092055Z AUTO 14001KT 9999NDV FEW200 15/13 Q1015 BLU

2010/08/09 20:55
EHVL 092055Z AUTO 15013KT 9999NDV NCD 18/14 Q1014 BLU

2010/08/09 20:55
EHWO 092055Z AUTO 15002KT 9999NDV FEW052 SCT060 16/12 Q1014 BLU

2010/08/09 20:50
ELLX 092050Z 00000KT CAVOK 19/12 Q1017 NOSIG

2010/08/09 20:55
ETAD 092055Z AUTO 00000KT 9999 OVC080 18/11 A3004 RMK AO2 SLP166 60000 T01840111 51005 $

2010/08/09 20:55
ETAR 092055Z AUTO 00000KT 9999 SCT080 16/14 A3003 RMK AO2 SLP164 60000 T01580142 51006 $

2010/08/09 20:55
ETEB 092055Z AUTO 08003KT 9999 OVC070 16/13 A3007 RMK AO2 SLP172 T01640127 52005

2010/08/09 20:56
ETIC 092056Z AUTO 00000KT 9999 CLR 13/13 A3006 RMK AO2 SLP175 T01300130 52009

2010/08/09 20:55
ETOU 092055Z AUTO 00000KT 9999 FEW080 16/13 A3003 RMK AO2 SLP168 T01630128 51006

2010/08/09 20:50
EGDL 092050Z 19007KT 9999 OVC008 17/16 Q1012 GRN NOSIG

2010/08/09 20:50
EGDL 092050Z 19007KT 9999 OVC008 17/16 Q1012 NOSIG

2010/08/09 20:50
EGDY 092050Z 20005KT 9999 BKN010 18/16 Q1013 GRN NOSIG

2010/08/09 20:50
EGOV 092050Z 20008KT 9999 FEW018 SCT060 15/14 Q1009 BLU NOSIG

2010/08/09 20:50
EGQK 092050Z 18002KT 9999 SCT027 BKN035 13/12 Q1005 BLU NOSIG

2010/08/09 20:50
EGQL 092050Z 24009KT 9999 FEW022 13/10 Q1006 BLU NOSIG

2010/08/09 20:50
EGQS 092050Z 17002KT 9999 FEW028 SCT060 13/12 Q1005 BLU NOSIG

2010/08/09 20:50
EGSH 092050Z 18006KT 9999 SCT040 20/13 Q1012 NOSIG

2010/08/09 20:50
EGSH 092050Z 18006KT 9999 SCT040 20/13 Q1012

2010/08/09 20:45
MMAN 092045Z 12010KT 7SM SCT035 36/23 A2987 RMK SLP087 57017 901 8/500 HZY

2010/08/09 20:48
MMLT 092048Z 03010KT 8SM FEW200 34/22 A2976 RMK SLP078 8/009

2010/08/09 20:45
MMOX 092045Z 16009KT 12SM SCT030CB SCT100 BKN200 27/18 A3008 RMK SLP064 58013 951 8/368 DSNT CB SE S SW STN

2010/08/09 20:45
MMQT 092045Z 34008KT 5SM BKN020 BKN250 27/14 A3018 RMK 8/102 HZY

2010/08/09 20:56
KFSD 092056Z 11008KT 10SM SCT030 30/23 A2990 RMK AO2 SLP114 SCT ABV 120 T03000233 58005 

2010/08/09 20:56
KINS 092056Z 10012G15KT 10SM CLR 32/03 A2994 RMK AO2 SLP088 T03170033 56012 

2010/08/09 20:56
KABH 092056Z AUTO 13005KT 10SM FEW065 SCT100 24/13 A3014 RMK AO2 TSB19E35 SLP126 T02440133 56013 $ 

2010/08/09 20:56
KAQV 092056Z AUTO 00000KT 10SM CLR 38/22 A2990 RMK AO2 SLP118 T03780217 56023 

2010/08/09 20:56
KCDJ 092056Z AUTO 19007KT 36/26 A2985 RMK AO2 SLP088 T03610261 57011 PWINO TSNO 

2010/08/09 20:56
K9L2 092056Z AUTO 19007KT 10SM CLR 33/M06 A2989 RMK AO2 SLP100 T03281061 58015 $ 

2010/08/09 20:56
KNFE 092056Z AUTO 11005KT 2 1/2SM HZ CLR 31/19 A3001 RMK AO2 SLP165 T03060189 58006 $ 

2010/08/09 20:56
K8D3 092056Z AUTO 15005KT 31/20 A2990 RMK AO2 SLP106 T03110200 58002 PWINO TSNO 

2010/08/09 20:56
KNTU 092056Z 13006KT 10SM FEW035 SCT200 29/23 A3001 RMK AO2 SLP165 T02890233 58005 $ 

2010/08/09 20:56
KALK 092056Z AUTO 00000KT 10SM CLR 29/13 A3011 RMK AO2 SLP099 T02940128 58010 $ 

2010/08/09 20:56
KGNA 092056Z AUTO 26005KT 18/16 A2987 RMK AO2 SLP112 T01830156 58001 PWINO TSNO 

2010/08/09 20:56
KP28 092056Z AUTO 18012G21KT 38/17 A2984 RMK AO2 SLP083 T03830172 58014 PWINO TSNO 

2010/08/09 20:56
KNLC 092056Z VRB05KT 10SM CLR 31/13 A2984 RMK AO2 SLP105 RH/31 T03110133 58014 

2010/08/09 20:56
KNCA 092056Z 15009KT 10SM 31/24 A3001 RMK AO2 SLP163 60023 T03060244 56008 $ 

2010/08/09 20:56
KNUQ 092056Z 34009KT 10SM CLR 22/13 A2990 RMK AO2 SLP128 T02170128 58008 

2010/08/09 20:56
K2WX 092056Z AUTO 17018G25KT 35/13 A2978 RMK AO1 PK WND 17028/2042 SLP052 T03500128 56020 

2010/08/09 21:00
OPKC 092100Z 29006KT 7000 SCT020 BKN100 27/25 Q.1001 NOSIG

2010/08/09 20:55
EHAM 092055Z 13007KT CAVOK 18/13 Q1014 NOSIG

2010/08/09 20:55
EHBK 092055Z AUTO 15004KT 9999NDV NSC 16/11 Q1016

2010/08/09 20:55
EHGG 092055Z AUTO 12004KT 9999NDV NCD 15/14 Q1015

2010/08/09 20:55
EHRD 092055Z 16006KT 110V180 9999 FEW040 19/11 Q1014 NOSIG

2010/08/09 20:50
LSMA 092050Z AUTO VRB01KT 9999NDV NCD 18/15 Q1017 RMK BLU

2010/08/09 20:50
LSMD 092050Z AUTO VRB01KT 9999NDV NCD 17/14 Q1017 RMK BLU

2010/08/09 20:50
LSME 092050Z AUTO 00000KT 9999NDV NCD 18/14 Q1017 RMK BLU

2010/08/09 20:50
LSMM 092050Z AUTO 11004KT 060V130 9999NDV FEW050 BKN066 16/14 Q1017 RMK WHT

2010/08/09 20:50
LSMP 092050Z AUTO VRB01KT 9999NDV BKN066 19/14 Q1017 RMK WHT

2010/08/09 21:00
BKPR 092100Z 31005KT CAVOK 20/14 Q1018 NOSIG RMK BLU

2010/08/09 20:56
KNPA 092056Z 16011KT 8SM FEW035TCU SCT140 SCT250 33/25 A2992 RMK AO2 SLP134 TCU DSNT NE-E T2 SET T03280250 56018 

2010/08/09 20:57
CYKJ 092057Z AUTO 08003KT 6SM -RA SCT006 OVC012 16/15 A2980 RMK SLP107 DENSITY ALT 2300FT PCPN 1.2MM PAST HR

2010/08/09 20:50
EFKI 092050Z AUTO 16002KT //// FEW031 SCT053 BKN113 19/18 Q1008

2010/08/09 20:55
KBAB 092055Z 19006KT 10SM CLR 28/14 A2984 RMK AO2A SLP107 T02820144 58011

2010/08/09 20:55
KCOF 092055Z 13012KT 10SM CLR 30/24 A2991 RMK AO2A SLP129 T02970237 56008

2010/08/09 20:55
KCVS 092055Z 21010KT 10SM SCT080 SCT150 30/13 A3004 RMK AO2A SLP120 T03020130 58012 $

2010/08/09 20:55
KFTK 092055Z 15004KT 10SM FEW060 35/23 A2994 RMK AO2A SLP131 T03540229 56014

2010/08/09 20:55
KLSV 092055Z AUTO 00000KT 10SM CLR 34/04 A2988 RMK AO2 SLP102 T03420038 58018 PWINO

2010/08/09 20:55
KLUF 092055Z 24008KT 10SM CLR 38/10 A2984 RMK AO2A SLP073 T03770101 58015 $

2010/08/09 20:55
KMXF 092055Z 15010G18KT 100V190 10SM FEW060 37/20 A2991 RMK AO2A SLP129 T03740198 58018

2010/08/09 20:55
KNUC 092055Z 21007KT 10SM FEW016 21/14 A2996 RMK SLP142 T02090135 58003

2010/08/09 20:52
KNZY 092052Z 27008KT 10SM FEW019 24/14 A2992 RMK AO2 SLP130 T02440139 57006 $

2010/08/09 20:56
KSGH 092056Z AUTO VRB06KT 5SM HZ CLR 31/24 A2999 RMK AO2 58013 60000 T03110238 SLP147 $

2010/08/09 20:55
KTTS 092055Z 11011G16KT 10SM FEW022 FEW210 30/25 A2991 RMK SLP129 2CU /2/ 1CI /2/

2010/08/09 20:56
MUGM 092056Z 13011KT 9999 FEW025CB BKN250 31/24 A2990 RMK SLP124 CB DSNT NW T03060244 55012

2010/08/09 20:56
PMDY 092056Z AUTO 08012KT 10SM FEW025 28/22 A3025 RMK AO2 TSNO 51007 T02830216 SLP553

2010/08/09 20:56
TJSJ 092056Z 08012KT 10SM FEW020 SCT039 BKN080 28/25 A2992 RMK AO2 SLP131 SHRA DSNT NW 60012 T02830250 58005

2010/08/09 20:54
KSBN 092054Z 23006KT 8SM CLR 29/22 A2994 RMK AO2 SLP132 60000 T02940222 58009 

2010/08/09 20:56
KCAE 092056Z 13011KT 10SM SCT065 SCT090 BKN210 34/21 A2998 RMK AO2 SLP148 T03390211 56009 

2010/08/09 20:50
BGBW 092050Z AUTO 05002KT 8000NDV RA FEW003/// BKN006/// OVC022/// 10/09 Q1008

2010/08/09 20:50
BGGH 092050Z 20006KT 9999 BKN020 BKN060 10/08 Q1008 RMK 6ST 7AS

2010/08/09 20:50
BGJN 092050Z 14010KT 9999 FEW029 BKN110 13/04 Q1008 RMK 2SC 6AC

2010/08/09 20:50
BGSF 092050Z 07009KT 9999 BKN042 14/05 Q1008

2010/08/09 20:55
BGTL 092055Z AUTO 26007KT 9999 CLR 06/03 A2986 RMK AO2 SLP117 T00580031 58005

2010/08/09 20:55
KQAE 092055Z 32004KT 8000 HZ CLR 35/08 A2955 RMK SLP003 57002

2010/08/09 20:55
KQBL 092055Z AUTO VRB03KT 10SM CLR 33/24 A2995 RMK AO2 LTG DSNT NW SLP141 T03300241 57019

2010/08/09 20:55
KQBS 092055Z 33005KT 9999 OVC200 36/15 A2943 RMK SLP973 WND/ALSTG/SLP/QNH ESTMD QNH996 50000

2010/08/09 20:55
KQDD 092055Z AUTO 27002KT 9999 SCT095 BKN110 25/12 A2997 RMK AO2 SLP146

2010/08/09 20:55
KQIU 092055Z AUTO 07002KT 9999 SCT100 BKN130 18/16 A3007 RMK AO2 SLP092

2010/08/09 20:55
KQMG 092055Z AUTO 30005G17KT 10SM CLR 32/09 A3004 RMK AO2 LTG DSNT SE SLP095 T03200085 58017

2010/08/09 20:55
KQSA 092055Z 07007KT 9999 FEW130 SCT150 25/18 A2988 RMK SLP294 WND DATA ESTMD ALSTG/SLP ESTMD 58003

2010/08/09 20:55
KQTX 092055Z 36004KT 9999 CLR 35/00 A2961 RMK SLP996 51005

2010/08/09 20:56
KSPD 092056Z AUTO 20014G19KT 33/16 A2999 RMK AO2 SLP079 T03280156 58012 PWINO TSNO 

2010/08/09 20:56
KMHS 092056Z AUTO VRB03KT 10SM CLR 28/08 A2996 RMK AO2 SLP129 T02780083 56005 TSNO 

2010/08/09 20:50
EDNY 092050Z AUTO VRB01KT 9999 15/14 Q1017

2010/08/09 20:50
EDFE 092050Z AUTO 00000KT //// R27/P2000N // /// 15/14 Q1016

2010/08/09 20:49
MMGL 092049Z 10007KT 12SM BKN030TCU 28/18 A3006 RMK SLP040 57016 900 8/200 S

2010/08/09 20:48
MMLP 092048Z 01010KT 15SM SKC 37/13 A2977 RMK SLP098 57024 974 CU 2 QUAD

2010/08/09 20:47
MMPR 092047Z 24010KT 15SM SCT020CB SCT230 32/26 A2980 RMK SLP073 57025 954 8/302

2010/08/09 20:45
MMTO 092045Z 05004KT 5SM TS BKN015CB BKN070 BKN200 20/13 A3030 RMK SLP041 57032 975 8/963 TSB30 PCPN 2 QUAD

2010/08/09 20:49
MMZC 092049Z 06010KT 10SM FEW025 27/10 A3021 RMK 8/100

2010/08/09 20:45
MMZO 092045Z 12012KT 12SM SCT020 SCT100 BKN250 32/26 A2980 RMK 8/136 CBS DSNT N

2010/08/09 21:00
MROC 092100Z 25008KT 9999 SCT020 BKN045 25/24 A2996 RMK FEW250 TCU ARND RN DST NE NOSIG

2010/08/09 20:56
MUGM 092056Z 13011KT 9999 FEW025CB BKN250 31/24 A2990 RMK SLP124 CB DSNT NW T03060244 55012

2010/08/09 20:55
PACZ 092055Z 15007KT 8SM -RA BKN012 OVC018 10/08 A2921 RMK SLPNO WR// 60000 51003 BWC LOW

2010/08/09 20:55
PAED 092055Z AUTO 32008KT 10SM BKN070 OVC085 16/12 A2964 RMK AO2 SLP037 60001 T01580121 53005

2010/08/09 20:55
PAEI 092055Z AUTO 02005KT 10SM BKN120 BKN140 19/09 A2956 RMK AO2 SLP010 T01850092 58008 $

2010/08/09 20:55
PHHI 092055Z AUTO 08013KT 10SM OVC034 25/18 A3013 RMK AO2 SLP192 T02450176 52006 $

2010/08/09 20:51
PTKK 092051Z 06006KT 15SM VCSH SCT014CB BKN120 OVC280 27/25 A2987 RMK VCSH W SHRAE29 CB SE-SW-W MOV SW SLP116 60021 8/371 T02680249 52015

2010/08/09 20:55
RJTY 092055Z AUTO 28003KT 9999 OVC018 24/23 A3006 RMK AO2 CIG 016V022 SLP171 T02450231 53005

2010/08/09 21:00
SVMI 092100Z 36004KT 9999 FEW016 BKN100 32/27 Q1009 NOSIG

2010/08/09 20:55
KNKX 092055Z 28008KT 10SM FEW020 24/13 A2992 RMK AO2 SLP127 T02390133 56006

2010/08/09 20:55
KNUC 092055Z 21007KT 10SM FEW016 21/14 A2996 RMK SLP142 T02090135 58003

2010/08/09 20:56
KNYG 092056Z 18009KT 8SM CLR 32/23 A2997 RMK AO2 SLP149 T03170228 58010 $

2010/08/09 20:52
KNZY 092052Z 27008KT 10SM FEW019 24/14 A2992 RMK AO2 SLP130 T02440139 57006 $

2010/08/09 20:55
KPAM 092055Z AUTO VRB05KT 10SM FEW190 35/22 A2991 RMK AO2 CLDS LWR RWY13 SLP129 T03470223 58016 $

2010/08/09 20:55
KPOE 092055Z AUTO 16007KT 10SM FEW055 36/22 A2991 RMK AO2 SLP127 T03610222 58022

2010/08/09 20:55
KRCA 092055Z 19008KT 10SM SCT070CB BKN150 31/17 A2991 RMK AO2A CB 19S MOV N SLP100 T03090173 56009 $

2010/08/09 20:55
KRIV 092055Z VRB05KT 10SM CLR 30/10 A2991 RMK AO2A SLP125 T02950104 57004

2010/08/09 20:56
KSGH 092056Z AUTO VRB06KT 5SM HZ CLR 31/24 A2999 RMK AO2 58013 60000 T03110238 SLP147 $

2010/08/09 20:55
KTBN 092055Z 17004KT 10SM FEW060 36/22 A2992 RMK AO2A SLP106 T03630216 56016 $

2010/08/09 20:55
KTCM 092055Z AUTO 23005KT 10SM BKN022 OVC028 18/12 A3000 RMK AO2 CIG 021V026 BKN V OVC SLP162 T01800121 53005

2010/08/09 20:55
KTTS 092055Z 11011G16KT 10SM FEW022 FEW210 30/25 A2991 RMK SLP129 2CU /2/ 1CI /2/

2010/08/09 20:55
KVBG 092055Z 35008KT 10SM FEW008 SCT014 17/12 A2996 RMK AO2 SLP136 T01720122 58001 VISNO RWY12 $

2010/08/09 20:55
KVOK 092055Z 28003KT 10SM SCT035 SCT200 32/24 A2990 RMK AO2A SLP117 58007

2010/08/09 20:55
PHSF 092055Z 28008KT 7SM FEW200 24/09 A3032 RMK SLPNO 52003

2010/08/09 21:00
SBBR 092100Z 09009KT CAVOK 27/M03 Q1021

2010/08/09 20:56
K79J 092056Z 12004KT 10SM FEW060 36/20 A2992 RMK AO2 SLP126 T03610200 58019 PNO $

2010/08/09 20:55
KNBG 092055Z 00000KT 9SM FEW006 SCT080 BKN110 OVC250 25/23 A2996 RMK AO2 SLP145 T1 SET P0001 60035 T02500233 58002 $

2010/08/09 20:56
KNGP 092056Z 12009KT 10SM FEW035TCU SCT045 SCT250 32/27 A2988 RMK AO2 SLP119 TCU DSNT SE T03220267 58017

2010/08/09 20:56
KNID 092056Z 16005KT 10SM CLR 34/M03 A2988 RMK AO2 SLP095 T03391033 58015 $

2010/08/09 20:56
KNJK 092056Z VRB03KT 10SM CLR 37/09 A2975 RMK AO2 SLP089 T03670094 58017

2010/08/09 20:55
KNKX 092055Z 28008KT 10SM FEW020 24/13 A2992 RMK AO2 SLP127 T02390133 56006

2010/08/09 20:56
KNQI 092056Z 11013KT 10SM SCT047CB SCT070 BKN250 36/24 A2987 RMK AO2 SLP111 CB DSNT SW T03560237 56017

2010/08/09 20:56
KNXP 092056Z 11009G18KT 7SM CLR 35/M04 A2993 RMK AO2 SLP097 T03501044 58017 $

2010/08/09 20:56
KNXX 092056Z 23008KT 9SM FEW050 BKN200 32/17 A2997 RMK AO2 SLP152 T03170172 56016 $

2010/08/09 20:56
KNYG 092056Z 18009KT 8SM CLR 32/23 A2997 RMK AO2 SLP149 T03170228 58010 $

2010/08/09 20:55
KPOE 092055Z AUTO 16007KT 10SM FEW055 36/22 A2991 RMK AO2 SLP127 T03610222 58022

2010/08/09 20:55
KRCA 092055Z 19008KT 10SM SCT070CB BKN150 31/17 A2991 RMK AO2A CB 19S MOV N SLP100 T03090173 56009 $

2010/08/09 20:55
KVBG 092055Z 35008KT 10SM FEW008 SCT014 17/12 A2996 RMK AO2 SLP136 T01720122 58001 VISNO RWY12 $

2010/08/09 20:56
KWJF 092056Z 00000KT 10SM CLR 33/M03 A2991 RMK AO2 SLP107 T03331028 58013

2010/08/09 20:56
KNUW 092056Z 25004KT 3SM -RA BR SCT005 BKN016 OVC030 14/12 A2999 RMK AO2 RAB02 SLP160 P0004 60004 T01380121 51002 $ 

2010/08/09 20:50
EDLP 092050Z 15004KT 110V180 CAVOK 15/13 Q1017 RMK RWY24 TRL60 PB ATIS M

2010/08/09 20:50
EDNY 092050Z AUTO VRB01KT 9999 15/14 Q1017

2010/08/09 20:50
EDXW 092050Z AUTO 19006KT 9999NDV NCD 14/11 Q1015 RMK ATIS INFO C

2010/08/09 20:50
EGDL 092050Z 19007KT 9999 OVC008 17/16 Q1012 GRN NOSIG

2010/08/09 20:50
EGQL 092050Z 24009KT 9999 FEW022 13/10 Q1006 BLU NOSIG

2010/08/09 20:50
EGXC 092050Z 23008KT 9999 FEW038 BKN080 19/14 Q1010 BLU NOSIG

2010/08/09 20:55
EHAM 092055Z 13007KT CAVOK 18/13 Q1014 NOSIG

2010/08/09 20:55
EHBK 092055Z AUTO 15004KT 9999NDV NSC 16/11 Q1016

2010/08/09 20:55
EHDL 092055Z AUTO 10002KT 9999NDV NCD 14/12 Q1015 BLU

2010/08/09 20:55
EHGG 092055Z AUTO 12004KT 9999NDV NCD 15/14 Q1015

2010/08/09 20:55
EHGR 092055Z AUTO 14005KT 9999NDV SCT240 17/12 Q1015 BLU

2010/08/09 20:55
EHKD 092055Z AUTO 14007KT 9999NDV NCD 17/13 Q1014 BLU BLU NOSIG

2010/08/09 20:55
EHLW 092055Z AUTO 14005KT 9999NDV NCD 17/13 Q1014 BLU

2010/08/09 20:55
EHRD 092055Z 16006KT 110V180 9999 FEW040 19/11 Q1014 NOSIG

2010/08/09 20:55
EHVK 092055Z AUTO 14001KT 9999NDV FEW200 15/13 Q1015 BLU

2010/08/09 20:55
EHVL 092055Z AUTO 15013KT 9999NDV NCD 18/14 Q1014 BLU

2010/08/09 20:55
EHWO 092055Z AUTO 15002KT 9999NDV FEW052 SCT060 16/12 Q1014 BLU

2010/08/09 20:55
ETIK 092055Z AUTO 00000KT 9999 OVC075 14/14 A3007 RMK AO2 SLP174 T01410139 51008 $

2010/08/09 20:50
LGAD 092050Z 00000KT 9999 FEW015 24/21 Q1011

2010/08/09 20:50
LGKL 092050Z 00000KT CAVOK 23/20 Q1009

2010/08/09 20:50
LGKO 092050Z 33007KT CAVOK 26/23 Q1005

2010/08/09 20:50
LGRP 092050Z 24009KT 9999 FEW018 28/24 Q1004 NOSIG

2010/08/09 20:50
LGRX 092050Z 00000KT CAVOK 24/20 Q1009 NOSIG BLU

2010/08/09 20:50
LGSR 092050Z 31010KT CAVOK 27/19 Q1007 NOSIG BLU

2010/08/09 20:50
LOXT 092050Z 26003KT 25KM FEW090AC 17/15 Q1017 RMK FEW

2010/08/09 20:57
KNJM 092057Z AUTO 17007KT 10SM BKN055 BKN070 28/24 A3002 RMK AO2 SLP168 T02830239 56008 

2010/08/09 20:56
KWMC 092056Z AUTO 21012G20KT 10SM CLR 31/02 A2994 RMK AO2 SLP084 T03110022 58012 

2010/08/09 20:54
KWAL 092054Z 19011KT 10SM BKN075 28/22 A3002 RMK AO2 SLP164 T02780217 56008 

2010/08/09 20:55
KCAO 092055Z AUTO 15008G23KT 10SM FEW075 34/13 A3003 RMK AO2 SLP084 T03440128 58016 TSNO 

2010/08/09 20:56
PASY 092056Z 27005KT 8SM SCT001 OVC005 09/09 A2986 RMK AO2 SLP112 6//// T00890089 53006 PNO $ 

2010/08/09 20:53
KHEY 092053Z AUTO VRB03KT 10SM CLR 36/20 A2993 RMK AO2 SLP020 T03560200 58016 $ 

2010/08/09 20:53
KLOR 092053Z AUTO 09003KT 10SM FEW060 35/20 A2992 RMK AO2 SLP128 6//// T03500200 58016 TSNO PNO $ 

2010/08/09 20:58
CYTZ 092058Z AUTO 29019G27KT 2 1/2SM RA VCTS 22/20 A2993 RMK PRESRR SLP137 DENSITY ALT 1100FT PCPN 15.2MM PAST HR MAX WND 23029KT AT 2024Z LTNG DIST NE E SE CLD MISG RVR MISG

2010/08/09 20:55
KCNW 092055Z 18005KT 10SM SCT065 37/18 A2989

2010/08/09 20:56
KCXY 092056Z 09005KT 9SM FEW060 33/18 A2995 RMK AO2 SLP138 T03280183 58015

2010/08/09 20:55
KGTB 092055Z AUTO 28005KT 10SM CLR 25/20 A2993 RMK AO2 SLP133 T02530204 55002

2010/08/09 20:56
KJXN 092056Z 18007KT 10SM FEW060 BKN080 23/23 A2995 RMK AO2 RAB1958E26 SLP135 P0002 60012 T02330228 56016 $

2010/08/09 20:56
KLRD 092056Z 16011G14KT 10SM CLR 39/20 A2986 RMK AO2 58029 T03880200 SLP096

2010/08/09 20:54
KNFG 092054Z 22007KT 7SM CLR 23/13 A2991 RMK AO2 SLP128 T02280133 58006

2010/08/09 20:53
KNQX 092053Z 31005KT 6SM -TSRA FEW002 BKN010CB BKN020 BKN140 26/24 A2989 RMK AO2 SLP119 OCNL LTGICCC OHD TS OHD MOV S T1 SET P0009 60028 T02610244 56009 $

2010/08/09 20:52
KNRB 092052Z 08011KT 10SM FEW035 SCT070 BKN150 32/24 A2995 RMK AO2 SLP140 T2 SET 60000 T03170244 56007

2010/08/09 20:55
KSSC 092055Z 08006KT 10SM CLR 34/21 A2999 RMK AO2A SLP152 T03390210 56010 $

2010/08/09 20:55
KVAD 092055Z AUTO 04009KT 10SM CLR 35/21 A2993 RMK AO2 SLP134 T03450211 56013 $

2010/08/09 20:55
KXFL 092055Z 11011KT 10SM CLR 32/24 A2994

2010/08/09 20:56
KABQ 092056Z 32004KT 10SM SCT080 31/10 A3010 RMK AO2 SLP096 T03060100 58018

2010/08/09 20:56
KJAX 092056Z 06008KT 10SM FEW035 SCT065 BKN090 BKN200 28/24 A2994 RMK AO2 RAB01E11 SLP139 P0000 60000 T02830244 58002

2010/08/09 20:57
K14Y 092057Z AUTO 00000KT 10SM CLR 32/17 A2994 RMK AO2 T03150173

2010/08/09 20:55
K1A6 092055Z AUTO 23005KT 7SM CLR 35/27 A3000 RMK AO2

2010/08/09 20:55
K1P1 092055Z AUTO 28005KT 10SM -RA SCT027 SCT034 SCT045 26/21 A2990 RMK AO2 LTG DSNT W THRU N T02570214

2010/08/09 20:53
K29G 092053Z AUTO 22005KT 10SM CLR 29/18 A3000 RMK AO2 T02930178 PWINO

2010/08/09 20:55
K46D 092055Z AUTO 20011G17KT 10SM CLR 35/18 A2988 RMK AO2

2010/08/09 20:50
KAEL 092050Z AUTO 10004KT 10SM CLR 30/22 A2991 RMK AO2

2010/08/09 20:55
KAIG 092055Z AUTO 32006KT 10SM CLR 30/18 A2992 RMK AO2

2010/08/09 20:56
KAJO 092056Z AUTO 30014KT 10SM CLR 27/14 A2989 RMK AO2 56008 T02720138 SLP117 $

2010/08/09 20:50
KALN 092050Z 15012KT 10SM FEW050 BKN200 35/26 A2990

2010/08/09 20:54
KAQP 092054Z AUTO 09004KT 10SM CLR 31/24 A2990 RMK AO2

2010/08/09 20:51
KARV 092051Z AUTO 31006KT 10SM SCT060 30/16 A2995 RMK AO2 T02960161

2010/08/09 20:55
KBBF 092055Z AUTO 14008KT 10SM CLR 30/27 A2990 RMK A01

2010/08/09 20:53
KBFW 092053Z AUTO 19005KT 10SM CLR 32/21 A2988 RMK AO2

2010/08/09 20:55
KBQX 092055Z AUTO 13008KT 10SM FEW024 FEW031 FEW100 31/26 A2992 RMK A01

2010/08/09 20:55
KBUU 092055Z AUTO 31005KT 10SM SCT030 29/23 A2991 RMK AO2 T02860225

2010/08/09 20:50
KBWP 092050Z AUTO 17006KT 10SM CLR 33/17 A2990 RMK AO1 T03250174

2010/08/09 20:52
KCDD 092052Z AUTO 32003KT 10SM SCT070 32/24 A2992 RMK AO2

2010/08/09 20:56
KCHS 092056Z 12009G16KT 10SM SCT028 SCT033 BKN043 31/25 A2998 RMK AO2 SLP151 60014 T03110250 56003

2010/08/09 20:55
KCLI 092055Z AUTO 19004KT 10SM CLR 32/23 A2987 RMK AO2

2010/08/09 20:55
KCMB 092055Z AUTO 22006KT 10SM CLR 36/25 A2993 RMK A01

2010/08/09 20:55
KCMR 092055Z AUTO 18006KT 10SM FEW070 23/08 A3026 RMK AO1

2010/08/09 20:55
KCMY 092055Z AUTO 01003KT 10SM SCT031 31/22 A2990 RMK AO2 T03120224

2010/08/09 20:55
KCRH 092055Z AUTO 00000KT 10SM CLR 31/24 A2994 RMK A01

2010/08/09 20:50
KCVH 092050Z AUTO 26008KT 030V040 10SM CLR 23/13 A2992 RMK AO1

2010/08/09 20:56
KDIJ 092056Z AUTO 21021KT 5SM VCTS HZ CLR 18/07 A3014 RMK AO2 55003 T01770066 LTG DSNT ALQDS TSB37 PK WND 21030/2054 PRESRR SLP132 $

2010/08/09 20:55
KDLL 092055Z AUTO 00000KT 10SM SCT034 SCT044 30/22 A2991 RMK AO2 T02970222

2010/08/09 20:56
KDVP 092056Z AUTO 07010KT 10SM CLR 30/20 A2994 RMK AO2 T02980197

2010/08/09 20:54
KDXX 092054Z AUTO 00000KT 10SM CLR 31/21 A2990 RMK AO2

2010/08/09 20:54
KDYT 092054Z AUTO 05003KT 10SM CLR 24/22 A2989 RMK AO2

2010/08/09 21:00
KEDU 092100Z AUTO 18007KT 10SM CLR 27/15 A2985 RMK AO1

2010/08/09 20:56
KEFK 092056Z AUTO 29005KT 10SM SCT048 BKN060 24/18 A2991 RMK AO2

2010/08/09 20:55
KEHC 092055Z AUTO 00000KT 10SM FEW031 33/24 A2995 RMK A01

2010/08/09 20:55
KEIR 092055Z AUTO 00000KT 10SM CLR 31/25 A2995 RMK A01

2010/08/09 20:56
KEKQ 092056Z AUTO 00000KT 10SM FEW055 33/24 A2999 RMK AO2 56014 60000 T03330244 RAB10E32 P0000 SLP149

2010/08/09 20:53
KELO 092053Z AUTO 00000KT 10SM SCT090 29/17 A2992 RMK AO2

2010/08/09 20:55
KEMK 092055Z AUTO 14007KT 10SM CLR 31/25 A2994 RMK A01

2010/08/09 20:54
KETH 092054Z AUTO 11003KT 10SM CLR 31/19 A2994 RMK AO2

2010/08/09 20:52
KEVM 092052Z AUTO 33004KT 10SM CLR 31/16 A2991 RMK AO1

2010/08/09 20:54
KEZS 092054Z AUTO 24006KT 10SM CLR 33/22 A2987 RMK AO2 T03270217

2010/08/09 20:54
KFBL 092054Z AUTO 00000KT 10SM SCT037 30/21 A2991 RMK AO2

2010/08/09 21:02
KFKA 092102Z AUTO 00000KT 10SM SCT031 SCT038 31/23 A2993 RMK AO2 T03100232

2010/08/09 20:53
KFOZ 092053Z AUTO 22007KT 173V233 10SM CLR 32/20 A2993 RMK AO2

2010/08/09 20:59
KFSO 092059Z AUTO 36003KT 10SM SCT033 SCT047 BKN055 26/21 A2988 RMK AO2

2010/08/09 20:54
KFWA 092054Z 20006KT 9SM FEW048 BKN140 BKN250 30/23 A2995 RMK AO2 SLP137 T03000233 56013

2010/08/09 20:55
KGBK 092055Z AUTO 10008KT 10SM CLR 34/25 A2996 RMK A01

2010/08/09 20:55
KGUL 092055Z AUTO 10SM FEW026 31/25 A2995 RMK A01

2010/08/09 20:54
KGYL 092054Z AUTO 06003KT 10SM CLR 32/20 A2990 RMK AO2 T03150203

2010/08/09 20:52
KHCD 092052Z AUTO 07004KT 10SM CLR 31/20 A2991 RMK AO2 T03050201

2010/08/09 20:54
KHCO 092054Z AUTO 21005G15KT 10SM CLR 35/21 A2985 RMK AO2

2010/08/09 20:55
KHFJ 092055Z AUTO 17003KT 10SM CLR 36/25 A2989 RMK AO1

2010/08/09 20:50
KHQI 092050Z AUTO 07009KT 10SM 31/25 A2995 RMK A01

2010/08/09 20:51
KHZX 092051Z AUTO 26004KT 10SM CLR 31/17 A2993 RMK AO2

2010/08/09 20:54
KIKW 092054Z AUTO 22005KT 10SM SCT012 SCT100 26/22 A2989 RMK AO2 P0018 60037 T02600220

2010/08/09 20:55
KIPN 092055Z AUTO 00000KT 10SM CLR 30/25 A2993 RMK A01

2010/08/09 20:55
KISO 092055Z 08003KT 7SM CLR 33/19 A3001

2010/08/09 20:54
KJKJ 092054Z AUTO 20007KT 10SM CLR 33/23 A2987 RMK AO2

2010/08/09 20:55
KJMR 092055Z AUTO 00000KT 10SM CLR 31/20 A2993 RMK AO2

2010/08/09 20:55
KLCK 092055Z AUTO 21003KT 10SM CLR 32/18 A2997 RMK AO2 T03230179

2010/08/09 20:55
KLFI 092055Z 12007KT 10SM CLR 30/18 A3001 RMK AO2A SLP164 T03050181 58004

2010/08/09 20:53
KLJF 092053Z AUTO 10003KT 10SM CLR 32/20 A2991 RMK AO2

2010/08/09 20:55
KLUF 092055Z 24008KT 10SM CLR 38/10 A2984 RMK AO2A SLP073 T03770101 58015 $

2010/08/09 20:54
KLVN 092054Z AUTO 09005KT 10SM CLR 32/21 A2990 RMK AO2

2010/08/09 20:54
KLXL 092054Z AUTO 10003KT 10SM CLR 31/17 A2991 RMK AO2

2010/08/09 20:58
KLYV 092058Z AUTO 08008KT 10SM SCT029 30/22 A2990 RMK AO2

2010/08/09 20:56
KM89 092056Z AUTO 19004KT 10SM CLR 38/23 A2988 RMK AO2 58019 T03830233 SLP131 $

2010/08/09 20:55
KMCF 092055Z AUTO 32005KT 10SM SCT045 SCT055 28/26 A2988 RMK AO2 DZE1956 SLP120 60063 T02820265 56010

2010/08/09 20:55
KMDJ 092055Z AUTO 18006KT 7SM CLR 27/25 A2994 RMK A01

2010/08/09 20:55
KMIU 092055Z AUTO 13008KT 10SM FEW021 FEW031 31/26 A2990 RMK A01

2010/08/09 20:52
KMJQ 092052Z AUTO 06008KT 10SM CLR 27/23 A2992 RMK AO2

2010/08/09 20:53
KMRT 092053Z AUTO 22004KT 10SM CLR 30/20 A3001 RMK AO2 T02950202

2010/08/09 20:54
KMVE 092054Z AUTO 13005KT 10SM CLR 31/24 A2989 RMK AO2

2010/08/09 20:50
KMWA 092050Z 18005KT 15SM SCT060 BKN090 37/18 A2990

2010/08/09 20:55
KMWO 092055Z AUTO 00000KT 10SM SCT060 35/20 A2996 RMK AO2

2010/08/09 20:55
KMZG 092055Z AUTO 00000KT 10SM CLR 33/26 A2991 RMK A01

2010/08/09 20:50
KMZH 092050Z AUTO 00000KT 10SM CLR 31/19 A2990 RMK AO2

2010/08/09 20:51
KONA 092051Z AUTO 35003KT 10SM CLR 31/22 A2988 RMK AO2

2010/08/09 20:54
KONZ 092054Z AUTO 29003KT 10SM CLR 28/21 A2994 RMK AO2

2010/08/09 20:54
KORB 092054Z AUTO 00000KT 10SM CLR 31/17 A2990 RMK AO2

2010/08/09 20:54
KOVL 092054Z AUTO 09006KT 10SM CLR 31/19 A2991 RMK AO2 T03060189

2010/08/09 20:53
KOWA 092053Z AUTO 09004KT 10SM CLR 30/22 A2991 RMK AO2

2010/08/09 20:53
KPEX 092053Z AUTO 09005KT 10SM CLR 32/19 A2992 RMK AO2 T03190193

2010/08/09 20:52
KPVB 092052Z AUTO 00000KT 10SM SCT030 30/23 A2992 RMK AO1 T03020231

2010/08/09 20:54
KRFD 092054Z VRB03KT 10SM FEW030 SCT085 SCT250 30/22 A2993 RMK AO2 SLP127 T03000217 58002 $

2010/08/09 20:55
KROS 092055Z AUTO 00000KT 10SM CLR 31/21 A2992 RMK AO2 T03110214

2010/08/09 20:55
KROX 092055Z AUTO 22008KT 10SM CLR 33/23 A2986 RMK AO2

2010/08/09 20:54
KRRT 092054Z AUTO 05008KT 10SM CLR 28/23 A2987 RMK AO2 TSNO

2010/08/09 20:53
KRZN 092053Z AUTO 36003KT 10SM CLR 31/19 A2992 RMK AO2 T03100190

2010/08/09 20:54
KSAZ 092054Z AUTO 00000KT 10SM CLR 32/17 A2993 RMK AO2

2010/08/09 20:49
KNQX 092049Z 31008KT 6SM -TSRA FEW002 BKN010CB BKN020 BKN140 26/24 A2989 RMK AO2 OCNL LTGICCC OHD TS OHD MOV S T1 SET P0009 $

2010/08/09 20:57
KFZY 092057Z AUTO 28010KT 1 3/4SM +RA FEW024 BKN055 OVC085 23/20 A2994 RMK AO2 PRESRR P0005

2010/08/09 20:55
KSCF 092055Z AUTO 00000KT 10SM CLR 32/25 A2989 RMK A01

2010/08/09 20:53
KSGS 092053Z AUTO 08006KT 10SM CLR 33/20 A2989 RMK AO2 T03310196

2010/08/09 20:56
KSHV 092056Z 00000KT 10SM SCT070 37/22 A2989 RMK AO2 SLP116 T03670217 58021

2010/08/09 20:55
KSPR 092055Z AUTO 15007KT 10SM 32/26 A2994 RMK A01

2010/08/09 20:55
KSRR 092055Z AUTO 18009KT 9SM FEW032 SCT043 SCT065 18/15 A3027 RMK AO2 LTG DSNT N AND SE AND S

2010/08/09 20:53
KSUN 092053Z 16010G16KT 30SM VCTS SCT090 BKN120 21/12 A3004

2010/08/09 20:54
KSYN 092054Z AUTO 03003KT 10SM CLR 32/22 A2989 RMK AO2 T03240219

2010/08/09 20:53
KTEW 092053Z AUTO 25006KT 10SM CLR 26/21 A2994 RMK AO2

2010/08/09 20:53
KTKC 092053Z AUTO 07008KT 10SM CLR 30/22 A2992 RMK AO2 T03010222

2010/08/09 20:55
KTOB 092055Z AUTO 00000KT 10SM CLR 31/23 A2993 RMK AO2

2010/08/09 20:54
KUNI 092054Z AUTO 17005KT 10SM CLR 34/10 A2998 RMK AO2

2010/08/09 20:55
KVAF 092055Z AUTO 10016KT 10SM SCT020 SCT027 BKN031 30/25 A2990 RMK A01

2010/08/09 20:55
KVBS 092055Z AUTO VRB05KT 10SM 33/24 A2992 RMK A01

2010/08/09 20:53
KVES 092053Z AUTO 10SM CLR 31/22 A2997 RMK AO2 T03080215

2010/08/09 20:56
KVVV 092056Z AUTO 08006KT 10SM CLR 31/19 A2991 RMK AO2

2010/08/09 20:49
KVWU 092049Z AUTO 26003KT 10SM SCT110 31/23 A2990 RMK AO2

2010/08/09 20:56
KXVG 092056Z AUTO 23004KT 10SM CLR 32/21 A2991 RMK AO2

2010/08/09 20:55
KY63 092055Z AUTO 11005KT 10SM CLR 31/19 A2992 RMK AO2 T03120188

2010/08/09 20:56
PAGN 092056Z AUTO 00000KT OVC038 RMK AO2 PWINO TSNO 5//// SLPNO $

2010/08/09 20:56
PATQ 092056Z AUTO 07019G23KT 10SM OVC007 02/01 A2979 RMK AO2 TSNO 56005 T00220011 SLP092 $

2010/08/09 20:56
PAFS 092056Z AUTO 30005KT 10SM BKN060 12/10 A2954 RMK AO2 TSNO 53007 T01220100 SLP012 $

2010/08/09 20:56
PAGN 092056Z AUTO 00000KT OVC038 RMK AO2 PWINO TSNO 5//// SLPNO $

2010/08/09 20:56
PAHC 092056Z AUTO 09005KT 3SM -RA BR SCT005 BKN021 OVC049 13/12 A2940 RMK AO2 TSNO 51003 60001 T01270116 P0000 SLP961 $

2010/08/09 20:56
PAIG 092056Z AUTO 18004KT 4SM BR FEW010 BKN022 OVC038 12/10 A2960 RMK AO2 PWINO TSNO 53014 T01160100 SLP027 $

2010/08/09 20:56
PAMO 092056Z AUTO 13020G26KT 5SM RA BR BKN005 BKN013 OVC027 10/09 A2931 RMK AO2 TSNO 53004 60001 T01000094 CIG 002V007 P0001 PK WND 15028/2019 SLP924 $

2010/08/09 20:56
PAOO 092056Z AUTO 15018KT 4SM BR BKN009 OVC013 10/09 A2922 RMK AO2 TSNO 53005 60000 T01000088 CIG 005V012 RAE24 P0000 SLP894 $

2010/08/09 20:56
PAPM 092056Z AUTO 18019KT 1SM BR SCT007 BKN050 OVC070 09/09 A2942 RMK AO2 TSNO 53013 60001 T00940088 BKN V SCT PK WND 18026/2006 SLP962 $

2010/08/09 20:56
PARS 092056Z AUTO 15008KT 10SM SCT021 BKN028 OVC033 12/10 A2938 RMK AO2 TSNO 51004 60000 T01220100 BKN V SCT RAE26 P0000 SLP953 $

2010/08/09 20:56
PARY 092056Z AUTO 09007KT 9SM FEW008 BKN020 OVC027 14/11 A2952 RMK AO2 PWINO TSNO 51007 T01380111 SLP999

2010/08/09 20:56
PATQ 092056Z AUTO 07019G23KT 10SM OVC007 02/01 A2979 RMK AO2 TSNO 56005 T00220011 SLP092 $

2010/08/09 20:56
KALS 092056Z AUTO 26008KT 10SM 22/12 A3025

2010/08/09 21:00
UBBB 092100Z 27004KT CAVOK 29/29 Q1009 NOSIG RMK R88CLRD70

2010/08/09 20:50
LGSA 092050Z 31004KT 9999 FEW020 25/23 Q1009

2010/08/09 21:00
OPNH 092100Z 00000KTS 4000 HZ SCT035 SCT100 28/25 1000

2010/08/09 20:50
LGAL 092050Z 03011KT CAVOK 29/19 Q1010

2010/08/09 20:50
LGEL 092050Z 33006KT CAVOK 29/17 Q1009

2010/08/09 20:50
LGKV 092050Z 06005KT 9999 FEW030 26/21 Q1009

2010/08/09 20:50
LGMT 092050Z /////KT CAVOK 29/22 Q1009

2010/08/09 20:50
LGRX 092050Z 00000KT CAVOK 24/20 Q1009 NOSIG

2010/08/09 20:50
LGSR 092050Z 31010KT CAVOK 27/19 Q1007 NOSIG

2010/08/09 20:55
EHEH 092055Z AUTO 12003KT 9999NDV NCD 17/13 Q1015 BLU

2010/08/09 20:55
EHKD 092055Z AUTO 14007KT 9999NDV NCD 17/13 Q1014 BLU BLU NOSIG

2010/08/09 20:50
LGAD 092050Z 00000KT 9999 FEW015 24/21 Q1011

2010/08/09 20:50
LGAV 092050Z VRB03KT CAVOK 26/17 Q1010 NOSIG

2010/08/09 20:50
LGIR 092050Z 29006KT 9999 FEW018 27/24 Q1008 NOSIG

2010/08/09 20:50
LGKL 092050Z 00000KT CAVOK 23/20 Q1009

2010/08/09 20:50
LGKO 092050Z 33007KT CAVOK 26/23 Q1005

2010/08/09 20:50
LGKR 092050Z 00000KT CAVOK 25/17 Q1009 NOSIG

2010/08/09 20:50
LGLM 092050Z 33010KT CAVOK 27/20 Q1008

2010/08/09 20:50
LGRP 092050Z 24009KT 9999 FEW018 28/24 Q1004 NOSIG

2010/08/09 20:50
LGTS 092050Z 35006KT CAVOK 29/14 Q1011 NOSIG

2010/08/09 20:50
LGHI 092050Z 35010KT CAVOK 31/20 Q1008

2010/08/09 20:50
VECC 092050Z 00000KT 2000 HZ FEW020 29/26 Q1000 NOSIG

2010/08/09 20:50
VGZR 092050Z 00000KT 3500 HZ FEW015 SCT100 31/27 Q1000 NOSIG

2010/08/09 20:56
KALS 092056Z AUTO 26008KT 10SM 22/12 A3025

2010/08/09 21:00
FIMP 092100Z 08012G12KT 9999 SCT015 22/16 Q1024

2010/08/09 21:00
SABE 092100Z 36002KT CAVOK 14/07 Q1024

2010/08/09 21:00
SBBR 092100Z 09009KT CAVOK 27/M03 Q1021

2010/08/09 21:00
SBCB 092100Z 24016KT 9999 SCT035 BKN090 23/17 Q1020

2010/08/09 21:00
SBCF 092100Z 21002KT CAVOK 24/05 Q1020

2010/08/09 21:00
SBCR 092100Z 22007KT CAVOK 27/05 Q1014

2010/08/09 21:00
SBFL 092100Z 11010KT 9999 SCT040 15/09 Q1024

2010/08/09 21:00
SBFZ 092100Z 09012KT CAVOK 26/22 Q1012

2010/08/09 21:00
SBGL 092100Z 23011KT 9999 SCT015 BKN040 22/16 Q1021

2010/08/09 21:00
SBPV 092100Z 09004KT CAVOK 36/12 Q1010

2010/08/09 21:00
SBSL 092100Z 03006KT 9999 FEW020 28/23 Q1012

2010/08/09 21:00
SBSV 092100Z 11006KT 9999 SCT017 24/18 Q1017

2010/08/09 21:00
SPIM 092100Z 17008KT 5000 HZ SCT018 17/13 Q1015 NOSIG RMK BIRD HAZARD RWY 15 PP000

2010/08/09 21:00
SVBC 092100Z 18005KT 9999 SCT010 SCT060 29/23 Q1012

2010/08/09 21:00
SVMI 092100Z 36004KT 9999 FEW016 BKN100 32/27 Q1009 NOSIG

2010/08/09 20:57
KNXF 092057Z AUTO 28011KT 9SM CLR 21/13 A2993 RMK AO2 SLP219 T02110133 58004 TSNO 

2010/08/09 20:56
KSMP 092056Z AUTO 24008G16KT M1/4SM FG VV001 10/09 A3000 RMK AO2 SLP170 T01000094 53004 TSNO $ 

2010/08/09 20:58
CWOB 092058Z AUTO ///// 0SM CLR 04/ A2973

2010/08/09 20:50
KQEI 092050Z AUTO 15002KT 7SM OVC005 23/21 A2997 RMK A02

2010/08/09 20:50
KQEJ 092050Z AUTO 03001KT 3SM BR OVC003 22/20 A2995 RMK A02

2010/08/09 20:50
KQER 092050Z AUTO 19001KT 3SM BR SCT004 SCT065 22/20 A2990 RMK A02

2010/08/09 20:50
KQEW 092050Z AUTO 27002KT 1SM SHRA BR BKN011 25/23 A2986 RMK A02

2010/08/09 20:50
KQEX 092050Z AUTO 20006KT 7SM BKN095 26/23 A2977 RMK A02

2010/08/09 20:50
KQEY 092050Z AUTO 21002KT 7SM FEW004 SCT100 SCT150 BKN190 24/22 A2961 RMK A02

2010/08/09 20:50
KQFB 092050Z AUTO 08003KT 4SM +SHRA FEW003 BKN012 26/24 A2996 RMK A02

2010/08/09 20:50
KQFU 092050Z AUTO 01001KT 1SM BR OVC065 24/22 A2989 RMK A02

2010/08/09 20:50
KQFW 092050Z AUTO 11002KT 6SM BR CLR 23/21 A2991 RMK A02

2010/08/09 20:55
KQAQ 092055Z 28006KT 8000 HZ CLR 35/08 A2956 RMK SLP004 PA +460 DA +2815 54000

2010/08/09 20:55
KQD9 092055Z 19001KT 9999 FEW085 BKN180 24/22 A2982 RMK SLP030 WND DATA ESTMD ALSTG/SLP ESTMD 57007

2010/08/09 20:55
KQGX 092055Z 02004KT 9999 CLR 34/22 A2946 RMK AO2A SLP974 T03390221 58006 $

2010/08/09 20:55
KQXR 092055Z AUTO 33007KT 9999 CLR 36/M09 A2944 RMK AO2 SLP969 T03581086 58003 $

2010/08/09 20:55
KQYU 092055Z AUTO 06010G17KT 9999 CLR 26/M01 A2989 RMK AO2 SLP039 T02611007 50001

2010/08/09 20:50
EGDL 092050Z 19007KT 9999 OVC008 17/16 Q1012 GRN NOSIG

2010/08/09 20:50
EGDY 092050Z 20005KT 9999 BKN010 18/16 Q1013 GRN NOSIG

2010/08/09 20:50
EGOV 092050Z 20008KT 9999 FEW018 SCT060 15/14 Q1009 BLU NOSIG

2010/08/09 20:50
EGPC 092050Z AUTO 32006KT 9999NDV -RA FEW023/// SCT031/// 11/11 Q1005

2010/08/09 20:50
EGPL 092050Z AUTO 17005KT 9999NDV NCD 11/10 Q1005

2010/08/09 20:50
EGPO 092050Z AUTO 21004KT 9999NDV FEW026/// SCT035/// 12/09 Q1005

2010/08/09 20:50
EGQK 092050Z 18002KT 9999 SCT027 BKN035 13/12 Q1005 BLU NOSIG

2010/08/09 20:50
EGQL 092050Z 24009KT 9999 FEW022 13/10 Q1006 BLU NOSIG

2010/08/09 20:50
EGQS 092050Z 17002KT 9999 FEW028 SCT060 13/12 Q1005 BLU NOSIG

2010/08/09 20:50
EGUB 092050Z 19010KT 9999 FEW012 BKN014 BKN035 18/15 Q1012 GRN TEMPO 7000 -RADZ GRN

2010/08/09 20:55
EGUL 092055Z AUTO 23012KT 9999 FEW050 BKN090 20/15 A2987 RMK AO2 SLP116 T01990146 53003

2010/08/09 20:55
EGUN 092055Z AUTO 23010KT 9999 FEW060 OVC085 20/17 A2988 RMK AO2 SLP107 T01970173 53003

2010/08/09 20:50
EGUW 092050Z 20009KT CAVOK 19/11 Q1012 BLU NOSIG

2010/08/09 20:55
EGVA 092055Z AUTO 20007KT 9999 SCT013 BKN022 BKN029 BKN039 18/17 A2988 RMK AO2 CIG 020V025 SLP118 60000 T01750166 56006 $

2010/08/09 20:50
EGVN 092050Z 20008KT 9999 BKN010 OVC040 18/16 Q1012 GRN TEMPO SCT006 YLO1

2010/08/09 20:50
EGVO 092050Z 20009KT 9999 OVC008 17/15 Q1013 GRN TEMPO BKN006 YLO1

2010/08/09 20:50
EGXC 092050Z 23008KT 9999 FEW038 BKN080 19/14 Q1010 BLU NOSIG

2010/08/09 20:50
EGXD 092050Z 21002KT 9999 FEW025 SCT080 14/13 Q1009 BLU NOSIG

2010/08/09 20:50
EGXW 092050Z 23012KT 9999 FEW025 BKN080 19/15 Q1010 BLU NOSIG

2010/08/09 20:50
EGYM 092050Z 23011KT CAVOK 20/14 Q1011 BLU NOSIG

2010/08/09 20:50
KHMS 092050Z 09007KT 15SM FEW250 30/09 A2975 RMK SLP072 8/001 T02960087 57015 RSNK 21/22017 

2010/08/09 20:52
KMLF 092052Z AUTO 22014G22KT 10SM CLR 28/01 A3008 RMK AO2 PK WND 19031/2033 SLP124 T02780006 58008 TSNO 

2010/08/09 20:59
CYTZ 092059Z AUTO 29018G27KT 3SM RA VCTS 22/20 A2993 RMK PRESRR SLP136 DENSITY ALT 1100FT PCPN 15.2MM PAST HR MAX WND 23029KT AT 2024Z LTNG DIST NE E SE CLD MISG RVR MISG

2010/08/09 20:56
KHLR 092056Z AUTO 12007G15KT 10SM CLR 38/18 A2991 RMK AO2 SLP117 T03780183 56019 $ 

2010/08/09 20:54
KAPN 092054Z 12007KT 10SM FEW025 BKN055 26/21 A2989 RMK AO2 SLP119 T02560211 $ 

2010/08/09 20:58
KMCB 092058Z AUTO 00000KT 5SM VCTS -RA BR BKN034 OVC065 25/23 A2995 RMK AO2 LTG DSNT ALQDS PRESFR P0001

2010/08/09 20:57
PATE 092057Z AUTO 23004KT 10SM FEW007 OVC014 13/11 A2935 RMK AO2

2010/08/09 20:56
KADC 092056Z AUTO 00000KT 10SM CLR 31/18 A2993 RMK AO2

2010/08/09 20:55
KHAF 092055Z AUTO 18005KT 10SM OVC008 14/11 A2996 RMK AO2

2010/08/09 20:55
KCKC 092055Z AUTO 29006KT 10SM CLR 29/14 A2994 RMK AO2

2010/08/09 20:55
KJYG 092055Z AUTO 00000KT 10SM CLR 31/27 A2992 RMK AO2

2010/08/09 20:56
KCOQ 092056Z AUTO 31004KT 10SM CLR 32/14 A2993 RMK AO2

2010/08/09 20:58
KACQ 092058Z AUTO 00000KT 10SM SCT038 30/22 A2994 RMK AO2

2010/08/09 20:55
KRGK 092055Z AUTO 00000KT 10SM CLR 33/21 A2988 RMK AO2

2010/08/09 20:54
KFSE 092054Z AUTO 20011G14KT 10SM CLR 30/20 A2990 RMK AO2

2010/08/09 20:55
KY70 092055Z AUTO 23012KT 10SM SCT021 SCT029 BKN055 29/22 A2991 RMK AO2 T02910218

2010/08/09 20:50
KUKT 092050Z AUTO 22009KT 10SM FEW060 33/18 A2997 RMK AO1

2010/08/09 20:54
KCDA 092054Z AUTO 25004KT 10SM CLR 26/17 A2993 RMK AO2

2010/08/09 20:55
KLDM 092055Z AUTO 24010KT 10SM SCT011 27/23 A2992 RMK AO2

2010/08/09 20:55
KPHN 092055Z AUTO 00000KT 10SM -RA SCT065 SCT080 SCT100 25/20 A2994 RMK AO2

2010/08/09 20:55
KRMY 092055Z AUTO 19004KT 10SM BKN065 26/22 A2994 RMK AO2

2010/08/09 20:55
KOSC 092055Z AUTO 20007KT 7SM SCT020 SCT050 SCT065 26/23 A2989 RMK AO2

2010/08/09 20:53
KTTF 092053Z AUTO 02005KT 10SM CLR 27/22 A2993 RMK AO2

2010/08/09 20:55
KMCD 092055Z AUTO 00000KT 10SM CLR 23/19 A2990 RMK AO2

2010/08/09 20:58
KMEI 092058Z 13004KT 10SM CLR 34/23 A2993 RMK AO2 SLP130 T03440233 56020

2010/08/09 20:55
KPAM 092055Z AUTO VRB05KT 10SM FEW190 35/22 A2991 RMK AO2 CLDS LWR RWY13 SLP129 T03470223 58016 $

2010/08/09 20:53
KSBD 092053Z 28006KT 7SM SKC 29/06 A2989

2010/08/09 20:55
KTTS 092055Z 11011G16KT 10SM FEW022 FEW210 30/25 A2991 RMK SLP129 2CU /2/ 1CI /2/

2010/08/09 20:56
KY50 092056Z AUTO 35005KT 10SM SCT032 32/23 A2990 RMK AO2 58005 T03160233 SLP115

2010/08/09 20:57
PAGH 092057Z AUTO 11014KT 10SM -RA FEW040 SCT048 OVC070 13/12 A2952 RMK AO2 PK WND 11026/1958 SLP023 P0001 60001 T01330117 53003

2010/08/09 20:56
PAMB 092056Z AUTO 21012G20KT 10SM BKN013 OVC029 11/11 A2950 RMK AO2 PWINO TSNO 51010 T01110105 BKN V OVC SLP991 $

2010/08/09 20:56
PAOH 092056Z AUTO 05004KT 10SM BKN034 OVC043 14/12 A2998 RMK AO2 TSNO 51004 T01440116 BKN V OVC SLP153 $

2010/08/09 20:53
PASW 092053Z 16004KT 12SM SCT004 BKN025 OVC040 13/12 A2967 RMK NOSPECI

2010/08/09 20:57
PAVA 092057Z AUTO 12016KT 10SM -RA BKN007 OVC013 11/09 A2926 RMK AO2 CIG 006V010 SLP911 P0002 60003 T01060094 53004

2010/08/09 20:50
PFYU 092050Z VRB03KT 10SM BKN050 OVC080 16/ A2956

2010/08/09 20:56
PPIZ 092056Z AUTO 08023G34KT 10SM SCT017 07/02 A2968 RMK AO2 TSNO 56006 T00660016 PK WND 07034/2049 SLP055 $

2010/08/09 20:56
KFPK 092056Z AUTO 22006KT 10SM SCT024 27/22 A2993 RMK AO2

2010/08/09 20:55
KCVX 092055Z AUTO 27008KT 5SM HZ CLR 27/21 A2990 RMK AO2

2010/08/09 20:55
KMOP 092055Z AUTO 25011G15KT 10SM BKN020 BKN030 27/23 A2989 RMK AO2

2010/08/09 20:54
KFKS 092054Z AUTO 24006KT 10SM CLR 26/20 A2990 RMK AO2

2010/08/09 20:54
KCAD 092054Z AUTO 28007KT 10SM SCT031 SCT037 29/22 A2991 RMK AO2

2010/08/09 20:55
KMGN 092055Z AUTO 25005KT 7SM CLR 27/21 A2988 RMK AO2

2010/08/09 20:55
KSLH 092055Z AUTO 06009KT 10SM CLR 24/21 A2989 RMK AO2

2010/08/09 20:55
KSJX 092055Z AUTO 28005KT 7SM BKN017 BKN027 26/21 A2989 RMK AO2

2010/08/09 20:55
KHAI 092055Z AUTO 18004KT 7SM SCT033 28/23 A2993 RMK AO2

2010/08/09 20:56
KLWA 092056Z AUTO 26008KT 10SM SCT031 29/22 A2992 RMK AO2

2010/08/09 20:57
KDRM 092057Z AUTO 12003KT 10SM SCT023 26/20 A2989 RMK AO2

2010/08/09 20:54
KVLL 092054Z AUTO 20004KT 7SM RA SCT025 SCT039 OVC090 24/21 A2996 RMK AO2

2010/08/09 20:55
KGOV 092055Z AUTO 12004KT 10SM SCT016 BKN023 OVC028 24/20 A2990 RMK AO2

2010/08/09 20:54
KPZQ 092054Z AUTO 08006KT 10SM SCT030 SCT036 24/20 A2990 RMK AO2

2010/08/09 20:55
KCFS 092055Z AUTO 20005KT 10SM BKN048 OVC060 24/21 A2992 RMK AO2

2010/08/09 20:54
KHYX 092054Z AUTO 00000KT 4SM DZ SCT023 BKN038 OVC050 23/21 A2991 RMK AO2

2010/08/09 20:55
KOZW 092055Z AUTO 23007KT 10SM OVC085 25/21 A2994 RMK AO2

2010/08/09 20:55
KRNP 092055Z AUTO 21009KT 10SM BKN060 BKN120 27/21 A2991 RMK AO2

2010/08/09 20:54
KDUH 092054Z AUTO 00000KT 10SM -RA SCT046 29/20 A2994 RMK AO2

2010/08/09 20:55
KISQ 092055Z AUTO 15004KT 7SM BKN035 BKN041 24/22 A2990 RMK AO2

2010/08/09 20:55
KJYM 092055Z AUTO 02003KT 7SM BKN043 26/22 A2996 RMK AO2

2010/08/09 21:05
KBAX 092105Z AUTO 23007KT 10SM BKN090 BKN110 24/21 A2992 RMK AO2

2010/08/09 20:55
KIRS 092055Z AUTO 22005KT 7SM CLR 28/23 A2993 RMK AO2

2010/08/09 20:54
KAMN 092054Z AUTO 29007KT 10SM SCT055 26/23 A2990 RMK AO2

2010/08/09 20:55
KACB 092055Z AUTO 31005KT 7SM CLR 29/23 A2987 RMK AO2

2010/08/09 20:55
KRQB 092055Z AUTO 27007G14KT 10SM SCT024 SCT031 28/21 A2992 RMK AO2

2010/08/09 20:55
KERY 092055Z AUTO 24004KT 10SM CLR 27/23 A2989 RMK AO2

2010/08/09 20:55
KOEB 092055Z AUTO 14007KT 7SM CLR 26/23 A2995 RMK AO2

2010/08/09 20:56
K4I3 092056Z AUTO 17004KT 10SM CLR 31/18 A3000 RMK AO2

2010/08/09 20:55
KAUM 092055Z AUTO 00000KT 10SM SCT048 30/23 A2991 RMK AO2

2010/08/09 20:55
KFFX 092055Z AUTO 10SM BKN020 BKN027 27/22 A2991 RMK AO2

2010/08/09 20:54
KCNB 092054Z AUTO 09006KT 7SM CLR 31/21 A2991 RMK AO2 T03050208

2010/08/09 20:55
KCKN 092055Z AUTO 21012KT 10SM CLR 33/19 A2986 RMK AO2

2010/08/09 21:03
KCFE 092103Z AUTO 08005KT 10SM CLR 33/20 A2991 RMK AO2 T03280198

2010/08/09 20:57
KCQM 092057Z AUTO 27003KT 10SM CLR 31/19 A2993 RMK AO2

2010/08/09 20:54
KDTL 092054Z AUTO 20005KT 10SM CLR 31/16 A2994 RMK AO2

2010/08/09 20:55
KBDH 092055Z AUTO 06006KT 10SM CLR 32/21 A2992 RMK AO2

2010/08/09 20:55
KCBG 092055Z AUTO 00000KT 10SM CLR 32/24 A2989 RMK AO2

2010/08/09 20:54
KSBN 092054Z 23006KT 8SM CLR 29/22 A2994 RMK AO2 SLP132 60000 T02940222 58009

2010/08/09 20:54
KWAL 092054Z 19011KT 10SM BKN075 28/22 A3002 RMK AO2 SLP164 T02780217 56008

2010/08/09 20:53
KLOR 092053Z AUTO 09003KT 10SM FEW060 35/20 A2992 RMK AO2 SLP128 6//// T03500200 58016 TSNO PNO $

2010/08/09 20:56
KSMP 092056Z AUTO 24008G16KT M1/4SM FG VV001 10/09 A3000 RMK AO2 SLP170 T01000094 53004 TSNO $

2010/08/09 20:52
KMLF 092052Z AUTO 22014G22KT 10SM CLR 28/01 A3008 RMK AO2 PK WND 19031/2033 SLP124 T02780006 58008 TSNO

2010/08/09 20:54
KAPN 092054Z 12007KT 10SM FEW025 BKN055 26/21 A2989 RMK AO2 SLP119 T02560211 $

2010/08/09 21:05
KBAX 092105Z AUTO 23007KT 10SM BKN090 BKN110 24/21 A2992 RMK AO2

2010/08/09 20:55
KIRS 092055Z AUTO 22005KT 7SM CLR 28/23 A2993 RMK AO2

2010/08/09 20:54
KAMN 092054Z AUTO 29007KT 10SM SCT055 26/23 A2990 RMK AO2

2010/08/09 20:55
KACB 092055Z AUTO 31005KT 7SM CLR 29/23 A2987 RMK AO2

2010/08/09 20:55
KRQB 092055Z AUTO 27007G14KT 10SM SCT024 SCT031 28/21 A2992 RMK AO2

2010/08/09 20:55
KERY 092055Z AUTO 24004KT 10SM CLR 27/23 A2989 RMK AO2

2010/08/09 20:55
KOEB 092055Z AUTO 14007KT 7SM CLR 26/23 A2995 RMK AO2

2010/08/09 20:56
K4I3 092056Z AUTO 17004KT 10SM CLR 31/18 A3000 RMK AO2

2010/08/09 20:55
KAUM 092055Z AUTO 00000KT 10SM SCT048 30/23 A2991 RMK AO2

2010/08/09 20:55
KFFX 092055Z AUTO 10SM BKN020 BKN027 27/22 A2991 RMK AO2

2010/08/09 20:54
KCNB 092054Z AUTO 09006KT 7SM CLR 31/21 A2991 RMK AO2 T03050208

2010/08/09 20:55
KCKN 092055Z AUTO 21012KT 10SM CLR 33/19 A2986 RMK AO2

2010/08/09 21:03
KCFE 092103Z AUTO 08005KT 10SM CLR 33/20 A2991 RMK AO2 T03280198

2010/08/09 20:57
KCQM 092057Z AUTO 27003KT 10SM CLR 31/19 A2993 RMK AO2

2010/08/09 20:54
KDTL 092054Z AUTO 20005KT 10SM CLR 31/16 A2994 RMK AO2

2010/08/09 20:55
KBDH 092055Z AUTO 06006KT 10SM CLR 32/21 A2992 RMK AO2

2010/08/09 20:55
KCBG 092055Z AUTO 00000KT 10SM CLR 32/24 A2989 RMK AO2

2010/08/09 20:56
KADC 092056Z AUTO 00000KT 10SM CLR 31/18 A2993 RMK AO2

2010/08/09 20:55
KHAF 092055Z AUTO 18005KT 10SM OVC008 14/11 A2996 RMK AO2

2010/08/09 20:55
KCKC 092055Z AUTO 29006KT 10SM CLR 29/14 A2994 RMK AO2

2010/08/09 20:55
KJYG 092055Z AUTO 00000KT 10SM CLR 31/27 A2992 RMK AO2

2010/08/09 20:56
KCOQ 092056Z AUTO 31004KT 10SM CLR 32/14 A2993 RMK AO2

2010/08/09 20:58
KACQ 092058Z AUTO 00000KT 10SM SCT038 30/22 A2994 RMK AO2

2010/08/09 20:55
KRGK 092055Z AUTO 00000KT 10SM CLR 33/21 A2988 RMK AO2

2010/08/09 20:54
KFSE 092054Z AUTO 20011G14KT 10SM CLR 30/20 A2990 RMK AO2

2010/08/09 20:55
KY70 092055Z AUTO 23012KT 10SM SCT021 SCT029 BKN055 29/22 A2991 RMK AO2 T02910218

2010/08/09 20:50
KUKT 092050Z AUTO 22009KT 10SM FEW060 33/18 A2997 RMK AO1

2010/08/09 20:54
KCDA 092054Z AUTO 25004KT 10SM CLR 26/17 A2993 RMK AO2

2010/08/09 20:55
KLDM 092055Z AUTO 24010KT 10SM SCT011 27/23 A2992 RMK AO2

2010/08/09 20:55
KPHN 092055Z AUTO 00000KT 10SM -RA SCT065 SCT080 SCT100 25/20 A2994 RMK AO2

2010/08/09 20:55
KRMY 092055Z AUTO 19004KT 10SM BKN065 26/22 A2994 RMK AO2

2010/08/09 20:55
KOSC 092055Z AUTO 20007KT 7SM SCT020 SCT050 SCT065 26/23 A2989 RMK AO2

2010/08/09 20:53
KTTF 092053Z AUTO 02005KT 10SM CLR 27/22 A2993 RMK AO2

2010/08/09 20:55
KMCD 092055Z AUTO 00000KT 10SM CLR 23/19 A2990 RMK AO2

2010/08/09 20:56
KNUQ 092056Z 34009KT 10SM CLR 22/13 A2990 RMK AO2 SLP128 T02170128 58008

2010/08/09 20:56
KINS 092056Z 10012G15KT 10SM CLR 32/03 A2994 RMK AO2 SLP088 T03170033 56012

2010/08/09 20:56
KNRS 092056Z 25009KT 10SM FEW017 20/13 A2994 RMK AO2 SLP137 T02000133 58004

2010/08/09 20:56
K9L2 092056Z AUTO 19007KT 10SM CLR 33/M06 A2989 RMK AO2 SLP100 T03281061 58015 $

2010/08/09 20:56
KALK 092056Z AUTO 00000KT 10SM CLR 29/13 A3011 RMK AO2 SLP099 T02940128 58010 $

2010/08/09 20:56
KNTU 092056Z 13006KT 10SM FEW035 SCT200 29/23 A3001 RMK AO2 SLP165 T02890233 58005 $

2010/08/09 20:56
KCDJ 092056Z AUTO 19007KT 36/26 A2985 RMK AO2 SLP088 T03610261 57011 PWINO TSNO

2010/08/09 20:56
KGNA 092056Z AUTO 26005KT 18/16 A2987 RMK AO2 SLP112 T01830156 58001 PWINO TSNO

2010/08/09 20:56
KFSD 092056Z 11008KT 10SM SCT030 30/23 A2990 RMK AO2 SLP114 SCT ABV 120 T03000233 58005

2010/08/09 20:56
KNFE 092056Z AUTO 11005KT 2 1/2SM HZ CLR 31/19 A3001 RMK AO2 SLP165 T03060189 58006 $

2010/08/09 20:56
K8D3 092056Z AUTO 15005KT 31/20 A2990 RMK AO2 SLP106 T03110200 58002 PWINO TSNO

2010/08/09 20:56
KAQV 092056Z AUTO 00000KT 10SM CLR 38/22 A2990 RMK AO2 SLP118 T03780217 56023

2010/08/09 20:56
KP28 092056Z AUTO 18012G21KT 38/17 A2984 RMK AO2 SLP083 T03830172 58014 PWINO TSNO

2010/08/09 20:56
K2WX 092056Z AUTO 17018G25KT 35/13 A2978 RMK AO1 PK WND 17028/2042 SLP052 T03500128 56020

2010/08/09 20:56
KCAE 092056Z 13011KT 10SM SCT065 SCT090 BKN210 34/21 A2998 RMK AO2 SLP148 T03390211 56009

2010/08/09 20:56
KSPD 092056Z AUTO 20014G19KT 33/16 A2999 RMK AO2 SLP079 T03280156 58012 PWINO TSNO

2010/08/09 20:56
KMHS 092056Z AUTO VRB03KT 10SM CLR 28/08 A2996 RMK AO2 SLP129 T02780083 56005 TSNO

2010/08/09 20:55
KCAO 092055Z AUTO 15008G23KT 10SM FEW075 34/13 A3003 RMK AO2 SLP084 T03440128 58016 TSNO

2010/08/09 20:56
KWMC 092056Z AUTO 21012G20KT 10SM CLR 31/02 A2994 RMK AO2 SLP084 T03110022 58012

2010/08/09 20:50
KHMS 092050Z 09007KT 15SM FEW250 30/09 A2975 RMK SLP072 8/001 T02960087 57015 RSNK 21/22017

2010/08/09 20:56
KFPK 092056Z AUTO 22006KT 10SM SCT024 27/22 A2993 RMK AO2

2010/08/09 20:55
KCVX 092055Z AUTO 27008KT 5SM HZ CLR 27/21 A2990 RMK AO2

2010/08/09 20:55
KMOP 092055Z AUTO 25011G15KT 10SM BKN020 BKN030 27/23 A2989 RMK AO2

2010/08/09 20:54
KFKS 092054Z AUTO 24006KT 10SM CLR 26/20 A2990 RMK AO2

2010/08/09 20:54
KCAD 092054Z AUTO 28007KT 10SM SCT031 SCT037 29/22 A2991 RMK AO2

2010/08/09 20:55
KMGN 092055Z AUTO 25005KT 7SM CLR 27/21 A2988 RMK AO2

2010/08/09 20:55
KSLH 092055Z AUTO 06009KT 10SM CLR 24/21 A2989 RMK AO2

2010/08/09 20:55
KSJX 092055Z AUTO 28005KT 7SM BKN017 BKN027 26/21 A2989 RMK AO2

2010/08/09 20:55
KHAI 092055Z AUTO 18004KT 7SM SCT033 28/23 A2993 RMK AO2

2010/08/09 20:56
KLWA 092056Z AUTO 26008KT 10SM SCT031 29/22 A2992 RMK AO2

2010/08/09 20:57
KDRM 092057Z AUTO 12003KT 10SM SCT023 26/20 A2989 RMK AO2

2010/08/09 20:54
KVLL 092054Z AUTO 20004KT 7SM RA SCT025 SCT039 OVC090 24/21 A2996 RMK AO2

2010/08/09 20:55
KGOV 092055Z AUTO 12004KT 10SM SCT016 BKN023 OVC028 24/20 A2990 RMK AO2

2010/08/09 20:54
KPZQ 092054Z AUTO 08006KT 10SM SCT030 SCT036 24/20 A2990 RMK AO2

2010/08/09 20:55
KCFS 092055Z AUTO 20005KT 10SM BKN048 OVC060 24/21 A2992 RMK AO2

2010/08/09 20:54
KHYX 092054Z AUTO 00000KT 4SM DZ SCT023 BKN038 OVC050 23/21 A2991 RMK AO2

2010/08/09 20:55
KOZW 092055Z AUTO 23007KT 10SM OVC085 25/21 A2994 RMK AO2

2010/08/09 20:55
KRNP 092055Z AUTO 21009KT 10SM BKN060 BKN120 27/21 A2991 RMK AO2

2010/08/09 20:54
KDUH 092054Z AUTO 00000KT 10SM -RA SCT046 29/20 A2994 RMK AO2

2010/08/09 20:55
KISQ 092055Z AUTO 15004KT 7SM BKN035 BKN041 24/22 A2990 RMK AO2

2010/08/09 20:55
KJYM 092055Z AUTO 02003KT 7SM BKN043 26/22 A2996 RMK AO2

2010/08/09 20:56
KPRN 092056Z AUTO 13006KT 10SM CLR 36/19 A2994 RMK AO2 SLP132 T03560194 58016 $

2010/08/09 20:56
KNUQ 092056Z 34009KT 10SM CLR 22/13 A2990 RMK AO2 SLP128 T02170128 58008

2010/08/09 20:56
KINS 092056Z 10012G15KT 10SM CLR 32/03 A2994 RMK AO2 SLP088 T03170033 56012

2010/08/09 20:56
KNRS 092056Z 25009KT 10SM FEW017 20/13 A2994 RMK AO2 SLP137 T02000133 58004

2010/08/09 20:56
K9L2 092056Z AUTO 19007KT 10SM CLR 33/M06 A2989 RMK AO2 SLP100 T03281061 58015 $

2010/08/09 20:56
KABH 092056Z AUTO 13005KT 10SM FEW065 SCT100 24/13 A3014 RMK AO2 TSB19E35 SLP126 T02440133 56013 $

2010/08/09 20:56
KNTU 092056Z 13006KT 10SM FEW035 SCT200 29/23 A3001 RMK AO2 SLP165 T02890233 58005 $

2010/08/09 20:56
KNCA 092056Z 15009KT 10SM 31/24 A3001 RMK AO2 SLP163 60023 T03060244 56008 $

2010/08/09 20:56
KAQV 092056Z AUTO 00000KT 10SM CLR 38/22 A2990 RMK AO2 SLP118 T03780217 56023

2010/08/09 20:56
KNLC 092056Z VRB05KT 10SM CLR 31/13 A2984 RMK AO2 SLP105 RH/31 T03110133 58014

2010/08/09 20:55
KGTB 092055Z AUTO 28005KT 10SM CLR 25/20 A2993 RMK AO2 SLP133 T02530204 55002

2010/08/09 20:54
KNFG 092054Z 22007KT 7SM CLR 23/13 A2991 RMK AO2 SLP128 T02280133 58006

2010/08/09 20:53
KNQX 092053Z 31005KT 6SM -TSRA FEW002 BKN010CB BKN020 BKN140 26/24 A2989 RMK AO2 SLP119 OCNL LTGICCC OHD TS OHD MOV S T1 SET P0009 60028 T02610244 56009 $

2010/08/09 20:52
KNRB 092052Z 08011KT 10SM FEW035 SCT070 BKN150 32/24 A2995 RMK AO2 SLP140 T2 SET 60000 T03170244 56007

2010/08/09 20:55
KSSC 092055Z 08006KT 10SM CLR 34/21 A2999 RMK AO2A SLP152 T03390210 56010 $

2010/08/09 20:55
KVAD 092055Z AUTO 04009KT 10SM CLR 35/21 A2993 RMK AO2 SLP134 T03450211 56013 $

2010/08/09 20:56
KNBC 092056Z 09009KT 7SM SCT030 BKN050 BKN200 31/24 A2996 RMK AO2 SLP146 T03110244 58008 $

2010/08/09 20:56
KNPA 092056Z 16011KT 8SM FEW035TCU SCT140 SCT250 33/25 A2992 RMK AO2 SLP134 TCU DSNT NE-E T2 SET T03280250 56018

2010/08/09 20:55
KBAB 092055Z 19006KT 10SM CLR 28/14 A2984 RMK AO2A SLP107 T02820144 58011

2010/08/09 20:55
KCOF 092055Z 13012KT 10SM CLR 30/24 A2991 RMK AO2A SLP129 T02970237 56008

2010/08/09 20:55
KCVS 092055Z 21010KT 10SM SCT080 SCT150 30/13 A3004 RMK AO2A SLP120 T03020130 58012 $

2010/08/09 20:55
KFTK 092055Z 15004KT 10SM FEW060 35/23 A2994 RMK AO2A SLP131 T03540229 56014

2010/08/09 20:55
KLSV 092055Z AUTO 00000KT 10SM CLR 34/04 A2988 RMK AO2 SLP102 T03420038 58018 PWINO

2010/08/09 20:55
KLUF 092055Z 24008KT 10SM CLR 38/10 A2984 RMK AO2A SLP073 T03770101 58015 $

2010/08/09 20:55
KMXF 092055Z 15010G18KT 100V190 10SM FEW060 37/20 A2991 RMK AO2A SLP129 T03740198 58018

2010/08/09 20:52
KNZY 092052Z 27008KT 10SM FEW019 24/14 A2992 RMK AO2 SLP130 T02440139 57006 $

2010/08/09 20:56
PMDY 092056Z AUTO 08012KT 10SM FEW025 28/22 A3025 RMK AO2 TSNO 51007 T02830216 SLP553

2010/08/09 20:56
KNMM 092056Z 16005KT 10SM FEW045 SCT060 34/23 A2993 RMK AO2 SLP140 T2 SET T03440228 56021 $

2010/08/09 20:56
K79J 092056Z 12004KT 10SM FEW060 36/20 A2992 RMK AO2 SLP126 T03610200 58019 PNO $

2010/08/09 20:55
KNBG 092055Z 00000KT 9SM FEW006 SCT080 BKN110 OVC250 25/23 A2996 RMK AO2 SLP145 T1 SET P0001 60035 T02500233 58002 $

2010/08/09 20:56
KNGP 092056Z 12009KT 10SM FEW035TCU SCT045 SCT250 32/27 A2988 RMK AO2 SLP119 TCU DSNT SE T03220267 58017

2010/08/09 20:56
KNID 092056Z 16005KT 10SM CLR 34/M03 A2988 RMK AO2 SLP095 T03391033 58015 $

2010/08/09 20:56
KNJK 092056Z VRB03KT 10SM CLR 37/09 A2975 RMK AO2 SLP089 T03670094 58017

2010/08/09 20:55
KNKX 092055Z 28008KT 10SM FEW020 24/13 A2992 RMK AO2 SLP127 T02390133 56006

2010/08/09 20:56
KNQI 092056Z 11013KT 10SM SCT047CB SCT070 BKN250 36/24 A2987 RMK AO2 SLP111 CB DSNT SW T03560237 56017

2010/08/09 20:56
KNXP 092056Z 11009G18KT 7SM CLR 35/M04 A2993 RMK AO2 SLP097 T03501044 58017 $

2010/08/09 20:56
KNXX 092056Z 23008KT 9SM FEW050 BKN200 32/17 A2997 RMK AO2 SLP152 T03170172 56016 $

2010/08/09 20:56
KNYG 092056Z 18009KT 8SM CLR 32/23 A2997 RMK AO2 SLP149 T03170228 58010 $

2010/08/09 20:56
KNFE 092056Z AUTO 11005KT 2 1/2SM HZ CLR 31/19 A3001 RMK AO2 SLP165 T03060189 58006 $

2010/08/09 20:55
KCNW 092055Z 18005KT 10SM SCT065 37/18 A2989

2010/08/09 20:56
KCXY 092056Z 09005KT 9SM FEW060 33/18 A2995 RMK AO2 SLP138 T03280183 58015

2010/08/09 20:56
KJXN 092056Z 18007KT 10SM FEW060 BKN080 23/23 A2995 RMK AO2 RAB1958E26 SLP135 P0002 60012 T02330228 56016 $

2010/08/09 20:56
KLRD 092056Z 16011G14KT 10SM CLR 39/20 A2986 RMK AO2 58029 T03880200 SLP096

2010/08/09 20:55
KXFL 092055Z 11011KT 10SM CLR 32/24 A2994

2010/08/09 20:55
KNUC 092055Z 21007KT 10SM FEW016 21/14 A2996 RMK SLP142 T02090135 58003

2010/08/09 20:56
KSGH 092056Z AUTO VRB06KT 5SM HZ CLR 31/24 A2999 RMK AO2 58013 60000 T03110238 SLP147 $

2010/08/09 20:55
KTTS 092055Z 11011G16KT 10SM FEW022 FEW210 30/25 A2991 RMK SLP129 2CU /2/ 1CI /2/

2010/08/09 20:56
KWJF 092056Z 00000KT 10SM CLR 33/M03 A2991 RMK AO2 SLP107 T03331028 58013

2010/08/09 20:55
KNUC 092055Z 21007KT 10SM FEW016 21/14 A2996 RMK SLP142 T02090135 58003

2010/08/09 20:56
KSGH 092056Z AUTO VRB06KT 5SM HZ CLR 31/24 A2999 RMK AO2 58013 60000 T03110238 SLP147 $

2010/08/09 20:55
KTTS 092055Z 11011G16KT 10SM FEW022 FEW210 30/25 A2991 RMK SLP129 2CU /2/ 1CI /2/

2010/08/09 20:57
K14Y 092057Z AUTO 00000KT 10SM CLR 32/17 A2994 RMK AO2 T03150173

2010/08/09 20:55
K1A6 092055Z AUTO 23005KT 7SM CLR 35/27 A3000 RMK AO2

2010/08/09 20:55
K1P1 092055Z AUTO 28005KT 10SM -RA SCT027 SCT034 SCT045 26/21 A2990 RMK AO2 LTG DSNT W THRU N T02570214

2010/08/09 20:55
K46D 092055Z AUTO 20011G17KT 10SM CLR 35/18 A2988 RMK AO2

2010/08/09 20:50
KAEL 092050Z AUTO 10004KT 10SM CLR 30/22 A2991 RMK AO2

2010/08/09 20:55
KAIG 092055Z AUTO 32006KT 10SM CLR 30/18 A2992 RMK AO2

2010/08/09 20:56
KAJO 092056Z AUTO 30014KT 10SM CLR 27/14 A2989 RMK AO2 56008 T02720138 SLP117 $

2010/08/09 20:50
KALN 092050Z 15012KT 10SM FEW050 BKN200 35/26 A2990

2010/08/09 20:54
KAQP 092054Z AUTO 09004KT 10SM CLR 31/24 A2990 RMK AO2

2010/08/09 20:51
KARV 092051Z AUTO 31006KT 10SM SCT060 30/16 A2995 RMK AO2 T02960161

2010/08/09 20:55
KBBF 092055Z AUTO 14008KT 10SM CLR 30/27 A2990 RMK A01

2010/08/09 20:53
KBFW 092053Z AUTO 19005KT 10SM CLR 32/21 A2988 RMK AO2

2010/08/09 20:55
KBQX 092055Z AUTO 13008KT 10SM FEW024 FEW031 FEW100 31/26 A2992 RMK A01

2010/08/09 20:55
KBUU 092055Z AUTO 31005KT 10SM SCT030 29/23 A2991 RMK AO2 T02860225

2010/08/09 20:50
KBWP 092050Z AUTO 17006KT 10SM CLR 33/17 A2990 RMK AO1 T03250174

2010/08/09 20:52
KCDD 092052Z AUTO 32003KT 10SM SCT070 32/24 A2992 RMK AO2

2010/08/09 20:55
KCMB 092055Z AUTO 22006KT 10SM CLR 36/25 A2993 RMK A01

2010/08/09 20:55
KCMR 092055Z AUTO 18006KT 10SM FEW070 23/08 A3026 RMK AO1

2010/08/09 20:55
KCMY 092055Z AUTO 01003KT 10SM SCT031 31/22 A2990 RMK AO2 T03120224

2010/08/09 20:55
KCRH 092055Z AUTO 00000KT 10SM CLR 31/24 A2994 RMK A01

2010/08/09 20:50
KCVH 092050Z AUTO 26008KT 030V040 10SM CLR 23/13 A2992 RMK AO1

2010/08/09 20:56
KDIJ 092056Z AUTO 21021KT 5SM VCTS HZ CLR 18/07 A3014 RMK AO2 55003 T01770066 LTG DSNT ALQDS TSB37 PK WND 21030/2054 PRESRR SLP132 $

2010/08/09 20:55
KDLL 092055Z AUTO 00000KT 10SM SCT034 SCT044 30/22 A2991 RMK AO2 T02970222

2010/08/09 20:56
KDVP 092056Z AUTO 07010KT 10SM CLR 30/20 A2994 RMK AO2 T02980197

2010/08/09 20:54
KDXX 092054Z AUTO 00000KT 10SM CLR 31/21 A2990 RMK AO2

2010/08/09 20:54
KDYT 092054Z AUTO 05003KT 10SM CLR 24/22 A2989 RMK AO2

2010/08/09 20:56
KEFK 092056Z AUTO 29005KT 10SM SCT048 BKN060 24/18 A2991 RMK AO2

2010/08/09 20:55
KEHC 092055Z AUTO 00000KT 10SM FEW031 33/24 A2995 RMK A01

2010/08/09 20:55
KEIR 092055Z AUTO 00000KT 10SM CLR 31/25 A2995 RMK A01

2010/08/09 20:56
KEKQ 092056Z AUTO 00000KT 10SM FEW055 33/24 A2999 RMK AO2 56014 60000 T03330244 RAB10E32 P0000 SLP149

2010/08/09 20:53
KELO 092053Z AUTO 00000KT 10SM SCT090 29/17 A2992 RMK AO2

2010/08/09 20:55
KEMK 092055Z AUTO 14007KT 10SM CLR 31/25 A2994 RMK A01

2010/08/09 20:54
KETH 092054Z AUTO 11003KT 10SM CLR 31/19 A2994 RMK AO2

2010/08/09 20:52
KEVM 092052Z AUTO 33004KT 10SM CLR 31/16 A2991 RMK AO1

2010/08/09 20:54
KEZS 092054Z AUTO 24006KT 10SM CLR 33/22 A2987 RMK AO2 T03270217

2010/08/09 20:54
KFBL 092054Z AUTO 00000KT 10SM SCT037 30/21 A2991 RMK AO2

2010/08/09 21:02
KFKA 092102Z AUTO 00000KT 10SM SCT031 SCT038 31/23 A2993 RMK AO2 T03100232

2010/08/09 20:53
KFOZ 092053Z AUTO 22007KT 173V233 10SM CLR 32/20 A2993 RMK AO2

2010/08/09 20:59
KFSO 092059Z AUTO 36003KT 10SM SCT033 SCT047 BKN055 26/21 A2988 RMK AO2

2010/08/09 20:55
KGUL 092055Z AUTO 10SM FEW026 31/25 A2995 RMK A01

2010/08/09 20:54
KGYL 092054Z AUTO 06003KT 10SM CLR 32/20 A2990 RMK AO2 T03150203

2010/08/09 20:52
KHCD 092052Z AUTO 07004KT 10SM CLR 31/20 A2991 RMK AO2 T03050201

2010/08/09 20:54
KHCO 092054Z AUTO 21005G15KT 10SM CLR 35/21 A2985 RMK AO2

2010/08/09 20:55
KHFJ 092055Z AUTO 17003KT 10SM CLR 36/25 A2989 RMK AO1

2010/08/09 20:50
KHQI 092050Z AUTO 07009KT 10SM 31/25 A2995 RMK A01

2010/08/09 20:51
KHZX 092051Z AUTO 26004KT 10SM CLR 31/17 A2993 RMK AO2

2010/08/09 20:55
KIPN 092055Z AUTO 00000KT 10SM CLR 30/25 A2993 RMK A01

2010/08/09 20:55
KISO 092055Z 08003KT 7SM CLR 33/19 A3001

2010/08/09 20:54
KJKJ 092054Z AUTO 20007KT 10SM CLR 33/23 A2987 RMK AO2

2010/08/09 20:55
KJMR 092055Z AUTO 00000KT 10SM CLR 31/20 A2993 RMK AO2

2010/08/09 20:55
KLCK 092055Z AUTO 21003KT 10SM CLR 32/18 A2997 RMK AO2 T03230179

2010/08/09 20:53
KLJF 092053Z AUTO 10003KT 10SM CLR 32/20 A2991 RMK AO2

2010/08/09 20:54
KLVN 092054Z AUTO 09005KT 10SM CLR 32/21 A2990 RMK AO2

2010/08/09 20:54
KLXL 092054Z AUTO 10003KT 10SM CLR 31/17 A2991 RMK AO2

2010/08/09 20:56
KM89 092056Z AUTO 19004KT 10SM CLR 38/23 A2988 RMK AO2 58019 T03830233 SLP131 $

2010/08/09 20:55
KMDJ 092055Z AUTO 18006KT 7SM CLR 27/25 A2994 RMK A01

2010/08/09 20:55
KMIU 092055Z AUTO 13008KT 10SM FEW021 FEW031 31/26 A2990 RMK A01

2010/08/09 20:52
KMJQ 092052Z AUTO 06008KT 10SM CLR 27/23 A2992 RMK AO2

2010/08/09 20:54
KMVE 092054Z AUTO 13005KT 10SM CLR 31/24 A2989 RMK AO2

2010/08/09 20:50
KMWA 092050Z 18005KT 15SM SCT060 BKN090 37/18 A2990

2010/08/09 20:55
KMWO 092055Z AUTO 00000KT 10SM SCT060 35/20 A2996 RMK AO2

2010/08/09 20:55
KMZG 092055Z AUTO 00000KT 10SM CLR 33/26 A2991 RMK A01

2010/08/09 20:50
KMZH 092050Z AUTO 00000KT 10SM CLR 31/19 A2990 RMK AO2

2010/08/09 20:51
KONA 092051Z AUTO 35003KT 10SM CLR 31/22 A2988 RMK AO2

2010/08/09 20:54
KONZ 092054Z AUTO 29003KT 10SM CLR 28/21 A2994 RMK AO2

2010/08/09 20:54
KORB 092054Z AUTO 00000KT 10SM CLR 31/17 A2990 RMK AO2

2010/08/09 20:54
KOVL 092054Z AUTO 09006KT 10SM CLR 31/19 A2991 RMK AO2 T03060189

2010/08/09 20:53
KOWA 092053Z AUTO 09004KT 10SM CLR 30/22 A2991 RMK AO2

2010/08/09 20:53
KPEX 092053Z AUTO 09005KT 10SM CLR 32/19 A2992 RMK AO2 T03190193

2010/08/09 20:52
KPVB 092052Z AUTO 00000KT 10SM SCT030 30/23 A2992 RMK AO1 T03020231

2010/08/09 20:55
KROX 092055Z AUTO 22008KT 10SM CLR 33/23 A2986 RMK AO2

2010/08/09 20:54
KRRT 092054Z AUTO 05008KT 10SM CLR 28/23 A2987 RMK AO2 TSNO

2010/08/09 20:53
KRZN 092053Z AUTO 36003KT 10SM CLR 31/19 A2992 RMK AO2 T03100190

2010/08/09 20:54
KSAZ 092054Z AUTO 00000KT 10SM CLR 32/17 A2993 RMK AO2

2010/08/09 20:53
KSGS 092053Z AUTO 08006KT 10SM CLR 33/20 A2989 RMK AO2 T03310196

2010/08/09 20:55
KSPR 092055Z AUTO 15007KT 10SM 32/26 A2994 RMK A01

2010/08/09 20:55
KSRR 092055Z AUTO 18009KT 9SM FEW032 SCT043 SCT065 18/15 A3027 RMK AO2 LTG DSNT N AND SE AND S

2010/08/09 20:53
KSUN 092053Z 16010G16KT 30SM VCTS SCT090 BKN120 21/12 A3004

2010/08/09 20:53
KTEW 092053Z AUTO 25006KT 10SM CLR 26/21 A2994 RMK AO2

2010/08/09 20:55
KTOB 092055Z AUTO 00000KT 10SM CLR 31/23 A2993 RMK AO2

2010/08/09 20:54
KUNI 092054Z AUTO 17005KT 10SM CLR 34/10 A2998 RMK AO2

2010/08/09 20:55
KVAF 092055Z AUTO 10016KT 10SM SCT020 SCT027 BKN031 30/25 A2990 RMK A01

2010/08/09 20:55
KVBS 092055Z AUTO VRB05KT 10SM 33/24 A2992 RMK A01

2010/08/09 20:53
KVES 092053Z AUTO 10SM CLR 31/22 A2997 RMK AO2 T03080215

2010/08/09 20:56
KVVV 092056Z AUTO 08006KT 10SM CLR 31/19 A2991 RMK AO2

2010/08/09 20:49
KVWU 092049Z AUTO 26003KT 10SM SCT110 31/23 A2990 RMK AO2

2010/08/09 20:56
KXVG 092056Z AUTO 23004KT 10SM CLR 32/21 A2991 RMK AO2

2010/08/09 20:55
KY63 092055Z AUTO 11005KT 10SM CLR 31/19 A2992 RMK AO2 T03120188

2010/08/09 20:56
PAGN 092056Z AUTO 00000KT OVC038 RMK AO2 PWINO TSNO 5//// SLPNO $

2010/08/09 20:56
PATQ 092056Z AUTO 07019G23KT 10SM OVC007 02/01 A2979 RMK AO2 TSNO 56005 T00220011 SLP092 $

2010/08/09 20:56
PAFS 092056Z AUTO 30005KT 10SM BKN060 12/10 A2954 RMK AO2 TSNO 53007 T01220100 SLP012 $

2010/08/09 20:49
KNQX 092049Z 31008KT 6SM -TSRA FEW002 BKN010CB BKN020 BKN140 26/24 A2989 RMK AO2 OCNL LTGICCC OHD TS OHD MOV S T1 SET P0009 $

2010/08/09 20:57
KFZY 092057Z AUTO 28010KT 1 3/4SM +RA FEW024 BKN055 OVC085 23/20 A2994 RMK AO2 PRESRR P0005

2010/08/09 20:56
KALK 092056Z AUTO 00000KT 10SM CLR 29/13 A3011 RMK AO2 SLP099 T02940128 58010 $

2010/08/09 20:56
KCDJ 092056Z AUTO 19007KT 36/26 A2985 RMK AO2 SLP088 T03610261 57011 PWINO TSNO

2010/08/09 20:56
KGNA 092056Z AUTO 26005KT 18/16 A2987 RMK AO2 SLP112 T01830156 58001 PWINO TSNO

2010/08/09 20:56
KFSD 092056Z 11008KT 10SM SCT030 30/23 A2990 RMK AO2 SLP114 SCT ABV 120 T03000233 58005

2010/08/09 20:56
K8D3 092056Z AUTO 15005KT 31/20 A2990 RMK AO2 SLP106 T03110200 58002 PWINO TSNO

2010/08/09 20:56
KP28 092056Z AUTO 18012G21KT 38/17 A2984 RMK AO2 SLP083 T03830172 58014 PWINO TSNO

2010/08/09 20:56
K2WX 092056Z AUTO 17018G25KT 35/13 A2978 RMK AO1 PK WND 17028/2042 SLP052 T03500128 56020

2010/08/09 20:56
TJSJ 092056Z 08012KT 10SM FEW020 SCT039 BKN080 28/25 A2992 RMK AO2 SLP131 SHRA DSNT NW 60012 T02830250 58005

2010/08/09 20:56
KCAE 092056Z 13011KT 10SM SCT065 SCT090 BKN210 34/21 A2998 RMK AO2 SLP148 T03390211 56009

2010/08/09 20:56
KSPD 092056Z AUTO 20014G19KT 33/16 A2999 RMK AO2 SLP079 T03280156 58012 PWINO TSNO

2010/08/09 20:56
KMHS 092056Z AUTO VRB03KT 10SM CLR 28/08 A2996 RMK AO2 SLP129 T02780083 56005 TSNO

2010/08/09 20:56
KABQ 092056Z 32004KT 10SM SCT080 31/10 A3010 RMK AO2 SLP096 T03060100 58018

2010/08/09 20:56
KJAX 092056Z 06008KT 10SM FEW035 SCT065 BKN090 BKN200 28/24 A2994 RMK AO2 RAB01E11 SLP139 P0000 60000 T02830244 58002

2010/08/09 20:53
K29G 092053Z AUTO 22005KT 10SM CLR 29/18 A3000 RMK AO2 T02930178 PWINO

2010/08/09 20:56
KCHS 092056Z 12009G16KT 10SM SCT028 SCT033 BKN043 31/25 A2998 RMK AO2 SLP151 60014 T03110250 56003

2010/08/09 20:55
KCLI 092055Z AUTO 19004KT 10SM CLR 32/23 A2987 RMK AO2

2010/08/09 20:54
KFWA 092054Z 20006KT 9SM FEW048 BKN140 BKN250 30/23 A2995 RMK AO2 SLP137 T03000233 56013

2010/08/09 20:54
KIKW 092054Z AUTO 22005KT 10SM SCT012 SCT100 26/22 A2989 RMK AO2 P0018 60037 T02600220

2010/08/09 20:58
KLYV 092058Z AUTO 08008KT 10SM SCT029 30/22 A2990 RMK AO2

2010/08/09 20:54
KRFD 092054Z VRB03KT 10SM FEW030 SCT085 SCT250 30/22 A2993 RMK AO2 SLP127 T03000217 58002 $

2010/08/09 20:55
KROS 092055Z AUTO 00000KT 10SM CLR 31/21 A2992 RMK AO2 T03110214

2010/08/09 20:55
KSCF 092055Z AUTO 00000KT 10SM CLR 32/25 A2989 RMK A01

2010/08/09 20:56
KSHV 092056Z 00000KT 10SM SCT070 37/22 A2989 RMK AO2 SLP116 T03670217 58021

2010/08/09 20:54
KSYN 092054Z AUTO 03003KT 10SM CLR 32/22 A2989 RMK AO2 T03240219

2010/08/09 20:53
KTKC 092053Z AUTO 07008KT 10SM CLR 30/22 A2992 RMK AO2 T03010222

2010/08/09 20:55
KCAO 092055Z AUTO 15008G23KT 10SM FEW075 34/13 A3003 RMK AO2 SLP084 T03440128 58016 TSNO

2010/08/09 20:56
KWMC 092056Z AUTO 21012G20KT 10SM CLR 31/02 A2994 RMK AO2 SLP084 T03110022 58012

2010/08/09 20:50
KHMS 092050Z 09007KT 15SM FEW250 30/09 A2975 RMK SLP072 8/001 T02960087 57015 RSNK 21/22017

2010/08/09 20:55
KPOE 092055Z AUTO 16007KT 10SM FEW055 36/22 A2991 RMK AO2 SLP127 T03610222 58022

2010/08/09 20:55
KRCA 092055Z 19008KT 10SM SCT070CB BKN150 31/17 A2991 RMK AO2A CB 19S MOV N SLP100 T03090173 56009 $

2010/08/09 20:55
KVBG 092055Z 35008KT 10SM FEW008 SCT014 17/12 A2996 RMK AO2 SLP136 T01720122 58001 VISNO RWY12 $

2010/08/09 20:55
KNKX 092055Z 28008KT 10SM FEW020 24/13 A2992 RMK AO2 SLP127 T02390133 56006

2010/08/09 20:56
KNYG 092056Z 18009KT 8SM CLR 32/23 A2997 RMK AO2 SLP149 T03170228 58010 $

2010/08/09 20:52
KNZY 092052Z 27008KT 10SM FEW019 24/14 A2992 RMK AO2 SLP130 T02440139 57006 $

2010/08/09 20:55
KPAM 092055Z AUTO VRB05KT 10SM FEW190 35/22 A2991 RMK AO2 CLDS LWR RWY13 SLP129 T03470223 58016 $

2010/08/09 20:55
KPOE 092055Z AUTO 16007KT 10SM FEW055 36/22 A2991 RMK AO2 SLP127 T03610222 58022

2010/08/09 20:55
KRCA 092055Z 19008KT 10SM SCT070CB BKN150 31/17 A2991 RMK AO2A CB 19S MOV N SLP100 T03090173 56009 $

2010/08/09 20:55
KRIV 092055Z VRB05KT 10SM CLR 30/10 A2991 RMK AO2A SLP125 T02950104 57004

2010/08/09 20:55
KTBN 092055Z 17004KT 10SM FEW060 36/22 A2992 RMK AO2A SLP106 T03630216 56016 $

2010/08/09 20:55
KTCM 092055Z AUTO 23005KT 10SM BKN022 OVC028 18/12 A3000 RMK AO2 CIG 021V026 BKN V OVC SLP162 T01800121 53005

2010/08/09 20:55
KVBG 092055Z 35008KT 10SM FEW008 SCT014 17/12 A2996 RMK AO2 SLP136 T01720122 58001 VISNO RWY12 $

2010/08/09 20:55
KVOK 092055Z 28003KT 10SM SCT035 SCT200 32/24 A2990 RMK AO2A SLP117 58007

2010/08/09 20:55
PHSF 092055Z 28008KT 7SM FEW200 24/09 A3032 RMK SLPNO 52003

2010/08/09 20:56
KNUW 092056Z 25004KT 3SM -RA BR SCT005 BKN016 OVC030 14/12 A2999 RMK AO2 RAB02 SLP160 P0004 60004 T01380121 51002 $

2010/08/09 20:56
KNTD 092056Z VRB05KT 5SM HZ BKN012 18/14 A2994 RMK AO2 SLP140 LAG PK 17/17/13005 T01830139 58001 $

2010/08/09 20:55
KGBK 092055Z AUTO 10008KT 10SM CLR 34/25 A2996 RMK A01

2010/08/09 20:55
KLFI 092055Z 12007KT 10SM CLR 30/18 A3001 RMK AO2A SLP164 T03050181 58004

2010/08/09 20:55
KLUF 092055Z 24008KT 10SM CLR 38/10 A2984 RMK AO2A SLP073 T03770101 58015 $

2010/08/09 20:55
KMCF 092055Z AUTO 32005KT 10SM SCT045 SCT055 28/26 A2988 RMK AO2 DZE1956 SLP120 60063 T02820265 56010

2010/08/09 20:53
KMRT 092053Z AUTO 22004KT 10SM CLR 30/20 A3001 RMK AO2 T02950202

2010/08/09 20:57
KNJM 092057Z AUTO 17007KT 10SM BKN055 BKN070 28/24 A3002 RMK AO2 SLP168 T02830239 56008

2010/08/09 20:57
KNXF 092057Z AUTO 28011KT 9SM CLR 21/13 A2993 RMK AO2 SLP219 T02110133 58004 TSNO

2010/08/09 20:55
KPAM 092055Z AUTO VRB05KT 10SM FEW190 35/22 A2991 RMK AO2 CLDS LWR RWY13 SLP129 T03470223 58016 $

2010/08/09 20:55
PHSF 092055Z 28008KT 7SM FEW200 24/09 A3032 RMK SLPNO 52003

2010/08/09 20:58
K0J4 092058Z AUTO 11004KT 10SM CLR 36/22 RMK AO2 SLPNO T03560217 $

2010/08/09 20:56
KHLR 092056Z AUTO 12007G15KT 10SM CLR 38/18 A2991 RMK AO2 SLP117 T03780183 56019 $

2010/08/09 20:53
KHEY 092053Z AUTO VRB03KT 10SM CLR 36/20 A2993 RMK AO2 SLP020 T03560200 58016 $

2010/08/09 20:53
KLOR 092053Z AUTO 09003KT 10SM FEW060 35/20 A2992 RMK AO2 SLP128 6//// T03500200 58016 TSNO PNO $

2010/08/09 20:54
KSBN 092054Z 23006KT 8SM CLR 29/22 A2994 RMK AO2 SLP132 60000 T02940222 58009

2010/08/09 20:54
KWAL 092054Z 19011KT 10SM BKN075 28/22 A3002 RMK AO2 SLP164 T02780217 56008

2010/08/09 20:56
KSMP 092056Z AUTO 24008G16KT M1/4SM FG VV001 10/09 A3000 RMK AO2 SLP170 T01000094 53004 TSNO $

2010/08/09 20:52
KMLF 092052Z AUTO 22014G22KT 10SM CLR 28/01 A3008 RMK AO2 PK WND 19031/2033 SLP124 T02780006 58008 TSNO

2010/08/09 20:54
KAPN 092054Z 12007KT 10SM FEW025 BKN055 26/21 A2989 RMK AO2 SLP119 T02560211 $

2010/08/09 20:58
KMCB 092058Z AUTO 00000KT 5SM VCTS -RA BR BKN034 OVC065 25/23 A2995 RMK AO2 LTG DSNT ALQDS PRESFR P0001

2010/08/09 20:57
PATE 092057Z AUTO 23004KT 10SM FEW007 OVC014 13/11 A2935 RMK AO2

2010/08/09 20:56
PAGN 092056Z AUTO 00000KT OVC038 RMK AO2 PWINO TSNO 5//// SLPNO $

2010/08/09 20:56
PAHC 092056Z AUTO 09005KT 3SM -RA BR SCT005 BKN021 OVC049 13/12 A2940 RMK AO2 TSNO 51003 60001 T01270116 P0000 SLP961 $

2010/08/09 20:56
PAIG 092056Z AUTO 18004KT 4SM BR FEW010 BKN022 OVC038 12/10 A2960 RMK AO2 PWINO TSNO 53014 T01160100 SLP027 $

2010/08/09 20:56
PAMO 092056Z AUTO 13020G26KT 5SM RA BR BKN005 BKN013 OVC027 10/09 A2931 RMK AO2 TSNO 53004 60001 T01000094 CIG 002V007 P0001 PK WND 15028/2019 SLP924 $

2010/08/09 20:56
PAOO 092056Z AUTO 15018KT 4SM BR BKN009 OVC013 10/09 A2922 RMK AO2 TSNO 53005 60000 T01000088 CIG 005V012 RAE24 P0000 SLP894 $

2010/08/09 20:56
PAPM 092056Z AUTO 18019KT 1SM BR SCT007 BKN050 OVC070 09/09 A2942 RMK AO2 TSNO 53013 60001 T00940088 BKN V SCT PK WND 18026/2006 SLP962 $

2010/08/09 20:56
PARS 092056Z AUTO 15008KT 10SM SCT021 BKN028 OVC033 12/10 A2938 RMK AO2 TSNO 51004 60000 T01220100 BKN V SCT RAE26 P0000 SLP953 $

2010/08/09 20:56
PARY 092056Z AUTO 09007KT 9SM FEW008 BKN020 OVC027 14/11 A2952 RMK AO2 PWINO TSNO 51007 T01380111 SLP999

2010/08/09 20:56
PATQ 092056Z AUTO 07019G23KT 10SM OVC007 02/01 A2979 RMK AO2 TSNO 56005 T00220011 SLP092 $

2010/08/09 20:58
KMEI 092058Z 13004KT 10SM CLR 34/23 A2993 RMK AO2 SLP130 T03440233 56020

2010/08/09 20:53
KSBD 092053Z 28006KT 7SM SKC 29/06 A2989

2010/08/09 20:55
KTTS 092055Z 11011G16KT 10SM FEW022 FEW210 30/25 A2991 RMK SLP129 2CU /2/ 1CI /2/

2010/08/09 20:56
KY50 092056Z AUTO 35005KT 10SM SCT032 32/23 A2990 RMK AO2 58005 T03160233 SLP115

2010/08/09 20:56
PAMB 092056Z AUTO 21012G20KT 10SM BKN013 OVC029 11/11 A2950 RMK AO2 PWINO TSNO 51010 T01110105 BKN V OVC SLP991 $

2010/08/09 20:56
PAOH 092056Z AUTO 05004KT 10SM BKN034 OVC043 14/12 A2998 RMK AO2 TSNO 51004 T01440116 BKN V OVC SLP153 $

2010/08/09 20:53
PASW 092053Z 16004KT 12SM SCT004 BKN025 OVC040 13/12 A2967 RMK NOSPECI

2010/08/09 20:50
PFYU 092050Z VRB03KT 10SM BKN050 OVC080 16/ A2956

2010/08/09 20:56
PPIZ 092056Z AUTO 08023G34KT 10SM SCT017 07/02 A2968 RMK AO2 TSNO 56006 T00660016 PK WND 07034/2049 SLP055 $

2010/08/09 20:51
KP58 092051Z AUTO 28003KT 26/22 A2989 RMK AO2 SLP114 T02560222 50000 PWINO TSNO 

2010/08/09 21:00
OPKC 092100Z 29006KT 7000 SCT020 BKN100 27/25 Q.1001 NOSIG

2010/08/09 21:00
OPNH 092100Z 00000KTS 4000 HZ SCT035 SCT100 28/25 1000

2010/08/09 20:50
EDFE 092050Z AUTO 00000KT //// R27/P2000N // /// 15/14 Q1016

2010/08/09 20:50
EDNY 092050Z AUTO VRB01KT 9999 15/14 Q1017

2010/08/09 20:50
EDXW 092050Z AUTO 19006KT 9999NDV NCD 14/11 Q1015 RMK ATIS INFO C

2010/08/09 20:50
EDLP 092050Z 15004KT 110V180 CAVOK 15/13 Q1017 RMK RWY24 TRL60 PB ATIS M

2010/08/09 20:50
LGAD 092050Z 00000KT 9999 FEW015 24/21 Q1011

2010/08/09 20:50
LGAL 092050Z 03011KT CAVOK 29/19 Q1010

2010/08/09 20:50
LGAV 092050Z VRB03KT CAVOK 26/17 Q1010 NOSIG

2010/08/09 20:50
LGEL 092050Z 33006KT CAVOK 29/17 Q1009

2010/08/09 20:50
LGIR 092050Z 29006KT 9999 FEW018 27/24 Q1008 NOSIG

2010/08/09 20:50
LGKL 092050Z 00000KT CAVOK 23/20 Q1009

2010/08/09 20:50
LGKO 092050Z 33007KT CAVOK 26/23 Q1005

2010/08/09 20:50
LGKR 092050Z 00000KT CAVOK 25/17 Q1009 NOSIG

2010/08/09 20:50
LGKV 092050Z 06005KT 9999 FEW030 26/21 Q1009

2010/08/09 20:50
LGLM 092050Z 33010KT CAVOK 27/20 Q1008

2010/08/09 20:50
LGMT 092050Z /////KT CAVOK 29/22 Q1009

2010/08/09 20:50
LGRP 092050Z 24009KT 9999 FEW018 28/24 Q1004 NOSIG

2010/08/09 20:50
LGSA 092050Z 31004KT 9999 FEW020 25/23 Q1009

2010/08/09 20:50
LGSR 092050Z 31010KT CAVOK 27/19 Q1007 NOSIG

2010/08/09 20:50
LGSR 092050Z 31010KT CAVOK 27/19 Q1007 NOSIG BLU

2010/08/09 20:50
LGTS 092050Z 35006KT CAVOK 29/14 Q1011 NOSIG

2010/08/09 20:50
LGRX 092050Z 00000KT CAVOK 24/20 Q1009 NOSIG

2010/08/09 20:50
LGRX 092050Z 00000KT CAVOK 24/20 Q1009 NOSIG BLU

2010/08/09 20:49
MMGL 092049Z 10007KT 12SM BKN030TCU 28/18 A3006 RMK SLP040 57016 900 8/200 S

2010/08/09 20:47
MMPR 092047Z 24010KT 15SM SCT020CB SCT230 32/26 A2980 RMK SLP073 57025 954 8/302

2010/08/09 20:49
MMZC 092049Z 06010KT 10SM FEW025 27/10 A3021 RMK 8/100

2010/08/09 20:45
MMZO 092045Z 12012KT 12SM SCT020 SCT100 BKN250 32/26 A2980 RMK 8/136 CBS DSNT N

2010/08/09 20:55
EHAM 092055Z 13007KT CAVOK 18/13 Q1014 NOSIG

2010/08/09 20:55
EHBK 092055Z AUTO 15004KT 9999NDV NSC 16/11 Q1016

2010/08/09 20:55
EHGG 092055Z AUTO 12004KT 9999NDV NCD 15/14 Q1015

2010/08/09 20:55
EHKD 092055Z AUTO 14007KT 9999NDV NCD 17/13 Q1014 BLU BLU NOSIG

2010/08/09 20:55
EHRD 092055Z 16006KT 110V180 9999 FEW040 19/11 Q1014 NOSIG

2010/08/09 20:49
MMGL 092049Z 10007KT 12SM BKN030TCU 28/18 A3006 RMK SLP040 57016 900 8/200 S

2010/08/09 21:00
SLLP 092100Z 10011KT 070V130 9999 SKC 14/M07 Q1036

2010/08/09 21:00
SLVR 092100Z 16004KT 8000 SKC 25/10 Q1015

2010/08/09 21:00
SLCB 092100Z 00000KT 9999 SKC 25/01 Q1021

2010/08/09 21:00
SBCG 092100Z 30002KT CAVOK 29/04 Q1016

2010/08/09 20:50
EGPC 092050Z AUTO 32006KT 9999NDV -RA FEW023/// SCT031/// 11/11 Q1005

2010/08/09 20:50
EGPC 092050Z AUTO 32006KT 9999NDV -RA FEW023/// SCT031/// 11/11 Q1005

2010/08/09 20:50
EGPL 092050Z AUTO 17005KT 9999NDV NCD 11/10 Q1005

2010/08/09 20:50
EGPO 092050Z AUTO 21004KT 9999NDV FEW026/// SCT035/// 12/09 Q1005

2010/08/09 20:50
EGLL 092050Z 22011KT 9999 FEW016 SCT047 18/14 Q1013 TEMPO BKN014

2010/08/09 20:45
KMMU 092045Z 26010G15KT 8SM SCT150 33/17 A2994

2010/08/09 20:45
KSCH 092045Z 30007KT 10SM SCT090 32/17 A2990

2010/08/09 20:50
LGPZ 092050Z 24004KT 9999 FEW015 25/22 Q1011 NOSIG

2010/08/09 20:50
LGHI 092050Z 35010KT CAVOK 31/20 Q1008

2010/08/09 20:50
LGAL 092050Z 03011KT CAVOK 29/19 Q1010

2010/08/09 20:50
LGEL 092050Z 33006KT CAVOK 29/17 Q1009

2010/08/09 20:50
LGKV 092050Z 06005KT 9999 FEW030 26/21 Q1009

2010/08/09 20:50
LGMT 092050Z /////KT CAVOK 29/22 Q1009

2010/08/09 20:50
LGRX 092050Z 00000KT CAVOK 24/20 Q1009 NOSIG

2010/08/09 20:50
LGSR 092050Z 31010KT CAVOK 27/19 Q1007 NOSIG

2010/08/09 21:00
UBBN 092100Z 12008KT 9999 BKN100 28/08 Q1009 R14R/CLRD60 NOSIG RMK G/O QFE682

2010/08/09 21:00
OPKC 092100Z 29006KT 7000 SCT020 BKN100 27/25 Q.1001 NOSIG

2010/08/09 20:55
OPLA 092055Z 00000KT 4000 FU FEW100 30/28 Q1001 NOSIG

2010/08/09 21:00
OPNH 092100Z 00000KTS 4000 HZ SCT035 SCT100 28/25 1000

2010/08/09 21:00
OPPS 092100Z NW-06KTS 4000 BR FEW040 BKN100 28/27 Q1002.7

2010/08/09 20:50
EGPA 092050Z AUTO 00000KT 9999NDV BKN003/// 14/14 Q1005

2010/08/09 20:50
EGPC 092050Z AUTO 32006KT 9999NDV -RA FEW023/// SCT031/// 11/11 Q1005

2010/08/09 20:50
EGPL 092050Z AUTO 17005KT 9999NDV NCD 11/10 Q1005

2010/08/09 20:50
EGPM 092050Z AUTO 10007KT 9999NDV BKN012/// 13/12 Q1008

2010/08/09 20:50
EGPO 092050Z AUTO 21004KT 9999NDV FEW026/// SCT035/// 12/09 Q1005

2010/08/09 20:50
EGNH 092050Z 23005KT 9999 FEW012 SCT040 15/13 Q1009

2010/08/09 20:50
EGNJ 092050Z AUTO 20010KT 9999NDV SCT027/// BKN032/// 20/15 Q1010

2010/08/09 20:50
EGPE 092050Z AUTO 22004KT 9999NDV NCD 12/10 Q1006

2010/08/09 21:00
FOOL 092100Z 17005KT 140V200 8000 SCT010 OVC033 25/23 Q1015 NOSIG

2010/08/09 20:55
EHAK 092055Z AUTO 18019KT 9999NDV 17/15 Q1011

2010/08/09 20:55
EHDV 092055Z AUTO 17021KT 9999NDV NCD 17/15 Q1011

2010/08/09 20:55
EHFD 092055Z AUTO 18021KT 9999NDV NCD 18/14 Q1013

2010/08/09 20:55
EHFZ 092055Z AUTO 19025KT 9999NDV ///////// 18/15 Q1012

2010/08/09 20:55
EHJA 092055Z AUTO 16020KT 9999NDV NCD 17/15 Q1012

2010/08/09 20:55
EHKV 092055Z AUTO 19017KT 9999NDV 17/15 Q1013

2010/08/09 20:55
EHMA 092055Z AUTO 13012KT 9999NDV ///////// 19/14 Q1015

2010/08/09 20:55
EHMG 092055Z AUTO 17017KT 9999NDV NCD 19/15 Q1014

2010/08/09 20:55
EHPG 092055Z AUTO 21018KT 160V290 9999NDV NCD 18/14 Q1013

2010/08/09 20:55
EHQE 092055Z AUTO 18009KT 9999NDV ///////// 18/15 Q1014

2010/08/09 20:45
KMMU 092045Z 26010G15KT 8SM SCT150 33/17 A2994

2010/08/09 20:45
KSCH 092045Z 30007KT 10SM SCT090 32/17 A2990

2010/08/09 21:00
LZKC 092100Z AUTO VRB02KT //// ////// 18/17 Q1016

2010/08/09 21:00
LZLU 092100Z AUTO VRB01KT //// ////// 17/15 Q1017

2010/08/09 21:00
LZNI 092100Z AUTO 00000KT 9999 ////// 17/15 Q1017

2010/08/09 21:00
LZPE 092100Z AUTO 02004KT 350V050 9999 ////// 15/14 Q1018

2010/08/09 20:53
KRYT 092053Z AUTO 24004KT 10SM FEW070 34/15 A2997 RMK AO2 SLP131 T03440150 56013 $ 

2010/08/09 21:00
TFFR 092100Z 11005KT 080V140 9999 FEW015CB SCT026 29/24 Q1013 TEMPO 4000 SHRA

2010/08/09 21:00
UTTT 092100Z 09003MPS CAVOK 23/07 Q1006 R08R/CLRD70 TEMPO 03005G10MPS

2010/08/09 21:00
GQNN 092100Z 27008KT 240V300 8000 NSC 27/21 Q1012 NOSIG

2010/08/09 21:00
AYMO 092100Z AUTO 28003KT //// // ////// 27/24 Q1010

2010/08/09 21:00
AYPY 092100Z 00000KT 9999 SCT040 BKN140 25/24 Q1008 RMKS. HAZE

2010/08/09 20:56
KCBM 092056Z AUTO 07011KT 3SM TSRA BR OVC050 26/24 A2993 RMK AO2 SLP136 $

2010/08/09 20:58
CWOB 092058Z AUTO ///// 0SM CLR 04/ A2973

2010/08/09 20:55
CYKJ 092055Z AUTO 08003KT 6SM -RA BKN006 OVC012 16/15 A2980 RMK SLP107 DENSITY ALT 2300FT PCPN 1.2MM PAST HR

2010/08/09 20:57
CYKJ 092057Z AUTO 08003KT 6SM -RA SCT006 OVC012 16/15 A2980 RMK SLP107 DENSITY ALT 2300FT PCPN 1.2MM PAST HR

2010/08/09 20:55
CYMH 092055Z AUTO 22015G22KT 9SM FEW032 FEW042 SCT076 19/15 A2970

2010/08/09 20:58
CYTZ 092058Z AUTO 29019G27KT 2 1/2SM RA VCTS 22/20 A2993 RMK PRESRR SLP137 DENSITY ALT 1100FT PCPN 15.2MM PAST HR MAX WND 23029KT AT 2024Z LTNG DIST NE E SE CLD MISG RVR MISG

2010/08/09 20:54
CYYZ 092054Z 02015KT 7SM -SHRA FEW020 BKN030 OVC045 22/ RETSRA RMK SF1SC5SC3 WSHFT 2054Z

2010/08/09 20:55
CZUM 092055Z AUTO 25004KT 9SM BKN032 15/11 A2964

2010/08/09 20:56
EYVI 092056Z VRB01KT 0150 R20/0375N FG NSC 15/15 Q1017 NOSIG

2010/08/09 20:56
KCBM 092056Z AUTO 07011KT 3SM TSRA BR OVC050 26/24 A2993 RMK AO2 SLP136 $

2010/08/09 20:57
YPLM 092057Z AUTO 04007KT 9999NDV // NCD 17/15 Q1017

2010/08/09 20:56
KBIH 092056Z AUTO 18014G24KT 10SM CLR 32/M06 A2994 RMK AO2 PK WND 16026/2039 SLP087 T03221061 56016 TSNO 

2010/08/09 20:55
KEGI 092055Z 12009KT 080V140 10SM FEW040 35/20 A2992 RMK AO2A SLP130 T03530203 58020 $

2010/08/09 20:56
KNGP 092056Z 12009KT 10SM FEW035TCU SCT045 SCT250 32/27 A2988 RMK AO2 SLP119 TCU DSNT SE T03220267 58017

2010/08/09 20:56
KNID 092056Z 16005KT 10SM CLR 34/M03 A2988 RMK AO2 SLP095 T03391033 58015 $

2010/08/09 20:56
KNLC 092056Z VRB05KT 10SM CLR 31/13 A2984 RMK AO2 SLP105 RH/31 T03110133 58014

2010/08/09 20:56
KNMM 092056Z 16005KT 10SM FEW045 SCT060 34/23 A2993 RMK AO2 SLP140 T2 SET T03440228 56021 $

2010/08/09 20:56
KNPA 092056Z 16011KT 8SM FEW035TCU SCT140 SCT250 33/25 A2992 RMK AO2 SLP134 TCU DSNT NE-E T2 SET T03280250 56018

2010/08/09 20:56
KNQI 092056Z 11013KT 10SM SCT047CB SCT070 BKN250 36/24 A2987 RMK AO2 SLP111 CB DSNT SW T03560237 56017

2010/08/09 20:56
KNSE 092056Z 26006KT 8SM SCT042CB SCT070 BKN100 33/23 A2992 RMK AO2 SLP115 CB SE-S MOV SW T2 SET T03330233 56021 $

2010/08/09 20:56
KNTU 092056Z 13006KT 10SM FEW035 SCT200 29/23 A3001 RMK AO2 SLP165 T02890233 58005 $

2010/08/09 20:56
KNUW 092056Z 25004KT 3SM -RA BR SCT005 BKN016 OVC030 14/12 A2999 RMK AO2 RAB02 SLP160 P0004 60004 T01380121 51002 $

2010/08/09 20:56
KNXP 092056Z 11009G18KT 7SM CLR 35/M04 A2993 RMK AO2 SLP097 T03501044 58017 $

2010/08/09 20:56
KNXX 092056Z 23008KT 9SM FEW050 BKN200 32/17 A2997 RMK AO2 SLP152 T03170172 56016 $

2010/08/09 20:52
KNZY 092052Z 27008KT 10SM FEW019 24/14 A2992 RMK AO2 SLP130 T02440139 57006 $

2010/08/09 20:55
KPSM 092055Z 23008KT 10SM SCT060 BKN100 33/18 A2986 RMK AO2A SLP113 T03270182 56015

2010/08/09 20:57
KWRB 092057Z VRB06KT 10SM FEW050 36/22 A2996 RMK SLP13856014

2010/08/09 20:55
KEGI 092055Z 12009KT 080V140 10SM FEW040 35/20 A2992 RMK AO2A SLP130 T03530203 58020 $

2010/08/09 20:55
KGUS 092055Z VRB06KT 10SM FEW035 SCT050 BKN250 32/24 A2994 RMK AO2A SLP133 T03160245 58009

2010/08/09 20:55
KHOP 092055Z AUTO 21008KT 10SM CLR 35/23 A2993 RMK AO2 SLP128 T03510231 56017

2010/08/09 20:55
KMUO 092055Z 03007KT 10SM VCSH FEW030 SCT090 SCT180 29/06 A2986 RMK AO2A CB DSNT W AND NNE MOV NE SLP080 60000 T02930062 58013

2010/08/09 20:56
KNBC 092056Z 09009KT 7SM SCT030 BKN050 BKN200 31/24 A2996 RMK AO2 SLP146 T03110244 58008 $

2010/08/09 20:56
KNCA 092056Z 15009KT 10SM 31/24 A3001 RMK AO2 SLP163 60023 T03060244 56008 $

2010/08/09 20:56
KNLC 092056Z VRB05KT 10SM CLR 31/13 A2984 RMK AO2 SLP105 RH/31 T03110133 58014

2010/08/09 20:56
KNMM 092056Z 16005KT 10SM FEW045 SCT060 34/23 A2993 RMK AO2 SLP140 T2 SET T03440228 56021 $

2010/08/09 20:56
KNPA 092056Z 16011KT 8SM FEW035TCU SCT140 SCT250 33/25 A2992 RMK AO2 SLP134 TCU DSNT NE-E T2 SET T03280250 56018

2010/08/09 20:56
KNRS 092056Z 25009KT 10SM FEW017 20/13 A2994 RMK AO2 SLP137 T02000133 58004

2010/08/09 20:56
KNSE 092056Z 26006KT 8SM SCT042CB SCT070 BKN100 33/23 A2992 RMK AO2 SLP115 CB SE-S MOV SW T2 SET T03330233 56021 $

2010/08/09 20:55
KPSM 092055Z 23008KT 10SM SCT060 BKN100 33/18 A2986 RMK AO2A SLP113 T03270182 56015

2010/08/09 20:57
KWRB 092057Z VRB06KT 10SM FEW050 36/22 A2996 RMK SLP13856014

2010/08/09 21:00
MPDA 092100Z 18006KT 9999 SCT025TCU SCT120 28/24 Q1009

2010/08/09 21:00
ORER 092100Z 00000KT CAVOK 30/00 Q1003

2010/08/09 20:56
PASY 092056Z 27005KT 8SM SCT001 OVC005 09/09 A2986 RMK AO2 SLP112 6//// T00890089 53006 PNO $

2010/08/09 20:54
KACY 092054Z 17012KT 10SM CLR 31/17 A3000 RMK AO2 SLP156 T03060172 56010

2010/08/09 20:56
KCHS 092056Z 12009G16KT 10SM SCT028 SCT033 BKN043 31/25 A2998 RMK AO2 SLP151 60014 T03110250 56003

2010/08/09 20:55
KCOF 092055Z 13012KT 10SM CLR 30/24 A2991 RMK AO2A SLP129 T02970237 56008

2010/08/09 20:55
KGSB 092055Z 00000KT 10SM CLR 33/14 A2999 RMK AO2A SLP156 T03350145 56009

2010/08/09 20:55
KLFI 092055Z 12007KT 10SM CLR 30/18 A3001 RMK AO2A SLP164 T03050181 58004

2010/08/09 20:55
KMCF 092055Z AUTO 32005KT 10SM SCT045 SCT055 28/26 A2988 RMK AO2 DZE1956 SLP120 60063 T02820265 56010

2010/08/09 20:56
KNBC 092056Z 09009KT 7SM SCT030 BKN050 BKN200 31/24 A2996 RMK AO2 SLP146 T03110244 58008 $

2010/08/09 20:55
KNBG 092055Z 00000KT 9SM FEW006 SCT080 BKN110 OVC250 25/23 A2996 RMK AO2 SLP145 T1 SET P0001 60035 T02500233 58002 $

2010/08/09 20:56
KNCA 092056Z 15009KT 10SM 31/24 A3001 RMK AO2 SLP163 60023 T03060244 56008 $

2010/08/09 20:56
KNGP 092056Z 12009KT 10SM FEW035TCU SCT045 SCT250 32/27 A2988 RMK AO2 SLP119 TCU DSNT SE T03220267 58017

2010/08/09 20:56
KNPA 092056Z 16011KT 8SM FEW035TCU SCT140 SCT250 33/25 A2992 RMK AO2 SLP134 TCU DSNT NE-E T2 SET T03280250 56018

2010/08/09 20:56
KNTU 092056Z 13006KT 10SM FEW035 SCT200 29/23 A3001 RMK AO2 SLP165 T02890233 58005 $

2010/08/09 20:55
KPAM 092055Z AUTO VRB05KT 10SM FEW190 35/22 A2991 RMK AO2 CLDS LWR RWY13 SLP129 T03470223 58016 $

2010/08/09 21:00
MPHO 092100Z 18006KT 9999 FEW016 SCT030 BKN200 Q1011

2010/08/09 20:56
MUGM 092056Z 13011KT 9999 FEW025CB BKN250 31/24 A2990 RMK SLP124 CB DSNT NW T03060244 55012

2010/08/09 20:56
K79J 092056Z 12004KT 10SM FEW060 36/20 A2992 RMK AO2 SLP126 T03610200 58019 PNO $

2010/08/09 20:55
KCVS 092055Z 21010KT 10SM SCT080 SCT150 30/13 A3004 RMK AO2A SLP120 T03020130 58012 $

2010/08/09 20:55
KFTK 092055Z 15004KT 10SM FEW060 35/23 A2994 RMK AO2A SLP131 T03540229 56014

2010/08/09 20:55
KGUS 092055Z VRB06KT 10SM FEW035 SCT050 BKN250 32/24 A2994 RMK AO2A SLP133 T03160245 58009

2010/08/09 20:55
KHOP 092055Z AUTO 21008KT 10SM CLR 35/23 A2993 RMK AO2 SLP128 T03510231 56017

2010/08/09 20:55
KLSV 092055Z AUTO 00000KT 10SM CLR 34/04 A2988 RMK AO2 SLP102 T03420038 58018 PWINO

2010/08/09 20:55
KMUO 092055Z 03007KT 10SM VCSH FEW030 SCT090 SCT180 29/06 A2986 RMK AO2A CB DSNT W AND NNE MOV NE SLP080 60000 T02930062 58013

2010/08/09 20:55
KMXF 092055Z 15010G18KT 100V190 10SM FEW060 37/20 A2991 RMK AO2A SLP129 T03740198 58018

2010/08/09 20:56
KNBC 092056Z 09009KT 7SM SCT030 BKN050 BKN200 31/24 A2996 RMK AO2 SLP146 T03110244 58008 $

2010/08/09 20:55
KNBG 092055Z 00000KT 9SM FEW006 SCT080 BKN110 OVC250 25/23 A2996 RMK AO2 SLP145 T1 SET P0001 60035 T02500233 58002 $

2010/08/09 20:56
KNCA 092056Z 15009KT 10SM 31/24 A3001 RMK AO2 SLP163 60023 T03060244 56008 $

2010/08/09 20:56
KNJK 092056Z VRB03KT 10SM CLR 37/09 A2975 RMK AO2 SLP089 T03670094 58017

2010/08/09 20:56
KNRS 092056Z 25009KT 10SM FEW017 20/13 A2994 RMK AO2 SLP137 T02000133 58004

2010/08/09 20:56
KNUQ 092056Z 34009KT 10SM CLR 22/13 A2990 RMK AO2 SLP128 T02170128 58008

2010/08/09 20:56
PPIZ 092056Z AUTO 08023G34KT 10SM SCT017 07/02 A2968 RMK AO2 TSNO 56006 T00660016 PK WND 07034/2049 SLP055 $

2010/08/09 21:00
GOOY 092100Z 27004KT 240V310 9999 SCT013 27/22 Q1012 NOSIG

2010/08/09 21:00
YSCB 092100Z 08006KT 4000 RA FEW009 SCT023 OVC055 08/07 Q1018

2010/08/09 21:00
YSCB 092100Z 08006KT 4000 RA FEW009 SCT023 OVC055 08/07 Q1018

2010/08/09 20:55
TXKF 092055Z 19011KT 9999 FEW018 SCT180 BKN300 29/23 Q1021  

2010/08/09 20:59
KNGU 092059Z 09008KT 070V130 10SM FEW045 SCT250 32/20 A3002 RMK AO2 SLP165 T03170200 58005 

2010/08/09 20:55
K4M9 092055Z AUTO 16007KT 10SM -RA CLR 36/25 A2988 RMK AO2 P0002

2010/08/09 20:55
KANE 092055Z 10005KT 12SM SKC 32/22 A2991

2010/08/09 20:55
KEFT 092055Z AUTO 03007KT 10SM CLR 30/23 A2992 RMK AO2 T03030229

2010/08/09 20:51
KEGV 092051Z AUTO 32005KT 10SM CLR 28/17 A2994 RMK AO2 T02820169

2010/08/09 20:52
KETB 092052Z AUTO 28004KT 10SM SCT028 29/21 A2990 RMK AO2 T02850208

2010/08/09 20:52
KGLW 092052Z AUTO 21004KT 10SM CLR 35/21 A2994 RMK AO2 T03520214

2010/08/09 20:55
KLUM 092055Z AUTO 00000KT 10SM CLR 32/20 A2991 RMK AO2

2010/08/09 20:55
KMAN 092055Z AUTO 17005KT 10SM CLR 29/08 A2983 RMK AO1

2010/08/09 20:55
KMCJ 092055Z AUTO 14010G17KT 10SM SCT046 SCT050 BKN070 34/24 A2988 RMK AO1

2010/08/09 20:55
KMDZ 092055Z AUTO 32007KT 10SM CLR 31/19 A2994 RMK AO2

2010/08/09 20:55
KMRJ 092055Z AUTO 00000KT 10SM CLR 31/22 A2992 RMK AO2 60001 T03110221

2010/08/09 20:55
KOEO 092055Z AUTO 35003KT 10SM CLR 32/19 A2993 RMK AO2

2010/08/09 20:55
KPBH 092055Z AUTO 34004KT 10SM CLR 32/16 A2995 RMK AO2

2010/08/09 20:55
KPCZ 092055Z AUTO 00000KT 10SM SCT033 SCT041 SCT047 32/22 A2989 RMK AO2 T03210221

2010/08/09 20:52
KPDC 092052Z AUTO 35004KT 10SM SCT035 33/25 A2988 RMK AO2 T03300246

2010/08/09 20:55
KRCX 092055Z AUTO 34006KT 10SM SCT050 31/19 A2995 RMK AO2 T03140190

2010/08/09 20:56
KRNH 092056Z AUTO 00000KT 10SM CLR 32/19 A2992 RMK AO2 T03150194

2010/08/09 20:55
KSNC 092055Z AUTO 20009KT 10SM CLR 28/22 A2996 RMK AO2

2010/08/09 20:52
KSPS 092052Z COR 20011KT 10SM SCT080 SCT095 BKN250 39/18 A2985 RMK AO2 LTG DSNT E SLP090 P0003 60011 T03890178 58019

2010/08/09 20:56
K4I3 092056Z AUTO 17004KT 10SM CLR 31/18 A3000 RMK AO2

2010/08/09 20:55
KACB 092055Z AUTO 31005KT 7SM CLR 29/23 A2987 RMK AO2

2010/08/09 20:58
KACQ 092058Z AUTO 00000KT 10SM SCT038 30/22 A2994 RMK AO2

2010/08/09 20:56
KADC 092056Z AUTO 00000KT 10SM CLR 31/18 A2993 RMK AO2

2010/08/09 20:54
KAMN 092054Z AUTO 29007KT 10SM SCT055 26/23 A2990 RMK AO2

2010/08/09 20:55
KAUM 092055Z AUTO 00000KT 10SM SCT048 30/23 A2991 RMK AO2

2010/08/09 21:05
KBAX 092105Z AUTO 23007KT 10SM BKN090 BKN110 24/21 A2992 RMK AO2

2010/08/09 20:55
KBDH 092055Z AUTO 06006KT 10SM CLR 32/21 A2992 RMK AO2

2010/08/09 20:54
KCAD 092054Z AUTO 28007KT 10SM SCT031 SCT037 29/22 A2991 RMK AO2

2010/08/09 20:56
KCAE 092056Z 13011KT 10SM SCT065 SCT090 BKN210 34/21 A2998 RMK AO2 SLP148 T03390211 56009

2010/08/09 20:55
KCBG 092055Z AUTO 00000KT 10SM CLR 32/24 A2989 RMK AO2

2010/08/09 20:54
KCDA 092054Z AUTO 25004KT 10SM CLR 26/17 A2993 RMK AO2

2010/08/09 21:03
KCFE 092103Z AUTO 08005KT 10SM CLR 33/20 A2991 RMK AO2 T03280198

2010/08/09 20:55
KCFS 092055Z AUTO 20005KT 10SM BKN048 OVC060 24/21 A2992 RMK AO2

2010/08/09 20:55
KCKC 092055Z AUTO 29006KT 10SM CLR 29/14 A2994 RMK AO2

2010/08/09 20:55
KCKN 092055Z AUTO 21012KT 10SM CLR 33/19 A2986 RMK AO2

2010/08/09 20:54
KCNB 092054Z AUTO 09006KT 7SM CLR 31/21 A2991 RMK AO2 T03050208

2010/08/09 20:56
KCOQ 092056Z AUTO 31004KT 10SM CLR 32/14 A2993 RMK AO2

2010/08/09 20:57
KCQM 092057Z AUTO 27003KT 10SM CLR 31/19 A2993 RMK AO2

2010/08/09 20:55
KCVX 092055Z AUTO 27008KT 5SM HZ CLR 27/21 A2990 RMK AO2

2010/08/09 20:57
KDRM 092057Z AUTO 12003KT 10SM SCT023 26/20 A2989 RMK AO2

2010/08/09 20:54
KDTL 092054Z AUTO 20005KT 10SM CLR 31/16 A2994 RMK AO2

2010/08/09 20:54
KDUH 092054Z AUTO 00000KT 10SM -RA SCT046 29/20 A2994 RMK AO2

2010/08/09 20:55
KERY 092055Z AUTO 24004KT 10SM CLR 27/23 A2989 RMK AO2

2010/08/09 20:55
KFFX 092055Z AUTO 10SM BKN020 BKN027 27/22 A2991 RMK AO2

2010/08/09 20:54
KFKS 092054Z AUTO 24006KT 10SM CLR 26/20 A2990 RMK AO2

2010/08/09 20:56
KFPK 092056Z AUTO 22006KT 10SM SCT024 27/22 A2993 RMK AO2

2010/08/09 20:56
KFSD 092056Z 11008KT 10SM SCT030 30/23 A2990 RMK AO2 SLP114 SCT ABV 120 T03000233 58005

2010/08/09 20:54
KFSE 092054Z AUTO 20011G14KT 10SM CLR 30/20 A2990 RMK AO2

2010/08/09 20:55
KGOV 092055Z AUTO 12004KT 10SM SCT016 BKN023 OVC028 24/20 A2990 RMK AO2

2010/08/09 20:55
KHAF 092055Z AUTO 18005KT 10SM OVC008 14/11 A2996 RMK AO2

2010/08/09 20:55
KHAI 092055Z AUTO 18004KT 7SM SCT033 28/23 A2993 RMK AO2

2010/08/09 20:54
KHYX 092054Z AUTO 00000KT 4SM DZ SCT023 BKN038 OVC050 23/21 A2991 RMK AO2

2010/08/09 20:55
KIRS 092055Z AUTO 22005KT 7SM CLR 28/23 A2993 RMK AO2

2010/08/09 20:55
KISQ 092055Z AUTO 15004KT 7SM BKN035 BKN041 24/22 A2990 RMK AO2

2010/08/09 20:55
KJQF 092055Z 17004KT 7SM SCT049 SCT065 34/19 A3001

2010/08/09 20:55
KJYG 092055Z AUTO 00000KT 10SM CLR 31/27 A2992 RMK AO2

2010/08/09 20:55
KJYM 092055Z AUTO 02003KT 7SM BKN043 26/22 A2996 RMK AO2

2010/08/09 20:55
KLDM 092055Z AUTO 24010KT 10SM SCT011 27/23 A2992 RMK AO2

2010/08/09 20:56
KLWA 092056Z AUTO 26008KT 10SM SCT031 29/22 A2992 RMK AO2

2010/08/09 20:55
KMCD 092055Z AUTO 00000KT 10SM CLR 23/19 A2990 RMK AO2

2010/08/09 21:01
PADM 092101Z AUTO 16019KT 3SM -RA BR FEW006 BKN016 OVC065 12/09 A2939 RMK AO2 TSNO 50001 60005 T01160094 BKN V SCT P0000 SLP942 $

2010/08/09 20:58
PADU 092058Z 22003KT 10SM SCT017 BKN025 11/08 A2954 RMK AO2 SLP008 MH T01110083 51010

2010/08/09 20:58
PAEL 092058Z 00000KT 15SM FEW010 OVC025 11/11 A2996 RMK SEA 0 SWELL 1 SW NOSPECI

2010/08/09 20:58
PAGA 092058Z AUTO 14008KT 10SM -RA BKN023 OVC028 14/11 A2948 RMK AO2 RAE03B54 SLPNO P0000 60000 T01440111 53006

2010/08/09 20:56
PAJZ 092056Z AUTO 17013KT 10SM BKN008 BKN020 OVC035 12/10 A2960 RMK AO2 PWINO TSNO 51011 T01220100 CIG 005V014 SLP011 $

2010/08/09 20:56
PAKI 092056Z AUTO 18021KT 2SM +RA BR OVC008 09/09 A2927 RMK AO2 TSNO 53011 60000 T00940094 CIG 005V012 P0000 SLP912 $

2010/08/09 20:56
PALG 092056Z AUTO 00000KT 10SM SCT039 OVC048 13/12 A2939 RMK AO2 TSNO 53005 60000 T01270116 RAB32E46 P0000 SLP955 $

2010/08/09 20:58
PATE 092058Z AUTO 24004KT 10SM FEW007 OVC014 13/11 A2935 RMK AO2 SLP950 T01280111 51006

2010/08/09 20:55
KMGN 092055Z AUTO 25005KT 7SM CLR 27/21 A2988 RMK AO2

2010/08/09 20:55
KMOP 092055Z AUTO 25011G15KT 10SM BKN020 BKN030 27/23 A2989 RMK AO2

2010/08/09 20:56
KNTU 092056Z 13006KT 10SM FEW035 SCT200 29/23 A3001 RMK AO2 SLP165 T02890233 58005 $

2010/08/09 20:55
KOEB 092055Z AUTO 14007KT 7SM CLR 26/23 A2995 RMK AO2

2010/08/09 20:50
KOMN 092050Z 11012KT 10SM SCT020 31/23 A2993

2010/08/09 20:55
KOSC 092055Z AUTO 20007KT 7SM SCT020 SCT050 SCT065 26/23 A2989 RMK AO2

2010/08/09 20:55
KOZW 092055Z AUTO 23007KT 10SM OVC085 25/21 A2994 RMK AO2

2010/08/09 20:55
KPHN 092055Z AUTO 00000KT 10SM -RA SCT065 SCT080 SCT100 25/20 A2994 RMK AO2

2010/08/09 20:54
KPZQ 092054Z AUTO 08006KT 10SM SCT030 SCT036 24/20 A2990 RMK AO2

2010/08/09 20:55
KRGK 092055Z AUTO 00000KT 10SM CLR 33/21 A2988 RMK AO2

2010/08/09 20:55
KRMY 092055Z AUTO 19004KT 10SM BKN065 26/22 A2994 RMK AO2

2010/08/09 20:55
KRNP 092055Z AUTO 21009KT 10SM BKN060 BKN120 27/21 A2991 RMK AO2

2010/08/09 20:55
KRQB 092055Z AUTO 27007G14KT 10SM SCT024 SCT031 28/21 A2992 RMK AO2

2010/08/09 20:54
KSBN 092054Z 23006KT 8SM CLR 29/22 A2994 RMK AO2 SLP132 60000 T02940222 58009

2010/08/09 20:55
KSJX 092055Z AUTO 28005KT 7SM BKN017 BKN027 26/21 A2989 RMK AO2

2010/08/09 20:55
KSLH 092055Z AUTO 06009KT 10SM CLR 24/21 A2989 RMK AO2

2010/08/09 20:53
KTTF 092053Z AUTO 02005KT 10SM CLR 27/22 A2993 RMK AO2

2010/08/09 20:50
KUKT 092050Z AUTO 22009KT 10SM FEW060 33/18 A2997 RMK AO1

2010/08/09 20:54
KVLL 092054Z AUTO 20004KT 7SM RA SCT025 SCT039 OVC090 24/21 A2996 RMK AO2

2010/08/09 20:55
KY70 092055Z AUTO 23012KT 10SM SCT021 SCT029 BKN055 29/22 A2991 RMK AO2 T02910218

2010/08/09 21:00
SBGO 092100Z 13006KT CAVOK 31/08 Q1017 

2010/08/09 21:00
SBNF 092100Z 14008KT 9999 FEW025 BKN050 17/12 Q1023

2010/08/09 21:00
SBSN 092100Z 10007KT 9999 FEW025 31/23 Q1010

2010/08/09 21:00
SBLO 092100Z 27004KT CAVOK 27/07 Q1018

2010/08/09 21:00
YSCB 092100Z 08006KT 4000 RA FEW009 SCT023 OVC055 08/07 Q1018

2010/08/09 21:00
SBCG 092100Z 30002KT CAVOK 29/04 Q1016

2010/08/09 21:00
SBCZ 092100Z 20003KT 5000 HZ FEW040 33/20 Q1012

2010/08/09 21:00
SBCT 092100Z 09010KT 5000 BR BKN004 OVC007 09/08 Q1024

2010/08/09 21:00
SBRF 092100Z 10010KT 8000 VCSH SCT007 BKN015 BKN070 23/21 Q1016

2010/08/09 21:00
PAPO 092100Z 36011KT 10SM CLR 13/09 A2949 RMK ASOS VIA PHONE

2010/08/09 21:00
LBSF 092100Z 27003MPS CAVOK 21/16 Q1017 NOSIG

2010/08/09 21:00
LBWN 092100Z 28003MPS 210V350 CAVOK 25/21 Q1011 NOSIG

2010/08/09 21:00
LBBG 092100Z 36007MPS CAVOK 27/20 Q1010 NOSIG

2010/08/09 21:00
LBPD 092100Z 00000MPS CAVOK 24/20 Q1013 NOSIG

2010/08/09 21:00
LBGO 092100Z VRB01MPS CAVOK 22/20 Q1013 NOSIG

2010/08/09 20:50
EGPI 092050Z AUTO 14006KT 9999NDV // NSC 11/11 Q1006

2010/08/09 21:00
LDSP 092100Z 30008KT 260V340 CAVOK 27/12 Q1014 

2010/08/09 21:00
LDPL 092100Z 02004KT CAVOK 20/17 Q1015 

2010/08/09 21:00
LDDU 092100Z 01013KT 330V060 CAVOK 27/12 Q1013 

2010/08/09 21:00
LDZA 092100Z 03005KT CAVOK 20/16 Q1017 NOSIG 

2010/08/09 21:00
LDZD 092100Z 12001KT CAVOK 20/16 Q1014 

2010/08/09 21:00
LDOS 092100Z 32003KT CAVOK 20/17 Q1017

2010/08/09 21:00
DIAP 092100Z VRB03KT 7000 SCT011 SCT080 25/23 Q1015 NOSIG

2010/08/09 20:50
EGEC 092050Z AUTO 14005KT 110V190 9999NDV // FEW040/// 12/10 Q1007

2010/08/09 21:00
OPNH 092100Z 00000KTS 4000 FU SCT035 SCT100 28/25 1000

2010/08/09 20:50
EGWU 092050Z 23011KT 9999 SCT019 BKN050 BKN090 18/14 Q1013 NOSIG

2010/08/09 21:00
LUKK 092100Z 32006KT 9999 SCT050CB 23/19 Q1012 WS RWY08 08CLRD65 NOSIG

2010/08/09 21:00
OPRN 092100Z 31004KT 4000 BR FEW035 SCT100 28/25 Q1004.0

2010/08/09 21:00
SBPK 092100Z 14004KT CAVOK 12/03 Q1025

2010/08/09 21:00
NIUE 092100Z 13010KT 50KM SCT018 26/23 Q1019

2010/08/09 21:00
YSRI 092100Z AUTO 00000KT 6000NDV // BKN056 BKN077 OVC087 08/08 Q1019

2010/08/09 21:00
YSRI 092100Z AUTO 00000KT 6000NDV // BKN056 BKN077 OVC087 08/08 Q1019

2010/08/09 21:00
SBPP 092100Z 21006KT CAVOK 23/13 Q1019

2010/08/09 21:00
SBKP 092100Z 12015KT 4500 HZ NSC 18/12 Q1021

2010/08/09 20:56
KMEH 092056Z AUTO 00000KT 10SM CLR 21/06 A2993 RMK AO2 SLP126 T02060056 55003 TSNO 

2010/08/09 21:00
NWWW 092100Z AUTO VRB03KT 9999NDV NCD 19/14 Q1024

2010/08/09 20:58
CYKL 092058Z AUTO 29007KT 250V320 9SM BKN022 OVC096 14/10 A2961

2010/08/09 20:56
KD07 092056Z AUTO 15017G25KT 32/15 A2987 RMK AO2 SLP097 T03170150 58015 PWINO TSNO 

2010/08/09 20:55
EBBL 092055Z VRB01KT 9999 SCT075 14/11 Q1016 BLU

2010/08/09 20:55
EBFN 092055Z 21005KT 9999 FEW100 14/11 Q1015 BLU

2010/08/09 20:50
EGNH 092050Z 23005KT 9999 FEW012 SCT040 15/13 Q1009

2010/08/09 20:50
EGNJ 092050Z AUTO 20010KT 9999NDV SCT027/// BKN032/// 20/15 Q1010

2010/08/09 20:50
EGPA 092050Z AUTO 00000KT 9999NDV BKN003/// 14/14 Q1005

2010/08/09 20:50
EGPC 092050Z AUTO 32006KT 9999NDV -RA FEW023/// SCT031/// 11/11 Q1005

2010/08/09 20:50
EGPE 092050Z AUTO 22004KT 9999NDV NCD 12/10 Q1006

2010/08/09 20:50
EGPL 092050Z AUTO 17005KT 9999NDV NCD 11/10 Q1005

2010/08/09 20:50
EGPM 092050Z AUTO 10007KT 9999NDV BKN012/// 13/12 Q1008

2010/08/09 20:50
EGPO 092050Z AUTO 21004KT 9999NDV FEW026/// SCT035/// 12/09 Q1005

2010/08/09 20:55
EGVA 092055Z AUTO 20007KT 9999 SCT013 BKN022 BKN029 BKN039 18/17 A2988 RMK AO2 CIG 020V025 SLP118 60000 T01750166 56006 $

2010/08/09 21:00
LDPL 092100Z 02004KT CAVOK 20/17 Q1015

2010/08/09 21:00
LDSP 092100Z 30008KT 260V340 CAVOK 27/12 Q1014

2010/08/09 21:00
LDZA 092100Z 03005KT CAVOK 20/16 Q1017 NOSIG

2010/08/09 20:50
LGAL 092050Z 03011KT CAVOK 29/19 Q1010

2010/08/09 20:50
LGBL 092050Z 25005KT CAVOK 24/18 Q1010 NOSIG BLU

2010/08/09 20:50
LGEL 092050Z 33006KT CAVOK 29/17 Q1009

2010/08/09 20:50
LGHI 092050Z 35010KT CAVOK 31/20 Q1008

2010/08/09 20:50
LGIR 092050Z 29006KT 9999 FEW018 27/24 Q1008 NOSIG

2010/08/09 20:50
LGKR 092050Z 00000KT CAVOK 25/17 Q1009 NOSIG

2010/08/09 20:50
LGKV 092050Z 06005KT 9999 FEW030 26/21 Q1009

2010/08/09 20:50
LGLM 092050Z 33010KT CAVOK 27/20 Q1008

2010/08/09 20:50
LGLR 092050Z 00000KT 9999 FEW035 27/15 Q1010 NOSIG BLU

2010/08/09 20:50
LGMT 092050Z /////KT CAVOK 29/22 Q1009

2010/08/09 20:50
LGPZ 092050Z 24004KT 9999 FEW015 25/22 Q1011 NOSIG BLU

2010/08/09 20:50
LGSA 092050Z 31004KT 9999 FEW020 25/23 Q1009

2010/08/09 20:50
LGSY 092050Z VRB03KT CAVOK 27/22 Q1008 NOSIG BLU

2010/08/09 20:50
LGTS 092050Z 35006KT CAVOK 29/14 Q1011 NOSIG

2010/08/09 20:56
KHLR 092056Z AUTO 12007G15KT 10SM CLR 38/18 A2991 RMK AO2 SLP117 T03780183 56019 $

2010/08/09 20:54
PGUM 092054Z 00000KT 10SM OVC055 26/24 A2992 RMK AO2 SLP125 T02560244 53008

2010/08/09 20:55
PHHI 092055Z AUTO 08013KT 10SM OVC034 25/18 A3013 RMK AO2 SLP192 T02450176 52006 $

2010/08/09 20:56
PHNY 092056Z AUTO 00000KT 10SM OVC030 24/16 A3015 RMK AO2 TSNO 53005 T02440161 OVC V BKN SLP189 $

2010/08/09 20:55
PHSF 092055Z 28008KT 7SM FEW200 24/09 A3032 RMK SLPNO 52003

2010/08/09 20:51
PTKK 092051Z 06006KT 15SM VCSH SCT014CB BKN120 OVC280 27/25 A2987 RMK VCSH W SHRAE29 CB SE-SW-W MOV SW SLP116 60021 8/371 T02680249 52015

2010/08/09 20:55
RJTY 092055Z AUTO 28003KT 9999 OVC018 24/23 A3006 RMK AO2 CIG 016V022 SLP171 T02450231 53005

2010/08/09 20:55
RODN 092055Z 16015G23KT 9999 -RA FEW019 SCT035 BKN065 BKN090 27/26 A2974 RMK AO2A PK WND 15028/2000 CIG 016 RWY05 SLP071 P0007 60007 T02740259 52006

2010/08/09 20:50
KQEP 092050Z AUTO 15001KT 1SM BR FEW003 FEW004 SCT031 BKN060 24/22 A2986 RMK A02

2010/08/09 20:50
KQEQ 092050Z AUTO 03001KT 2SM BR BKN042 BKN095 24/22 A2979 RMK A02

2010/08/09 20:55
KQDP 092055Z AUTO RMK AO2 SLPNO $

2010/08/09 20:55
KQHA 092055Z 25003KT 9999 TS FEW050 BKN065 OVC250 31/24 A2987 RMK AO2A TS 5 NE MOV NW SLP113 55008 T03140243

2010/08/09 20:55
KQSR 092055Z 08006KT 9999 FEW007 SCT020 OVC040 16/15 A3005 RMK AO2A SLP059 WND DATA/ALSTG ESTMD 60008 57010

2010/08/09 20:55
KQTZ 092055Z VRB05KT 9999 CLR 36/06 A2953 RMK SLP994 QNH1000MB WND DATA ESTMD ALSTG/SLP ESTMD 50000

2010/08/09 21:00
KQEN 092100Z AUTO 26006KT M1/4SM FG VV001 19/17 A3044 RMK A02

2010/08/09 21:00
KQEY 092100Z AUTO 23002KT 7SM FEW004 SCT100 BKN140 25/23 A2961 RMK A02

2010/08/09 21:10
KQEV 092110Z AUTO 09001KT 2SM RA BR BKN016 25/23 A2980 RMK A02

2010/08/09 21:00
OEDF 092100Z 18005KT 8000 SKC 33/22 Q0997 NOSIG

2010/08/09 21:00
OEDR 092100Z 00000KT CAVOK 32/27 Q0995 NOSIG

2010/08/09 21:00
OEJN 092100Z 25004KT CAVOK 33/26 Q1001 NOSIG

2010/08/09 21:00
OERK 092100Z 21003KT CAVOK 33/08 Q1004 NOSIG

2010/08/09 21:00
OERY 092100Z 12008KT CAVOK 37/05 Q1005 NOSIG

2010/08/09 20:55
TXKF 092055Z 19011KT 9999 FEW018 SCT180 BKN300 29/23 Q1021 

2010/08/09 21:00
WSSS 092100Z 14005KT 9999 SCT016 BKN300 28/26 Q1007 NOSIG

2010/08/09 21:00
NWWU 092100Z AUTO 11016KT 9999NDV OVC032/// 23/17 Q1023

2010/08/09 21:00
NWWL 092100Z AUTO 12014KT 9999NDV BKN027/// OVC037/// 22/17 Q1023

2010/08/09 21:00
NWWM 092100Z 08005KT 040V130 9999 FEW036 SCT046 22/14 Q1025 NOSIG

2010/08/09 20:55
KBIX 092055Z 16013KT 10SM FEW015 BKN030 BKN200 32/25 A2993 RMK AO2A PRESRR WND DATA ESTMD ALSTG/SLP ESTMD 50000 SLPNO RVRNO PWINO PNO FZRANO TSNO VISNO RWY21 CHINO RWY21 $

2010/08/09 20:56
KHLR 092056Z AUTO 12007G15KT 10SM CLR 38/18 A2991 RMK AO2 SLP117 T03780183 56019 $

2010/08/09 20:56
KNTD 092056Z VRB05KT 5SM HZ BKN012 18/14 A2994 RMK AO2 SLP140 LAG PK 17/17/13005 T01830139 58001 $

2010/08/09 20:56
KNTU 092056Z 13006KT 10SM FEW035 SCT200 29/23 A3001 RMK AO2 SLP165 T02890233 58005 $

2010/08/09 20:56
KNUQ 092056Z 34009KT 10SM CLR 22/13 A2990 RMK AO2 SLP128 T02170128 58008

2010/08/09 20:56
KNUW 092056Z 25004KT 3SM -RA BR SCT005 BKN016 OVC030 14/12 A2999 RMK AO2 RAB02 SLP160 P0004 60004 T01380121 51002 $

2010/08/09 20:52
KNZY 092052Z 27008KT 10SM FEW019 24/14 A2992 RMK AO2 SLP130 T02440139 57006 $

2010/08/09 20:55
KSVN 092055Z 10009G17KT 12SM 32/23 A2996 RMK AO2A SLP144 58010

2010/08/09 21:00
MDPC 092100Z 09010KT 9999 SCT020 SCT300 30/24 Q1011 NOSIG

2010/08/09 21:00
MDPP 092100Z 09010KT 9999 SCT022 32/26 Q1014

2010/08/09 21:00
MDSD 092100Z VRB03KT 8000 VCSH SCT016CB SCT018 SCT300 27/23 Q1012 CB/NW/N/NE/SE OVR STAION VCSH/N/NW

2010/08/09 21:00
MDST 092100Z 09014KT 9999 FEW016CB SCT023 33/24 Q1012 CB/E/S/SW

2010/08/09 21:00
OEDR 092100Z 00000KT CAVOK 32/27 Q0995 NOSIG

2010/08/09 21:00
OERK 092100Z 21003KT CAVOK 33/08 Q1004 NOSIG

2010/08/09 21:00
OERY 092100Z 12008KT CAVOK 37/05 Q1005 NOSIG

2010/08/09 20:58
PAGA 092058Z AUTO 14008KT 10SM -RA BKN023 OVC028 14/11 A2948 RMK AO2 RAE03B54 SLPNO P0000 60000 T01440111 53006

2010/08/09 21:00
TFFR 092100Z 11005KT 080V140 9999 FEW015CB SCT026 29/24 Q1013 TEMPO 4000 SHRA

2010/08/09 20:50
TJPS 092050Z 16008KT 10SM FEW030 FEW060 29/26 A2991

2010/08/09 20:55
TXKF 092055Z 19011KT 9999 FEW018 SCT180 BKN300 29/23 Q1021

2010/08/09 20:55
KAWG 092055Z AUTO 00000KT 10SM 32/23 A2989 RMK AO2

2010/08/09 20:55
KAXA 092055Z AUTO 12004KT 10SM SCT025 OVC032 29/23 A2990 RMK AO2

2010/08/09 20:55
KBNW 092055Z AUTO 00000KT 10SM OVC032 30/25 A2989 RMK AO2

2010/08/09 20:55
KCAV 092055Z AUTO 00000KT 10SM BKN027 OVC033 31/24 A2990 RMK AO2

2010/08/09 20:55
KCBF 092055Z AUTO 22004KT 10SM CLR 34/26 A2986 RMK AO2

2010/08/09 20:55
KLNL 092055Z AUTO 30008KT 10SM SCT050 29/15 A2995 RMK AO2 T02910153

2010/08/09 20:55
KRPD 092055Z AUTO 25004KT 10SM CLR 31/21 A2994 RMK AO2 6//// T03100210

2010/08/09 20:55
KRRL 092055Z AUTO 36007KT 10SM CLR 31/18 A2993 RMK AO2 T03100180

2010/08/09 20:55
KRYV 092055Z AUTO 31006KT 10SM SCT028 29/22 A2992 RMK AO2

2010/08/09 20:55
KSTE 092055Z AUTO 30005KT 10SM CLR 32/20 A2991 RMK AO2

2010/08/09 20:55
KSUW 092055Z AUTO 27003KT 10SM CLR 32/21 A2987 RMK AO2

2010/08/09 20:55
KTKV 092055Z AUTO 32006KT 10SM BKN060 BKN070 31/16 A2993 RMK AO2 T03070163

2010/08/09 20:55
KUNU 092055Z AUTO 31003KT 10SM CLR 29/20 A2992 RMK AO2 T02860204

2010/08/09 20:57
PAIW 092057Z AUTO 07007KT 10SM -RA BKN011 OVC070 15/13 A2937 RMK AO2 SLPNO P0000 60000 T01500128 52002

2010/08/09 21:00
PAPO 092100Z 36011KT 10SM CLR 13/09 A2949 RMK ASOS VIA PHONE

2010/08/09 20:57
PAUO 092057Z 35006KT 2SM BR BKN003 OVC005 13/12 A2967 RMK NOSPECI

2010/08/09 20:55
KTNU 092055Z AUTO 00000KT 10SM BKN033 OVC047 31/24 A2989 RMK AO2

2010/08/09 20:55
KTVK 092055Z AUTO 10SM CLR 31/25 A2989 RMK AO2

2010/08/09 20:55
KVTI 092055Z AUTO 09003KT 10SM SCT034 32/26 A2990 RMK AO2

2010/08/09 20:57
KWRB 092057Z VRB06KT 10SM FEW050 36/22 A2996 RMK SLP13856014

2010/08/09 20:55
KBVU 092055Z AUTO 17009G15KT 10SM CLR 35/M04 A2991 RMK AO2

2010/08/09 20:55
KCKP 092055Z AUTO 06005KT 10SM OVC019 27/23 A2990 RMK AO2

2010/08/09 20:55
KCNC 092055Z AUTO 20005KT 10SM CLR 32/26 A2986 RMK AO2

2010/08/09 20:55
KCSQ 092055Z AUTO 21007KT 10SM CLR 33/30 A2988 RMK AO2

2010/08/09 20:55
KDEH 092055Z AUTO 35004KT 10SM SCT048 31/22 A2994 RMK AO2

2010/08/09 20:55
KDNS 092055Z AUTO 06005KT 10SM BKN027 BKN032 32/26 A2989 RMK AO2

2010/08/09 20:55
KEBS 092055Z AUTO 00000KT 10SM BKN034 OVC039 28/23 A2989 RMK AO2

2010/08/09 20:55
KEOK 092055Z AUTO 00000KT 10SM CLR 33/26 A2988 RMK AO2

2010/08/09 20:55
KFFL 092055Z AUTO 14006KT 10SM CLR 30/26 A2989 RMK AO2

2010/08/09 20:55
KFSW 092055Z AUTO 11004KT 10SM CLR 33/25 A2989 RMK AO2

2010/08/09 20:55
KFXY 092055Z AUTO 10005KT 10SM SCT028 SCT035 30/22 A2991 RMK AO2

2010/08/09 20:55
KGGI 092055Z AUTO 16004KT 10SM OVC049 31/23 A2990 RMK AO2

2010/08/09 20:55
KGUS 092055Z VRB06KT 10SM FEW035 SCT050 BKN250 32/24 A2994 RMK AO2A SLP133 T03160245 58009

2010/08/09 20:55
KHNR 092055Z AUTO 00000KT 10SM SCT023 BKN036 30/26 A2989 RMK AO2

2010/08/09 20:55
KI75 092055Z AUTO 16004KT 10SM SCT026 31/25 A2987 RMK AO2

2010/08/09 20:55
KICL 092055Z AUTO 19007KT 10SM CLR 35/23 A2985 RMK AO2

2010/08/09 20:55
KIIB 092055Z AUTO 06004KT 10SM SCT023 BKN028 31/23 A2991 RMK AO1

2010/08/09 20:55
KIKV 092055Z AUTO 12003KT 10SM OVC037 31/25 A2988 RMK AO2

2010/08/09 20:55
KLRJ 092055Z AUTO 08006KT 10SM OVC016 27/22 A2990 RMK AO2

2010/08/09 20:55
KMPZ 092055Z AUTO 11004KT 10SM CLR 32/23 A2989 RMK AO2

2010/08/09 20:55
KMUT 092055Z AUTO 12006KT 10SM SCT030 33/26 A2989 RMK AO2

2010/08/09 20:55
KMXF 092055Z 15010G18KT 100V190 10SM FEW060 37/20 A2991 RMK AO2A SLP129 T03740198 58018

2010/08/09 20:55
KMXO 092055Z AUTO 11003KT 10SM BKN035 BKN041 30/25 A2991 RMK AO2

2010/08/09 20:55
KNBG 092055Z 00000KT 9SM FEW006 SCT080 BKN110 OVC250 25/23 A2996 RMK AO2 SLP145 T1 SET P0001 60035 T02500233 58002 $

2010/08/09 20:56
KNCA 092056Z 15009KT 10SM 31/24 A3001 RMK AO2 SLP163 60023 T03060244 56008 $

2010/08/09 20:56
KNMM 092056Z 16005KT 10SM FEW045 SCT060 34/23 A2993 RMK AO2 SLP140 T2 SET T03440228 56021 $

2010/08/09 20:56
KNSE 092056Z 26006KT 8SM SCT042CB SCT070 BKN100 33/23 A2992 RMK AO2 SLP115 CB SE-S MOV SW T2 SET T03330233 56021 $

2010/08/09 20:56
KNXX 092056Z 23008KT 9SM FEW050 BKN200 32/17 A2997 RMK AO2 SLP152 T03170172 56016 $

2010/08/09 20:55
KOOA 092055Z AUTO 00000KT 10SM CLR 31/24 A2989 RMK AO2

2010/08/09 20:55
KORC 092055Z AUTO 08004KT 10SM OVC016 27/25 A2991 RMK AO2

2010/08/09 20:55
KPEA 092055Z AUTO 10SM CLR A2988 RMK AO2

2010/08/09 20:55
KPSM 092055Z 23008KT 10SM SCT060 BKN100 33/18 A2986 RMK AO2A SLP113 T03270182 56015

2010/08/09 20:55
KRDK 092055Z AUTO 24004KT 10SM 34/26 A2984 RMK AO2

2010/08/09 20:55
KSDA 092055Z AUTO 17006KT 10SM 35/26 A2984 RMK AO2

2010/08/09 20:55
KSHL 092055Z AUTO 10005KT 10SM OVC017 27/23 A2993 RMK AO2

2010/08/09 20:58
KJAC 092058Z 23021G28KT 8SM -TSRA SCT065 BKN075 BKN110 16/05 A3012 RMK TSB55 TS OVHD MOV NE LTG DSNT ALQDS

2010/08/09 21:00
KSLC 092100Z 26017G27KT 10SM BKN110CB BKN150 BKN200 28/00 A2998 RMK AO2 WSHFT 2040 VIRGA NE AND S-SW AND DSNT NW CB N-NE MOV NE AND DSNT SW

2010/08/09 21:00
KFMY 092100Z 17010KT 7SM -TSRA FEW012 BKN030 BKN070 26/24 A2985 RMK AO2 LTG DSNT E PRESFR P0001

2010/08/09 21:02
KSGJ 092102Z 11011KT 10SM CLR 31/24 A2994 RMK AO2

2010/08/09 21:00
SBRB 092100Z 00000KT 5000 FU SCT030 35/17 Q1012 

2010/08/09 21:00
SBMN 092100Z 12003KT 9999 FEW020 31/23 Q1010

2010/08/09 20:51
KP58 092051Z AUTO 28003KT 26/22 A2989 RMK AO2 SLP114 T02560222 50000 PWINO TSNO

2010/08/09 20:56
KBIH 092056Z AUTO 18014G24KT 10SM CLR 32/M06 A2994 RMK AO2 PK WND 16026/2039 SLP087 T03221061 56016 TSNO

2010/08/09 20:56
KMEH 092056Z AUTO 00000KT 10SM CLR 21/06 A2993 RMK AO2 SLP126 T02060056 55003 TSNO

2010/08/09 20:56
KD07 092056Z AUTO 15017G25KT 32/15 A2987 RMK AO2 SLP097 T03170150 58015 PWINO TSNO

2010/08/09 21:00
SBBG 092100Z 14005KT CAVOK 13/05 Q1024

2010/08/09 21:00
SBAR 092100Z 14007KT CAVOK 25/20 Q1017

2010/08/09 21:00
SBBE 092100Z 34004KT 9999 SCT020 FEW025TCU 30/25 Q1011

2010/08/09 21:00
SBTE 092100Z 14003KT CAVOK 35/10 Q1011

2010/08/09 21:00
SBPK 092100Z 14004KT CAVOK 12/03 Q1025

2010/08/09 21:00
SBKP 092100Z 12015KT 4500 HZ NSC 18/12 Q1021

2010/08/09 21:00
SBPB 092100Z 06012KT CAVOK 28/22 Q1011

2010/08/09 21:00
SBRJ 092100Z 21009KT 7000 BKN015 BKN025 22/18 Q1021

2010/08/09 21:00
SBTT 092100Z 24004KT CAVOK 31/22 Q1011

2010/08/09 21:00
SBCJ 092100Z 16003KT CAVOK 29/09 Q1015

2010/08/09 21:00
SBPS 092100Z 06006KT CAVOK 21/18 Q1017

2010/08/09 20:54
PGUM 092054Z 00000KT 10SM OVC055 26/24 A2992 RMK AO2 SLP125 T02560244 53008

2010/08/09 20:51
PTKK 092051Z 06006KT 15SM VCSH SCT014CB BKN120 OVC280 27/25 A2987 RMK VCSH W SHRAE29 CB SE-SW-W MOV SW SLP116 60021 8/371 T02680249 52015

2010/08/09 20:58
CYKL 092058Z AUTO 29007KT 250V320 9SM BKN022 OVC096 14/10 A2961

2010/08/09 21:00
YSRI 092100Z AUTO 00000KT 6000NDV // BKN056 BKN077 OVC087 08/08 Q1019

2010/08/09 20:50
LTAC 092050Z 02005KT CAVOK 24/08 Q1013 NOSIG

2010/08/09 20:50
LTAF 092050Z /////KT 9999 FEW035 27/23 Q1006 NOSIG

2010/08/09 20:50
LTAI 092050Z VRB02KT CAVOK 28/24 Q1005 NOSIG

2010/08/09 20:50
LTBA 092050Z 35010KT 9999 SCT030 28/24 Q1009 NOSIG

2010/08/09 20:50
LTBJ 092050Z 35010KT CAVOK 30/20 Q1007 NOSIG

2010/08/09 20:50
LTBS 092050Z 23003KT 190V260 CAVOK 28/25 Q1005 NOSIG

2010/08/09 21:00
SBNT 092100Z 09009KT 4000 RA BKN005 SCT020 FEW025TCU BKN100 23/22 Q1015

2010/08/09 20:53
KRYT 092053Z AUTO 24004KT 10SM FEW070 34/15 A2997 RMK AO2 SLP131 T03440150 56013 $

2010/08/09 20:56
KNTU 092056Z 13006KT 10SM FEW035 SCT200 29/23 A3001 RMK AO2 SLP165 T02890233 58005 $

2010/08/09 20:55
KGUS 092055Z VRB06KT 10SM FEW035 SCT050 BKN250 32/24 A2994 RMK AO2A SLP133 T03160245 58009

2010/08/09 20:55
KHOP 092055Z AUTO 21008KT 10SM CLR 35/23 A2993 RMK AO2 SLP128 T03510231 56017

2010/08/09 20:55
KMUO 092055Z 03007KT 10SM VCSH FEW030 SCT090 SCT180 29/06 A2986 RMK AO2A CB DSNT W AND NNE MOV NE SLP080 60000 T02930062 58013

2010/08/09 20:56
KNBC 092056Z 09009KT 7SM SCT030 BKN050 BKN200 31/24 A2996 RMK AO2 SLP146 T03110244 58008 $

2010/08/09 20:56
KNCA 092056Z 15009KT 10SM 31/24 A3001 RMK AO2 SLP163 60023 T03060244 56008 $

2010/08/09 20:56
KNLC 092056Z VRB05KT 10SM CLR 31/13 A2984 RMK AO2 SLP105 RH/31 T03110133 58014

2010/08/09 20:56
KNMM 092056Z 16005KT 10SM FEW045 SCT060 34/23 A2993 RMK AO2 SLP140 T2 SET T03440228 56021 $

2010/08/09 20:56
KNPA 092056Z 16011KT 8SM FEW035TCU SCT140 SCT250 33/25 A2992 RMK AO2 SLP134 TCU DSNT NE-E T2 SET T03280250 56018

2010/08/09 20:56
KNRS 092056Z 25009KT 10SM FEW017 20/13 A2994 RMK AO2 SLP137 T02000133 58004

2010/08/09 20:55
KPSM 092055Z 23008KT 10SM SCT060 BKN100 33/18 A2986 RMK AO2A SLP113 T03270182 56015

2010/08/09 20:57
KWRB 092057Z VRB06KT 10SM FEW050 36/22 A2996 RMK SLP13856014

2010/08/09 20:56
PASY 092056Z 27005KT 8SM SCT001 OVC005 09/09 A2986 RMK AO2 SLP112 6//// T00890089 53006 PNO $

2010/08/09 20:56
KNGP 092056Z 12009KT 10SM FEW035TCU SCT045 SCT250 32/27 A2988 RMK AO2 SLP119 TCU DSNT SE T03220267 58017

2010/08/09 20:56
KNID 092056Z 16005KT 10SM CLR 34/M03 A2988 RMK AO2 SLP095 T03391033 58015 $

2010/08/09 20:56
KNLC 092056Z VRB05KT 10SM CLR 31/13 A2984 RMK AO2 SLP105 RH/31 T03110133 58014

2010/08/09 20:56
KNMM 092056Z 16005KT 10SM FEW045 SCT060 34/23 A2993 RMK AO2 SLP140 T2 SET T03440228 56021 $

2010/08/09 20:56
KNPA 092056Z 16011KT 8SM FEW035TCU SCT140 SCT250 33/25 A2992 RMK AO2 SLP134 TCU DSNT NE-E T2 SET T03280250 56018

2010/08/09 20:56
KNQI 092056Z 11013KT 10SM SCT047CB SCT070 BKN250 36/24 A2987 RMK AO2 SLP111 CB DSNT SW T03560237 56017

2010/08/09 20:56
KNTU 092056Z 13006KT 10SM FEW035 SCT200 29/23 A3001 RMK AO2 SLP165 T02890233 58005 $

2010/08/09 20:56
KNUW 092056Z 25004KT 3SM -RA BR SCT005 BKN016 OVC030 14/12 A2999 RMK AO2 RAB02 SLP160 P0004 60004 T01380121 51002 $

2010/08/09 20:56
KNXP 092056Z 11009G18KT 7SM CLR 35/M04 A2993 RMK AO2 SLP097 T03501044 58017 $

2010/08/09 20:56
KNXX 092056Z 23008KT 9SM FEW050 BKN200 32/17 A2997 RMK AO2 SLP152 T03170172 56016 $

2010/08/09 20:52
KNZY 092052Z 27008KT 10SM FEW019 24/14 A2992 RMK AO2 SLP130 T02440139 57006 $

2010/08/09 20:55
KPSM 092055Z 23008KT 10SM SCT060 BKN100 33/18 A2986 RMK AO2A SLP113 T03270182 56015

2010/08/09 20:57
KWRB 092057Z VRB06KT 10SM FEW050 36/22 A2996 RMK SLP13856014

2010/08/09 20:55
KCOF 092055Z 13012KT 10SM CLR 30/24 A2991 RMK AO2A SLP129 T02970237 56008

2010/08/09 20:55
KGSB 092055Z 00000KT 10SM CLR 33/14 A2999 RMK AO2A SLP156 T03350145 56009

2010/08/09 20:55
KLFI 092055Z 12007KT 10SM CLR 30/18 A3001 RMK AO2A SLP164 T03050181 58004

2010/08/09 20:55
KMCF 092055Z AUTO 32005KT 10SM SCT045 SCT055 28/26 A2988 RMK AO2 DZE1956 SLP120 60063 T02820265 56010

2010/08/09 20:56
KNBC 092056Z 09009KT 7SM SCT030 BKN050 BKN200 31/24 A2996 RMK AO2 SLP146 T03110244 58008 $

2010/08/09 20:55
KNBG 092055Z 00000KT 9SM FEW006 SCT080 BKN110 OVC250 25/23 A2996 RMK AO2 SLP145 T1 SET P0001 60035 T02500233 58002 $

2010/08/09 20:56
KNCA 092056Z 15009KT 10SM 31/24 A3001 RMK AO2 SLP163 60023 T03060244 56008 $

2010/08/09 20:56
KNGP 092056Z 12009KT 10SM FEW035TCU SCT045 SCT250 32/27 A2988 RMK AO2 SLP119 TCU DSNT SE T03220267 58017

2010/08/09 20:56
KNPA 092056Z 16011KT 8SM FEW035TCU SCT140 SCT250 33/25 A2992 RMK AO2 SLP134 TCU DSNT NE-E T2 SET T03280250 56018

2010/08/09 20:56
KNTU 092056Z 13006KT 10SM FEW035 SCT200 29/23 A3001 RMK AO2 SLP165 T02890233 58005 $

2010/08/09 21:00
SBBV 092100Z 32003KT 9999 -RA SCT020 FEW027TCU BKN080 28/22 Q1010

2010/08/09 20:50
LSMA 092050Z AUTO VRB01KT 9999NDV NCD 18/15 Q1017 RMK BLU

2010/08/09 20:50
LSMD 092050Z AUTO VRB01KT 9999NDV NCD 17/14 Q1017 RMK BLU

2010/08/09 20:50
LSME 092050Z AUTO 00000KT 9999NDV NCD 18/14 Q1017 RMK BLU

2010/08/09 20:50
LSMM 092050Z AUTO 11004KT 060V130 9999NDV FEW050 BKN066 16/14 Q1017 RMK WHT

2010/08/09 20:50
LSMP 092050Z AUTO VRB01KT 9999NDV BKN066 19/14 Q1017 RMK WHT

2010/08/09 21:00
SBPL 092100Z 13008KT 9999 SCT025 SCT070 28/14 Q1016

2010/08/09 20:55
EHAM 092055Z 13007KT CAVOK 18/13 Q1014 NOSIG

2010/08/09 20:55
EHBK 092055Z AUTO 15004KT 9999NDV NSC 16/11 Q1016

2010/08/09 20:55
EHGG 092055Z AUTO 12004KT 9999NDV NCD 15/14 Q1015

2010/08/09 20:55
EHRD 092055Z 16006KT 110V180 9999 FEW040 19/11 Q1014 NOSIG

2010/08/09 20:51
KP58 092051Z AUTO 28003KT 26/22 A2989 RMK AO2 SLP114 T02560222 50000 PWINO TSNO

2010/08/09 20:56
KBIH 092056Z AUTO 18014G24KT 10SM CLR 32/M06 A2994 RMK AO2 PK WND 16026/2039 SLP087 T03221061 56016 TSNO

2010/08/09 20:56
KMEH 092056Z AUTO 00000KT 10SM CLR 21/06 A2993 RMK AO2 SLP126 T02060056 55003 TSNO

2010/08/09 20:56
KD07 092056Z AUTO 15017G25KT 32/15 A2987 RMK AO2 SLP097 T03170150 58015 PWINO TSNO

2010/08/09 20:55
KSNC 092055Z AUTO 20009KT 10SM CLR 28/22 A2996 RMK AO2

2010/08/09 20:52
KSPS 092052Z COR 20011KT 10SM SCT080 SCT095 BKN250 39/18 A2985 RMK AO2 LTG DSNT E SLP090 P0003 60011 T03890178 58019

2010/08/09 20:56
KCAE 092056Z 13011KT 10SM SCT065 SCT090 BKN210 34/21 A2998 RMK AO2 SLP148 T03390211 56009

2010/08/09 20:56
KFSD 092056Z 11008KT 10SM SCT030 30/23 A2990 RMK AO2 SLP114 SCT ABV 120 T03000233 58005

2010/08/09 20:55
KJQF 092055Z 17004KT 7SM SCT049 SCT065 34/19 A3001

2010/08/09 20:54
KPZQ 092054Z AUTO 08006KT 10SM SCT030 SCT036 24/20 A2990 RMK AO2

2010/08/09 20:54
KSBN 092054Z 23006KT 8SM CLR 29/22 A2994 RMK AO2 SLP132 60000 T02940222 58009

2010/08/09 20:54
KACY 092054Z 17012KT 10SM CLR 31/17 A3000 RMK AO2 SLP156 T03060172 56010

2010/08/09 20:56
KCHS 092056Z 12009G16KT 10SM SCT028 SCT033 BKN043 31/25 A2998 RMK AO2 SLP151 60014 T03110250 56003

2010/08/09 20:56
PHNY 092056Z AUTO 00000KT 10SM OVC030 24/16 A3015 RMK AO2 TSNO 53005 T02440161 OVC V BKN SLP189 $

2010/08/09 20:55
KTKV 092055Z AUTO 32006KT 10SM BKN060 BKN070 31/16 A2993 RMK AO2 T03070163

2010/08/09 20:56
PHNY 092056Z AUTO 00000KT 10SM OVC030 24/16 A3015 RMK AO2 TSNO 53005 T02440161 OVC V BKN SLP189 $

2010/08/09 20:55
KVTI 092055Z AUTO 09003KT 10SM SCT034 32/26 A2990 RMK AO2

2010/08/09 20:55
KCKP 092055Z AUTO 06005KT 10SM OVC019 27/23 A2990 RMK AO2

2010/08/09 21:00
SBMQ 092100Z 09006KT 9999 FEW020 FEW025TCU 31/26 Q1011

2010/08/09 21:00
SBVT 092100Z 19004KT 9999 FEW025 BKN090 24/20 Q1017

2010/08/09 21:00
SBFL 092100Z 11010KT 9999 SCT040 15/09 Q1024

2010/08/09 20:55
EBBL 092055Z VRB01KT 9999 SCT075 14/11 Q1016 BLU

2010/08/09 20:55
EBFN 092055Z 21005KT 9999 FEW100 14/11 Q1015 BLU

2010/08/09 20:56
KCBM 092056Z AUTO 07011KT 3SM TSRA BR OVC050 26/24 A2993 RMK AO2 SLP136 $

2010/08/09 20:55
KEOK 092055Z AUTO 00000KT 10SM CLR 33/26 A2988 RMK AO2

2010/08/09 20:55
KFFL 092055Z AUTO 14006KT 10SM CLR 30/26 A2989 RMK AO2

2010/08/09 20:55
KFSW 092055Z AUTO 11004KT 10SM CLR 33/25 A2989 RMK AO2

2010/08/09 20:55
KFXY 092055Z AUTO 10005KT 10SM SCT028 SCT035 30/22 A2991 RMK AO2

2010/08/09 20:55
KGGI 092055Z AUTO 16004KT 10SM OVC049 31/23 A2990 RMK AO2

2010/08/09 20:55
KHNR 092055Z AUTO 00000KT 10SM SCT023 BKN036 30/26 A2989 RMK AO2

2010/08/09 20:55
KICL 092055Z AUTO 19007KT 10SM CLR 35/23 A2985 RMK AO2

2010/08/09 20:55
KIIB 092055Z AUTO 06004KT 10SM SCT023 BKN028 31/23 A2991 RMK AO1

2010/08/09 20:55
KIKV 092055Z AUTO 12003KT 10SM OVC037 31/25 A2988 RMK AO2

2010/08/09 20:55
KLRJ 092055Z AUTO 08006KT 10SM OVC016 27/22 A2990 RMK AO2

2010/08/09 20:55
KMPZ 092055Z AUTO 11004KT 10SM CLR 32/23 A2989 RMK AO2

2010/08/09 20:55
KMUT 092055Z AUTO 12006KT 10SM SCT030 33/26 A2989 RMK AO2

2010/08/09 20:55
KMXO 092055Z AUTO 11003KT 10SM BKN035 BKN041 30/25 A2991 RMK AO2

2010/08/09 20:56
KNSE 092056Z 26006KT 8SM SCT042CB SCT070 BKN100 33/23 A2992 RMK AO2 SLP115 CB SE-S MOV SW T2 SET T03330233 56021 $

2010/08/09 20:55
KOOA 092055Z AUTO 00000KT 10SM CLR 31/24 A2989 RMK AO2

2010/08/09 20:55
KORC 092055Z AUTO 08004KT 10SM OVC016 27/25 A2991 RMK AO2

2010/08/09 20:55
KPEA 092055Z AUTO 10SM CLR A2988 RMK AO2

2010/08/09 20:55
KRDK 092055Z AUTO 24004KT 10SM 34/26 A2984 RMK AO2

2010/08/09 20:55
KSDA 092055Z AUTO 17006KT 10SM 35/26 A2984 RMK AO2

2010/08/09 20:55
KSHL 092055Z AUTO 10005KT 10SM OVC017 27/23 A2993 RMK AO2

2010/08/09 20:58
PAGA 092058Z AUTO 14008KT 10SM -RA BKN023 OVC028 14/11 A2948 RMK AO2 RAE03B54 SLPNO P0000 60000 T01440111 53006

2010/08/09 20:50
TJPS 092050Z 16008KT 10SM FEW030 FEW060 29/26 A2991

2010/08/09 21:00
SBSP 092100Z 14006KT 5000 BR BKN009 14/12 Q1024

2010/08/09 20:50
LTAD 092050Z 29008KT 260V320 CAVOK 25/08 Q1012 NOSIG RMK RWY29 28006KT 250V310

2010/08/09 20:50
LTAG 092050Z 16002KT 9999 SCT035 27/23 Q1006 NOSIG

2010/08/09 20:50
LTAH 092050Z 32007KT 9999 BKN035 23/14 Q1014 RMK RWY13 35007KT

2010/08/09 20:50
LTAJ 092050Z 29003KT CAVOK 27/15 Q1007 NOSIG

2010/08/09 20:50
LTAN 092050Z 32014KT CAVOK 29/10 Q1012 NOSIG

2010/08/09 20:50
LTAN 092050Z 32014KT CAVOK 29/10 Q1012 NOSIG RMK RWY19 32016KT

2010/08/09 20:50
LTAP 092050Z 33006KT CAVOK 22/18 Q1009 NOSIG RMK RWY23 01006KT

2010/08/09 20:50
LTAT 092050Z VRB02KT CAVOK 21/M00 Q1008 NOSIG RMK RWY03 21003KT

2010/08/09 20:50
LTAU 092050Z 04005KT CAVOK 19/07 Q1013 NOSIG

2010/08/09 20:50
LTAU 092050Z 04005KT CAVOK 19/07 Q1013 NOSIG RMK RWY07 01004KT 350V050

2010/08/09 20:50
LTBF 092050Z 33006KT CAVOK 27/22 Q1009 NOSIG RMK RWY18 33004KT 290V010

2010/08/09 20:50
LTBG 092050Z 02005KT CAVOK 27/23 Q1009 NOSIG RMK RWY18 02010KT

2010/08/09 20:50
LTBI 092050Z 27007KT 9999 SCT035 25/20 Q1012 NOSIG RMK RWY09 26009KT

2010/08/09 20:50
LTBL 092050Z VRB03KT CAVOK 29/23 Q1007 NOSIG RMK RWY17 05011KT

2010/08/09 20:50
LTBQ 092050Z VRB02KT 9999 SCT025 SCT100 24/23 Q1009 NOSIG RMK RWY09 VRB02KT

2010/08/09 20:50
LTCC 092050Z VRB02KT CAVOK 25/00 Q1006 NOSIG

2010/08/09 20:50
LTCC 092050Z VRB02KT CAVOK 25/00 Q1006 NOSIG RMK RWY16 VRB01KT

2010/08/09 20:50
LTCE 092050Z 08008KT CAVOK 20/09 Q1017 NOSIG

2010/08/09 20:50
LTCE 092050Z 08008KT CAVOK 20/09 Q1017 NOSIG RMK RWY08R 34004KT RWY26R /////KT RWY08L 35003KT

2010/08/09 20:50
LTCG 092050Z 21004KT 9999 SCT035 SCT100 27/23 Q1007 NOSIG

2010/08/09 20:50
LTCI 092050Z 09004KT 9999 FEW040 16/05 Q1016 NOSIG

2010/08/09 20:50
LTFE 092050Z 16004KT 130V190 CAVOK 27/23 Q1005 NOSIG

2010/08/09 21:00
SBCP 092100Z 20025KT CAVOK 23/17 Q1018

2010/08/09 20:55
OPLA 092055Z 00000KT 4000 FU FEW100 30/28 Q1001 NOSIG

2010/08/09 21:00
OPNH 092100Z 00000KTS 4000 FU SCT035 SCT100 28/25 1000

2010/08/09 21:00
OPRN 092100Z 31004KT 4000 BR FEW035 SCT100 28/25 Q1004.0

2010/08/09 21:00
UTTT 092100Z 09003MPS CAVOK 23/07 Q1006 R08R/CLRD70 TEMPO 03005G10MPS

2010/08/09 20:55
KPAM 092055Z AUTO VRB05KT 10SM FEW190 35/22 A2991 RMK AO2 CLDS LWR RWY13 SLP129 T03470223 58016 $

2010/08/09 21:00
MPHO 092100Z 18006KT 9999 FEW016 SCT030 BKN200 Q1011

2010/08/09 20:56
K79J 092056Z 12004KT 10SM FEW060 36/20 A2992 RMK AO2 SLP126 T03610200 58019 PNO $

2010/08/09 20:55
KCVS 092055Z 21010KT 10SM SCT080 SCT150 30/13 A3004 RMK AO2A SLP120 T03020130 58012 $

2010/08/09 20:55
KFTK 092055Z 15004KT 10SM FEW060 35/23 A2994 RMK AO2A SLP131 T03540229 56014

2010/08/09 20:55
KGUS 092055Z VRB06KT 10SM FEW035 SCT050 BKN250 32/24 A2994 RMK AO2A SLP133 T03160245 58009

2010/08/09 20:55
KHOP 092055Z AUTO 21008KT 10SM CLR 35/23 A2993 RMK AO2 SLP128 T03510231 56017

2010/08/09 20:55
KLSV 092055Z AUTO 00000KT 10SM CLR 34/04 A2988 RMK AO2 SLP102 T03420038 58018 PWINO

2010/08/09 20:55
KMUO 092055Z 03007KT 10SM VCSH FEW030 SCT090 SCT180 29/06 A2986 RMK AO2A CB DSNT W AND NNE MOV NE SLP080 60000 T02930062 58013

2010/08/09 20:55
KMXF 092055Z 15010G18KT 100V190 10SM FEW060 37/20 A2991 RMK AO2A SLP129 T03740198 58018

2010/08/09 20:56
KNBC 092056Z 09009KT 7SM SCT030 BKN050 BKN200 31/24 A2996 RMK AO2 SLP146 T03110244 58008 $

2010/08/09 20:55
KNBG 092055Z 00000KT 9SM FEW006 SCT080 BKN110 OVC250 25/23 A2996 RMK AO2 SLP145 T1 SET P0001 60035 T02500233 58002 $

2010/08/09 20:56
KNCA 092056Z 15009KT 10SM 31/24 A3001 RMK AO2 SLP163 60023 T03060244 56008 $

2010/08/09 20:56
KNJK 092056Z VRB03KT 10SM CLR 37/09 A2975 RMK AO2 SLP089 T03670094 58017

2010/08/09 20:56
KNRS 092056Z 25009KT 10SM FEW017 20/13 A2994 RMK AO2 SLP137 T02000133 58004

2010/08/09 20:56
KNUQ 092056Z 34009KT 10SM CLR 22/13 A2990 RMK AO2 SLP128 T02170128 58008

2010/08/09 20:59
KNGU 092059Z 09008KT 070V130 10SM FEW045 SCT250 32/20 A3002 RMK AO2 SLP165 T03170200 58005

2010/08/09 20:56
KHLR 092056Z AUTO 12007G15KT 10SM CLR 38/18 A2991 RMK AO2 SLP117 T03780183 56019 $

2010/08/09 20:55
PHHI 092055Z AUTO 08013KT 10SM OVC034 25/18 A3013 RMK AO2 SLP192 T02450176 52006 $

2010/08/09 20:55
PHSF 092055Z 28008KT 7SM FEW200 24/09 A3032 RMK SLPNO 52003

2010/08/09 20:57
KWRB 092057Z VRB06KT 10SM FEW050 36/22 A2996 RMK SLP13856014

2010/08/09 20:55
KGUS 092055Z VRB06KT 10SM FEW035 SCT050 BKN250 32/24 A2994 RMK AO2A SLP133 T03160245 58009

2010/08/09 20:55
KMXF 092055Z 15010G18KT 100V190 10SM FEW060 37/20 A2991 RMK AO2A SLP129 T03740198 58018

2010/08/09 20:55
KNBG 092055Z 00000KT 9SM FEW006 SCT080 BKN110 OVC250 25/23 A2996 RMK AO2 SLP145 T1 SET P0001 60035 T02500233 58002 $

2010/08/09 20:56
KNCA 092056Z 15009KT 10SM 31/24 A3001 RMK AO2 SLP163 60023 T03060244 56008 $

2010/08/09 20:56
KNMM 092056Z 16005KT 10SM FEW045 SCT060 34/23 A2993 RMK AO2 SLP140 T2 SET T03440228 56021 $

2010/08/09 20:56
KNXX 092056Z 23008KT 9SM FEW050 BKN200 32/17 A2997 RMK AO2 SLP152 T03170172 56016 $

2010/08/09 20:55
KPSM 092055Z 23008KT 10SM SCT060 BKN100 33/18 A2986 RMK AO2A SLP113 T03270182 56015

2010/08/09 20:55
KBIX 092055Z 16013KT 10SM FEW015 BKN030 BKN200 32/25 A2993 RMK AO2A PRESRR WND DATA ESTMD ALSTG/SLP ESTMD 50000 SLPNO RVRNO PWINO PNO FZRANO TSNO VISNO RWY21 CHINO RWY21 $

2010/08/09 20:56
KHLR 092056Z AUTO 12007G15KT 10SM CLR 38/18 A2991 RMK AO2 SLP117 T03780183 56019 $

2010/08/09 20:56
KNTD 092056Z VRB05KT 5SM HZ BKN012 18/14 A2994 RMK AO2 SLP140 LAG PK 17/17/13005 T01830139 58001 $

2010/08/09 20:56
KNTU 092056Z 13006KT 10SM FEW035 SCT200 29/23 A3001 RMK AO2 SLP165 T02890233 58005 $

2010/08/09 20:56
KNUQ 092056Z 34009KT 10SM CLR 22/13 A2990 RMK AO2 SLP128 T02170128 58008

2010/08/09 20:56
KNUW 092056Z 25004KT 3SM -RA BR SCT005 BKN016 OVC030 14/12 A2999 RMK AO2 RAB02 SLP160 P0004 60004 T01380121 51002 $

2010/08/09 20:52
KNZY 092052Z 27008KT 10SM FEW019 24/14 A2992 RMK AO2 SLP130 T02440139 57006 $

2010/08/09 20:55
KSVN 092055Z 10009G17KT 12SM 32/23 A2996 RMK AO2A SLP144 58010

2010/08/09 21:05
KBAX 092105Z AUTO 23007KT 10SM BKN090 BKN110 24/21 A2992 RMK AO2

2010/08/09 21:03
KCFE 092103Z AUTO 08005KT 10SM CLR 33/20 A2991 RMK AO2 T03280198

2010/08/09 21:01
PADM 092101Z AUTO 16019KT 3SM -RA BR FEW006 BKN016 OVC065 12/09 A2939 RMK AO2 TSNO 50001 60005 T01160094 BKN V SCT P0000 SLP942 $

2010/08/09 20:55
K4M9 092055Z AUTO 16007KT 10SM -RA CLR 36/25 A2988 RMK AO2 P0002

2010/08/09 20:55
KANE 092055Z 10005KT 12SM SKC 32/22 A2991

2010/08/09 20:55
KEFT 092055Z AUTO 03007KT 10SM CLR 30/23 A2992 RMK AO2 T03030229

2010/08/09 20:51
KEGV 092051Z AUTO 32005KT 10SM CLR 28/17 A2994 RMK AO2 T02820169

2010/08/09 20:52
KETB 092052Z AUTO 28004KT 10SM SCT028 29/21 A2990 RMK AO2 T02850208

2010/08/09 20:52
KGLW 092052Z AUTO 21004KT 10SM CLR 35/21 A2994 RMK AO2 T03520214

2010/08/09 20:55
KLUM 092055Z AUTO 00000KT 10SM CLR 32/20 A2991 RMK AO2

2010/08/09 20:55
KMAN 092055Z AUTO 17005KT 10SM CLR 29/08 A2983 RMK AO1

2010/08/09 20:55
KMCJ 092055Z AUTO 14010G17KT 10SM SCT046 SCT050 BKN070 34/24 A2988 RMK AO1

2010/08/09 20:55
KMDZ 092055Z AUTO 32007KT 10SM CLR 31/19 A2994 RMK AO2

2010/08/09 20:55
KMRJ 092055Z AUTO 00000KT 10SM CLR 31/22 A2992 RMK AO2 60001 T03110221

2010/08/09 20:55
KOEO 092055Z AUTO 35003KT 10SM CLR 32/19 A2993 RMK AO2

2010/08/09 20:55
KPBH 092055Z AUTO 34004KT 10SM CLR 32/16 A2995 RMK AO2

2010/08/09 20:55
KPCZ 092055Z AUTO 00000KT 10SM SCT033 SCT041 SCT047 32/22 A2989 RMK AO2 T03210221

2010/08/09 20:52
KPDC 092052Z AUTO 35004KT 10SM SCT035 33/25 A2988 RMK AO2 T03300246

2010/08/09 20:55
KRCX 092055Z AUTO 34006KT 10SM SCT050 31/19 A2995 RMK AO2 T03140190

2010/08/09 20:56
KRNH 092056Z AUTO 00000KT 10SM CLR 32/19 A2992 RMK AO2 T03150194

2010/08/09 20:56
K4I3 092056Z AUTO 17004KT 10SM CLR 31/18 A3000 RMK AO2

2010/08/09 20:55
KACB 092055Z AUTO 31005KT 7SM CLR 29/23 A2987 RMK AO2

2010/08/09 20:58
KACQ 092058Z AUTO 00000KT 10SM SCT038 30/22 A2994 RMK AO2

2010/08/09 20:56
KADC 092056Z AUTO 00000KT 10SM CLR 31/18 A2993 RMK AO2

2010/08/09 20:54
KAMN 092054Z AUTO 29007KT 10SM SCT055 26/23 A2990 RMK AO2

2010/08/09 20:55
KAUM 092055Z AUTO 00000KT 10SM SCT048 30/23 A2991 RMK AO2

2010/08/09 20:55
KBDH 092055Z AUTO 06006KT 10SM CLR 32/21 A2992 RMK AO2

2010/08/09 20:54
KCAD 092054Z AUTO 28007KT 10SM SCT031 SCT037 29/22 A2991 RMK AO2

2010/08/09 20:55
KCBG 092055Z AUTO 00000KT 10SM CLR 32/24 A2989 RMK AO2

2010/08/09 20:54
KCDA 092054Z AUTO 25004KT 10SM CLR 26/17 A2993 RMK AO2

2010/08/09 20:55
KCFS 092055Z AUTO 20005KT 10SM BKN048 OVC060 24/21 A2992 RMK AO2

2010/08/09 20:55
KCKC 092055Z AUTO 29006KT 10SM CLR 29/14 A2994 RMK AO2

2010/08/09 20:55
KCKN 092055Z AUTO 21012KT 10SM CLR 33/19 A2986 RMK AO2

2010/08/09 20:54
KCNB 092054Z AUTO 09006KT 7SM CLR 31/21 A2991 RMK AO2 T03050208

2010/08/09 20:56
KCOQ 092056Z AUTO 31004KT 10SM CLR 32/14 A2993 RMK AO2

2010/08/09 20:57
KCQM 092057Z AUTO 27003KT 10SM CLR 31/19 A2993 RMK AO2

2010/08/09 20:55
KCVX 092055Z AUTO 27008KT 5SM HZ CLR 27/21 A2990 RMK AO2

2010/08/09 20:57
KDRM 092057Z AUTO 12003KT 10SM SCT023 26/20 A2989 RMK AO2

2010/08/09 20:54
KDTL 092054Z AUTO 20005KT 10SM CLR 31/16 A2994 RMK AO2

2010/08/09 20:54
KDUH 092054Z AUTO 00000KT 10SM -RA SCT046 29/20 A2994 RMK AO2

2010/08/09 20:55
KERY 092055Z AUTO 24004KT 10SM CLR 27/23 A2989 RMK AO2

2010/08/09 20:55
KFFX 092055Z AUTO 10SM BKN020 BKN027 27/22 A2991 RMK AO2

2010/08/09 20:54
KFKS 092054Z AUTO 24006KT 10SM CLR 26/20 A2990 RMK AO2

2010/08/09 20:56
KFPK 092056Z AUTO 22006KT 10SM SCT024 27/22 A2993 RMK AO2

2010/08/09 20:54
KFSE 092054Z AUTO 20011G14KT 10SM CLR 30/20 A2990 RMK AO2

2010/08/09 20:55
KGOV 092055Z AUTO 12004KT 10SM SCT016 BKN023 OVC028 24/20 A2990 RMK AO2

2010/08/09 20:55
KHAF 092055Z AUTO 18005KT 10SM OVC008 14/11 A2996 RMK AO2

2010/08/09 20:55
KHAI 092055Z AUTO 18004KT 7SM SCT033 28/23 A2993 RMK AO2

2010/08/09 20:54
KHYX 092054Z AUTO 00000KT 4SM DZ SCT023 BKN038 OVC050 23/21 A2991 RMK AO2

2010/08/09 20:55
KIRS 092055Z AUTO 22005KT 7SM CLR 28/23 A2993 RMK AO2

2010/08/09 20:55
KISQ 092055Z AUTO 15004KT 7SM BKN035 BKN041 24/22 A2990 RMK AO2

2010/08/09 20:55
KJYG 092055Z AUTO 00000KT 10SM CLR 31/27 A2992 RMK AO2

2010/08/09 20:55
KJYM 092055Z AUTO 02003KT 7SM BKN043 26/22 A2996 RMK AO2

2010/08/09 20:55
KLDM 092055Z AUTO 24010KT 10SM SCT011 27/23 A2992 RMK AO2

2010/08/09 20:56
KLWA 092056Z AUTO 26008KT 10SM SCT031 29/22 A2992 RMK AO2

2010/08/09 20:55
KMCD 092055Z AUTO 00000KT 10SM CLR 23/19 A2990 RMK AO2

2010/08/09 20:58
PADU 092058Z 22003KT 10SM SCT017 BKN025 11/08 A2954 RMK AO2 SLP008 MH T01110083 51010

2010/08/09 20:58
PAEL 092058Z 00000KT 15SM FEW010 OVC025 11/11 A2996 RMK SEA 0 SWELL 1 SW NOSPECI

2010/08/09 20:58
PAGA 092058Z AUTO 14008KT 10SM -RA BKN023 OVC028 14/11 A2948 RMK AO2 RAE03B54 SLPNO P0000 60000 T01440111 53006

2010/08/09 20:56
PAJZ 092056Z AUTO 17013KT 10SM BKN008 BKN020 OVC035 12/10 A2960 RMK AO2 PWINO TSNO 51011 T01220100 CIG 005V014 SLP011 $

2010/08/09 20:56
PAKI 092056Z AUTO 18021KT 2SM +RA BR OVC008 09/09 A2927 RMK AO2 TSNO 53011 60000 T00940094 CIG 005V012 P0000 SLP912 $

2010/08/09 20:56
PALG 092056Z AUTO 00000KT 10SM SCT039 OVC048 13/12 A2939 RMK AO2 TSNO 53005 60000 T01270116 RAB32E46 P0000 SLP955 $

2010/08/09 20:58
PATE 092058Z AUTO 24004KT 10SM FEW007 OVC014 13/11 A2935 RMK AO2 SLP950 T01280111 51006

2010/08/09 20:55
KMGN 092055Z AUTO 25005KT 7SM CLR 27/21 A2988 RMK AO2

2010/08/09 20:55
KMOP 092055Z AUTO 25011G15KT 10SM BKN020 BKN030 27/23 A2989 RMK AO2

2010/08/09 20:55
KOEB 092055Z AUTO 14007KT 7SM CLR 26/23 A2995 RMK AO2

2010/08/09 20:50
KOMN 092050Z 11012KT 10SM SCT020 31/23 A2993

2010/08/09 20:55
KOSC 092055Z AUTO 20007KT 7SM SCT020 SCT050 SCT065 26/23 A2989 RMK AO2

2010/08/09 20:55
KOZW 092055Z AUTO 23007KT 10SM OVC085 25/21 A2994 RMK AO2

2010/08/09 20:55
KPHN 092055Z AUTO 00000KT 10SM -RA SCT065 SCT080 SCT100 25/20 A2994 RMK AO2

2010/08/09 20:55
KRGK 092055Z AUTO 00000KT 10SM CLR 33/21 A2988 RMK AO2

2010/08/09 20:55
KRMY 092055Z AUTO 19004KT 10SM BKN065 26/22 A2994 RMK AO2

2010/08/09 20:55
KRNP 092055Z AUTO 21009KT 10SM BKN060 BKN120 27/21 A2991 RMK AO2

2010/08/09 20:55
KRQB 092055Z AUTO 27007G14KT 10SM SCT024 SCT031 28/21 A2992 RMK AO2

2010/08/09 20:55
KSJX 092055Z AUTO 28005KT 7SM BKN017 BKN027 26/21 A2989 RMK AO2

2010/08/09 20:55
KSLH 092055Z AUTO 06009KT 10SM CLR 24/21 A2989 RMK AO2

2010/08/09 20:53
KTTF 092053Z AUTO 02005KT 10SM CLR 27/22 A2993 RMK AO2

2010/08/09 20:50
KUKT 092050Z AUTO 22009KT 10SM FEW060 33/18 A2997 RMK AO1

2010/08/09 20:54
KVLL 092054Z AUTO 20004KT 7SM RA SCT025 SCT039 OVC090 24/21 A2996 RMK AO2

2010/08/09 20:55
KY70 092055Z AUTO 23012KT 10SM SCT021 SCT029 BKN055 29/22 A2991 RMK AO2 T02910218

2010/08/09 20:56
KNSE 092056Z 26006KT 8SM SCT042CB SCT070 BKN100 33/23 A2992 RMK AO2 SLP115 CB SE-S MOV SW T2 SET T03330233 56021 $

2010/08/09 20:56
KNSE 092056Z 26006KT 8SM SCT042CB SCT070 BKN100 33/23 A2992 RMK AO2 SLP115 CB SE-S MOV SW T2 SET T03330233 56021 $

2010/08/09 20:56
PPIZ 092056Z AUTO 08023G34KT 10SM SCT017 07/02 A2968 RMK AO2 TSNO 56006 T00660016 PK WND 07034/2049 SLP055 $

2010/08/09 20:55
KAWG 092055Z AUTO 00000KT 10SM 32/23 A2989 RMK AO2

2010/08/09 20:55
KAXA 092055Z AUTO 12004KT 10SM SCT025 OVC032 29/23 A2990 RMK AO2

2010/08/09 20:55
KBNW 092055Z AUTO 00000KT 10SM OVC032 30/25 A2989 RMK AO2

2010/08/09 20:55
KCAV 092055Z AUTO 00000KT 10SM BKN027 OVC033 31/24 A2990 RMK AO2

2010/08/09 20:55
KCBF 092055Z AUTO 22004KT 10SM CLR 34/26 A2986 RMK AO2

2010/08/09 20:55
KLNL 092055Z AUTO 30008KT 10SM SCT050 29/15 A2995 RMK AO2 T02910153

2010/08/09 20:55
KRPD 092055Z AUTO 25004KT 10SM CLR 31/21 A2994 RMK AO2 6//// T03100210

2010/08/09 20:55
KRRL 092055Z AUTO 36007KT 10SM CLR 31/18 A2993 RMK AO2 T03100180

2010/08/09 20:55
KRYV 092055Z AUTO 31006KT 10SM SCT028 29/22 A2992 RMK AO2

2010/08/09 20:55
KSTE 092055Z AUTO 30005KT 10SM CLR 32/20 A2991 RMK AO2

2010/08/09 20:55
KSUW 092055Z AUTO 27003KT 10SM CLR 32/21 A2987 RMK AO2

2010/08/09 20:55
KUNU 092055Z AUTO 31003KT 10SM CLR 29/20 A2992 RMK AO2 T02860204

2010/08/09 20:57
PAIW 092057Z AUTO 07007KT 10SM -RA BKN011 OVC070 15/13 A2937 RMK AO2 SLPNO P0000 60000 T01500128 52002

2010/08/09 21:00
PAPO 092100Z 36011KT 10SM CLR 13/09 A2949 RMK ASOS VIA PHONE

2010/08/09 20:57
PAUO 092057Z 35006KT 2SM BR BKN003 OVC005 13/12 A2967 RMK NOSPECI

2010/08/09 20:55
KTNU 092055Z AUTO 00000KT 10SM BKN033 OVC047 31/24 A2989 RMK AO2

2010/08/09 20:55
KTVK 092055Z AUTO 10SM CLR 31/25 A2989 RMK AO2

2010/08/09 20:55
KBVU 092055Z AUTO 17009G15KT 10SM CLR 35/M04 A2991 RMK AO2

2010/08/09 20:55
KCNC 092055Z AUTO 20005KT 10SM CLR 32/26 A2986 RMK AO2

2010/08/09 20:55
KCSQ 092055Z AUTO 21007KT 10SM CLR 33/30 A2988 RMK AO2

2010/08/09 20:55
KDEH 092055Z AUTO 35004KT 10SM SCT048 31/22 A2994 RMK AO2

2010/08/09 20:55
KDNS 092055Z AUTO 06005KT 10SM BKN027 BKN032 32/26 A2989 RMK AO2

2010/08/09 20:55
KEBS 092055Z AUTO 00000KT 10SM BKN034 OVC039 28/23 A2989 RMK AO2

2010/08/09 20:58
KJAC 092058Z 23021G28KT 8SM -TSRA SCT065 BKN075 BKN110 16/05 A3012 RMK TSB55 TS OVHD MOV NE LTG DSNT ALQDS

2010/08/09 21:00
KSLC 092100Z 26017G27KT 10SM BKN110CB BKN150 BKN200 28/00 A2998 RMK AO2 WSHFT 2040 VIRGA NE AND S-SW AND DSNT NW CB N-NE MOV NE AND DSNT SW

2010/08/09 21:00
KFMY 092100Z 17010KT 7SM -TSRA FEW012 BKN030 BKN070 26/24 A2985 RMK AO2 LTG DSNT E PRESFR P0001

2010/08/09 21:02
KSGJ 092102Z 11011KT 10SM CLR 31/24 A2994 RMK AO2

2010/08/09 20:50
LGPZ 092050Z 24004KT 9999 FEW015 25/22 Q1011 NOSIG BLU

2010/08/09 20:50
LGPZ 092050Z 24004KT 9999 FEW015 25/22 Q1011 NOSIG

2010/08/09 20:50
EGDM 092050Z 21012KT 9999 -DZ BKN005 OVC007 17/16 Q1013 YLO1

2010/08/09 20:50
EGOM 092050Z AUTO 25005KT 9999NDV // SCT019/// 11/09 Q1008

2010/08/09 20:50
EGOP 092050Z AUTO 25010KT 9999NDV // SCT005/// BKN018/// 16/15 Q1011

2010/08/09 20:50
EGWU 092050Z 23011KT 9999 SCT019 BKN050 BKN090 18/14 Q1013 WHT NOSIG

2010/08/09 20:50
EGXX 092050Z AUTO 20007KT 9999NDV // BKN070/// 19/13 Q1010

2010/08/09 20:50
LCEN 092050Z 00000KT CAVOK 26/22 Q1006 NOSIG

2010/08/09 20:50
EGNH 092050Z 23005KT 9999 FEW012 SCT040 15/13 Q1009

2010/08/09 20:50
EGNJ 092050Z AUTO 20010KT 9999NDV SCT027/// BKN032/// 20/15 Q1010

2010/08/09 20:50
EGPE 092050Z AUTO 22004KT 9999NDV NCD 12/10 Q1006

2010/08/09 20:50
EGPM 092050Z AUTO 10007KT 9999NDV BKN012/// 13/12 Q1008

2010/08/09 20:50
EGPA 092050Z AUTO 00000KT 9999NDV BKN003/// 14/14 Q1005

2010/08/09 21:00
SCAR 092100Z 20008KT CAVOK 15/09 Q1016

2010/08/09 21:00
SCDA 092100Z 23006KT 8000 OVC020 15/09 Q1016

2010/08/09 21:00
SCCF 092100Z 25017KT CAVOK 22/M12 Q1024

2010/08/09 21:00
SCFA 092100Z 17007KT 9999 FEW020 15/08 Q1015 NOSIG

2010/08/09 21:00
SCIP 092100Z 03011KT 8000 -SHRA SCT015 BKN020 18/16 Q1021 TEMPO 5000 -SHRA BKN015

2010/08/09 21:00
SCAT 092100Z 26010KT CAVOK 15/07 Q1017

2010/08/09 21:00
SCSE 092100Z 27007KT 9999 BKN017 12/09 Q1017 NEFO PLAYA 2450FT

2010/08/09 21:00
SCVM 092100Z 30006KT 9000 FEW150 12/10 Q1017

2010/08/09 21:00
SCRD 092100Z 33010KT 9000 FEW005 11/09 Q1017 RMK HZ

2010/08/09 21:00
SCSN 092100Z 19004KT CAVOK 12/06 Q1017

2010/08/09 21:00
SCEL 092100Z 17010KT CAVOK 19/01 Q1015 NOSIG

2010/08/09 21:00
SCTB 092100Z 23004KT CAVOK 21/00 Q1016

2010/08/09 21:00
SCRG 092100Z 15006KT CAVOK 19/07 Q1016

2010/08/09 21:00
SCIC 092100Z 22004KT CAVOK 14/01 Q1014

2010/08/09 21:00
SCCH 092100Z 18005KT CAVOK 16/04 Q1016

2010/08/09 21:00
SCIE 092100Z 21007KT CAVOK 14/04 Q1016

2010/08/09 20:55
OAHR 092055Z AUTO /////KT //// // ////// 27/M01 Q1010

2010/08/09 21:00
LZIB 092100Z 01002KT CAVOK 17/15 Q1017

2010/08/09 21:00
LZKZ 092100Z 01003KT CAVOK 16/14 Q1017

2010/08/09 21:00
LZTT 092100Z 24003KT 190V290 9999 OVC080 14/13 Q1018

2010/08/09 21:00
OJAI 092100Z 28004KT CAVOK 23/18 Q1009 NOSIG

2010/08/09 21:00
OJAM 092100Z 22007KT 5000 NSC 25/17 Q1009 NOSIG

2010/08/09 21:00
OJAQ 092100Z 34011KT CAVOK 32/19 Q1005

2010/08/09 21:00
LZPP 092100Z AUTO VRB02KT 9999 ////// 16/15 Q1018

2010/08/09 21:00
LZSL 092100Z 20002KT CAVOK 16/15 Q1017

2010/08/09 21:00
LZZI 092100Z 00000KT CAVOK 14/13 Q1018

2010/08/09 21:00
LHBP 092100Z VRB02KT CAVOK 15/12 Q1017 NOSIG

2010/08/09 21:00
DTTB 092100Z 09004KT CAVOK 21/17 Q1017

2010/08/09 21:00
DTTK 092100Z 10002KT CAVOK 26/12 Q1016

2010/08/09 21:00
DTTN 092100Z 03006KT CAVOK 28/10 Q1015

2010/08/09 21:00
ZMUB 092100Z VRB01MPS CAVOK 07/01 Q1008 NOSIG RMK QFE649.5 66

2010/08/09 21:00
FLLS 092100Z 13004KT CAVOK 15/09 Q1024

2010/08/09 21:00
GUCY 092100Z 00000KT 9999 BKN013 SCT110 26/25 Q1013 NOSIG

2010/08/09 21:00
GOOY 092100Z 27004KT 240V310 9999 SCT013 27/22 Q1012 NOSIG

2010/08/09 21:00
FLLS 092100Z 13004KT CAVOK 15/09 Q1024

2010/08/09 21:00
SCEL 092100Z 17010KT CAVOK 19/01 Q1015 NOSIG

2010/08/09 21:00
SCIE 092100Z 21007KT CAVOK 14/04 Q1016

2010/08/09 21:00
SCTC 092100Z 22006KT 190V260 CAVOK 14/06 Q1019

2010/08/09 21:00
SCVD 0923100Z 17006KT CAVOK 15/08 Q1021 RMK HR66

2010/08/09 21:00
SCJO 092100Z 17012KT 9999 FEW020 13/07 Q1022

2010/08/09 21:00
SCTE 092100Z 14004KT 9999 FEW040 11/08 Q1024 NOSIG

2010/08/09 21:00
SCON 092100Z AUTO 25003KT CAVOK 09/04 Q1025

2010/08/09 21:00
SCFT 092100Z 26003KT 230V310 9999 3000W HZ SCT040 11/01 Q1023

2010/08/09 21:00
SCAP 092100Z 23006KT CAVOK 11/05 Q1027

2010/08/09 21:00
SCAS 092100Z 24010KT 9999 SCT033 07/01 Q1025

2010/08/09 21:00
SCCY 092100Z 24009KT CAVOK 07/M04 Q1021

2010/08/09 21:00
SCBA 092100Z 30026KT 9999 FEW030 FEW070 04/M01 Q1018

2010/08/09 21:00
SCCC 092100Z 30011KT CAVOK 10/M01 Q1018

2010/08/09 21:00
SCHR 092100Z 21008KT 9999 FEW040 08/00 Q1019

2010/08/09 21:00
SCNT 092100Z 23012G23KT 9999 BKN015 SCT110 06/M01 Q1012

2010/08/09 21:00
SCCI 092100Z 25021G34KT 9999 FEW013 03/M01 Q1008 NOSIG

2010/08/09 21:00
SCFM 092100Z 27015KT 9999 SCT015 BKN070 03/M02 Q1008

2010/08/09 21:00
SCGZ 092100Z 26021KT 2500 -SHSN BKN023 00/M00 Q0999

2010/08/09 21:00
YSDU 092100Z AUTO 09006KT 2000NDV // SCT005 BKN017 OVC035 11/11 Q1015

2010/08/09 21:00
OJAI 092100Z 28004KT CAVOK 23/18 Q1009 NOSIG

2010/08/09 21:00
OJAM 092100Z 22007KT 5000 NSC 25/17 Q1009 NOSIG

2010/08/09 21:00
OJAQ 092100Z 34011KT CAVOK 32/19 Q1005

2010/08/09 21:00
YSDU 092100Z AUTO 09006KT 2000NDV // SCT005 BKN017 OVC035 11/11 Q1015

2010/08/09 21:00
YSCB 092100Z 08006KT 4000 RA FEW009 SCT023 OVC055 08/07 Q1018

2010/08/09 21:00
YSRI 092100Z AUTO 00000KT 6000NDV // BKN056 BKN077 OVC087 08/08 Q1019

2010/08/09 21:00
TTPP 092100Z ///06KT 9999 -SHRA SCT010CB SCT080 BKN260 27/24 Q1011 TEMPO RA

2010/08/09 21:00
WSSL 092100Z VRB02KT 9999 FEW018 BKN300 28/25 Q1007 RMK 1030Z Q1006 

2010/08/09 21:00
DTTB 092100Z 09004KT CAVOK 21/17 Q1017

2010/08/09 21:00
DTTK 092100Z 10002KT CAVOK 26/12 Q1016

2010/08/09 21:00
DTTN 092100Z 03006KT CAVOK 28/10 Q1015

2010/08/09 21:00
KNEL 092100Z AUTO 17015KT 8SM CLR 33/17 A2995 RMK AO2 SLP139 T03280167 56015 $ 

2010/08/09 20:57
PHNG 092057Z AUTO 07011G16KT 10SM SCT043 OVC050 28/18 A3012 RMK AO2 SLP195 T02780178 51006 $ 

2010/08/09 20:55
EBBL 092055Z VRB01KT 9999 SCT075 14/11 Q1016 BLU

2010/08/09 20:55
EBFN 092055Z 21005KT 9999 FEW100 14/11 Q1015 BLU

2010/08/09 20:50
EDLP 092050Z 15004KT 110V180 CAVOK 15/13 Q1017 RMK RWY24 TRL60 PB ATIS M

2010/08/09 20:50
EDNY 092050Z AUTO VRB01KT 9999 15/14 Q1017

2010/08/09 20:50
EDXW 092050Z AUTO 19006KT 9999NDV NCD 14/11 Q1015 RMK ATIS INFO C

2010/08/09 20:55
EHAM 092055Z 13007KT CAVOK 18/13 Q1014 NOSIG

2010/08/09 20:55
EHKD 092055Z AUTO 14007KT 9999NDV NCD 17/13 Q1014 BLU BLU NOSIG

2010/08/09 20:55
EHRD 092055Z 16006KT 110V180 9999 FEW040 19/11 Q1014 NOSIG

2010/08/09 20:55
ETIK 092055Z AUTO 00000KT 9999 OVC075 14/14 A3007 RMK AO2 SLP174 T01410139 51008 $

2010/08/09 20:56
KD07 092056Z AUTO 15017G25KT 32/15 A2987 RMK AO2 SLP097 T03170150 58015 PWINO TSNO 

2010/08/09 21:00
VHHH 092100Z 17003KT 9999 FEW016 28/25 Q1005 NOSIG

2010/08/09 21:00
TFFF 092100Z 10003KT 060V150 9999 -SHRA FEW013CB SCT020 BKN280 27/25 Q1013 TEMPO +SHRA

2010/08/09 21:00
WSAP 092100Z 12002KT 9999 FEW016 BKN300 28/26 Q1007

2010/08/09 21:00
SBAR 092100Z 14007KT CAVOK 25/20 Q1017

2010/08/09 21:00
SBBE 092100Z 34004KT 9999 SCT020 FEW025TCU 30/25 Q1011

2010/08/09 21:00
SBBG 092100Z 14005KT CAVOK 13/05 Q1024

2010/08/09 21:00
SBCG 092100Z 30002KT CAVOK 29/04 Q1016

2010/08/09 21:00
SBCT 092100Z 09010KT 5000 BR BKN004 OVC007 09/08 Q1024

2010/08/09 21:00
SBCZ 092100Z 20003KT 5000 HZ FEW040 33/20 Q1012

2010/08/09 21:00
SBGO 092100Z 13006KT CAVOK 31/08 Q1017

2010/08/09 21:00
SBKP 092100Z 12015KT 4500 HZ NSC 18/12 Q1021

2010/08/09 21:00
SBLO 092100Z 27004KT CAVOK 27/07 Q1018

2010/08/09 21:00
SBMA 092100Z 11006KT CAVOK 36/19 Q1011

2010/08/09 21:00
SBMN 092100Z 12003KT 9999 FEW020 31/23 Q1010

2010/08/09 21:00
SBNT 092100Z 09009KT 4000 RA BKN005 SCT020 FEW025TCU BKN100 23/22 Q1015

2010/08/09 21:00
SBPA 092100Z 14004KT CAVOK 14/03 Q1025

2010/08/09 21:00
SBPB 092100Z 06012KT CAVOK 28/22 Q1011

2010/08/09 21:00
SBPK 092100Z 14004KT CAVOK 12/03 Q1025

2010/08/09 21:00
SBPL 092100Z 13008KT 9999 SCT025 SCT070 28/14 Q1016

2010/08/09 21:00
SBPP 092100Z 21006KT CAVOK 23/13 Q1019

2010/08/09 21:00
SBRB 092100Z 00000KT 5000 FU SCT030 35/17 Q1012

2010/08/09 21:00
SBRF 092100Z 10010KT 8000 VCSH SCT007 BKN015 BKN070 23/21 Q1016

2010/08/09 21:00
SBRJ 092100Z 21009KT 7000 BKN015 BKN025 22/18 Q1021

2010/08/09 21:00
SBSN 092100Z 10007KT 9999 FEW025 31/23 Q1010

2010/08/09 21:00
SBSP 092100Z 14006KT 5000 BR BKN009 14/12 Q1024

2010/08/09 21:00
SBTE 092100Z 14003KT CAVOK 35/10 Q1011

2010/08/09 21:00
SBTT 092100Z 24004KT CAVOK 31/22 Q1011

2010/08/09 21:00
SBVT 092100Z 19004KT 9999 FEW025 BKN090 24/20 Q1017

2010/08/09 21:00
SLCB 092100Z 00000KT 9999 SKC 25/01 Q1021

2010/08/09 21:00
SLLP 092100Z 10011KT 070V130 9999 SKC 14/M07 Q1036

2010/08/09 21:00
SLVR 092100Z 16004KT 8000 SKC 25/10 Q1015

2010/08/09 21:00
SOCA 092100Z 05009KT 030V090 9999 FEW023 30/24 Q1012 NOSIG

2010/08/09 21:00
SCAR 092100Z 20008KT CAVOK 15/09 Q1016

2010/08/09 21:00
SCDA 092100Z 23006KT 8000 OVC020 15/09 Q1016

2010/08/09 21:00
SCFA 092100Z 17007KT 9999 FEW020 15/08 Q1015 NOSIG

2010/08/09 21:00
SCCF 092100Z 25017KT CAVOK 22/M12 Q1024

2010/08/09 21:00
SCAT 092100Z 26010KT CAVOK 15/07 Q1017

2010/08/09 21:00
SCIP 092100Z 03011KT 8000 -SHRA SCT015 BKN020 18/16 Q1021 TEMPO 5000 -SHRA BKN015

2010/08/09 21:00
SCSE 092100Z 27007KT 9999 BKN017 12/09 Q1017 NEFO PLAYA 2450FT

2010/08/09 21:00
SCEL 092100Z 17010KT CAVOK 19/01 Q1015 NOSIG

2010/08/09 21:00
SCIE 092100Z 21007KT CAVOK 14/04 Q1016

2010/08/09 21:00
SCTC 092100Z 22006KT 190V260 CAVOK 14/06 Q1019

2010/08/09 21:00
SCJO 092100Z 17012KT 9999 FEW020 13/07 Q1022

2010/08/09 21:00
SCTE 092100Z 14004KT 9999 FEW040 11/08 Q1024 NOSIG

2010/08/09 21:00
SCBA 092100Z 30026KT 9999 FEW030 FEW070 04/M01 Q1018

2010/08/09 21:00
SCCI 092100Z 25021G34KT 9999 FEW013 03/M01 Q1008 NOSIG

2010/08/09 21:00
SCNT 092100Z 23012G23KT 9999 BKN015 SCT110 06/M01 Q1012

2010/08/09 21:00
UGTB 092100Z VRB04KT 9999 SCT050 SCT100 25/12 Q1014 NOSIG RMK 13CLRD80

2010/08/09 21:00
UGSB 092100Z 11004KT P6000 SKC 26/24 Q1006 NOSIG

2010/08/09 21:00
UBBG 092100Z 30006KT 9999 SCT100 24/13 Q1011 NOSIG RMK R30R/CLRD70 

2010/08/09 21:00
AYPY 092100Z 00000KT 9999 SCT040 BKN140 25/24 Q1008 RMKS/ HAZE

2010/08/09 21:00
MDSD 092100Z VRB03KT 8000 VCSH SCT016CB SCT018 SCT300 27/23 Q1012 CB/NW/N/NE/SE OVR STAION VCSH/N/NW

2010/08/09 20:55
MUHA 092055Z 18010KT 7000 SCT030 OVC070 26/23 Q1013

2010/08/09 21:00
NTAA 092100Z 20012KT 9999 VCSH FEW018 27/16 Q1019 WS ALL RWY NOSIG

2010/08/09 21:00
NWWW 092100Z AUTO VRB03KT 9999NDV NCD 19/14 Q1024

2010/08/09 20:55
PAEH 092055Z AUTO 16018G36KT 130V190 4SM OVC005 09/07 RMK AO1 9 T00890073

2010/08/09 20:58
PAGA 092058Z AUTO 14008KT 10SM -RA BKN023 OVC028 14/11 A2948 RMK AO2 RAE03B54 SLPNO P0000 60000 T01440111 53006

2010/08/09 20:55
PALU 092055Z AUTO 07017KT 5SM 08/07 A2960 RMK AO1 T00830073

2010/08/09 20:55
PASV 092055Z AUTO 18012KT 10SM BKN017 OVC023 10/08 A2956 RMK AO1 T01000084

2010/08/09 20:56
PASY 092056Z 27005KT 8SM SCT001 OVC005 09/09 A2986 RMK AO2 SLP112 6//// T00890089 53006 PNO $

2010/08/09 20:55
PATC 092055Z AUTO 08006KT 5SM SCT013 BKN028 OVC035 14/12 A2935 RMK AO1 T01390117

2010/08/09 20:55
PATL 092055Z AUTO 13007KT 080V200 10SM OVC013 11/11 A2953 RMK AO1 0 T01110106

2010/08/09 21:00
PKWA 092100Z AUTO 07014KT 7SM -RA SCT013 BKN031 OVC047 28/24 A2989 RMK AO2 T02770239

2010/08/09 21:00
RJOI 092100Z 14004KT 9999 FEW020 BKN040 OVC080 28/24 A2992 RMK SLP133 FIRST T02780239 53006

2010/08/09 21:00
SOCA 092100Z 05009KT 030V090 9999 FEW023 30/24 Q1012 NOSIG

2010/08/09 21:00
TFFR 092100Z 11005KT 080V140 9999 FEW015CB SCT026 29/24 Q1013 TEMPO 4000 SHRA

2010/08/09 20:55
TXKF 092055Z 19011KT 9999 FEW018 SCT180 BKN300 29/23 Q1021

2010/08/09 21:00
UKBB 092100Z 15003MPS 090V200 9000 VCTS -SHRA SCT033CB 24/20 Q1015 88CLRD95 TEMPO 1000 TSRA

2010/08/09 21:00
UKHH 092100Z 32002MPS 4100 DU SKC 27/14 Q1013 080///65 NOSIG

2010/08/09 21:00
UKOO 092100Z 02006MPS 4900 FU SKC 28/18 Q1011 34090070 NOSIG

2010/08/09 21:00
UKDE 092100Z 17001MPS CAVOK 26/12 Q1011 02CLRD70 NOSIG

2010/08/09 21:00
UKDD 092100Z 03003MPS CAVOK 25/14 Q1012 08090070 NOSIG

2010/08/09 21:00
UKFF 092100Z 09003MPS CAVOK 23/15 Q1010 01010070 NOSIG

2010/08/09 21:00
UKLL 092100Z VRB02MPS 9999 VCTS -SHRA BKN009 SCT020CB 15/15 Q1017 31290550 TEMPO 0800 +TSRAGR

2010/08/09 21:00
UKCC 092100Z 10003MPS CAVOK 25/10 Q1012 08090070 NOSIG

2010/08/09 21:00
UKDR 092100Z 06004MPS CAVOK 26/12 Q1011 1809//70 NOSIG

2010/08/09 20:56
KDMA 092056Z VRB05KT 10SM SCT100 34/14 A2994 RMK AO2A WND DATA ESTMD ALSTG/SLP ESTMD

2010/08/09 20:59
KNGU 092059Z 09008KT 070V130 10SM FEW045 SCT250 32/20 A3002 RMK AO2 SLP165 T03170200 58005

2010/08/09 20:55
KSVN 092055Z 07011G17KT 12SM FEW032 SCT250 32/23 A2995 RMK SLP145 58010 WND DATA ESTMD ALSTG/SLP EST

2010/08/09 20:51
MUCF 092051Z 34006KT 4000 -RA FEW018 OVC060 25/23 Q1014

2010/08/09 20:56
MUCL 092056Z 34007KT 310V020 7000 -RA FEW015 OVC060 25/24 Q1015

2010/08/09 20:50
MUCM 092050Z 11006KT 060V170 9000 SCT020 32/22 Q1012

2010/08/09 20:54
MUCU 092054Z 14012KT 9999 SCT020CB 31/26 Q1014

2010/08/09 20:55
MUHA 092055Z 18010KT 7000 SCT030 OVC070 26/23 Q1013

2010/08/09 20:51
MUHG 092051Z 16014KT 0100 +TSRA BKN016 OVC090 23/21 Q1013

2010/08/09 20:50
MUVR 092050Z 22009KT 180V270 9000 FEW018 OVC070 25/22 Q1014

2010/08/09 21:00
NTAA 092100Z 20012KT 9999 VCSH FEW018 27/16 Q1019 WS ALL RWY NOSIG

2010/08/09 20:55
OAHR 092055Z AUTO /////KT //// // ////// 27/M01 Q1010

2010/08/09 21:00
OJAI 092100Z 28004KT CAVOK 23/18 Q1009 NOSIG

2010/08/09 21:00
OJAM 092100Z 22007KT 5000 NSC 25/17 Q1009 NOSIG

2010/08/09 21:00
OJAQ 092100Z 34011KT CAVOK 32/19 Q1005

2010/08/09 21:00
SCAP 092100Z 23006KT CAVOK 11/05 Q1027

2010/08/09 21:00
SCAS 092100Z 24010KT 9999 SCT033 07/01 Q1025

2010/08/09 21:00
SCGZ 092100Z 26021KT 2500 -SHSN BKN023 00/M00 Q0999

2010/08/09 21:00
SCNT 092100Z 23012G23KT 9999 BKN015 SCT110 06/M01 Q1012

2010/08/09 21:00
SCON 092100Z AUTO 25003KT CAVOK 09/04 Q1025

2010/08/09 21:00
SCRD 092100Z 33010KT 9000 FEW005 11/09 Q1017 RMK HZ

2010/08/09 21:00
SCSE 092100Z 27007KT 9999 BKN017 12/09 Q1017 NEFO PLAYA 2450FT

2010/08/09 21:00
SCTB 092100Z 23004KT CAVOK 21/00 Q1016

2010/08/09 21:00
TTPP 092100Z ///06KT 9999 -SHRA SCT010CB SCT080 BKN260 27/24 Q1011 TEMPO RA

2010/08/09 21:00
WSSS 092100Z 14005KT 9999 SCT016 BKN300 28/26 Q1007 NOSIG

2010/08/09 20:58
PABN 092058Z 29010KT 20SM SCT070 SCT100 17/07 A2966 RMK NOSPECI

2010/08/09 20:56
PAVC 092056Z AUTO 21016G32KT 1 1/2SM BR 10/08 A2961 RMK AO2 PWINO TSNO 51007 T01000083 PK WND 21032/2018 SLP028 $

2010/08/09 21:00
KCPK 092100Z AUTO 14007KT 7SM -RA CLR 33/21 A3002 RMK AO2

2010/08/09 21:00
KDPL 092100Z AUTO 00000KT 10SM CLR 33/18 A3000 RMK AO2

2010/08/09 20:59
KEDE 092059Z AUTO 08005KT 10SM CLR 33/17 A2999 RMK AO2

2010/08/09 21:00
KEXX 092100Z AUTO 19003KT 10SM CLR 32/22 A3001 RMK AO2

2010/08/09 21:00
KFQD 092100Z AUTO 00000KT 10SM SCT055 SCT080 SCT100 34/19 A3001 RMK AO2

2010/08/09 21:00
KGEV 092100Z AUTO 34006KT 10SM CLR 29/15 A3016 RMK AO2

2010/08/09 21:00
KHBI 092100Z AUTO 14003KT 10SM CLR 32/19 A3004 RMK AO2

2010/08/09 21:00
KHLX 092100Z AUTO 20005KT 10SM SCT055 32/18 RMK AO2

2010/08/09 20:59
KMHV 092059Z VRB05KT 40SM SKC 30/M06 A2994

2010/08/09 21:00
KONX 092100Z AUTO 12004KT 10SM CLR 29/23 A3002 RMK AO2

2010/08/09 20:53
KSFB 092053Z 11012KT 10SM FEW090 33/23 A2989

2010/08/09 21:00
KUKF 092100Z AUTO 00000KT 7SM CLR 33/23 A3005 RMK AO1

2010/08/09 21:00
PABE 092100Z 17019G26KT 6SM R19R/5500VP6000FT -RA BR SCT007 OVC013 10/09 A2937 RMK AO2 PK WND 17026/2100 P0000

2010/08/09 21:00
PAMC 092100Z VRB03KT 8SM -RA FEW008 BKN016 OVC022 13/12 A2954 RMK AO2 P0000

2010/08/09 21:00
PAOM 092100Z 12011KT 10SM FEW007 BKN022 OVC028 11/09 A2934 RMK AO2

2010/08/09 21:01
KBIL 092101Z 04009KT 10SM TS SCT075CB BKN100 29/11 A2985 RMK AO2 TSB01 OCNL LTGICCG VC S-SW TS S-SW MOV NE

2010/08/09 20:47
KEVB 092047Z 13015G20KT 10SM SCT020 31/25 A2993

2010/08/09 21:00
SBMO 092100Z 19002KT 6000 SCT006 SCT018 BKN090 21/19 Q1017 

2010/08/09 21:00
LEMO 092100Z 03005KT 350V050 CAVOK 34/15 Q1013 NOSIG

2010/08/09 21:00
SBTF 092100Z 00000KT 9999 TS SCT018 SCT030CB OVC100 27/23 Q1010

2010/08/09 20:55
PKMR 092055Z 07006KT 15SM SCT015 BKN045 BKN110 OVC300 29/25 A2987 RMK SLP115 60002 8/878 T02850252 52017 

2010/08/09 20:50
LGAD 092050Z 00000KT 9999 FEW015 24/21 Q1011

2010/08/09 20:50
LGAV 092050Z VRB03KT CAVOK 26/17 Q1010 NOSIG

2010/08/09 20:50
LGIR 092050Z 29006KT 9999 FEW018 27/24 Q1008 NOSIG

2010/08/09 20:50
LGKL 092050Z 00000KT CAVOK 23/20 Q1009

2010/08/09 20:50
LGKO 092050Z 33007KT CAVOK 26/23 Q1005

2010/08/09 20:50
LGKR 092050Z 00000KT CAVOK 25/17 Q1009 NOSIG

2010/08/09 20:50
LGLM 092050Z 33010KT CAVOK 27/20 Q1008

2010/08/09 20:50
LGRP 092050Z 24009KT 9999 FEW018 28/24 Q1004 NOSIG

2010/08/09 20:50
LGTS 092050Z 35006KT CAVOK 29/14 Q1011 NOSIG

2010/08/09 20:50
LGAL 092050Z 03011KT CAVOK 29/19 Q1010

2010/08/09 20:50
LGEL 092050Z 33006KT CAVOK 29/17 Q1009

2010/08/09 20:50
LGKV 092050Z 06005KT 9999 FEW030 26/21 Q1009

2010/08/09 20:50
LGMT 092050Z /////KT CAVOK 29/22 Q1009

2010/08/09 20:50
LGRX 092050Z 00000KT CAVOK 24/20 Q1009 NOSIG

2010/08/09 20:50
LGSR 092050Z 31010KT CAVOK 27/19 Q1007 NOSIG

2010/08/09 21:00
SBFI 092100Z 22004KT CAVOK 17/12 Q1019

2010/08/09 20:50
LGSA 092050Z 31004KT 9999 FEW020 25/23 Q1009

2010/08/09 20:50
LGHI 092050Z 35010KT CAVOK 31/20 Q1008

2010/08/09 20:50
EGYP 092050Z 24013KT 9999 VCSH FEW015CB SCT025 BKN035 01/M01 Q0995 BLU TEMPO 0500 +SHSN VV/// RED

2010/08/09 20:55
EHEH 092055Z AUTO 12003KT 9999NDV NCD 17/13 Q1015 BLU

2010/08/09 20:55
EHKD 092055Z AUTO 14007KT 9999NDV NCD 17/13 Q1014 BLU BLU NOSIG

2010/08/09 20:50
MMTP 092050Z 18010KT 10SM BKN020TCU BKN300 29/26 A2987 RMK SLP099 57017 918 8/206

2010/08/09 21:00
SUSO 092100Z 00000KT CAVOK 17/03 Q1023

2010/08/09 21:00
YSDU 092100Z AUTO 09006KT 2000NDV // SCT005 BKN017 OVC035 11/11 Q1015

2010/08/09 21:00
SBCY 092100Z 12003KT CAVOK 35/07 Q1012

2010/08/09 20:55
EHAK 092055Z AUTO 18019KT 9999NDV 17/15 Q1011

2010/08/09 20:55
EHDV 092055Z AUTO 17021KT 9999NDV NCD 17/15 Q1011

2010/08/09 20:55
EHFD 092055Z AUTO 18021KT 9999NDV NCD 18/14 Q1013

2010/08/09 20:55
EHFZ 092055Z AUTO 19025KT 9999NDV ///////// 18/15 Q1012

2010/08/09 20:55
EHJA 092055Z AUTO 16020KT 9999NDV NCD 17/15 Q1012

2010/08/09 20:55
EHKV 092055Z AUTO 19017KT 9999NDV 17/15 Q1013

2010/08/09 20:55
EHMA 092055Z AUTO 13012KT 9999NDV ///////// 19/14 Q1015

2010/08/09 20:55
EHMG 092055Z AUTO 17017KT 9999NDV NCD 19/15 Q1014

2010/08/09 20:55
EHPG 092055Z AUTO 21018KT 160V290 9999NDV NCD 18/14 Q1013

2010/08/09 20:55
EHQE 092055Z AUTO 18009KT 9999NDV ///////// 18/15 Q1014

2010/08/09 21:00
UBBB 092100Z 27004KT CAVOK 29/29 Q1009 NOSIG RMK R88CLRD70

2010/08/09 21:00
SBJP 092100Z 14006KT 2500 -RA BKN010 OVC070 23/22 Q1016 

2010/08/09 21:00
SVMC 092100Z 18007KT 9999 BKN013 32/23 Q1010

2010/08/09 21:00
SVJC 092100Z 27006KT 9999 SCT040 32/23 Q1008

2010/08/09 21:00
SVSA 092100Z 00000KT 9999 FEW017 CB SCT020 31/21 Q1012

2010/08/09 21:00
SVCR 092100Z 12010KT 9999 FEW030 32/25 Q1008

2010/08/09 21:00
SVVG 092100Z 00000KT 9999 SCT020 32/XX Q1009

2010/08/09 21:00
SVSZ 092100Z 00000KT 9999 SCT020 XX/XX Q1008

2010/08/09 21:00
SVMD 092100Z 23006KT 9000 VCDZ SCT020 SCT100 24/19 Q1019

2010/08/09 21:00
SVPM 092100Z 00000KT 9999 SCT070 XX/XX Q1014

2010/08/09 20:50
LGPZ 092050Z 24004KT 9999 FEW015 25/22 Q1011 NOSIG

2010/08/09 20:50
EGDL 092050Z 19007KT 9999 OVC008 17/16 Q1012 NOSIG

2010/08/09 20:50
EGDY 092050Z 20005KT 9999 BKN010 18/16 Q1013 NOSIG

2010/08/09 20:50
EGOV 092050Z 20008KT 9999 FEW018 SCT060 15/14 Q1009 NOSIG

2010/08/09 20:50
EGUB 092050Z 19010KT 9999 FEW012 BKN014 BKN035 18/15 Q1012 TEMPO 7000 -RADZ

2010/08/09 20:50
EGVN 092050Z 20008KT 9999 BKN010 OVC040 18/16 Q1012 TEMPO SCT006

2010/08/09 20:50
EGXC 092050Z 23008KT 9999 FEW038 BKN080 19/14 Q1010 NOSIG

2010/08/09 21:00
SBEG 092100Z 13006KT 9999 FEW025 31/21 Q1010

2010/08/09 21:00
UBBN 092100Z 12008KT 9999 BKN100 28/08 Q1009 R14R/CLRD60 NOSIG RMK G/O QFE682

2010/08/09 21:00
MPMG 092100Z 14005KT 9999 SCT018 BKN300 30/24 Q1010 NOSIG

2010/08/09 21:00
MPBO 092100Z 00000KT 99999 FEW025 SCT100 30/24 Q1008 MPCH 092100Z 05006KT 9999 FEW020 BKN300 Q1011

2010/08/09 21:00
MPDA 092100Z 18006KT 9999 SCT025TCU SCT120 28/24 Q1009

2010/08/09 21:00
MPHO 092100Z 18006KT 9999 FEW016 SCT030 BKN200 Q1011

2010/08/09 20:50
EGPA 092050Z AUTO 00000KT 9999NDV BKN003/// 14/14 Q1005

2010/08/09 20:50
EGPC 092050Z AUTO 32006KT 9999NDV -RA FEW023/// SCT031/// 11/11 Q1005

2010/08/09 20:50
EGPL 092050Z AUTO 17005KT 9999NDV NCD 11/10 Q1005

2010/08/09 20:50
EGPM 092050Z AUTO 10007KT 9999NDV BKN012/// 13/12 Q1008

2010/08/09 20:50
EGPO 092050Z AUTO 21004KT 9999NDV FEW026/// SCT035/// 12/09 Q1005

2010/08/09 20:50
EGNH 092050Z 23005KT 9999 FEW012 SCT040 15/13 Q1009

2010/08/09 20:50
EGNJ 092050Z AUTO 20010KT 9999NDV SCT027/// BKN032/// 20/15 Q1010

2010/08/09 20:50
EGPE 092050Z AUTO 22004KT 9999NDV NCD 12/10 Q1006

2010/08/09 21:00
YBCS 092100Z 13008KT 6000 -SHRA FEW002 SCT025 BKN035 22/21 Q1015

2010/08/09 21:00
YBCS 092100Z 13008KT 6000 -SHRA FEW002 SCT025 BKN035 22/21 Q1015

2010/08/09 21:00
KSLC 092100Z 26017G27KT 10SM BKN110CB BKN150 BKN200 28/00 A2998

2010/08/09 20:56
KD07 092056Z AUTO 15017G25KT 32/15 A2987 RMK AO2 SLP097 T03170150 58015 PWINO TSNO 

2010/08/09 20:50
EGPU 092050Z AUTO 19004KT 9999NDV // FEW045/// 12/10 Q1004

2010/08/09 21:00
TFFF 092100Z 10003KT 060V150 9999 -SHRA FEW013CB SCT020 BKN280 27/25 Q1013 TEMPO +SHRA

2010/08/09 21:00
GMFF 092100Z 19027KTG40KT 6000 TSRA BKN033 SCT040CB BKN100 25/17 Q1018 NOSIG

2010/08/09 21:00
GMFM 092100Z 15010KT 8000 FEW026 FEW033CB SCT100 31/14 Q1018

2010/08/09 21:00
GMFO 092100Z 20002KT 9999 FEW033 SCT100 28/17 Q1017 NOSIG

2010/08/09 21:00
GMMC 092100Z 32004KT 5000 NSC 29/22 Q1011

2010/08/09 21:00
GMMH 092100Z 32008KT CAVOK 22/19 Q1013

2010/08/09 21:00
GMML 092100Z 33007KT 8000 FEW016 SCT100 22/18 Q1014

2010/08/09 21:00
GMMW 092100Z 00000KT CAVOK 24/20 Q1015

2010/08/09 21:00
GMMZ 092100Z 24007KT CAVOK 29/07 Q1023

2010/08/09 21:00
GMTA 092100Z 32002KT 8000 SCT010 SCT100 23//22 Q1015

2010/08/09 21:00
YPGV 092100Z 00000KT 0900 FG BKN001 OVC190 22/21 Q1012

2010/08/09 21:00
YSDU 092100Z AUTO 09006KT 2000NDV // SCT005 BKN017 OVC035 11/11 Q1015

2010/08/09 21:00
GMAD 092100Z 00000KT 8000 NSC 24/20 Q1014 NOSIG

2010/08/09 21:00
GMFF 092100Z 19027KTG40KT 6000 TSRA BKN033 SCT040CB BKN100 25/17 Q1018 NOSIG

2010/08/09 21:00
GMME 092100Z 22004KT 8000 NSC 25/22 Q1013 NOSIG

2010/08/09 21:00
GMMN 092100Z 15003KT 110V190 CAVOK 30/16 Q1015 NOSIG

2010/08/09 21:00
GMMX 092100Z 06008KTKT 6000 SCT033 FEW040CB BKN100 32/15 Q1016 NOSIG

2010/08/09 21:00
GMTT 092100Z 07019KT 9999 FEW016 SCT200 26/17 Q1013 NOSIG

2010/08/09 21:00
KSLC 092100Z 26017G27KT 10SM BKN110CB BKN150 BKN200 28/00 A2998

2010/08/09 20:58
KJAC 092058Z 23021G28KT 8SM -TSRA SCT065 BKN075 BKN110 16/05 A3012

2010/08/09 21:00
KSLC 092100Z 26017G27KT 10SM BKN110CB BKN150 BKN200 28/00 A2998

2010/08/09 21:00
TBPB 092100Z 19011KT 9999 SCT014 SCT260 29/24 Q1013 NOSIG

2010/08/09 20:55
KQGV 092055Z 32017G21KT 9999 SCT180 39/M01 A2948 RMK SLP969 58008

2010/08/09 20:55
KQRY 092055Z AUTO 02004KT 9999 FEW120 BKN130 17/15 A3006 RMK AO2 SLP061 60006 T01720147 57016

2010/08/09 20:55
KQXF 092055Z AUTO 36005KT 9999 FEW200 34/01 A2954 RMK AO2 SLP992 T03390008 52004 $

2010/08/09 20:50
EGDX 092050Z AUTO 24008KT 8000NDV RADZ BKN012/// 17/16 Q1012

2010/08/09 21:00
FMMI 092100Z AUTO 09006KT 14/13 Q1026

2010/08/09 21:01
CYPR 092101Z AUTO /////KT 9SM SCT005 BKN014 BKN051 15/13 A3003 RMK SLP169 WND MISG

2010/08/09 20:56
KNFL 092056Z 16007KT 10SM FEW080 32/02 A2992 RMK AO2 SLP107 T03170017 58017 

2010/08/09 20:50
EGDM 092050Z 21012KT 9999 -DZ BKN005 OVC007 17/16 Q1013 YLO1

2010/08/09 20:50
EGEC 092050Z AUTO 14005KT 110V190 9999NDV // FEW040/// 12/10 Q1007

2010/08/09 20:50
EGOM 092050Z AUTO 25005KT 9999NDV // SCT019/// 11/09 Q1008

2010/08/09 20:50
EGOP 092050Z AUTO 25010KT 9999NDV // SCT005/// BKN018/// 16/15 Q1011

2010/08/09 20:50
EGWU 092050Z 23011KT 9999 SCT019 BKN050 BKN090 18/14 Q1013 WHT NOSIG

2010/08/09 20:50
EGXX 092050Z AUTO 20007KT 9999NDV // BKN070/// 19/13 Q1010

2010/08/09 21:00
EPGD 092100Z VRB01KT CAVOK 17/15 Q1016

2010/08/09 21:00
EPKK 092100Z 23002KT CAVOK 15/14 Q1017

2010/08/09 21:00
EPKT 092100Z 15004KT CAVOK 15/14 Q1017

2010/08/09 21:00
EPPO 092100Z 01004KT CAVOK 17/16 Q1016

2010/08/09 21:00
EPRZ 092100Z 26006KT CAVOK 17/16 Q1016

2010/08/09 21:00
EPWA 092100Z 24004KT 190V300 CAVOK 19/16 Q1016 NOSIG

2010/08/09 21:00
EPWR 092100Z 24005KT CAVOK 18/16 Q1017

2010/08/09 21:00
LBBG 092100Z 36007MPS CAVOK 27/20 Q1010 NOSIG

2010/08/09 21:00
LBGO 092100Z VRB01MPS CAVOK 22/20 Q1013 NOSIG

2010/08/09 21:00
LBPD 092100Z 00000MPS CAVOK 24/20 Q1013 NOSIG

2010/08/09 21:00
LBSF 092100Z 27003MPS CAVOK 21/16 Q1017 NOSIG

2010/08/09 21:00
LBWN 092100Z 28003MPS 210V350 CAVOK 25/21 Q1011 NOSIG

2010/08/09 21:00
LDDU 092100Z 01013KT 330V060 CAVOK 27/12 Q1013

2010/08/09 21:00
LDZD 092100Z 12001KT CAVOK 20/16 Q1014

2010/08/09 21:00
LHBP 092100Z VRB02KT CAVOK 15/12 Q1017 NOSIG

2010/08/09 21:00
LYBE 092100Z 34003KT CAVOK 21/16 Q1017 NOSIG

2010/08/09 21:00
LYNI 092100Z 08003KT 040V100 CAVOK 20/16 Q1017

2010/08/09 21:00
LYPG 092100Z 04005KT CAVOK 26/18 Q1013 NOSIG

2010/08/09 21:00
LZIB 092100Z 01002KT CAVOK 17/15 Q1017

2010/08/09 21:00
LZTT 092100Z 24003KT 190V290 9999 OVC080 14/13 Q1018

2010/08/09 21:00
SBFI 092100Z 22004KT CAVOK 17/12 Q1019

2010/08/09 21:00
SUMU 092100Z 25004KT 5000 BR NSC 12/06 Q1024 NOSIG

2010/08/09 21:00
SUAA 092100Z 24004KT 9000 FU SCT200 11/05 Q1024

2010/08/09 21:00
SULS 092100Z 22007KT 7000 NSC 11/06 Q1024

2010/08/09 21:00
SUSO 092100Z 00000KT CAVOK 17/03 Q1023

2010/08/09 20:56
PHBK 092056Z AUTO 31008KT 10SM BKN050 28/19 A3011 RMK AO2 SLP197 6//// T02830189 TSNO $ 

2010/08/09 21:00
SBBV 092100Z 32003KT 9999 -RA SCT020 FEW027TCU BKN080 28/22 Q1010

2010/08/09 21:00
SBCY 092100Z 12003KT CAVOK 35/07 Q1012

2010/08/09 21:00
SBEG 092100Z 13006KT 9999 FEW025 31/21 Q1010

2010/08/09 21:00
SBFI 092100Z 22004KT CAVOK 17/12 Q1019

2010/08/09 21:00
SBMO 092100Z 19002KT 6000 SCT006 SCT018 BKN090 21/19 Q1017

2010/08/09 21:00
SBMQ 092100Z 09006KT 9999 FEW020 FEW025TCU 31/26 Q1011

2010/08/09 21:00
SBTF 092100Z 00000KT 9999 TS SCT018 SCT030CB OVC100 27/23 Q1010

2010/08/09 21:00
SCAP 092100Z 23006KT CAVOK 11/05 Q1027

2010/08/09 21:00
SCAR 092100Z 20008KT CAVOK 15/09 Q1016

2010/08/09 21:00
SCAS 092100Z 24010KT 9999 SCT033 07/01 Q1025

2010/08/09 21:00
SCBA 092100Z 30026KT 9999 FEW030 FEW070 04/M01 Q1018

2010/08/09 21:00
SCCH 092100Z 18005KT CAVOK 16/04 Q1016

2010/08/09 21:00
SCCI 092100Z 25021G34KT 9999 FEW013 03/M01 Q1008 NOSIG

2010/08/09 21:00
SCDA 092100Z 23006KT 8000 OVC020 15/09 Q1016

2010/08/09 21:00
SCEL 092100Z 17010KT CAVOK 19/01 Q1015 NOSIG

2010/08/09 21:00
SCFA 092100Z 17007KT 9999 FEW020 15/08 Q1015 NOSIG

2010/08/09 21:00
SCGZ 092100Z 26021KT 2500 -SHSN BKN023 00/M00 Q0999

2010/08/09 21:00
SCIE 092100Z 21007KT CAVOK 14/04 Q1016

2010/08/09 21:00
SCNT 092100Z 23012G23KT 9999 BKN015 SCT110 06/M01 Q1012

2010/08/09 21:00
SCON 092100Z AUTO 25003KT CAVOK 09/04 Q1025

2010/08/09 21:00
SCRD 092100Z 33010KT 9000 FEW005 11/09 Q1017 RMK HZ

2010/08/09 21:00
SCSE 092100Z 27007KT 9999 BKN017 12/09 Q1017 NEFO PLAYA 2450FT

2010/08/09 21:00
SCTB 092100Z 23004KT CAVOK 21/00 Q1016

2010/08/09 21:00
SCTE 092100Z 14004KT 9999 FEW040 11/08 Q1024 NOSIG

2010/08/09 21:00
SUSO 092100Z 00000KT CAVOK 17/03 Q1023

2010/08/09 21:00
SVCR 092100Z 12010KT 9999 FEW030 32/25 Q1008

2010/08/09 21:00
SVJC 092100Z 27006KT 9999 SCT040 32/23 Q1008

2010/08/09 21:00
SVMC 092100Z 18007KT 9999 BKN013 32/23 Q1010

2010/08/09 21:00
SVMD 092100Z 23006KT 9000 VCDZ SCT020 SCT100 24/19 Q1019

2010/08/09 21:00
SVSA 092100Z 00000KT 9999 FEW017 CB SCT020 31/21 Q1012

2010/08/09 21:03
CYOO 092103Z AUTO 24007KT 210V280 4SM RA VCTS BR 22/21 A2993 RMK SLP135 DENSITY ALT 1300FT LTNG DIST ALQDS CLD MISG

2010/08/09 21:00
YBCS 092100Z 13008KT 6000 -SHRA FEW002 SCT025 BKN035 22/21 Q1015 FM2100 12008KT 9999 -SHRA SCT018 BKN040 TEMPO 2100/2400 3000 SHRA BKN014

2010/08/09 21:00
YBCS 092100Z 13008KT 6000 -SHRA FEW002 SCT025 BKN035 22/21 Q1015 FM2100 12008KT 9999 -SHRA SCT018 BKN040 TEMPO 2100/2400 3000 SHRA BKN014

2010/08/09 21:02
KROC 092102Z 30010KT 4SM TSRA FEW009 BKN025CB BKN041 OVC130 24/21 A2994 RMK AO2 TSB02 OCNL LTGICCC OHD TS OHD MOV E P0001 

2010/08/09 21:00
YMML 092100Z 27005KT 5000 RA FEW010 BKN045 BKN055 06/05 Q1015 FM2100 34005KT 9999 -RA FEW030 BKN055 INTER 2100/2400 4000 RA BKN015

2010/08/09 21:00
YMML 092100Z 27005KT 5000 RA FEW010 BKN045 BKN055 06/05 Q1015 FM2100 34005KT 9999 -RA FEW030 BKN055 INTER 2100/2400 4000 RA BKN015

2010/08/09 20:55
PTTP 092055Z 25003KT 15SM BKN018TCU OVC120 24/24 A2991 RMK RAE30 TCU ALQDS SLP128 60038 8/22/ T02380235 52007

2010/08/09 21:00
OPKC 092100Z 29006KT 7000 SCT020 BKN100 27/25 Q.1001 NOSIG

2010/08/09 20:55
OPLA 092055Z 00000KT 4000 FU FEW100 30/28 Q1001 NOSIG

2010/08/09 21:00
OPNH 092100Z 00000KTS 4000 HZ SCT035 SCT100 28/25 1000

2010/08/09 21:00
OPPS 092100Z NW-06KTS 4000 BR FEW040 BKN100 28/27 Q1002.7

2010/08/09 21:04
PADM 092104Z AUTO 18013KT 1 1/4SM RA BR BKN014 OVC065 12/09 A2940 RMK AO2 TSNO CIG 003V024 P0001 $

2010/08/09 21:00
FOOL 092100Z 17005KT 140V200 8000 SCT010 OVC033 25/23 Q1015 NOSIG

2010/08/09 21:01
PAIK 092101Z AUTO 08009G15KT 10SM OVC020 14/12 A2949 RMK AO2 RAE2033 SLP023 P0000 60001 T01440122 53002

2010/08/09 21:01
PAKF 092101Z AUTO 21020G37KT 10SM FEW011 BKN047 13/08 A2953 RMK AO2 PK WND 19038/2010 SLP093 T01280078 50003

2010/08/09 20:45
CWSK 092045Z AUTO 15004KT 17/15 RMK AO1 T01730147

2010/08/09 21:00
SBUG 092100Z 11007KT CAVOK 16/02 Q1023 

2010/08/09 21:00
SAWH 092100Z 25013KT 5000 SN OVC015 M01/M03 Q0999

2010/08/09 21:02
KROC 092102Z 30010KT 4SM TSRA FEW009 BKN025CB BKN041 OVC130 24/21 A2994 RMK AO2 TSB02 OCNL LTGICCC OHD TS OHD MOV E P0001

2010/08/09 20:56
KD07 092056Z AUTO 15017G25KT 32/15 A2987 RMK AO2 SLP097 T03170150 58015 PWINO TSNO

2010/08/09 20:56
KD07 092056Z AUTO 15017G25KT 32/15 A2987 RMK AO2 SLP097 T03170150 58015 PWINO TSNO

2010/08/09 21:00
MDPP 092100Z 09010KT 9999 SCT022 32/26 Q1014

2010/08/09 21:00
MDST 092100Z 09014KT 9999 FEW016CB SCT023 33/24 Q1012 CB/E/S/SW

2010/08/09 21:00
MDCY 092100Z 03010KT 8000 -TSRA FEW014CB BKN018 25/25 Q1015 CB/S/SE

2010/08/09 21:00
MDPC 092100Z 09010KT 9999 SCT020 SCT300 30/24 Q1011 NOSIG

2010/08/09 21:00
MDJB 092100Z 00000KT 6000 -TSRA FEW014CB BKN016 SCT300 26/24 Q1012 CB/NE/E/S/SW/W/N

2010/08/09 21:00
MDLR 092100Z 12012KT 9999 SCT025 31/24 Q1012

2010/08/09 21:00
MDBH 092100Z 13014KT 9999 SCT016CB FEW0020 SCT300 32/26 Q1012 CB/E/W/NW/N

2010/08/09 21:00
MDSD 092100Z VRB03KT 8000 VCSH SCT016CB SCT018 SCT300 27/23 Q1012 CB/NW/N/NE/SE OVR STAION VCSH/N/NW

2010/08/09 21:00
KNEL 092100Z AUTO 17015KT 8SM CLR 33/17 A2995 RMK AO2 SLP139 T03280167 56015 $

2010/08/09 21:00
SAWG 092100Z 25026G37KT 9999 FEW030 BKN200 06/M03 Q1008

2010/08/09 20:55
PKMR 092055Z 07006KT 15SM SCT015 BKN045 BKN110 OVC300 29/25 A2987 RMK SLP115 60002 8/878 T02850252 52017

2010/08/09 20:55
PTTP 092055Z 25003KT 15SM BKN018TCU OVC120 24/24 A2991 RMK RAE30 TCU ALQDS SLP128 60038 8/22/ T02380235 52007

2010/08/09 21:01
PAIK 092101Z AUTO 08009G15KT 10SM OVC020 14/12 A2949 RMK AO2 RAE2033 SLP023 P0000 60001 T01440122 53002

2010/08/09 21:00
SBGR 092100Z 17005KT 5000 BR SCT012 OVC018 14/11 Q1024

2010/08/09 21:00
KNEL 092100Z AUTO 17015KT 8SM CLR 33/17 A2995 RMK AO2 SLP139 T03280167 56015 $

2010/08/09 20:56
KDMA 092056Z VRB05KT 10SM SCT100 34/14 A2994 RMK AO2A WND DATA ESTMD ALSTG/SLP ESTMD

2010/08/09 20:59
KNGU 092059Z 09008KT 070V130 10SM FEW045 SCT250 32/20 A3002 RMK AO2 SLP165 T03170200 58005

2010/08/09 20:55
KSVN 092055Z 07011G17KT 12SM FEW032 SCT250 32/23 A2995 RMK SLP145 58010 WND DATA ESTMD ALSTG/SLP EST

2010/08/09 21:00
TTPP 092100Z ///06KT 9999 -SHRA SCT010CB SCT080 BKN260 27/24 Q1011 TEMPO RA

2010/08/09 21:00
PABE 092100Z 17019G26KT 6SM R19R/5500VP6000FT -RA BR SCT007 OVC013 10/09 A2937 RMK AO2 PK WND 17026/2100 P0000

2010/08/09 21:00
PAMC 092100Z VRB03KT 8SM -RA FEW008 BKN016 OVC022 13/12 A2954 RMK AO2 P0000

2010/08/09 21:00
PAOM 092100Z 12011KT 10SM FEW007 BKN022 OVC028 11/09 A2934 RMK AO2

2010/08/09 21:01
KBIL 092101Z 04009KT 10SM TS SCT075CB BKN100 29/11 A2985 RMK AO2 TSB01 OCNL LTGICCG VC S-SW TS S-SW MOV NE

2010/08/09 21:02
KROC 092102Z 30010KT 4SM TSRA FEW009 BKN025CB BKN041 OVC130 24/21 A2994 RMK AO2 TSB02 OCNL LTGICCC OHD TS OHD MOV E P0001

2010/08/09 20:56
KNFL 092056Z 16007KT 10SM FEW080 32/02 A2992 RMK AO2 SLP107 T03170017 58017

2010/08/09 20:56
PHBK 092056Z AUTO 31008KT 10SM BKN050 28/19 A3011 RMK AO2 SLP197 6//// T02830189 TSNO $

2010/08/09 20:56
KD07 092056Z AUTO 15017G25KT 32/15 A2987 RMK AO2 SLP097 T03170150 58015 PWINO TSNO

2010/08/09 20:56
KD07 092056Z AUTO 15017G25KT 32/15 A2987 RMK AO2 SLP097 T03170150 58015 PWINO TSNO

2010/08/09 20:47
KEVB 092047Z 13015G20KT 10SM SCT020 31/25 A2993

2010/08/09 21:04
PADM 092104Z AUTO 18013KT 1 1/4SM RA BR BKN014 OVC065 12/09 A2940 RMK AO2 TSNO CIG 003V024 P0001 $

2010/08/09 21:00
UTTT 092100Z 09003MPS CAVOK 23/07 Q1006 R08R/CLRD70 TEMPO 03005G10MPS

2010/08/09 20:58
PABN 092058Z 29010KT 20SM SCT070 SCT100 17/07 A2966 RMK NOSPECI

2010/08/09 21:00
KCPK 092100Z AUTO 14007KT 7SM -RA CLR 33/21 A3002 RMK AO2

2010/08/09 21:00
KDPL 092100Z AUTO 00000KT 10SM CLR 33/18 A3000 RMK AO2

2010/08/09 20:59
KEDE 092059Z AUTO 08005KT 10SM CLR 33/17 A2999 RMK AO2

2010/08/09 21:00
KEXX 092100Z AUTO 19003KT 10SM CLR 32/22 A3001 RMK AO2

2010/08/09 21:00
KFQD 092100Z AUTO 00000KT 10SM SCT055 SCT080 SCT100 34/19 A3001 RMK AO2

2010/08/09 21:00
KGEV 092100Z AUTO 34006KT 10SM CLR 29/15 A3016 RMK AO2

2010/08/09 21:00
KHBI 092100Z AUTO 14003KT 10SM CLR 32/19 A3004 RMK AO2

2010/08/09 21:00
KHLX 092100Z AUTO 20005KT 10SM SCT055 32/18 RMK AO2

2010/08/09 20:59
KMHV 092059Z VRB05KT 40SM SKC 30/M06 A2994

2010/08/09 21:00
KONX 092100Z AUTO 12004KT 10SM CLR 29/23 A3002 RMK AO2

2010/08/09 20:53
KSFB 092053Z 11012KT 10SM FEW090 33/23 A2989

2010/08/09 21:00
KUKF 092100Z AUTO 00000KT 7SM CLR 33/23 A3005 RMK AO1

2010/08/09 21:00
SBPP 092100Z 21006KT CAVOK 23/13 Q1019

2010/08/09 21:00
YBCS 092100Z 13008KT 6000 -SHRA FEW002 SCT025 BKN035 22/21 Q1015

2010/08/09 21:00
YBCS 092100Z 13008KT 6000 -SHRA FEW002 SCT025 BKN035 22/21 Q1015 FM2100 12008KT 9999 -SHRA SCT018 BKN040 TEMPO 2100/2400 3000 SHRA BKN014

2010/08/09 21:00
SPHI 092100Z 19015KT CAVOK 22/15 Q1014 RMK BIRD HAZARD RWY 19/01 PP000

2010/08/09 21:00
SPIM 092100Z 17008KT 5000 HZ SCT018 17/13 Q1015 NOSIG RMK BIRD HAZARD RWY 15 PP000

2010/08/09 21:00
SPQT 092100Z /////KT 8000 FEW020 SCT100 31/21 Q1012 NOSIG RMK BRUMOSO BIRD HAZARD RWY 06/24 PP000

2010/08/09 21:00
SPQU 092100Z 26008KT 230V300 CAVOK 18/M14 Q1026 NOSIG RMK PP000

2010/08/09 21:00
SPRU 092100Z 17009KT 9999 FEW013 17/13 Q1013 RMK BIRD HAZARD RWY20 PP000

2010/08/09 21:00
SPSO 092100Z 28008KT 7000 FEW012 19/13 Q1016 RMK BIRDS HAZARD RWY 22/04 W PP000

2010/08/09 21:00
SPTN 092100Z 22008KT CAVOK 17/09 Q1013 RMK PP000

2010/08/09 21:00
SPZO 092100Z 02006KT 290V050 9999 SKC 20/M19 Q1029 NOSIG RMK PP000

2010/08/09 21:00
YMML 092100Z 27005KT 5000 RA FEW010 BKN045 BKN055 06/05 Q1015 FM2100 34005KT 9999 -RA FEW030 BKN055 INTER 2100/2400 4000 RA BKN015

2010/08/09 21:00
PAOM 092100Z 12011KT 10SM FEW007 BKN022 OVC028 11/09 A2934

2010/08/09 20:57
MMTO 092057Z 09005KT 5SM TSRA BKN015CB BKN070 BKN200 20/13 A3030 RMK 8/963 RAB55

2010/08/09 20:50
EGOV 092050Z 20008KT 9999 FEW018 SCT060 15/14 Q1009 NOSIG

2010/08/09 20:50
EGPU 092050Z AUTO 19004KT 9999NDV // FEW045/// 12/10 Q1004

2010/08/09 20:50
EGDM 092050Z 21012KT 9999 -DZ BKN005 OVC007 17/16 Q1013 YLO1

2010/08/09 20:50
EGDY 092050Z 20005KT 9999 BKN010 18/16 Q1013 NOSIG

2010/08/09 21:02
KROC 092102Z 30010KT 4SM TSRA FEW009 BKN025CB BKN041 OVC130 24/21 A2994

2010/08/09 21:01
KBIL 092101Z 04009KT 10SM TS SCT075CB BKN100 29/11 A2985

2010/08/09 21:00
YSCB 092100Z 08006KT 4000 RA FEW009 SCT023 OVC055 08/07 Q1018 FM2100 09010KT 4000 -RA BKN019 BKN060 FM2230 09010KT 9000 -RA BKN024 BKN060 TEMPO 2100/2400 3000 RA BKN009

2010/08/09 21:02
YSDU 092102Z AUTO 09006KT 2200NDV // SCT005 BKN017 OVC035 11/11 Q1015

2010/08/09 21:00
LKKV 092100Z 10001KT CAVOK 14/13 Q1019

2010/08/09 21:00
LKMT 092100Z 21005KT CAVOK 16/15 Q1017 NOSIG

2010/08/09 21:00
LKPR 092100Z VRB02KT CAVOK 16/14 Q1018 NOSIG

2010/08/09 21:00
LKTB 092100Z 13001KT CAVOK 16/13 Q1017 NOSIG

2010/08/09 21:00
GCLP 092100Z 05003KT 010V080 9999 BKN023 23/19 Q1014 NOSIG

2010/08/09 21:00
GCXO 092100Z 32005KT 7000 3000NW VCFG FEW001 BKN004 18/17 Q1016 NOSIG

2010/08/09 21:00
GCTS 092100Z VRB02KT 9999 FEW020 BKN026 22/19 Q1014 NOSIG

2010/08/09 21:00
GCRR 092100Z 28006KT 250V320 9999 FEW015 25/20 Q1013

2010/08/09 21:00
GCFV 092100Z VRB01KT 8000 FEW020 23/21 Q1013

2010/08/09 21:00
LYBE 092100Z 34003KT CAVOK 21/16 Q1017 NOSIG

2010/08/09 21:00
LYBT 092100Z 36004KT 340V080 CAVOK 18/17 Q1017 NOSIG

2010/08/09 21:00
LYKV 092100Z VRB01KT CAVOK 17/16 Q1018 NOSIG

2010/08/09 21:00
LYNI 092100Z 08003KT 040V100 CAVOK 20/16 Q1017

2010/08/09 21:00
LYPG 092100Z 04005KT CAVOK 26/18 Q1013 NOSIG

2010/08/09 21:00
LYTV 092100Z VRB01KT CAVOK 20/17 Q1012

2010/08/09 21:00
LYUZ 092100Z 00000KT CAVOK 14/12 Q1021

2010/08/09 21:00
LYVR 092100Z VRB01KT CAVOK 17/16 Q1016

2010/08/09 21:00
UGTB 092100Z VRB04KT 9999 SCT050 SCT100 25/12 Q1014 NOSIG RMK 13CLRD80

2010/08/09 21:00
UGSB 092100Z 11004KT P6000 SKC 26/24 Q1006 NOSIG

2010/08/09 21:00
UKBB 092100Z 15003MPS 090V200 9000 VCTS -SHRA SCT033CB 24/20 Q1015 88CLRD95 TEMPO 1000 TSRA

2010/08/09 21:00
UKHH 092100Z 32002MPS 4100 DU SKC 27/14 Q1013 080///65 NOSIG

2010/08/09 21:00
UKOO 092100Z 02006MPS 4900 FU SKC 28/18 Q1011 34090070 NOSIG

2010/08/09 21:00
UKDE 092100Z 17001MPS CAVOK 26/12 Q1011 02CLRD70 NOSIG

2010/08/09 21:00
UKDD 092100Z 03003MPS CAVOK 25/14 Q1012 08090070 NOSIG

2010/08/09 21:00
UKFF 092100Z 09003MPS CAVOK 23/15 Q1010 01010070 NOSIG

2010/08/09 21:00
UKLL 092100Z VRB02MPS 9999 VCTS -SHRA BKN009 SCT020CB 15/15 Q1017 31290550 TEMPO 0800 +TSRAGR

2010/08/09 21:00
UKCC 092100Z 10003MPS CAVOK 25/10 Q1012 08090070 NOSIG

2010/08/09 21:00
UKDR 092100Z 06004MPS CAVOK 26/12 Q1011 1809//70 NOSIG

2010/08/09 21:00
LATI 092100Z 19002KT CAVOK 22/22 Q1013 NOSIG

2010/08/09 20:45
LHDC 092045Z 22002KT CAVOK 18/16 Q1017

2010/08/09 20:45
LHKE 092045Z 31002MPS CAVOK 17/14 Q1016 NOSIG RMK BLU

2010/08/09 20:45
LHPA 092045Z 17001MPS CAVOK 16/15 Q1019 NOSIG RMK BLU

2010/08/09 20:45
LHPP 092045Z 06003KT CAVOK 18/16 Q1019

2010/08/09 20:45
LHPR 092045Z 00000KT CAVOK 16/15 Q1018

2010/08/09 20:45
LHSN 092045Z 30001MPS CAVOK 19/16 Q1017 NOSIG RMK BLU

2010/08/09 20:45
LHUD 092045Z 00000KT CAVOK 17/16 Q1018

2010/08/09 21:00
YSCB 092100Z 08006KT 4000 RA FEW009 SCT023 OVC055 08/07 Q1018 FM2100 09010KT 4000 -RA BKN019 BKN060 FM2230 09010KT 9000 -RA BKN024 BKN060 TEMPO 2100/2400 3000 RA BKN009

2010/08/09 21:00
BIAR 092100Z 33007KT CAVOK 13/08 Q1013

2010/08/09 21:00
BIEG 092100Z 02010KT 3000N 8000S VCFG BKN001 09/09 Q1012

2010/08/09 21:00
BIKF 092100Z 31008KT 9999 BKN012 11/08 Q1014

2010/08/09 21:00
BIRK 092100Z 33002KT 9999 BKN011 11/09 Q1014

2010/08/09 21:00
OMAA 092100Z 36005KT 250V040 CAVOK 33/23 Q0996 A2943 NOSIG

2010/08/09 21:00
OMAD 092100Z 01007KT CAVOK 34/25 Q0997 A2944

2010/08/09 21:00
OMAL 092100Z 08006KT CAVOK 37/12 Q0999 A2951

2010/08/09 21:00
OMDB 092100Z 07006KT 050V170 CAVOK 37/14 Q0997 NOSIG

2010/08/09 21:00
OMDW 092100Z 07002KT CAVOK 33/14 Q0998 NOSIG

2010/08/09 21:00
OMFJ 092100Z 07003KT CAVOK 31/24 Q0999 A2951

2010/08/09 21:00
OMRK 092100Z 10006KT CAVOK 34/25 Q0996 A2944

2010/08/09 21:00
OMSJ 092100Z 08003KT CAVOK 30/15 Q0997

2010/08/09 21:00
YPGV 092100Z 00000KT 0900 FG BKN001 BKN190 22/21 Q1012

2010/08/09 21:00
LEAS 092100Z 08005KT 050V110 9999 SCT020 BKN030 19/16 Q1020 NOSIG

2010/08/09 21:00
LEBB 092100Z 00000KT 9999 SCT030 BKN040 21/16 Q1020 NOSIG

2010/08/09 21:00
LECO 092100Z 32003KT 290V010 CAVOK 20/16 Q1018

2010/08/09 21:00
LEGE 092100Z 02005KT 6000 FEW010 SCT034 21/20 Q1017

2010/08/09 21:00
LEST 092100Z VRB01KT CAVOK 17/14 Q1019 NOSIG

2010/08/09 21:00
LEZG 092100Z 29013KT 9999 FEW060 24/14 Q1017

2010/08/09 21:00
LEVT 092100Z 05003KT 9999 FEW018 BKN026 16/15 Q1021

2010/08/09 21:00
LERS 092100Z 12006KT 080V160 9999 FEW030 25/21 Q1017

2010/08/09 21:00
LEMH 092100Z 06003KT 9999 FEW020 23/20 Q1016

2010/08/09 21:00
LEAM 092100Z 25003KT CAVOK 25/21 Q1016

2010/08/09 21:00
LEGR 092100Z VRB01KT 9999 FEW090 29/15 Q1018

2010/08/09 21:02
YSDU 092102Z AUTO 09006KT 2200NDV // SCT005 BKN017 OVC035 11/11 Q1015

2010/08/09 21:00
EIDW 092100Z 25008KT 9999 FEW028 14/10 Q1010 NOSIG

2010/08/09 21:00
EINN 092100Z 25010KT 9999 FEW024 BKN050 14/11 Q1011 NOSIG

2010/08/09 21:00
EICK 092100Z 29005KT 9999 BKN037 SCT250 14/09 Q1012 NOSIG

2010/08/09 21:00
YAMB 092100Z 18004KT 9999 FEW010 OVC090 15/14 Q1021

2010/08/09 21:00
YBCG 092100Z AUTO 01025KT 9999NDV // SCT034 BKN051 OVC062 19/14 Q1021

2010/08/09 21:00
YBHM 092100Z AUTO 05008KT //// // ////// 23/19 Q1016

2010/08/09 21:00
YBMA 092100Z 16009KT CAVOK 13/03 Q1017

2010/08/09 21:00
YBRK 092100Z 06003KT 9999 FEW013 BKN150 21/18 Q1017

2010/08/09 21:00
YBRM 092100Z AUTO 09007KT 9999NDV // NCD 12/M03 Q1017

2010/08/09 21:00
YCIN 092100Z AUTO 13008KT //// // ////// 13/M03 Q1017

2010/08/09 21:00
YFRT 092100Z AUTO 23009KT //// // ////// 05/05 Q1024

2010/08/09 21:00
YMAV 092100Z AUTO 32001KT 9000NDV // SCT120 04/04 Q1016

2010/08/09 21:00
YMHB 092100Z 30008KT 9999 FEW001 02/01 Q1026

2010/08/09 21:00
YMLT 092100Z AUTO 18009KT 9999NDV // BKN042 BKN047 OVC060 05/04 Q1024

2010/08/09 21:00
YPEA 092100Z AUTO 05009KT 9999NDV // NCD 10/M03 Q1021

2010/08/09 21:00
YPGV 092100Z 00000KT 0900 FG BKN001 BKN190 22/21 Q1012

2010/08/09 21:00
YPKG 092100Z AUTO 11002KT 9999NDV // NCD 03/00 Q1026

2010/08/09 21:00
YPPD 092100Z AUTO 11009KT 9999NDV // NCD 14/M08 Q1019

2010/08/09 21:00
YSCB 092100Z 08006KT 4000 RA FEW009 SCT023 OVC055 08/07 Q1018 FM2100 09010KT 4000 -RA BKN019 BKN060 FM2230 09010KT 9000 -RA BKN024 BKN060 TEMPO 2100/2400 3000 RA BKN009

2010/08/09 21:02
YSDU 092102Z AUTO 09006KT 2200NDV // SCT005 BKN017 OVC035 11/11 Q1015

2010/08/09 21:00
YSNF 092100Z 17007KT 9999 FEW039 16/06 Q1030

2010/08/09 21:00
YSRI 092100Z AUTO 00000KT 6000NDV // BKN056 BKN077 OVC087 08/08 Q1019

2010/08/09 21:00
YWLM 092100Z 04005KT 9999 -RA FEW050 SCT080 OVC100 13/12 Q1019

2010/08/09 21:02
KROC 092102Z 30010KT 4SM TSRA FEW009 BKN025CB BKN041 OVC130 24/21 A2994

2010/08/09 21:00
YSTW 092100Z AUTO 20007KT 9000NDV // SCT037 BKN056 OVC072 12/10 Q1018

2010/08/09 21:00
YSWG 092100Z 07013KT 9999 FEW020 SCT035 BKN065 10/08 Q1014

2010/08/09 21:00
YTEF 092100Z AUTO 13011KT //// // ////// 08/M05 Q1021

2010/08/09 21:00
YTNK 092100Z 15008KT CAVOK 10/01 Q1018

2010/08/09 21:00
YTRE 092100Z AUTO 03008KT //// // ////// 16/14 Q1020

2010/08/09 21:00
YWGT 092100Z AUTO 14009KT //// // ////// 08/07 Q1014

2010/08/09 21:00
YWHA 092100Z AUTO 23006KT 9999NDV // NCD 07/06 Q1012

2010/08/09 21:00
YWLM 092100Z 04005KT 9999 -RA FEW050 SCT080 OVC100 13/12 Q1019

2010/08/09 20:50
EGXG 092050Z AUTO 27002KT 9999NDV FEW070/// 15/14 Q1009

2010/08/09 20:50
EGXT 092050Z AUTO 21011KT 9999NDV FEW060/// 18/14 Q1011

2010/08/09 20:50
EGXZ 092050Z AUTO 28004KT 9999NDV SCT080/// 16/12 Q1009

2010/08/09 20:50
EGYD 092050Z AUTO 21009KT 9999NDV // FEW070/// 18/14 Q1010

2010/08/09 20:50
EGOS 092050Z AUTO 23005KT 9999NDV -SHRA BKN050/// 16/13 Q1010

2010/08/09 20:50
EGVP 092050Z AUTO 22010KT 9999NDV // OVC007/// 17/16 Q1013

2010/08/09 20:50
EGXE 092050Z AUTO 26007KT 9999NDV FEW027/// BKN070/// 15/13 Q1009

2010/08/09 20:50
EGXJ 092050Z AUTO 21014KT 9999NDV // BKN046/// 18/14 Q1010

2010/08/09 20:50
EGXU 092050Z AUTO 23005KT 9999NDV // SCT070/// 16/13 Q1009

2010/08/09 21:00
LEAB 092100Z 19006KT CAVOK 25/13 Q1019 NOSIG

2010/08/09 21:00
LELN 092100Z 28007KT CAVOK 21/01 Q1020

2010/08/09 21:00
LESA 092100Z 26005KT CAVOK 25/14 Q1019

2010/08/09 21:00
LETO 092100Z 00000KT 9999 FEW050 28/12 Q1017 NOSIG

2010/08/09 21:00
LEVD 092100Z 34005KT 9999 FEW030 23/05 Q1019

2010/08/09 20:50
ETUO 092050Z AUTO 00000KT 9999NDV // BKN070/// 17/14 Q1016

2010/08/09 21:00
LEJR 092100Z 18004KT 9999 FEW020 28/10 Q1014

2010/08/09 21:00
LEPP 092100Z 33005KT 300V360 CAVOK 17/15 Q1020

2010/08/09 21:00
LEXJ 092100Z VRB02KT 9999 BKN040 20/16 Q1020

2010/08/09 21:00
LEMD 092100Z VRB02KT CAVOK 29/12 Q1017 NOSIG

2010/08/09 21:00
LEBL 092100Z 05003KT 010V080 9999 FEW020 25/20 Q1017 NOSIG

2010/08/09 21:00
LEPA 092100Z 00000KT CAVOK 22/18 Q1016 NOSIG

2010/08/09 21:00
LEZL 092100Z 07002KT CAVOK 33/14 Q1013 NOSIG

2010/08/09 21:00
LEMG 092100Z 10003KT CAVOK 27/18 Q1016 NOSIG

2010/08/09 21:00
LEVC 092100Z 36003KT 330V050 CAVOK 28/15 Q1015 NOSIG

2010/08/09 21:00
LEAL 092100Z VRB01KT 9999 FEW050 28/19 Q1016 NOSIG

2010/08/09 21:00
LEIB 092100Z 36003KT CAVOK 24/20 Q1016 NOSIG

2010/08/09 21:00
LELC 092100Z 00000KT CAVOK 26/20 Q1015 NOSIG

2010/08/09 21:00
LEVX 092100Z 01006KT 310V030 CAVOK 23/16 Q1017

2010/08/09 21:00
GCLA 092100Z VRB02KT 9999 FEW018 BKN025 22/18 Q1014

2010/08/09 21:00
YAMB 092100Z 18004KT 9999 FEW010 OVC090 15/14 Q1021

2010/08/09 21:00
YBCG 092100Z AUTO 01025KT 9999NDV // SCT034 BKN051 OVC062 19/14 Q1021

2010/08/09 21:00
YBHM 092100Z AUTO 05008KT //// // ////// 23/19 Q1016

2010/08/09 21:00
YBMA 092100Z 16009KT CAVOK 13/03 Q1017

2010/08/09 21:00
YBRK 092100Z 06003KT 9999 FEW013 BKN150 21/18 Q1017

2010/08/09 21:00
YBRM 092100Z AUTO 09007KT 9999NDV // NCD 12/M03 Q1017

2010/08/09 21:00
YCIN 092100Z AUTO 13008KT //// // ////// 13/M03 Q1017

2010/08/09 21:00
YFRT 092100Z AUTO 23009KT //// // ////// 05/05 Q1024

2010/08/09 21:00
YMAV 092100Z AUTO 32001KT 9000NDV // SCT120 04/04 Q1016

2010/08/09 21:00
YMHB 092100Z 30008KT 9999 FEW001 02/01 Q1026

2010/08/09 21:00
YMLT 092100Z AUTO 18009KT 9999NDV // BKN042 BKN047 OVC060 05/04 Q1024

2010/08/09 21:00
YPEA 092100Z AUTO 05009KT 9999NDV // NCD 10/M03 Q1021

2010/08/09 21:00
YPGV 092100Z 00000KT 0900 FG BKN001 BKN190 22/21 Q1012

2010/08/09 21:00
YPKG 092100Z AUTO 11002KT 9999NDV // NCD 03/00 Q1026

2010/08/09 21:00
YPPD 092100Z AUTO 11009KT 9999NDV // NCD 14/M08 Q1019

2010/08/09 21:00
YSCB 092100Z 08006KT 4000 RA FEW009 SCT023 OVC055 08/07 Q1018 FM2100 09010KT 4000 -RA BKN019 BKN060 FM2230 09010KT 9000 -RA BKN024 BKN060 TEMPO 2100/2400 3000 RA BKN009

2010/08/09 21:02
YSDU 092102Z AUTO 09006KT 2200NDV // SCT005 BKN017 OVC035 11/11 Q1015

2010/08/09 21:00
YSNF 092100Z 17007KT 9999 FEW039 16/06 Q1030

2010/08/09 21:00
YSRI 092100Z AUTO 00000KT 6000NDV // BKN056 BKN077 OVC087 08/08 Q1019

2010/08/09 21:00
YWLM 092100Z 04005KT 9999 -RA FEW050 SCT080 OVC100 13/12 Q1019

2010/08/09 21:00
K2G4 092100Z AUTO 21005KT 10SM SCT055 28/12 A3012 RMK AO1

2010/08/09 21:03
KCBE 092103Z AUTO 00000KT 10SM CLR 34/16 A2999 RMK AO1

2010/08/09 21:02
K2W6 092102Z AUTO 14006KT 10SM CLR 31/17 A3000 RMK AO1

2010/08/09 21:00
KCGE 092100Z AUTO 20005KT 10SM CLR 33/21 A3000 RMK AO1

2010/08/09 21:05
KCGS 092105Z AUTO 22005KT 10SM CLR 35/18 A2996 RMK AO1

2010/08/09 21:00
SLLP 092100Z 10011KT 070V130 9999 SKC 14/M07 Q1036

2010/08/09 21:00
SLVR 092100Z 16004KT 8000 SKC 25/10 Q1015

2010/08/09 21:00
SLCB 092100Z 00000KT 9999 SKC 25/01 Q1021

2010/08/09 21:00
SLTJ 092100Z 13014KT 9999 SKC 18/09 Q1020

2010/08/09 21:00
SBGR 092100Z 17005KT 5000 BR SCT012 OVC018 14/11 Q1024

2010/08/09 21:01
KBIL 092101Z 04009KT 10SM TS SCT075CB BKN100 29/11 A2985

2010/08/09 21:01
KBIL 092101Z 04009KT 10SM TS SCT075CB BKN100 29/11 A2985

2010/08/09 21:01
KDMW 092101Z AUTO 17007KT 152V212 10SM SCT065 BKN090 34/19 A3000 RMK AO2

2010/08/09 21:03
KFME 092103Z AUTO 14009KT 10SM SCT060 SCT070 30/22 A2999 RMK AO1

2010/08/09 21:03
KFDK 092103Z AUTO 16007KT 130V190 10SM SCT100 34/18 A2998 RMK AO2

2010/08/09 21:03
KW29 092103Z AUTO 17008KT 10SM CLR 31/19 A2997 RMK AO1

2010/08/09 21:02
KROC 092102Z 30010KT 4SM TSRA FEW009 BKN025CB BKN041 OVC130 24/21 A2994

2010/08/09 21:00
PABE 092100Z 17019G26KT 6SM R19R/5500VP6000FT -RA BR SCT007 OVC013 10/09 A2937

2010/08/09 21:00
PAMC 092100Z VRB03KT 8SM -RA FEW008 BKN016 OVC022 13/12 A2954

2010/08/09 21:00
PAOM 092100Z 12011KT 10SM FEW007 BKN022 OVC028 11/09 A2934

2010/08/09 20:50
EGDM 092050Z 21012KT 9999 -DZ BKN005 OVC007 17/16 Q1013 YLO1

2010/08/09 20:50
EGDX 092050Z AUTO 24008KT 8000NDV RADZ BKN012/// 17/16 Q1012

2010/08/09 20:50
EGEC 092050Z AUTO 14005KT 110V190 9999NDV // FEW040/// 12/10 Q1007

2010/08/09 20:50
EGNH 092050Z 23005KT 9999 FEW012 SCT040 15/13 Q1009

2010/08/09 20:50
EGNJ 092050Z AUTO 20010KT 9999NDV SCT027/// BKN032/// 20/15 Q1010

2010/08/09 20:50
EGOM 092050Z AUTO 25005KT 9999NDV // SCT019/// 11/09 Q1008

2010/08/09 20:50
EGOP 092050Z AUTO 25010KT 9999NDV // SCT005/// BKN018/// 16/15 Q1011

2010/08/09 20:50
EGPA 092050Z AUTO 00000KT 9999NDV BKN003/// 14/14 Q1005

2010/08/09 20:50
EGPE 092050Z AUTO 22004KT 9999NDV NCD 12/10 Q1006

2010/08/09 20:50
EGPM 092050Z AUTO 10007KT 9999NDV BKN012/// 13/12 Q1008

2010/08/09 20:50
EGPU 092050Z AUTO 19004KT 9999NDV // FEW045/// 12/10 Q1004

2010/08/09 20:50
EGWU 092050Z 23011KT 9999 SCT019 BKN050 BKN090 18/14 Q1013 WHT NOSIG

2010/08/09 20:50
EGXX 092050Z AUTO 20007KT 9999NDV // BKN070/// 19/13 Q1010

2010/08/09 21:00
BIKF 092100Z 31008KT 9999 BKN012 11/08 Q1014

2010/08/09 21:00
LUKK 092100Z 32006KT 9999 SCT050CB 23/19 Q1012 WS RWY08 08CLRD65 NOSIG

2010/08/09 21:00
UBBB 092100Z 27004KT CAVOK 29/29 Q1009 NOSIG RMK R88CLRD70

2010/08/09 21:00
UHHH 092100Z METAR 11004MPS 9999 BKN003 OVC019CB 20/20 Q1005 NOSIG

2010/08/09 21:00
UKBB 092100Z 15003MPS 090V200 9000 VCTS -SHRA SCT033CB 24/20 Q1015 88CLRD95 TEMPO 1000 TSRA

2010/08/09 21:00
UKFF 092100Z 09003MPS CAVOK 23/15 Q1010 01010070 NOSIG

2010/08/09 21:00
UKLL 092100Z VRB02MPS 9999 VCTS -SHRA BKN009 SCT020CB 15/15 Q1017 31290550 TEMPO 0800 +TSRAGR

2010/08/09 21:00
UKOO 092100Z 02006MPS 4900 FU SKC 28/18 Q1011 34090070 NOSIG

2010/08/09 21:00
UTTT 092100Z 09003MPS CAVOK 23/07 Q1006 R08R/CLRD70 TEMPO 03005G10MPS

2010/08/09 20:58
CYKL 092058Z AUTO 29007KT 250V320 9SM BKN022 OVC096 14/10 A2961

2010/08/09 21:01
CYPR 092101Z AUTO /////KT 9SM SCT005 BKN014 BKN051 15/13 A3003 RMK SLP169 WND MISG

2010/08/09 20:59
CYTZ 092059Z AUTO 29018G27KT 3SM RA VCTS 22/20 A2993 RMK PRESRR SLP136 DENSITY ALT 1100FT PCPN 15.2MM PAST HR MAX WND 23029KT AT 2024Z LTNG DIST NE E SE CLD MISG RVR MISG

2010/08/09 21:01
KCBM 092101Z AUTO 09009KT 4SM -TSRA BR OVC055 26/23 A2994 RMK AO2 SLP138 $

2010/08/09 21:00
KFCS 092100Z AUTO 01003KT 10SM -DZ FEW080 BKN100 BKN130 24/14 A3013 RMK AO2 DZB2100 SLP124

2010/08/09 20:57
MMTO 092057Z 09005KT 5SM TSRA BKN015CB BKN070 BKN200 20/13 A3030 RMK 8/963 RAB55

2010/08/09 21:00
RODN 092100Z 16012G23KT 9999 FEW017 SCT065 BKN090 27/26 A2974 RMK AO2A RAE2056DZB2056E2100 CIG 060 RWY05 SLP071

2010/08/09 21:02
TFFF 092102Z 10003KT 060V150 9999 -SHRA FEW013CB SCT020 BKN280 27/25 Q1013 TEMPO +SHRA RMK B2

2010/08/09 21:00
YBCS 092100Z 13008KT 6000 -SHRA FEW002 SCT025 BKN035 22/21 Q1015

2010/08/09 21:00
YSCB 092100Z 08006KT 4000 RA FEW009 SCT023 OVC055 08/07 Q1018

2010/08/09 21:00
YSDU 092100Z AUTO 09006KT 2000NDV // SCT005 BKN017 OVC035 11/11 Q1015

2010/08/09 21:00
YSRI 092100Z AUTO 00000KT 6000NDV // BKN056 BKN077 OVC087 08/08 Q1019

2010/08/09 21:00
MHAM 092100Z 04012KT 9999 TS FEW030 FEW034CB BKN080 30/25 CB TS NE

2010/08/09 21:00
MHTR 092100Z 08014KT 9999 FEW025TCU BKN250 32/27 TCU SE S W HZ

2010/08/09 21:00
MHTE 092100Z 09006KT 9999 SCT024TCU 31/24 Q1011 TCU S SSW HZ

2010/08/09 21:00
MHYR 092100Z 04006KT 9999 SCT025TCU 31/20 TCU TD FEW080 HZ

2010/08/09 21:00
MHPL 092100Z 10003KT 9999 SCT030TCU SCT250 32/25 Q1013 TCU SE CTE S SW W HZ

2010/08/09 21:00
MHSR 092100Z 01004KT 9999 SCT025CB BKN250 28/19 CB SE S SW TCU TD

2010/08/09 21:00
MHNO 092100Z 18004KT 9999 TS SCT040CB 27/// CB E NW TS E TCU TD HZ

2010/08/09 21:00
MHLE 092100Z 05005KT 9999 TS SCT024CB BKN200 25/16 Q1022 CB TCU TD TS S

2010/08/09 21:00
MHCH 092100Z 34002KT 9999 TS SCT030TCU FEW032CB BKN080 29/24 CB TCU TD TS SW

2010/08/09 21:00
ORSU 092100Z 36006KT CAVOK 27/03 Q1008 

2010/08/09 20:50
EGOS 092050Z AUTO 23005KT 9999NDV -SHRA BKN050/// 16/13 Q1010

2010/08/09 20:50
EGVP 092050Z AUTO 22010KT 9999NDV // OVC007/// 17/16 Q1013

2010/08/09 20:50
EGXG 092050Z AUTO 27002KT 9999NDV FEW070/// 15/14 Q1009

2010/08/09 20:50
EGXJ 092050Z AUTO 21014KT 9999NDV // BKN046/// 18/14 Q1010

2010/08/09 20:50
EGXT 092050Z AUTO 21011KT 9999NDV FEW060/// 18/14 Q1011

2010/08/09 20:50
EGXU 092050Z AUTO 23005KT 9999NDV // SCT070/// 16/13 Q1009

2010/08/09 20:50
EGYD 092050Z AUTO 21009KT 9999NDV // FEW070/// 18/14 Q1010

2010/08/09 21:00
EINN 092100Z 25010KT 9999 FEW024 BKN050 14/11 Q1011 NOSIG

2010/08/09 20:50
ETUO 092050Z AUTO 00000KT 9999NDV // BKN070/// 17/14 Q1016

2010/08/09 21:00
LEAB 092100Z 19006KT CAVOK 25/13 Q1019 NOSIG

2010/08/09 21:00
LEAL 092100Z VRB01KT 9999 FEW050 28/19 Q1016 NOSIG

2010/08/09 21:00
LEAM 092100Z 25003KT CAVOK 25/21 Q1016

2010/08/09 21:00
LEBL 092100Z 05003KT 010V080 9999 FEW020 25/20 Q1017 NOSIG

2010/08/09 21:00
LEIB 092100Z 36003KT CAVOK 24/20 Q1016 NOSIG

2010/08/09 21:00
LELC 092100Z 00000KT CAVOK 26/20 Q1015 NOSIG

2010/08/09 21:00
LELN 092100Z 28007KT CAVOK 21/01 Q1020

2010/08/09 21:00
LEMD 092100Z VRB02KT CAVOK 29/12 Q1017 NOSIG

2010/08/09 21:00
LEMG 092100Z 10003KT CAVOK 27/18 Q1016 NOSIG

2010/08/09 21:00
LEPA 092100Z 00000KT CAVOK 22/18 Q1016 NOSIG

2010/08/09 21:00
LEPP 092100Z 33005KT 300V360 CAVOK 17/15 Q1020

2010/08/09 21:00
LESA 092100Z 26005KT CAVOK 25/14 Q1019

2010/08/09 21:00
LEST 092100Z VRB01KT CAVOK 17/14 Q1019 NOSIG

2010/08/09 21:00
LETO 092100Z 00000KT 9999 FEW050 28/12 Q1017 NOSIG

2010/08/09 21:00
LEVC 092100Z 36003KT 330V050 CAVOK 28/15 Q1015 NOSIG

2010/08/09 21:00
LEVD 092100Z 34005KT 9999 FEW030 23/05 Q1019

2010/08/09 21:00
LEVX 092100Z 01006KT 310V030 CAVOK 23/16 Q1017

2010/08/09 21:00
LEXJ 092100Z VRB02KT 9999 BKN040 20/16 Q1020

2010/08/09 21:00
LEZG 092100Z 29013KT 9999 FEW060 24/14 Q1017

2010/08/09 21:00
LEZL 092100Z 07002KT CAVOK 33/14 Q1013 NOSIG

2010/08/09 21:00
LFBC 092100Z AUTO 32003KT 9999NDV NSC 17/15 Q1020

2010/08/09 20:50
EGDX 092050Z AUTO 24008KT 8000NDV RADZ BKN012/// 17/16 Q1012

2010/08/09 20:50
EGPU 092050Z AUTO 19004KT 9999NDV // FEW045/// 12/10 Q1004

2010/08/09 21:00
EICK 092100Z 29005KT 9999 BKN037 SCT250 14/09 Q1012 NOSIG

2010/08/09 21:00
EIDW 092100Z 25008KT 9999 FEW028 14/10 Q1010 NOSIG

2010/08/09 21:00
LATI 092100Z 19002KT CAVOK 22/22 Q1013 NOSIG

2010/08/09 21:00
LEAS 092100Z 08005KT 050V110 9999 SCT020 BKN030 19/16 Q1020 NOSIG

2010/08/09 21:00
LEBB 092100Z 00000KT 9999 SCT030 BKN040 21/16 Q1020 NOSIG

2010/08/09 21:00
LECO 092100Z 32003KT 290V010 CAVOK 20/16 Q1018

2010/08/09 21:00
LEGE 092100Z 02005KT 6000 FEW010 SCT034 21/20 Q1017

2010/08/09 21:00
LEGR 092100Z VRB01KT 9999 FEW090 29/15 Q1018

2010/08/09 21:00
LEMH 092100Z 06003KT 9999 FEW020 23/20 Q1016

2010/08/09 21:00
LEMO 092100Z 03005KT 350V050 CAVOK 34/15 Q1013 NOSIG

2010/08/09 21:00
LERS 092100Z 12006KT 080V160 9999 FEW030 25/21 Q1017

2010/08/09 21:00
LEVT 092100Z 05003KT 9999 FEW018 BKN026 16/15 Q1021

2010/08/09 20:45
LHDC 092045Z 22002KT CAVOK 18/16 Q1017

2010/08/09 20:45
LHKE 092045Z 31002MPS CAVOK 17/14 Q1016 NOSIG RMK BLU

2010/08/09 20:45
LHPA 092045Z 17001MPS CAVOK 16/15 Q1019 NOSIG RMK BLU

2010/08/09 20:45
LHPP 092045Z 06003KT CAVOK 18/16 Q1019

2010/08/09 20:45
LHSN 092045Z 30001MPS CAVOK 19/16 Q1017 NOSIG RMK BLU

2010/08/09 20:45
LHUD 092045Z 00000KT CAVOK 17/16 Q1018

2010/08/09 21:00
LKKV 092100Z 10001KT CAVOK 14/13 Q1019

2010/08/09 21:00
LKMT 092100Z 21005KT CAVOK 16/15 Q1017 NOSIG

2010/08/09 21:00
LKNA 092100Z 35003KT CAVOK 18/12 Q1018 RMK BLU+

2010/08/09 21:00
LKPD 092100Z 00000KT CAVOK 17/16 Q1017 RMK BLU+

2010/08/09 21:00
LKPO 092100Z 20004KT CAVOK 16/14 Q1017 NOSIG RMK BLU+ BLU+

2010/08/09 21:00
LKPR 092100Z VRB02KT CAVOK 16/14 Q1018 NOSIG

2010/08/09 21:00
LKTB 092100Z 13001KT CAVOK 16/13 Q1017 NOSIG

2010/08/09 21:00
LYTV 092100Z VRB01KT CAVOK 20/17 Q1012

2010/08/09 20:50
EGDR 092050Z 26007KT 0400 FG SCT000 OVC002 16/16 Q1013 RED

2010/08/09 21:00
OIAW 092100Z 00000KT CAVOK 33/17 Q0997 A2945

2010/08/09 21:00
OIKB 092100Z 05006KT 7000 SKC 31/26 Q0998 A2949

2010/08/09 21:00
OIKK 092100Z 34004KT CAVOK 23/M02 Q1016 A3002

2010/08/09 21:00
OIMM 092100Z 25004KT CAVOK 24/03 Q1014 A2995

2010/08/09 21:00
OISS 092100Z 00000KT CAVOK 24/M00 Q1013 A2993

2010/08/09 21:00
OITT 092100Z 09022KT 9999 FEW040 FEW045CB 26/10 Q1016 A3000

2010/08/09 21:00
OIZH 092100Z 26004KT CAVOK 24/M03 Q1010 A2984

2010/08/09 20:55
KBIX 092055Z 16013KT 10SM FEW015 BKN030 BKN200 32/25 A2993 RMK AO2A PRESRR WND DATA ESTMD ALSTG/SLP ESTMD 50000 SLPNO RVRNO PWINO PNO FZRANO TSNO VISNO RWY21 CHINO RWY21 $

2010/08/09 20:59
KNGU 092059Z 09008KT 070V130 10SM FEW045 SCT250 32/20 A3002 RMK AO2 SLP165 T03170200 58005

2010/08/09 20:57
KNJM 092057Z AUTO 17007KT 10SM BKN055 BKN070 28/24 A3002 RMK AO2 SLP168 T02830239 56008

2010/08/09 21:00
MDSD 092100Z VRB03KT 8000 VCSH SCT016CB SCT018 SCT300 27/23 Q1012 CB/NW/N/NE/SE OVR STAION VCSH/N/NW

2010/08/09 21:00
SAWH 092100Z 25013KT 5000 SN OVC015 M01/M03 Q0999

2010/08/09 21:00
SCAR 092100Z 20008KT CAVOK 15/09 Q1016

2010/08/09 21:00
SCBA 092100Z 30026KT 9999 FEW030 FEW070 04/M01 Q1018

2010/08/09 21:00
SCDA 092100Z 23006KT 8000 OVC020 15/09 Q1016

2010/08/09 21:00
SCEL 092100Z 17010KT CAVOK 19/01 Q1015 NOSIG

2010/08/09 21:00
SCFA 092100Z 17007KT 9999 FEW020 15/08 Q1015 NOSIG

2010/08/09 21:00
SCIE 092100Z 21007KT CAVOK 14/04 Q1016

2010/08/09 21:00
SCTE 092100Z 14004KT 9999 FEW040 11/08 Q1024 NOSIG

2010/08/09 21:00
SPQU 092100Z 26008KT 230V300 CAVOK 18/M14 Q1026 NOSIG RMK PP000

2010/08/09 21:00
SPRU 092100Z 17009KT 9999 FEW013 17/13 Q1013 RMK BIRD HAZARD RWY20 PP000

2010/08/09 21:00
SPSO 092100Z 28008KT 7000 FEW012 19/13 Q1016 RMK BIRDS HAZARD RWY 22/04 W PP000

2010/08/09 21:00
TBPB 092100Z 19011KT 9999 SCT014 SCT260 29/24 Q1013 NOSIG

2010/08/09 21:00
TFFF 092100Z 10003KT 060V150 9999 -SHRA FEW013CB SCT020 BKN280 27/25 Q1013 TEMPO +SHRA

2010/08/09 21:00
TFFR 092100Z 11005KT 080V140 9999 FEW015CB SCT026 29/24 Q1013 TEMPO 4000 SHRA

2010/08/09 21:00
TTPP 092100Z ///06KT 9999 -SHRA SCT010CB SCT080 BKN260 27/24 Q1011 TEMPO RA

2010/08/09 20:55
TXKF 092055Z 19011KT 9999 FEW018 SCT180 BKN300 29/23 Q1021

2010/08/09 21:00
KHWY 092100Z AUTO 17009G14KT 10SM CLR 34/18 A2997 RMK AO2

2010/08/09 21:00
KIPJ 092100Z AUTO 00000KT 10SM CLR 35/18 A3001 RMK AO2 T03460183

2010/08/09 21:00
KIXA 092100Z AUTO 00000KT 10SM CLR 33/21 A2999 RMK AO2 T03250208

2010/08/09 21:00
KJES 092100Z AUTO 09013G18KT 10SM CLR 34/26 A2994 RMK AO2 T03400262

2010/08/09 21:00
KJGG 092100Z AUTO 16008KT 10SM CLR 34/15 A3001 RMK AO1

2010/08/09 21:00
KJKA 092100Z AUTO 14010KT 10SM CLR 34/27 A2994 RMK AO2 T03410270

2010/08/09 20:59
KJNX 092059Z AUTO 00000KT 10SM CLR 33/18 A3000 RMK AO2

2010/08/09 21:00
KLDJ 092100Z AUTO 18007KT 7SM BKN070 BKN080 33/16 A2993 RMK AO2 T03340164

2010/08/09 21:00
KLHZ 092100Z AUTO 16003KT 10SM CLR 33/20 A3002 RMK AO2 T03290203

2010/08/09 21:01
KMFV 092101Z AUTO 19007KT 10SM CLR 30/22 A3002 RMK AO2

2010/08/09 21:01
KMLJ 092101Z AUTO 00000KT 10SM CLR 34/22 A2998 RMK AO2

2010/08/09 21:00
KMQI 092100Z AUTO 08005KT 10SM BKN075 29/24 A3002 RMK AO2

2010/08/09 21:01
KMRN 092101Z AUTO 15003KT 10SM BKN100 33/21 A3007 RMK AO2

2010/08/09 21:02
KMWK 092102Z AUTO 13003KT 10SM OVC100 32/20 A3003 RMK AO2

2010/08/09 21:01
KOCW 092101Z AUTO 10006KT 10SM CLR 31/21 A3001 RMK AO2

2010/08/09 21:00
KPGV 092100Z AUTO 00000KT 10SM CLR 32/18 A3001 RMK AO2

2010/08/09 21:01
KPTB 092101Z AUTO 16006KT 7SM CLR 34/ A2999 RMK AO2

2010/08/09 21:01
KRHP 092101Z AUTO 00000KT SCT065 33/21 A3004 RMK AO2 PWINO

2010/08/09 21:00
KRUQ 092100Z AUTO 12004KT 10SM SCT049 33/19 A3001 RMK AO2

2010/08/09 21:00
KSIF 092100Z AUTO 13004KT 7SM SCT060 SCT070 31/23 A3000 RMK AO2 T03110225

2010/08/09 21:00
KSUT 092100Z AUTO 18007KT 10SM SCT043 28/22 A3001 RMK AO2

2010/08/09 21:01
KTDF 092101Z AUTO 00000KT 32/20 A3002 RMK AO1

2010/08/09 21:00
KTPF 092100Z AUTO 30004KT 10SM BKN031 BKN040 29/27 A2988 RMK AO2

2010/08/09 21:04
KTTA 092104Z AUTO 00000KT 10SM CLR 33/20 A3000 RMK AO2

2010/08/09 20:58
KVUJ 092058Z AUTO 14005KT 10SM BKN090 33/22 A2999 RMK AO2

2010/08/09 20:55
KVVG 092055Z AUTO 00000KT 30/25 A2990 RMK AO2

2010/08/09 20:59
KW99 092059Z AUTO 18005KT 10SM SCT075 SCT085 36/12 A2997 RMK AO2

2010/08/09 20:59
PGWT 092059Z 20002KT 7SM FEW016 SCT030 BKN100 BKN140 24/23 A2992 RMK WIND DATA ESTIMATED

2010/08/09 20:58
K0R3 092058Z AUTO 21008KT SCT047 SCT060 SCT075 34/27 A2991 RMK AO2 LTG DSNT NE AND E PWINO

2010/08/09 21:00
K1A5 092100Z AUTO 12003KT 10SM BKN060 BKN070 OVC090 29/19 A3008 RMK AO2 T02910189

2010/08/09 21:00
K3A1 092100Z AUTO 24005KT 10SM CLR 36/22 A2999 RMK AO2 T03550215 TSNO

2010/08/09 20:59
K3I2 092059Z AUTO 00000KT 10SM CLR 32/19 A2999 RMK AO2

2010/08/09 21:00
K3J7 092100Z AUTO 14006KT 10SM BKN060 BKN065 BKN100 34/21 A2996 RMK AO2 T03390206

2010/08/09 21:02
K47A 092102Z AUTO 09005KT 10SM CLR 34/16 A3002 RMK AO2 LTG DSNT SW

2010/08/09 20:58
K4A9 092058Z AUTO 34004KT 10SM SCT120 30/23 A2999 RMK AO2 T02960230

2010/08/09 21:00
K4R4 092100Z AUTO 16010KT 7SM SCT031 BKN039 BKN045 34/25 A2994 RMK AO2 T03410249

2010/08/09 20:58
K8A0 092058Z AUTO 17003KT 10SM SCT070 SCT095 36/18 A2997 RMK AO2 LTG DSNT NW

2010/08/09 20:58
KACP 092058Z AUTO 17005KT 10SM SCT055 SCT075 BKN080 36/24 A2990 RMK AO2

2010/08/09 21:00
KAFP 092100Z AUTO 12003KT 10SM SCT055 SCT095 34/20 A2998 RMK AO2 T03350200

2010/08/09 21:00
KALX 092100Z AUTO 00000KT 10SM CLR 35/20 A2997 RMK AO1

2010/08/09 21:00
KAVC 092100Z AUTO 00000KT 10SM CLR 33/19 A3006 RMK AO2

2010/08/09 21:00
KAYS 092100Z AUTO 10009KT 10SM SCT048 BKN055 BKN080 35/ A2993 RMK AO1

2010/08/09 21:00
KBCB 092100Z AUTO 25004KT 10SM CLR 33/19 A3010 RMK AO2 PWINO

2010/08/09 21:02
KBGE 092102Z AUTO 07008G14KT 10SM CLR 36/18 A2993 RMK AO2

2010/08/09 21:00
KBIJ 092100Z AUTO 06004KT 10SM SCT060 SCT080 35/21 A2993 RMK AO2

2010/08/09 21:00
KBQK 092100Z AUTO 11010KT 10SM SCT100 31/25 A2997 RMK AO1 6//// T03070250 PNO

2010/08/09 21:00
KCCO 092100Z AUTO 00000KT 10SM CLR 32/24 A3000 RMK AO1

2010/08/09 20:59
KCJR 092059Z AUTO 17006KT 10SM CLR 34/21 A2997 RMK AO2

2010/08/09 20:55
KCLS 092055Z AUTO 35004KT 10SM OVC022 18/13 A3002 RMK AO2

2010/08/09 21:00
KCPC 092100Z AUTO 16008G14KT 10SM CLR 33/23 A2998 RMK AO2 T03250230

2010/08/09 21:00
KCTJ 092100Z AUTO 16004KT 10SM SCT060 34/21 A3001 RMK AO2 T03440210

2010/08/09 21:01
KCWV 092101Z AUTO 11005KT 10SM SCT060 SCT070 36/24 A2995 RMK AO2 T03550235

2010/08/09 21:02
KROC 092102Z 30010KT 4SM TSRA FEW009 BKN025CB BKN041 OVC130 24/21 A2994 RMK AO2 TSB02 OCNL LTGICCC OHD TS OHD MOV E P0001

2010/08/09 21:03
KCRG 092103Z 11009KT 10SM SCT021 BKN029 BKN040 30/25 A2994 RMK AO2

2010/08/09 21:03
KFST 092103Z AUTO 23013G22KT 10SM VCTS BKN055 BKN070 27/18 A2996 RMK AO2 WSHFT 2043 LTG DSNT SW-N

2010/08/09 21:03
KMPV 092103Z AUTO VRB04KT 2 1/2SM TSRA BKN022 BKN034 OVC075 22/18 A2996 RMK AO2 VIS 1V5 LTG DSNT ALQDS P0006

2010/08/09 20:55
KEMV 092055Z AUTO 10007KT 10SM CLR 32/18 A3001 RMK AO2

2010/08/09 21:00
KEYF 092100Z AUTO 10006KT 10SM CLR 35/20 A2999 RMK AO2 T03460199

2010/08/09 20:57
KEZF 092057Z AUTO 20006KT 10SM CLR 35/23 A2995 RMK AO2 T03500231

2010/08/09 21:00
KF24 092100Z AUTO 20003KT 10SM CLR 37/20 A2993 RMK AO2 T03740201

2010/08/09 21:15
KFDW 092115Z AUTO 07005KT 10SM CLR 35/17 A3000 RMK AO1

2010/08/09 21:00
KFFA 092100Z AUTO 08006KT 10SM SCT070 SCT080 28/24 A3003 RMK AO2 T02780239

2010/08/09 21:00
KFKN 092100Z AUTO 16007KT 10SM SCT080 34/21 A3000 RMK AO1

2010/08/09 20:55
KGHG 092055Z AUTO 20006KT 10SM CLR 32/22 A2991 RMK AO2

2010/08/09 21:00
KGWW 092100Z AUTO 00000KT 10SM CLR 33/20 A3001 RMK AO2 T03310204

2010/08/09 21:00
KHNZ 092100Z AUTO 16006KT 10SM SCT095 32/18 A3001 RMK AO2 T03230181

2010/08/09 20:58
KHOE 092058Z AUTO 14005KT 10SM SCT100 32/24 A2994 RMK AO2 T03230244

2010/08/09 20:59
KHRJ 092059Z AUTO 00000KT 10SM CLR 34/20 A3000 RMK AO2

2010/08/09 21:00
KHSP 092100Z AUTO 17004KT 10SM SCT045 27/17 A3022 RMK AO2

2010/08/09 20:56
PANW 092056Z AUTO 18010G16KT 10SM BKN005 BKN011 OVC065 11/10 A2958 RMK AO2 PWINO TSNO 51010 T01110100 CIG 003V007 SLP993 $

2010/08/09 21:00
KUXL 092100Z AUTO 21007KT 10SM SCT050 SCT055 SCT110 36/25 A2991 RMK AO2

2010/08/09 20:58
KDBN 092058Z AUTO 10007KT 10SM SCT070 35/21 A2995 RMK AO1

2010/08/09 20:58
KDNN 092058Z AUTO 00000KT 10SM SCT060 34/20 A2997 RMK AO2

2010/08/09 21:00
KDRI 092100Z AUTO 00000KT 10SM BKN050 BKN065 35/25 A2993 RMK AO2

2010/08/09 21:00
KGAO 092100Z AUTO 00000KT 10SM VCTSRA SCT009 SCT020 26/25 A2995 RMK AO2 LTG DSNT ALQS

2010/08/09 21:02
KHQU 092102Z AUTO 09008KT 10SM CLR 34/17 A3001 RMK AO1

2010/08/09 21:00
KI16 092100Z AUTO 00000KT 10SM CLR 32/19 A2999 RMK AO2

2010/08/09 21:01
KIDI 092101Z AUTO 25005KT 10SM CLR 30/17 A3002 RMK AO2

2010/08/09 21:00
KIER 092100Z AUTO 14006KT 10SM CLR 39/25 A2989 RMK AO2 PWINO

2010/08/09 21:01
KJYL 092101Z AUTO 09004KT 10SM CLR 34/24 A2997 RMK AO2

2010/08/09 21:00
KJYO 092100Z AUTO 17010KT 10SM CLR 34/19 A2997 RMK AO2

2010/08/09 20:55
KLGC 092055Z AUTO 06005KT 10SM FEW060 36/19 A2996 RMK AO1

2010/08/09 21:00
KLKU 092100Z AUTO 17006KT 10SM CLR 33/21 A2998 RMK AO2

2010/08/09 21:00
KLNP 092100Z AUTO 00000KT 10SM CLR 29/19 A3012 RMK AO1

2010/08/09 21:00
KLOM 092100Z AUTO 22007G15KT 10SM CLR 32/19 A2996 RMK AO1 T03220188

2010/08/09 21:01
KLWB 092101Z AUTO 00000KT 10SM CLR 31/14 A3010 RMK AO2

2010/08/09 21:00
KMDQ 092100Z AUTO 31008KT 10SM CLR 32/24 A2996 RMK AO2 LTG DSNT SW T03210240

2010/08/09 21:00
KMGR 092100Z AUTO 08006KT 017V127 10SM SCT055 SCT070 36/19 A2995 RMK AO2

2010/08/09 21:00
KMKJ 092100Z AUTO 00000KT 10SM SCT050 SCT055 30/11 A3016 RMK AO1

2010/08/09 21:00
KMQS 092100Z AUTO 20004KT 8SM CLR 31/21 A3001 RMK AO2

2010/08/09 21:00
KMTV 092100Z AUTO 19003KT 10SM CLR 34/22 A3002 RMK AO2

2010/08/09 21:00
KOKV 092100Z AUTO 14009KT 10SM SCT090 35/19 A2997 RMK AO2 T03510192

2010/08/09 21:00
KOMH 092100Z AUTO 14006KT 10SM CLR 34/22 A2999 RMK AO2 T03360219

2010/08/09 21:00
KOPN 092100Z AUTO 07004KT 10SM SCT060 36/22 A2999 RMK AO1

2010/08/09 21:00
KPCM 092100Z AUTO 00000KT 10SM SCT036 SCT049 BKN075 33/24 A2989 RMK AO2

2010/08/09 21:00
KPSK 092100Z AUTO 16005KT 10SM CLR 34/13 A3009 RMK AO2

2010/08/09 21:00
KRCZ 092100Z AUTO 12003KT 10SM CLR 34/20 A2999 RMK AO2 T03360199

2010/08/09 21:00
KRMN 092100Z AUTO 18004KT 10SM SCT060 33/23 A3001 RMK AO2

2010/08/09 21:00
KSFQ 092100Z AUTO 11007KT 10SM CLR 32/22 A3001 RMK AO2

2010/08/09 21:00
KSHD 092100Z AUTO 16007KT 10SM CLR 33/21 A3002 RMK AO2

2010/08/09 21:00
KSVH 092100Z AUTO 16003KT 10SM CLR 32/20 A3001 RMK AO2 T03240204

2010/08/09 21:00
KTBR 092100Z AUTO 08007KT 10SM SCT060 35/20 A2996 RMK AO2 T03520195

2010/08/09 21:00
KTMA 092100Z AUTO 00000KT 10SM SCT060 34/20 A2995 RMK AO2 T03360195

2010/08/09 21:00
KTVI 092100Z AUTO 07008G15KT 10SM SCT055 SCT070 36/20 A2994 RMK AO2 T03610195

2010/08/09 21:00
KW45 092100Z AUTO 15007KT 10SM SCT060 SCT070 33/21 A2999 RMK AO2 T03330212

2010/08/09 20:56
MMIA 092056Z RTD 00000KT 8SM BKN020CB BKN100 30/23 A2991 RMK SLP/// 6//// 8/360 9//

2010/08/09 20:57
PWAK 092057Z 07014KT 10SM FEW026 29/24 A3007 RMK AO2A 

2010/08/09 21:00
OPRN 092100Z 31004KT 4000 BR FEW035 SCT100 28/25 Q1004.0

2010/08/09 21:00
SPHO 092100Z 03010KT 350V080 CAVOK 22/05 Q1023 RMK PP000

2010/08/09 21:00
SPJL 092100Z 02007KT 330V070 CAVOK 17/M08 Q1035 RMK PP000

2010/08/09 21:00
SPME 092100Z 27009KT CDAVOK 27/23 Q1010 RMK BIRD HAZARD RWY 32/14 PP000

2010/08/09 21:00
SPTU 092100Z 00000KT 9999 SCT015TCU 33/25 Q1011 RMK PP000

2010/08/09 21:00
SPYL 092100Z /////KT CAVOK 23/16 Q1012 RMK BIRD HAZARD RWY 35 TMAX 25.2 PP000

2010/08/09 21:00
DIAP 092100Z VRB03KT 7000 SCT011 SCT080 25/23 Q1015 NOSIG

2010/08/09 21:02
YSDU 092102Z AUTO 09006KT 2200NDV // SCT005 BKN017 OVC035 11/11 Q1015

2010/08/09 21:00
FLLS 092100Z 13004KT CAVOK 15/09 Q1024

2010/08/09 21:00
YBAS 092100Z 26007KT CAVOK 05/01 Q1019

2010/08/09 21:00
YBBN 092100Z 08007KT 9999 FEW010 SCT060 BKN080 18/16 Q1020 INTER 2100/2400 4000 SHRA BKN012

2010/08/09 21:00
YBCS 092100Z 13008KT 6000 -SHRA FEW002 SCT025 BKN035 22/21 Q1015 FM2100 12008KT 9999 -SHRA SCT018 BKN040 TEMPO 2100/2400 3000 SHRA BKN014

2010/08/09 21:00
YBTL 092100Z 06008KT 9999 FEW020 SCT040 BKN095 23/21 Q1015

2010/08/09 21:00
YMML 092100Z 27005KT 5000 RA FEW010 BKN045 BKN055 06/05 Q1015 FM2100 34005KT 9999 -RA FEW030 BKN055 INTER 2100/2400 4000 RA BKN015

2010/08/09 21:00
YPAD 092100Z 13012KT CAVOK 09/03 Q1013 NOSIG

2010/08/09 21:00
YPCC 092100Z AUTO 13008KT 9999NDV // NCD 25/21 Q1009

2010/08/09 21:00
YPDN 092100Z 18006KT CAVOK 20/16 Q1012 NOSIG

2010/08/09 21:00
YPKU 092100Z AUTO 16013KT 9999NDV // NCD 20/M01 Q1015

2010/08/09 21:00
YPLM 092100Z AUTO 04007KT 9999NDV // NCD 17/15 Q1017

2010/08/09 21:00
YPPH 092100Z 06012KT CAVOK 08/M02 Q1022 NOSIG

2010/08/09 21:00
YPTN 092100Z AUTO 00000KT 9999NDV // NCD 15/07 Q1014

2010/08/09 21:00
YPXM 092100Z AUTO 09008KT 9999NDV // SCT011 BKN017 24/22 Q////

2010/08/09 21:00
YSSY 092100Z 34007KT 9000 -RA FEW060 BKN080 OVC120 11/09 Q1019 TEMPO 2100/2400 4000 RA BKN010

2010/08/09 21:00
TFFR 092100Z 11005KT 080V140 9999 FEW015CB SCT026 29/24 Q1013 TEMPO 4000 SHRA

2010/08/09 21:02
TFFF 092102Z 10003KT 060V150 9999 -SHRA FEW013CB SCT020 BKN280 27/25 Q1013 TEMPO +SHRA RMK B2

2010/08/09 21:00
GBYD 092100 VRB02KT 9999 SCT011 FEW018CB SCT120 26/24 Q1012 CB NE-E

2010/08/09 21:00
SARE 092100Z 16007KT CAVOK 17/07 Q1021

2010/08/09 21:00
YBAS 092100Z 26007KT CAVOK 05/01 Q1019

2010/08/09 21:00
YBBN 092100Z 08007KT 9999 FEW010 SCT060 BKN080 18/16 Q1020 INTER 2100/2400 4000 SHRA BKN012

2010/08/09 21:00
YBCS 092100Z 13008KT 6000 -SHRA FEW002 SCT025 BKN035 22/21 Q1015 FM2100 12008KT 9999 -SHRA SCT018 BKN040 TEMPO 2100/2400 3000 SHRA BKN014

2010/08/09 21:00
YBTL 092100Z 06008KT 9999 FEW020 SCT040 BKN095 23/21 Q1015

2010/08/09 21:00
YMML 092100Z 27005KT 5000 RA FEW010 BKN045 BKN055 06/05 Q1015 FM2100 34005KT 9999 -RA FEW030 BKN055 INTER 2100/2400 4000 RA BKN015

2010/08/09 21:00
YPAD 092100Z 13012KT CAVOK 09/03 Q1013 NOSIG

2010/08/09 21:00
YPCC 092100Z AUTO 13008KT 9999NDV // NCD 25/21 Q1009

2010/08/09 21:00
YPDN 092100Z 18006KT CAVOK 20/16 Q1012 NOSIG

2010/08/09 21:00
YPKU 092100Z AUTO 16013KT 9999NDV // NCD 20/M01 Q1015

2010/08/09 21:00
YPLM 092100Z AUTO 04007KT 9999NDV // NCD 17/15 Q1017

2010/08/09 21:00
YPPH 092100Z 06012KT CAVOK 08/M02 Q1022 NOSIG

2010/08/09 21:00
YPTN 092100Z AUTO 00000KT 9999NDV // NCD 15/07 Q1014

2010/08/09 21:00
YPXM 092100Z AUTO 09008KT 9999NDV // SCT011 BKN017 24/22 Q////

2010/08/09 21:00
YSSY 092100Z 34007KT 9000 -RA FEW060 BKN080 OVC120 11/09 Q1019 TEMPO 2100/2400 4000 RA BKN010

2010/08/09 21:00
YSCB 092100Z 08006KT 4000 RA FEW009 SCT023 OVC055 08/07 Q1018

2010/08/09 21:00
LBSF 092100Z 27003MPS CAVOK 21/16 Q1017 NOSIG

2010/08/09 21:00
LBWN 092100Z 28003MPS 210V350 CAVOK 25/21 Q1011 NOSIG

2010/08/09 21:00
LBBG 092100Z 36007MPS CAVOK 27/20 Q1010 NOSIG

2010/08/09 21:00
LBPD 092100Z 00000MPS CAVOK 24/20 Q1013 NOSIG

2010/08/09 21:00
LBGO 092100Z VRB01MPS CAVOK 22/20 Q1013 NOSIG

2010/08/09 21:00
YSCB 092100Z 08006KT 4000 RA FEW009 SCT023 OVC055 08/07 Q1018 FM2100 09010KT 4000 -RA BKN019 BKN060 FM2230 09010KT 9000 -RA BKN024 BKN060 TEMPO 2100/2400 3000 RA BKN009

2010/08/09 21:00
SADF 092100Z 05004KT CAVOK 18/06 Q1024

2010/08/09 21:00
OEDF 092100Z 18005KT 8000 SKC 33/22 Q0997 NOSIG

2010/08/09 21:00
OEDR 092100Z 00000KT CAVOK 32/27 Q0995 NOSIG

2010/08/09 21:00
OEJN 092100Z 25004KT CAVOK 33/26 Q1001 NOSIG

2010/08/09 21:00
OERK 092100Z 21003KT CAVOK 33/08 Q1004 NOSIG

2010/08/09 21:00
OERY 092100Z 12008KT CAVOK 37/05 Q1005 NOSIG

2010/08/09 21:00
LUKK 092100Z 32006KT 9999 SCT050CB 23/19 Q1012 WS RWY08 08CLRD65 NOSIG

2010/08/09 21:00
SAAR 092100Z 05003KT CAVOK 16/04 Q1024

2010/08/09 21:00
SABE 092100Z 36002KT CAVOK 14/07 Q1024

2010/08/09 21:00
SACO 092100Z 05013KT CAVOK 15/00 Q1024

2010/08/09 21:00
SADF 092100Z 05004KT CAVOK 18/06 Q1024

2010/08/09 21:00
SAME 092100Z 14002KT CAVOK 15/M05 Q1020

2010/08/09 21:00
SANT 092100Z 05009KT 8000 SCT200 19/04 Q1020

2010/08/09 21:00
SARE 092100Z 16007KT CAVOK 17/07 Q1021

2010/08/09 21:00
SARI 092100Z 23005KT 6000 NSC 18/14 Q1021

2010/08/09 21:00
SARP 092100Z 14005KT CAVOK 18/09 Q1020

2010/08/09 21:00
SASA 092100Z 07009KT CAVOK 16/01 Q1020

2010/08/09 21:00
SASJ 092100Z 05008KT CAVOK 17/02 Q1018

2010/08/09 21:00
SAVC 092100Z 32005KT CAVOK 14/M00 Q1017

2010/08/09 21:00
SAWE 092100Z 25026G36KT CAVOK 01/M02 Q1002

2010/08/09 21:00
SAWG 092100Z 25026G37KT 9999 FEW030 BKN200 06/M03 Q1008

2010/08/09 21:00
SAWH 092100Z 25013KT 5000 SN OVC015 M01/M03 Q0999

2010/08/09 21:00
SAZM 092100Z 00000KT CAVOK 11/07 Q1023

2010/08/09 20:50
EGEC 092050Z AUTO 14005KT 110V190 9999NDV // FEW040/// 12/10 Q1007

2010/08/09 20:50
EGWU 092050Z 23011KT 9999 SCT019 BKN050 BKN090 18/14 Q1013 NOSIG

2010/08/09 20:50
EGWU 092050Z 23011KT 9999 SCT019 BKN050 BKN090 18/14 Q1013 NOSIG

2010/08/09 20:50
EGPI 092050Z AUTO 14006KT 9999NDV // NSC 11/11 Q1006

2010/08/09 21:00
SACO 092100Z 05013KT CAVOK 15/00 Q1024

2010/08/09 21:00
HKJK 092100Z 01004KT 9999 FEW021 15/14 Q1023 NOSIG

2010/08/09 21:00
RODN 092100Z 16012G23KT 9999 FEW017 SCT065 BKN090 27/26 A2974 RMK AO2A RAE2056DZB2056E2100 CIG 060 RWY05 SLP071

2010/08/09 20:57
MMTO 092057Z 09005KT 5SM TSRA BKN015CB BKN070 BKN200 20/13 A3030 RMK 8/963 RAB55

2010/08/09 21:00
MNRS 092100Z 08006KT 9999 FEW015CB BKN070 29/25 Q1010 CB/4C

2010/08/09 21:00
MNJG 092100Z 00000KT 9999 BKN019 23/19 Q1011

2010/08/09 21:00
MNJU 092100Z 06006KT 9999 SCT020 SCT080 29/25 Q1011

2010/08/09 21:00
MNCH 092100Z 09006KT 8000 TS FEW024CB SCT300 30/27 Q1009 CBRA/NE/E/SE CB//N/NW TCU/S/SW

2010/08/09 21:00
MNBL 092100Z 06010KT 9999 BKN018 SCT070 29/26 Q1010

2010/08/09 21:00
LHBP 092100Z VRB02KT CAVOK 15/12 Q1017 NOSIG

2010/08/09 21:00
RODN 092100Z 16012G23KT 9999 FEW017 SCT065 BKN090 27/26 A2974 RMK AO2A RAE2056DZB2056E2100 CIG 060 RWY05 SLP071

2010/08/09 21:00
TGPY 092100Z 10010KT 9999 FEW018 BKN250 29/26 Q1012 

2010/08/09 21:00
SLCO 092100Z 19004KT 5000 FU FEW025 33/20 Q1012

2010/08/09 21:00
SLRY 092100Z 18006KT 5000 FU SKC 30/18 Q1014

2010/08/09 21:00
SLRQ 092100Z 00000KT 8000 FEW020 29/22 Q1014

2010/08/09 21:00
SLOR 092100Z 30006KT 9999 SKC 19/M08 Q1034

2010/08/09 21:00
SLSU 092100Z 05011KT 9999 SKC 19/05 Q1026

2010/08/09 21:00
SLPO 092100Z 05010KT 9999 SKC 16/M03 Q1034

2010/08/09 21:00
SLVM 092100Z 00000KT 9999 SKC 24/19 Q1016

2010/08/09 21:00
SLTJ 092100Z 13014KT 9999 SKC 18/09 Q1020

2010/08/09 21:00
SLYA 092100Z 09005KT 9999 SKC 21/11 Q1022

2010/08/09 21:00
SLCP 092100Z 00000KT 5000 FU SKC 29/12 Q1017

2010/08/09 21:00
SLSI 092100Z 22006KT 8000 SKC 29/14 Q1016

2010/08/09 21:00
SLJE 092100Z 00000KT 9999 SKC 30/15 Q1017

2010/08/09 21:00
SLRB 092100Z 00000KT 7000 SKC 28/18 Q1017

2010/08/09 21:00
SLPS 092100Z 19008KT 4000SE FU SKC 29/13 Q1015

2010/08/09 21:00
SLCA 092100Z 18005KT 9999 SKC 23/06 Q1019

2010/08/09 21:00
SLRI 092100Z 17005KT 5000 FU FEW020 34/18 Q1012

2010/08/09 21:00
SLJO 092100Z 14004KT 5000 FU SKC 32/16 Q1014

2010/08/09 21:00
SLMG 092100Z 16004KT 6000 SKC 33/16 Q1015

2010/08/09 21:00
SLSA 092100Z 14005KT 7000 SKC 32/16 Q1013

2010/08/09 21:00
RJAA 092100Z 17002KT 8000 FEW020 SCT150 23/22 Q1016 NOSIG

2010/08/09 21:00
RJBB 092100Z 21011KT 9999 FEW010 BKN180 27/24 Q1013 NOSIG

2010/08/09 21:00
RJCC 092100Z 19004KT 1800 R19R/1600VP1800N R01R/1800U BCFG BR SCT001 BKN002 22/21 Q1014

2010/08/09 21:00
RJFS 092100Z 06005KT 9999 FEW015 SCT100 BKN150 26/24 Q1010

2010/08/09 21:00
RJFF 092100Z 15009KT 9999 -RA FEW020 SCT110 BKN140 26/23 Q1010

2010/08/09 21:00
RJFK 092100Z 12007KT 9999 FEW010 BKN/// 26/23 Q1012

2010/08/09 21:00
RJFR 092100Z 12007KT 9999 FEW007 SCT150 BKN170 27/24 Q1011

2010/08/09 21:00
RJGG 092100Z 12010KT 9999 FEW010 BKN045 26/25 Q1014 NOSIG

2010/08/09 21:00
RJOH 092100Z 16005KT 9999 VCSH FEW030 SCT050 BKN080 27/23 Q1011

2010/08/09 21:00
RJOO 092100Z 00000KT 9999 -SHRA FEW002 SCT010 BKN020 26/24 Q1014

2010/08/09 21:00
RJSS 092100Z 36003KT 320V060 9999 FEW008 25/22 Q1014

2010/08/09 21:00
RJTT 092100Z 14005KT 9999 FEW010 BKN030 BKN100 27/23 Q1015

2010/08/09 21:00
ROAH 092100Z 18020KT 9999 FEW010 SCT015 BKN100 28/26 Q1006

2010/08/09 21:00
ROIG 092100Z 21008KT 170V260 8000 -TSRA FEW010 SCT020 FEW025CB BKN090 28/25 Q1004

2010/08/09 21:00
RJAH 092100Z 14003KT 9999 FEW020 SCT150 24/24 Q1015

2010/08/09 21:00
OIBB 092100Z 18004KT 5000 BR SKC 32/28 Q0997 A2946

2010/08/09 21:00
OINZ 092100Z 17004KT CAVOK 24/18 Q1009 A2980

2010/08/09 20:50
EGXE 092050Z AUTO 26007KT 9999NDV FEW027/// BKN070/// 15/13 Q1009

2010/08/09 20:50
EGXZ 092050Z AUTO 28004KT 9999NDV SCT080/// 16/12 Q1009

2010/08/09 21:00
LFBF 092100Z AUTO 25005KT 210V270 9999NDV // NSC 22/17 Q1020

2010/08/09 21:00
LFBG 092100Z AUTO 27008KT 9999NDV BKN041 19/12 Q1019

2010/08/09 21:00
LFBM 092100Z AUTO 29002KT 9999NDV NSC 17/14 Q1020

2010/08/09 21:00
LFKS 092100Z AUTO 28005KT 9999NDV NSC 22/18 Q1016

2010/08/09 21:00
LFLL 092100Z 03006KT 360V090 CAVOK 23/15 Q1016 NOSIG

2010/08/09 21:00
LFMI 092100Z AUTO 16005KT 100V200 9999NDV //////TCU 21/20 Q1016

2010/08/09 21:00
LFMN 092100Z VRB02KT 9999 FEW015 BKN033 24/20 Q1016 NOSIG

2010/08/09 21:00
LFMO 092100Z AUTO 16007KT 9999NDV //////TCU 25/17 Q1015

2010/08/09 21:00
LFOA 092100Z AUTO 08002KT 9999NDV NSC 22/10 Q1016

2010/08/09 21:00
LFOC 092100Z AUTO 34008KT 9999NDV NSC 21/11 Q1016

2010/08/09 21:00
LFOE 092100Z AUTO 32005KT 270V340 9999NDV NSC 18/12 Q1017

2010/08/09 21:00
LFOJ 092100Z AUTO 22002KT 9999NDV NSC 20/11 Q1015

2010/08/09 21:00
LFPG 092100Z 36008KT CAVOK 20/13 Q1016 NOSIG

2010/08/09 21:00
LFPO 092100Z 34005KT CAVOK 21/12 Q1015 NOSIG

2010/08/09 21:00
LFPV 092100Z AUTO 35006KT 9999NDV NSC 20/12 Q1016

2010/08/09 21:00
LFQI 092100Z AUTO 29007KT 9999NDV NSC 18/12 Q1016

2010/08/09 21:00
LFQQ 092100Z 26006KT CAVOK 17/11 Q1016 NOSIG

2010/08/09 21:00
LFRB 092100Z 22009KT 3000 -DZ BR BKN005 BKN009 17/16 Q1017 NOSIG

2010/08/09 21:00
LFRS 092100Z 26004KT CAVOK 16/14 Q1018 NOSIG

2010/08/09 21:00
LFSD 092100Z AUTO 27002KT 9999NDV NSC 19/13 Q1016

2010/08/09 21:00
LFSF 092100Z AUTO VRB02KT 9999NDV NSC 18/13 Q1016

2010/08/09 21:00
LFSI 092100Z AUTO 11004KT 9999NDV NSC 18/13 Q1016

2010/08/09 21:00
LFSO 092100Z AUTO 07002KT 9999NDV NSC 18/11 Q1017

2010/08/09 21:00
LFSR 092100Z AUTO 10002KT 9999NDV NSC 18/14 Q1016

2010/08/09 21:00
LFSX 092100Z AUTO 12005KT 9999NDV NSC 15/13 Q1017

2010/08/09 21:00
LFYR 092100Z AUTO 00000KT //// // ///////// 16/12 Q1015

2010/08/09 21:00
LRBS 092100Z 00000KT CAVOK 23/20 Q1013 NOSIG

2010/08/09 21:00
LRTR 092100Z 01006KT CAVOK 19/17 Q1016

2010/08/09 21:00
OIAA 092100Z 00000KT 7000 NSC 33/26 Q0997

2010/08/09 21:00
OIBK 092100Z 32004KT 5000 BR NSC 31/29 Q0997 A2945

2010/08/09 21:00
OICC 092100Z 00000KT CAVOK 23/M05 Q1013 A2991 864.6

2010/08/09 21:00
OIIE 092100Z 08004KT CAVOK 28/02 Q1011 A2987

2010/08/09 21:00
OITR 092100Z 26004KT 9999 SCT035 21/12 Q1014 A2994

2010/08/09 21:00
OIYY 092100Z 22004KT CAVOK 25/M02 Q1014 A2995

2010/08/09 21:00
LPFR 092100Z 29005KT 250V320 CAVOK 30/14 Q1014

2010/08/09 21:00
LPMA 092100Z 08003KT 360V120 9999 SCT012 22/19 Q1015 RS36002KT 0509003KT 2312001KT

2010/08/09 21:00
LPPR 092100Z 00000KT CAVOK 24/17 Q1016

2010/08/09 21:00
LPPS 092100Z 36009KT 9999 SCT011 SCT030 22/19 Q1015

2010/08/09 21:00
LPPT 092100Z 33010KT CAVOK 32/13 Q1014 NOSIG

2010/08/09 21:00
LFBA 092100Z AUTO 25003KT 9999NDV NSC 18/15 Q1019

2010/08/09 21:00
LFBE 092100Z AUTO 26006KT 9999NDV FEW039 19/14 Q1019

2010/08/09 21:00
LFGJ 092100Z AUTO 07005KT 9999NDV NSC 18/15 Q1016

2010/08/09 21:00
LFJR 092100Z AUTO 35003KT 320V020 9999NDV NSC 20/12 Q1017

2010/08/09 21:00
LFMD 092100Z AUTO 00000KT 9999NDV OVC025 24/21 Q1015

2010/08/09 21:00
LFMH 092100Z AUTO 26003KT 9999NDV NSC 23/15 Q1017

2010/08/09 21:00
LFOT 092100Z 31005KT CAVOK 23/12 Q1016 NOSIG

2010/08/09 21:00
LFPN 092100Z AUTO 34006KT 9999NDV NSC 18/12 Q1016

2010/08/09 21:00
LFRC 092100Z AUTO 23010KT 9999NDV OVC003 17/16 Q1016

2010/08/09 21:00
LFRG 092100Z AUTO 22002KT 9999NDV NSC 12/11 Q1017

2010/08/09 21:00
LFRK 092100Z AUTO VRB02KT 9999NDV ///////// 16/11 Q1017

2010/08/09 20:50
ETUO 092050Z AUTO 00000KT 9999NDV // BKN070/// 17/14 Q1016

2010/08/09 21:00
LFBC 092100Z AUTO 32003KT 9999NDV NSC 17/15 Q1020

2010/08/09 21:00
LFBD 092100Z 29007KT 260V330 9999 FEW036 18/15 Q1019 NOSIG

2010/08/09 21:00
LFBF 092100Z AUTO 25005KT 210V270 9999NDV // NSC 22/17 Q1020

2010/08/09 21:00
LFBG 092100Z AUTO 27008KT 9999NDV BKN041 19/12 Q1019

2010/08/09 21:00
LFBM 092100Z AUTO 29002KT 9999NDV NSC 17/14 Q1020

2010/08/09 21:00
LFBP 092100Z AUTO 00000KT 9999NDV FEW043 17/16 Q1020

2010/08/09 21:00
LFKS 092100Z AUTO 28005KT 9999NDV NSC 22/18 Q1016

2010/08/09 21:00
LFLL 092100Z 03006KT 360V090 CAVOK 23/15 Q1016 NOSIG

2010/08/09 21:00
LFMI 092100Z AUTO 16005KT 100V200 9999NDV //////TCU 21/20 Q1016

2010/08/09 21:00
LFMN 092100Z VRB02KT 9999 FEW015 BKN033 24/20 Q1016 NOSIG

2010/08/09 21:00
LFMO 092100Z AUTO 16007KT 9999NDV //////TCU 25/17 Q1015

2010/08/09 21:00
LFOA 092100Z AUTO 08002KT 9999NDV NSC 22/10 Q1016

2010/08/09 21:00
LFOC 092100Z AUTO 34008KT 9999NDV NSC 21/11 Q1016

2010/08/09 21:00
LFOE 092100Z AUTO 32005KT 270V340 9999NDV NSC 18/12 Q1017

2010/08/09 21:00
LFOJ 092100Z AUTO 22002KT 9999NDV NSC 20/11 Q1015

2010/08/09 21:00
LFPG 092100Z 36008KT CAVOK 20/13 Q1016 NOSIG

2010/08/09 21:00
LFPO 092100Z 34005KT CAVOK 21/12 Q1015 NOSIG

2010/08/09 21:00
LFPV 092100Z AUTO 35006KT 9999NDV NSC 20/12 Q1016

2010/08/09 21:00
LFQI 092100Z AUTO 29007KT 9999NDV NSC 18/12 Q1016

2010/08/09 21:00
LFQQ 092100Z 26006KT CAVOK 17/11 Q1016 NOSIG

2010/08/09 21:00
LFRB 092100Z 22009KT 3000 -DZ BR BKN005 BKN009 17/16 Q1017 NOSIG

2010/08/09 21:00
LFRS 092100Z 26004KT CAVOK 16/14 Q1018 NOSIG

2010/08/09 21:00
LFSD 092100Z AUTO 27002KT 9999NDV NSC 19/13 Q1016

2010/08/09 21:00
LFSF 092100Z AUTO VRB02KT 9999NDV NSC 18/13 Q1016

2010/08/09 21:00
LFSI 092100Z AUTO 11004KT 9999NDV NSC 18/13 Q1016

2010/08/09 21:00
LFSO 092100Z AUTO 07002KT 9999NDV NSC 18/11 Q1017

2010/08/09 21:00
LFSR 092100Z AUTO 10002KT 9999NDV NSC 18/14 Q1016

2010/08/09 21:00
LFSX 092100Z AUTO 12005KT 9999NDV NSC 15/13 Q1017

2010/08/09 21:00
LFYR 092100Z AUTO 00000KT //// // ///////// 16/12 Q1015

2010/08/09 21:00
LFAQ 092100Z AUTO 32004KT 9999NDV FEW046 16/11 Q1016

2010/08/09 21:00
LFBU 092100Z AUTO 28008KT 9999NDV FEW034 SCT040 19/12 Q1019

2010/08/09 21:00
LFLN 092100Z AUTO VRB02KT 9999NDV NSC 19/17 Q1017

2010/08/09 21:00
LFPM 092100Z AUTO 06003KT 9999NDV NSC 20/12 Q1015

2010/08/09 21:00
LFRH 092100Z 26003KT 9999 SCT009 OVC018 17/16 Q1018

2010/08/09 21:00
LFRQ 092100Z AUTO 24004KT 200V280 9999NDV BKN005 OVC018 17/16 Q1018

2010/08/09 21:00
LFRT 092100Z AUTO 24005KT 210V270 9999NDV FEW015 16/15 Q1017

2010/08/09 21:00
LFSD 092100Z AUTO 27002KT 9999NDV NSC 19/13 Q1016

2010/08/09 21:00
LFTW 092100Z AUTO 18005KT 9999NDV //////TCU 22/17 Q1015

2010/08/09 21:00
OBBI 092100Z VRB03KT CAVOK 35/26 Q0997 NOSIG

2010/08/09 21:00
OEDF 092100Z 18005KT 8000 SKC 33/22 Q0997 NOSIG

2010/08/09 21:00
OEDR 092100Z 00000KT CAVOK 32/27 Q0995 NOSIG

2010/08/09 21:00
OTBD 092100Z VRB02KT 6000 NSC 33/30 Q0997 NOSIG

2010/08/09 21:00
OKBK 092100Z 17007KT 8000 NSC 37/14 Q0997 NOSIG

2010/08/09 21:00
LFBD 092100Z 29007KT 260V330 9999 FEW036 18/15 Q1019 NOSIG

2010/08/09 21:00
LFBH 092100Z AUTO 30013KT 9999NDV FEW012 17/15 Q1019

2010/08/09 21:00
LFBI 092100Z AUTO 23012KT 9999NDV NSC 20/12 Q1017

2010/08/09 21:00
LFBL 092100Z AUTO 27005KT 230V310 9999NDV FEW042 18/14 Q1019

2010/08/09 21:00
LFBO 092100Z 27008KT 9999 BKN045 22/16 Q1019 NOSIG

2010/08/09 21:00
LFBP 092100Z AUTO 00000KT 9999NDV FEW043 17/16 Q1020

2010/08/09 21:00
LFBT 092100Z 21004KT 9999 FEW011 BKN033 18/15 Q1021 TEMPO SCT008 BKN013

2010/08/09 21:00
LFBZ 092100Z AUTO 00000KT 9999NDV NSC 18/15 Q1020

2010/08/09 21:00
LFLB 092100Z AUTO VRB02KT 9999NDV NSC 18/15 Q1016

2010/08/09 21:00
LFLX 092100Z AUTO 25004KT 9999NDV NSC 22/12 Q1016

2010/08/09 21:00
LFML 092100Z 18005KT 150V210 9999 -TSRA FEW030CB SCT050 23/20 Q1015 NOSIG

2010/08/09 21:00
LFKB 092100Z 21003KT 9999 FEW020 21/19 Q1016 NOSIG

2010/08/09 21:00
LFKF 092100Z AUTO VRB01KT 9999NDV NCD 23/14 Q1016

2010/08/09 21:00
LFKJ 092100Z 09004KT 9999 FEW016 22/19 Q1017 NOSIG

2010/08/09 21:00
LFLC 092100Z 28008KT CAVOK 24/14 Q1017 NOSIG

2010/08/09 21:00
LFMP 092100Z AUTO 32012KT 9999NDV NSC 24/16 Q1017

2010/08/09 21:00
LFMV 092100Z AUTO 15004KT 9999NDV //////TCU 24/17 Q1015

2010/08/09 21:00
LFSL 092100Z AUTO VRB03KT 9999NDV BKN049 19/16 Q1019

2010/08/09 21:00
LFCR 092100Z AUTO 27008KT 9999NDV BKN044 18/14 Q1021

2010/08/09 21:00
LFJL 092100Z AUTO 27001KT 9999NDV NSC 20/10 Q1017

2010/08/09 21:00
LFLP 092100Z AUTO 09002KT 9999NDV OVC078 20/14 Q1017

2010/08/09 21:00
LFLS 092100Z AUTO 02004KT 330V080 9999NDV NSC 22/14 Q1016

2010/08/09 21:00
LFLY 092100Z AUTO 01008KT 9999NDV NSC 24/15 Q1016

2010/08/09 21:00
LFMT 092100Z 30008KT CAVOK 26/17 Q1015 BECMG SHRA

2010/08/09 21:00
LFMU 092100Z AUTO 28010KT 9999NDV NSC 24/18 Q1016

2010/08/09 21:00
LFOB 092100Z AUTO 35006KT 9999NDV NSC 17/12 Q1016

2010/08/09 21:00
LFOH 092100Z AUTO 00000KT 9999NDV NSC 14/10 Q1016

2010/08/09 21:00
LFOK 092100Z AUTO 11005KT 9999NDV NSC 19/10 Q1016

2010/08/09 21:00
LFOP 092100Z AUTO 02003KT 9999NDV NSC 17/13 Q1017

2010/08/09 21:00
LFPB 092100Z AUTO 35007KT 9999NDV NSC 20/13 Q1015

2010/08/09 21:00
LFSN 092100Z VRB01KT CAVOK 18/12 Q1017 NOSIG

2010/08/09 21:00
LFLL 092100Z 03006KT 360V090 CAVOK 23/15 Q1016 NOSIG

2010/08/09 21:00
LFMN 092100Z VRB02KT 9999 FEW015 BKN033 24/20 Q1016 NOSIG

2010/08/09 21:00
LFPG 092100Z 36008KT CAVOK 20/13 Q1016 NOSIG

2010/08/09 21:00
LFPO 092100Z 34005KT CAVOK 21/12 Q1015 NOSIG

2010/08/09 21:00
LFQQ 092100Z 26006KT CAVOK 17/11 Q1016 NOSIG

2010/08/09 21:00
LFRB 092100Z 22009KT 3000 -DZ BR BKN005 BKN009 17/16 Q1017 NOSIG

2010/08/09 21:00
LFRS 092100Z 26004KT CAVOK 16/14 Q1018 NOSIG

2010/08/09 21:00
LFMI 092100Z AUTO 16005KT 100V200 9999NDV //////TCU 21/20 Q1016

2010/08/09 21:00
LFMK 092100Z AUTO 29008KT 250V310 9999NDV OVC042 23/16 Q1019

2010/08/09 21:00
LFRD 092100Z AUTO 19002KT 9999NDV FEW047 14/12 Q1017

2010/08/09 21:00
LFRN 092100Z AUTO 34006KT 9999NDV NSC 18/11 Q1017

2010/08/09 21:00
LFRO 092100Z AUTO 21007KT 9999NDV BKN009 OVC023 17/16 Q1017

2010/08/09 21:00
LFRZ 092100Z AUTO 28010KT 9999NDV NSC 17/15 Q1018

2010/08/09 21:00
LFSB 092100Z VRB02KT CAVOK 18/14 Q1017 NOSIG

2010/08/09 21:00
LFST 092100Z AUTO 25004KT 9999NDV NSC 17/14 Q1017

2010/08/09 21:00
LFTH 092100Z AUTO 35003KT 6000NDV NSC 22/20 Q1016

2010/08/09 21:02
YSDU 092102Z AUTO 09006KT 2200NDV // SCT005 BKN017 OVC035 11/11 Q1015

2010/08/09 21:00
ZBAA 092100Z 01002MPS 340V040 CAVOK 24/17 Q1006 NOSIG

2010/08/09 21:00
ZBSJ 092100Z 06002MPS 1100 R33/1100N BR -RA OVC040 23/22 Q1006 NOSIG

2010/08/09 21:00
ZBTJ 092100Z 04001MPS 0900 R16R/P2000N -RA FG NSC 26/24 Q1005 NOSIG

2010/08/09 21:00
ZBYN 092100Z 06001MPS 4000 -RA BR OVC040 20/18 Q1010 RERA NOSIG

2010/08/09 21:00
ZGGG 092100Z VRB01MPS 6000 SCT016 28/26 Q1005 NOSIG

2010/08/09 21:00
ZSHC 092100Z VRB01MPS CAVOK 28/24 Q1002 NOSIG

2010/08/09 21:00
ZSPD 092100Z 33004MPS 9999 SCT011 27/25 Q1001 NOSIG

2010/08/09 21:00
ZSSS 092100Z 34004MPS 9999 SCT011 28/26 Q1001 NOSIG

2010/08/09 21:00
ZWSH 092100Z AUTO 31002MPS 220V360 CAVOK 26/08 Q1010

2010/08/09 21:00
ZWWW 092100Z 15003MPS CAVOK 24/11 Q1007 NOSIG

2010/08/09 21:00
ZYTL 092100Z 19002MPS 150V210 3000 TSRA BR SCT008 BKN020 SCT040CB 23/22 Q1006 NOSIG

2010/08/09 21:00
ZYTX 092100Z VRB01MPS 3000 BR OVC040 21/20 Q1006 NOSIG

2010/08/09 21:00
LRBS 092100Z 00000KT CAVOK 23/20 Q1013 NOSIG

2010/08/09 21:00
LRCK 092100Z 31004KT CAVOK 24/20 Q1011 NOSIG

2010/08/09 21:00
LROP 092100Z VRB02KT CAVOK 23/20 Q1013 880///95 NOSIG

2010/08/09 21:00
LRSB 092100Z 26004KT 9999 FEW037 BKN067 18/17 Q1017

2010/08/09 21:00
LRTR 092100Z 01006KT CAVOK 19/17 Q1016

2010/08/09 21:00
TBPB 092100Z 19011KT 9999 SCT014 SCT260 29/24 Q1013 NOSIG

2010/08/09 21:00
YSCB 092100Z 08006KT 4000 RA FEW009 SCT023 OVC055 08/07 Q1018 FM2100 09010KT 4000 -RA BKN019 BKN060 FM2230 09010KT 9000 -RA BKN024 BKN060 TEMPO 2100/2400 3000 RA BKN009

2010/08/09 21:00
WBKK 092100Z 24019KT 9999 -TSRA FEW014 FEW017CB SCT040 BKN270 26/25 Q1010 NOSIG

2010/08/09 21:00
WMKJ 092100Z 29001KT 9999 FEW022 BKN300 24/24 Q1007

2010/08/09 21:00
WMKK 092100Z 00000KT 9999 FEW017CB SCT140 BKN280 25/24 Q1007 NOSIG

2010/08/09 21:00
WMKP 092100Z 29001KT 9000 FEW025 SCT140 BKN270 27/25 Q1006 NOSIG

2010/08/09 21:00
WMSA 092100Z 00000KT 9999 FEW027 BKN280 26/25 Q1007

2010/08/09 21:00
LEAS 092100Z 08005KT 050V110 9999 SCT020 BKN030 19/16 Q1020 NOSIG

2010/08/09 21:00
LEBB 092100Z 00000KT 9999 SCT030 BKN040 21/16 Q1020 NOSIG

2010/08/09 21:00
LECO 092100Z 32003KT 290V010 CAVOK 20/16 Q1018

2010/08/09 21:00
LEGE 092100Z 02005KT 6000 FEW010 SCT034 21/20 Q1017

2010/08/09 21:00
LEST 092100Z VRB01KT CAVOK 17/14 Q1019 NOSIG

2010/08/09 21:00
LEZG 092100Z 29013KT 9999 FEW060 24/14 Q1017

2010/08/09 21:00
LEVT 092100Z 05003KT 9999 FEW018 BKN026 16/15 Q1021

2010/08/09 21:00
LERS 092100Z 12006KT 080V160 9999 FEW030 25/21 Q1017

2010/08/09 21:00
LEMH 092100Z 06003KT 9999 FEW020 23/20 Q1016

2010/08/09 21:00
LEAM 092100Z 25003KT CAVOK 25/21 Q1016

2010/08/09 21:00
LEGR 092100Z VRB01KT 9999 FEW090 29/15 Q1018

2010/08/09 21:00
OIBB 092100Z 18004KT 5000 BR SKC 32/28 Q0997?? ???????????NIL

2010/08/09 21:00
OINZ 092100Z 17004KT CAVOK 24/18 Q1009 A2980

2010/08/09 21:00
RKSI 092100Z 06005KT 9999 SCT040 BKN120 26/23 Q1008 NOSIG

2010/08/09 21:00
RKSS 092100Z 02002KT CAVOK 25/22 Q1008 NOSIG 

2010/08/09 21:00
RKPC 092100Z 13011KT 100V160 7000 BKN025 BKN130 28/24 Q1005 NOSIG 

2010/08/09 21:00
RKPK 092100Z 36005KT 9999 SCT010 BKN040 BKN080 26/23 Q1010 NOSIG 

2010/08/09 21:00
RKTU 092100Z 33002KT 9000 -RA SCT020 OVC030 25/24 Q1009 NOSIG 

2010/08/09 21:00
RKTN 092100Z 12002KT 9000 FEW005 SCT020 BKN030 26/25 Q1009 NOSIG

2010/08/09 21:00
RKJB 092100Z 13007KT 100V160 9999 FEW040 BKN140 27/24 Q1007 NOSIG 

2010/08/09 21:00
RKNY 092100Z AUTO 31005KT3000NDV NCD 23/21 Q1008 

2010/08/09 21:00
ZGKL 092100Z 34001MPS 4000 BR SKC 26/25 Q1004 NOSIG

2010/08/09 21:00
ZGNN 092100Z 05002MPS 6000 FEW016 26/25 Q1004 TEMPO 2000 BR

2010/08/09 21:00
ZGOW 092100Z 31001MPS 7000 NSC 27/25 Q1005 NOSIG

2010/08/09 21:00
ZGSZ 092100Z 11002MPS CAVOK 29/24 Q1005 NOSIG

2010/08/09 21:00
ZLXY 092100Z 04003MPS 3500 BR NSC 26/23 Q1004 NOSIG

2010/08/09 21:00
ZMUB 092100Z VRB01MPS CAVOK 07/01 Q1008 NOSIG RMK QFE649.5 66

2010/08/09 21:00
ZPPP 092100Z 08002MPS 9999 SCT026 BKN040 20/16 Q1017 NOSIG

2010/08/09 21:00
ZSAM 092100Z 22003MPS CAVOK 28/23 Q1004 NOSIG

2010/08/09 21:00
ZSFZ 092100Z 20003MPS CAVOK 27/24 Q1003 NOSIG

2010/08/09 21:00
ZSNB 092100Z 28002MPS 9999 FEW026 27/25 Q1001 NOSIG

2010/08/09 21:00
ZSQD 092100Z VRB01MPS 9999 FEW017 24/22 Q1006 NOSIG

2010/08/09 21:00
ZUUU 092100Z 00000MPS 4000 BR SCT040 27/24 Q1003 BECMG 2700 BR

2010/08/09 21:00
GCLP 092100Z 05003KT 010V080 9999 BKN023 23/19 Q1014 NOSIG

2010/08/09 21:00
GCXO 092100Z 32005KT 7000 3000NW VCFG FEW001 BKN004 18/17 Q1016 NOSIG

2010/08/09 21:00
GCTS 092100Z VRB02KT 9999 FEW020 BKN026 22/19 Q1014 NOSIG

2010/08/09 21:00
GCRR 092100Z 28006KT 250V320 9999 FEW015 25/20 Q1013

2010/08/09 21:00
GCFV 092100Z VRB01KT 8000 FEW020 23/21 Q1013

2010/08/09 21:00
LFBD 092100Z 29007KT 260V330 9999 FEW036 18/15 Q1019 NOSIG

2010/08/09 21:00
LFBI 092100Z AUTO 23012KT 9999NDV NSC 20/12 Q1017

2010/08/09 21:00
LFBL 092100Z AUTO 27005KT 230V310 9999NDV FEW042 18/14 Q1019

2010/08/09 21:00
LFBO 092100Z 27008KT 9999 BKN045 22/16 Q1019 NOSIG

2010/08/09 21:00
LFBP 092100Z AUTO 00000KT 9999NDV FEW043 17/16 Q1020

2010/08/09 21:00
LFBT 092100Z 21004KT 9999 FEW011 BKN033 18/15 Q1021 TEMPO SCT008 BKN013

2010/08/09 21:00
LFBZ 092100Z AUTO 00000KT 9999NDV NSC 18/15 Q1020

2010/08/09 21:00
LFKB 092100Z 21003KT 9999 FEW020 21/19 Q1016 NOSIG

2010/08/09 21:00
LFKF 092100Z AUTO VRB01KT 9999NDV NCD 23/14 Q1016

2010/08/09 21:00
LFLB 092100Z AUTO VRB02KT 9999NDV NSC 18/15 Q1016

2010/08/09 21:00
LFLC 092100Z 28008KT CAVOK 24/14 Q1017 NOSIG

2010/08/09 21:00
LFLN 092100Z AUTO VRB02KT 9999NDV NSC 19/17 Q1017

2010/08/09 21:00
LFLX 092100Z AUTO 25004KT 9999NDV NSC 22/12 Q1016

2010/08/09 21:00
LFMD 092100Z AUTO 00000KT 9999NDV OVC025 24/21 Q1015

2010/08/09 21:00
LFMH 092100Z AUTO 26003KT 9999NDV NSC 23/15 Q1017

2010/08/09 21:00
LFML 092100Z 18005KT 150V210 9999 -TSRA FEW030CB SCT050 23/20 Q1015 NOSIG

2010/08/09 21:00
LFMP 092100Z AUTO 32012KT 9999NDV NSC 24/16 Q1017

2010/08/09 21:00
LFMU 092100Z AUTO 28010KT 9999NDV NSC 24/18 Q1016

2010/08/09 21:00
LFOP 092100Z AUTO 02003KT 9999NDV NSC 17/13 Q1017

2010/08/09 21:00
LFPB 092100Z AUTO 35007KT 9999NDV NSC 20/13 Q1015

2010/08/09 21:00
LFPM 092100Z AUTO 06003KT 9999NDV NSC 20/12 Q1015

2010/08/09 21:00
LFRH 092100Z 26003KT 9999 SCT009 OVC018 17/16 Q1018

2010/08/09 21:00
LFSL 092100Z AUTO VRB03KT 9999NDV BKN049 19/16 Q1019

2010/08/09 21:00
LFSN 092100Z VRB01KT CAVOK 18/12 Q1017 NOSIG

2010/08/09 21:00
LFTW 092100Z AUTO 18005KT 9999NDV //////TCU 22/17 Q1015

2010/08/09 21:00
LRCK 092100Z 31004KT CAVOK 24/20 Q1011 NOSIG

2010/08/09 21:00
LROP 092100Z VRB02KT CAVOK 23/20 Q1013 880///95 NOSIG

2010/08/09 21:00
LRSB 092100Z 26004KT 9999 FEW037 BKN067 18/17 Q1017

2010/08/09 21:00
KNEL 092100Z AUTO 17015KT 8SM CLR 33/17 A2995 RMK AO2 SLP139 T03280167 56015 $

2010/08/09 20:56
KNFL 092056Z 16007KT 10SM FEW080 32/02 A2992 RMK AO2 SLP107 T03170017 58017

2010/08/09 20:59
KNGU 092059Z 09008KT 070V130 10SM FEW045 SCT250 32/20 A3002 RMK AO2 SLP165 T03170200 58005

2010/08/09 20:56
KNTD 092056Z VRB05KT 5SM HZ BKN012 18/14 A2994 RMK AO2 SLP140 LAG PK 17/17/13005 T01830139 58001 $

2010/08/09 20:55
KOSC 092055Z AUTO 20007KT 7SM SCT020 SCT050 SCT065 26/23 A2989 RMK AO2

2010/08/09 21:00
LFBA 092100Z AUTO 25003KT 9999NDV NSC 18/15 Q1019

2010/08/09 21:00
LFBE 092100Z AUTO 26006KT 9999NDV FEW039 19/14 Q1019

2010/08/09 21:00
LFBI 092100Z AUTO 23012KT 9999NDV NSC 20/12 Q1017

2010/08/09 21:00
LFBL 092100Z AUTO 27005KT 230V310 9999NDV FEW042 18/14 Q1019

2010/08/09 21:00
LFBO 092100Z 27008KT 9999 BKN045 22/16 Q1019 NOSIG

2010/08/09 21:00
LFBT 092100Z 21004KT 9999 FEW011 BKN033 18/15 Q1021 TEMPO SCT008 BKN013

2010/08/09 21:00
LFBZ 092100Z AUTO 00000KT 9999NDV NSC 18/15 Q1020

2010/08/09 21:00
LFKB 092100Z 21003KT 9999 FEW020 21/19 Q1016 NOSIG

2010/08/09 21:00
LFKF 092100Z AUTO VRB01KT 9999NDV NCD 23/14 Q1016

2010/08/09 21:00
LFKJ 092100Z 09004KT 9999 FEW016 22/19 Q1017 NOSIG

2010/08/09 21:00
LFLB 092100Z AUTO VRB02KT 9999NDV NSC 18/15 Q1016

2010/08/09 21:00
LFLC 092100Z 28008KT CAVOK 24/14 Q1017 NOSIG

2010/08/09 21:00
LFLN 092100Z AUTO VRB02KT 9999NDV NSC 19/17 Q1017

2010/08/09 21:00
LFLX 092100Z AUTO 25004KT 9999NDV NSC 22/12 Q1016

2010/08/09 21:00
LFMD 092100Z AUTO 00000KT 9999NDV OVC025 24/21 Q1015

2010/08/09 21:00
LFMH 092100Z AUTO 26003KT 9999NDV NSC 23/15 Q1017

2010/08/09 21:00
LFML 092100Z 18005KT 150V210 9999 -TSRA FEW030CB SCT050 23/20 Q1015 NOSIG

2010/08/09 21:00
LFMP 092100Z AUTO 32012KT 9999NDV NSC 24/16 Q1017

2010/08/09 21:00
LFMT 092100Z 30008KT CAVOK 26/17 Q1015 BECMG SHRA

2010/08/09 21:00
LFMU 092100Z AUTO 28010KT 9999NDV NSC 24/18 Q1016

2010/08/09 21:00
LFOP 092100Z AUTO 02003KT 9999NDV NSC 17/13 Q1017

2010/08/09 21:00
LFPB 092100Z AUTO 35007KT 9999NDV NSC 20/13 Q1015

2010/08/09 21:00
LFPM 092100Z AUTO 06003KT 9999NDV NSC 20/12 Q1015

2010/08/09 21:00
LFPN 092100Z AUTO 34006KT 9999NDV NSC 18/12 Q1016

2010/08/09 21:00
LFRH 092100Z 26003KT 9999 SCT009 OVC018 17/16 Q1018

2010/08/09 21:00
LFSL 092100Z AUTO VRB03KT 9999NDV BKN049 19/16 Q1019

2010/08/09 21:00
LFSN 092100Z VRB01KT CAVOK 18/12 Q1017 NOSIG

2010/08/09 21:00
LFTW 092100Z AUTO 18005KT 9999NDV //////TCU 22/17 Q1015

2010/08/09 20:55
KQCJ 092055Z AUTO 33001KT 9SM FEW100 15/14 A3011 RMK AO2 SLP125 60006 T01530141 57022

2010/08/09 20:55
KQPD 092055Z AUTO 00000KT 9999 29/M01 A2964 RMK AO2 SLP940 T02871012 52005 $

2010/08/09 20:55
KQQS 092055Z AUTO 00000KT 9999 BKN170 17/15 A3007 RMK AO2 SLP069 60011 T01710147 57008 $

2010/08/09 21:00
BIAR 092100Z 33007KT CAVOK 13/08 Q1013

2010/08/09 21:00
BIEG 092100Z 02010KT 3000N 8000S VCFG BKN001 09/09 Q1012

2010/08/09 21:00
BIKF 092100Z 31008KT 9999 BKN012 11/08 Q1014

2010/08/09 21:00
BIRK 092100Z 33002KT 9999 BKN011 11/09 Q1014

2010/08/09 20:55
KHRT 092055Z 18007KT 10SM VCTS FEW030CB FEW090 SCT250 33/26 A2991 RMK AO2A TS 10NW MOV W SLP131 T03260257 58018 $

2010/08/09 20:55
KHUA 092055Z AUTO 21010G14KT 35/21 A2996 RMK AO2 SLP132 T03520210 56017 PWINO PNO TSNO $

2010/08/09 21:00
KNEL 092100Z AUTO 17015KT 8SM CLR 33/17 A2995 RMK AO2 SLP139 T03280167 56015 $

2010/08/09 20:56
KNFL 092056Z 16007KT 10SM FEW080 32/02 A2992 RMK AO2 SLP107 T03170017 58017

2010/08/09 21:00
LEMO 092100Z 03005KT 350V050 CAVOK 34/15 Q1013 NOSIG

2010/08/09 21:00
LKKV 092100Z 10001KT CAVOK 14/13 Q1019

2010/08/09 21:00
MHLE 092100Z 05005KT 9999 TS SCT024CB BKN200 25/16 Q1022 CB TCU TD TS S

2010/08/09 21:00
OLBA 092100Z VRB03KT 8000 BKN026 28/22 Q1008 NOSIG

2010/08/09 20:56
PHBK 092056Z AUTO 31008KT 10SM BKN050 28/19 A3011 RMK AO2 SLP197 6//// T02830189 TSNO $

2010/08/09 21:00
RJAW 092100Z 06006KT 9999 FEW012 26/24 Q1014 RMK 2CU012 A2995

2010/08/09 21:00
RJSM 092100Z 06003KT 020V080 0300 R10/0400V0600D -DZ FG VV000 23/22 Q1014 RMK A2995 R0500 29/22 R024 FCST 2103 BECMG 2122 1500 BR SCT003ST BKN005ST BECMG 2223 7000 NSW FEW003ST SCT005ST

2010/08/09 21:00
SVJC 092100Z 27006KT 9999 SCT040 32/23 Q1008

2010/08/09 21:00
TBPB 092100Z 19011KT 9999 SCT014 SCT260 29/24 Q1013 NOSIG

2010/08/09 21:00
TFFF 092100Z 10003KT 060V150 9999 -SHRA FEW013CB SCT020 BKN280 27/25 Q1013 TEMPO +SHRA

2010/08/09 21:00
WSAP 092100Z 12002KT 9999 FEW016 BKN300 28/26 Q1007

2010/08/09 20:55
KBIX 092055Z 16013KT 10SM FEW015 BKN030 BKN200 32/25 A2993 RMK AO2A PRESRR WND DATA ESTMD ALSTG/SLP ESTMD 50000 SLPNO RVRNO PWINO PNO FZRANO TSNO VISNO RWY21 CHINO RWY21 $

2010/08/09 20:56
KDMA 092056Z VRB05KT 10SM SCT100 34/14 A2994 RMK AO2A WND DATA ESTMD ALSTG/SLP ESTMD

2010/08/09 20:56
KHLR 092056Z AUTO 12007G15KT 10SM CLR 38/18 A2991 RMK AO2 SLP117 T03780183 56019 $

2010/08/09 20:55
KHRT 092055Z 18007KT 10SM VCTS FEW030CB FEW090 SCT250 33/26 A2991 RMK AO2A TS 10NW MOV W SLP131 T03260257 58018 $

2010/08/09 20:57
KNJM 092057Z AUTO 17007KT 10SM BKN055 BKN070 28/24 A3002 RMK AO2 SLP168 T02830239 56008

2010/08/09 20:55
KSVN 092055Z 07011G17KT 12SM FEW032 SCT250 32/23 A2995 RMK SLP145 58010 WND DATA ESTMD ALSTG/SLP EST

2010/08/09 21:00
MZBZ 092100Z 09004KT 9999 SCT027 BKN280 31/26 A2986 NOSIG

2010/08/09 21:00
OIAM 092100Z 00000KT CAVOK 34/20 Q0996 A2943

2010/08/09 21:00
OICI 092100Z 00000KT CAVOK 29/M09 Q1012 A2989 863.0

2010/08/09 21:00
OIKQ 092100Z 00000KT 6000 SKC 31/27 Q0997 A2945

2010/08/09 21:00
OINN 092100Z 22004KT CAVOK 25/23 Q1007 A2976

2010/08/09 21:00
OINR 092100Z 00000KT CAVOK 27/23 Q1007 A2975

2010/08/09 21:00
OISY 092100Z 18004KT 9999 FEW040 23/M03 Q1019 A3010

2010/08/09 21:00
ZBHH 092100Z 07003MPS CAVOK 12/08 Q1012 NOSIG

2010/08/09 21:00
ZGHA 092100Z 25001MPS 2700 BR NSC 28/27 Q1002 NOSIG

2010/08/09 21:00
ZHCC 092100Z 05001MPS 2000 BR NSC 25/25 Q1004 NOSIG

2010/08/09 21:00
ZHHH 092100Z 09003MPS 3000 BR NSC 29/28 Q1003 NOSIG

2010/08/09 21:00
ZJHK 092100Z 18001MPS CAVOK 26/25 Q1003 NOSIG

2010/08/09 21:00
ZJSY 092100Z 35001MPS CAVOK 26/25 Q1003 NOSIG

2010/08/09 21:00
ZLLL 092100Z 01002MPS 9999 BKN043 15/14 Q1013 NOSIG

2010/08/09 21:00
ZSOF 092100Z 06002MPS 5000 BR SKC 27/25 Q1003 NOSIG

2010/08/09 21:00
ZUCK 092100Z 01001MPS CAVOK 30/22 Q1003 NOSIG

2010/08/09 21:00
ZYHB 092100Z 17002MPS 140V220 4000 BR SKC 15/15 Q1005 NOSIG

2010/08/09 21:00
MHLC 092100Z 02005KT 9999 SCT022CB BKN220 32/25 Q1010 A2983 NOSIG

2010/08/09 20:56
MMIA 092056Z RTD 00000KT 8SM BKN020CB BKN100 30/23 A2991 RMK SLP/// 6//// 8/360 9//

2010/08/09 20:50
PTSA 092050Z 08013KT 10SM SCT015CB BKN130 OVC300 28/25 A2986 RMK CB DSNT W-NW

2010/08/09 20:57
PWAK 092057Z 07014KT 10SM FEW026 29/24 A3007 RMK AO2A

2010/08/09 21:00
RJAA 092100Z 17002KT 8000 FEW020 SCT150 23/22 Q1016 NOSIG RMK 1CU020 3AC150 A3001

2010/08/09 21:00
RJCC 092100Z 19004KT 1800 R19R/1600VP1800N R01R/1800U BCFG BR SCT001 BKN002 22/21 Q1014 RMK 4ST001 7ST002 A2995

2010/08/09 21:00
RJFF 092100Z 15009KT 9999 -RA FEW020 SCT110 BKN140 26/23 Q1010 RMK 1CU020 3AC110 5AC140 A2983

2010/08/09 21:00
RJFK 092100Z 12007KT 9999 FEW010 BKN/// 26/23 Q1012 RMK 1CU010 A2990

2010/08/09 21:00
RJOO 092100Z 00000KT 9999 -SHRA FEW002 SCT010 BKN020 26/24 Q1014 RMK 1ST002 4CU010 6CU020 A2995

2010/08/09 21:00
RJTT 092100Z 14005KT 9999 FEW010 BKN030 BKN100 27/23 Q1015 RMK 1CU010 5CU030 7AC100 A2999

2010/08/09 21:00
RKSS 092100Z 02002KT CAVOK 25/22 Q1008 NOSIG

2010/08/09 21:00
ROAH 092100Z 18020KT 9999 FEW010 SCT015 BKN100 28/26 Q1006 RMK 1CU010 3CU015 5AC100 A2973

2010/08/09 21:00
TBPB 092100Z 19011KT 9999 SCT014 SCT260 29/24 Q1013 NOSIG

2010/08/09 21:00
TFFF 092100Z 10003KT 060V150 9999 -SHRA FEW013CB SCT020 BKN280 27/25 Q1013 TEMPO +SHRA

2010/08/09 21:00
TGPY 092100Z 10010KT 9999 FEW018 BKN250 29/26 Q1012

2010/08/09 21:00
TTPP 092100Z ///06KT 9999 -SHRA SCT010CB SCT080 BKN260 27/24 Q1011 TEMPO RA

2010/08/09 21:00
VHHH 092100Z 17003KT 9999 FEW016 28/25 Q1005 NOSIG

2010/08/09 21:00
YBBN 092100Z 08007KT 9999 FEW010 SCT060 BKN080 18/16 Q1020 INTER 2100/2400 4000 SHRA BKN012

2010/08/09 21:00
SADF 092100Z 05004KT CAVOK 18/06 Q1024

2010/08/09 21:00
SARE 092100Z 16007KT CAVOK 17/07 Q1021

2010/08/09 21:00
SAWG 092100Z 25026G37KT 9999 FEW030 BKN200 06/M03 Q1008

2010/08/09 21:00
SAWH 092100Z 25013KT 5000 SN OVC015 M01/M03 Q0999

2010/08/09 21:00
SBGR 092100Z 17005KT 5000 BR SCT012 OVC018 14/11 Q1024

2010/08/09 21:00
SBJP 092100Z 14006KT 2500 -RA BKN010 OVC070 23/22 Q1016

2010/08/09 21:00
SBUG 092100Z 11007KT CAVOK 16/02 Q1023

2010/08/09 21:00
SLCP 092100Z 00000KT 5000 FU SKC 29/12 Q1017

2010/08/09 21:00
SLJE 092100Z 00000KT 9999 SKC 30/15 Q1017

2010/08/09 21:00
SLMG 092100Z 16004KT 6000 SKC 33/16 Q1015

2010/08/09 21:00
SLRQ 092100Z 00000KT 8000 FEW020 29/22 Q1014

2010/08/09 21:00
SLRY 092100Z 18006KT 5000 FU SKC 30/18 Q1014

2010/08/09 21:00
SLSI 092100Z 22006KT 8000 SKC 29/14 Q1016

2010/08/09 21:00
SLSU 092100Z 05011KT 9999 SKC 19/05 Q1026

2010/08/09 21:00
SLTJ 092100Z 13014KT 9999 SKC 18/09 Q1020

2010/08/09 21:00
SPHI 092100Z 19015KT CAVOK 22/15 Q1014 RMK BIRD HAZARD RWY 19/01 PP000

2010/08/09 21:00
SPQT 092100Z /////KT 8000 FEW020 SCT100 31/21 Q1012 NOSIG RMK BRUMOSO BIRD HAZARD RWY 06/24 PP000

2010/08/09 21:00
SPQU 092100Z 26008KT 230V300 CAVOK 18/M14 Q1026 NOSIG RMK PP000

2010/08/09 21:00
SPRU 092100Z 17009KT 9999 FEW013 17/13 Q1013 RMK BIRD HAZARD RWY20 PP000

2010/08/09 21:00
SPSO 092100Z 28008KT 7000 FEW012 19/13 Q1016 RMK BIRDS HAZARD RWY 22/04 W PP000

2010/08/09 21:00
SPTN 092100Z 22008KT CAVOK 17/09 Q1013 RMK PP000

2010/08/09 21:00
SPZO 092100Z 02006KT 290V050 9999 SKC 20/M19 Q1029 NOSIG RMK PP000

2010/08/09 21:00
SUAA 092100Z 24004KT 9000 FU SCT200 11/05 Q1024

2010/08/09 21:00
SULS 092100Z 22007KT 7000 NSC 11/06 Q1024

2010/08/09 21:00
SUMU 092100Z 25004KT 5000 BR NSC 12/06 Q1024 NOSIG

2010/08/09 21:00
WBKK 092100Z 24019KT 9999 -TSRA FEW014 FEW017CB SCT040 BKN270 26/25 Q1010 NOSIG

2010/08/09 21:00
WBSB 092100Z 08007KT 7000 -RA FEW003 SCT020 BKN150 26/25 Q1009 NOSIG

2010/08/09 21:00
WMKK 092100Z 00000KT 9999 FEW017CB SCT140 BKN280 25/24 Q1007 NOSIG

2010/08/09 21:00
WMKP 092100Z 29001KT 9000 FEW025 SCT140 BKN270 27/25 Q1006 NOSIG

2010/08/09 21:00
WSSL 092100Z VRB02KT 9999 FEW018 BKN300 28/25 Q1007

2010/08/09 21:00
WSSS 092100Z 14005KT 9999 SCT016 BKN300 28/26 Q1007 NOSIG

2010/08/09 21:00
MHAM 092100Z 04012KT 9999 TS FEW030 FEW034CB BKN080 30/25 CB TS NE

2010/08/09 21:00
MHCH 092100Z 34002KT 9999 TS SCT030TCU FEW032CB BKN080 29/24 CB TCU TD TS SW

2010/08/09 21:00
MHLC 092100Z 02005KT 9999 SCT022CB BKN220 32/25 Q1010 A2983 NOSIG

2010/08/09 21:00
MHNO 092100Z 18004KT 9999 TS SCT040CB 27/// CB E NW TS E TCU TD HZ

2010/08/09 21:00
MHPL 092100Z 10003KT 9999 SCT030TCU SCT250 32/25 Q1013 TCU SE CTE S SW W HZ

2010/08/09 21:00
MHRO 092100Z 08010KT 9999 FEW026TCU BKN200 32/25 Q 1010 A2984 NOSIG

2010/08/09 21:00
MHSR 092100Z 01004KT 9999 SCT025CB BKN250 28/19 CB SE S SW TCU TD

2010/08/09 21:00
MHTE 092100Z 09006KT 9999 SCT024TCU 31/24 Q1011 TCU S SSW HZ

2010/08/09 21:00
MHTG 092100Z 28003KT 9999 -DZ BKN026CB 24/21 Q1017 A3003 RETS BECMG 6000 -RA

2010/08/09 21:00
MHYR 092100Z 04006KT 9999 SCT025TCU 31/20 TCU TD FEW080 HZ

2010/08/09 21:00
MNBL 092100Z 06010KT 9999 BKN018 SCT070 29/26 Q1010

2010/08/09 21:00
MNCH 092100Z 09006KT 8000 TS FEW024CB SCT300 30/27 Q1009 CBRA/NE/E/SE CB//N/NW TCU/S/SW

2010/08/09 21:00
OIAW 092100Z 00000KT CAVOK 33/17 Q0997 A2945

2010/08/09 21:00
OIKB 092100Z 05006KT 7000 SKC 31/26 Q0998 A2949

2010/08/09 21:00
OIKK 092100Z 34004KT CAVOK 23/M02 Q1016 A3002

2010/08/09 21:00
OIMM 092100Z 25004KT CAVOK 24/03 Q1014 A2995

2010/08/09 21:00
OISS 092100Z 00000KT CAVOK 24/M00 Q1013 A2993

2010/08/09 21:00
OITT 092100Z 09022KT 9999 FEW040 FEW045CB 26/10 Q1016 A3000

2010/08/09 21:00
OIZH 092100Z 26004KT CAVOK 24/M03 Q1010 A2984

2010/08/09 21:00
ORSU 092100Z 36006KT CAVOK 27/03 Q1008

2010/08/09 21:00
SADF 092100Z 05004KT CAVOK 18/06 Q1024

2010/08/09 21:00
TGPY 092100Z 10010KT 9999 FEW018 BKN250 29/26 Q1012

2010/08/09 21:00
FMMI 092100Z 09006KT 9999 FEW016 BKN020 14/13 Q1026 NOSIG

2010/08/09 21:00
OIKR 092100Z 23012KT CAVOK 22/02 Q1016 A3003

2010/08/09 21:00
OING 092100Z 21006KT CAVOK 25/17 Q1009 A2980

2010/08/09 21:00
OIZB 092100Z 32030KT 7000 SKC 34/04 Q1001 A2956

2010/08/09 21:00
OIZI 092100Z 20004KT 8000 NSC 36/05 Q1001 A2958

2010/08/09 21:05
CYTZ 092105Z AUTO 31015G24KT 5SM -RA 23/21 A2993 RMK SLP136 DENSITY ALT 1200FT MAX WND 30024KT AT 2103Z LTNG DIST NE E CLD MISG RVR MISG

2010/08/09 20:50
EGDR 092050Z 26007KT 0400 FG SCT000 OVC002 16/16 Q1013 RED

2010/08/09 20:55
ETIH 092055Z AUTO 00000KT 9999 CLR 13/13 A3008 RMK AO2 SLP182 T01270127 51009 $

2010/08/09 21:00
LFBA 092100Z AUTO 25003KT 9999NDV NSC 18/15 Q1019

2010/08/09 21:00
LFBE 092100Z AUTO 26006KT 9999NDV FEW039 19/14 Q1019

2010/08/09 21:00
LFCR 092100Z AUTO 27008KT 9999NDV BKN044 18/14 Q1021

2010/08/09 21:00
LFGJ 092100Z AUTO 07005KT 9999NDV NSC 18/15 Q1016

2010/08/09 21:00
LFJL 092100Z AUTO 27001KT 9999NDV NSC 20/10 Q1017

2010/08/09 21:00
LFKJ 092100Z 09004KT 9999 FEW016 22/19 Q1017 NOSIG

2010/08/09 21:00
LFLS 092100Z AUTO 02004KT 330V080 9999NDV NSC 22/14 Q1016

2010/08/09 21:00
LFLY 092100Z AUTO 01008KT 9999NDV NSC 24/15 Q1016

2010/08/09 21:00
LFMK 092100Z AUTO 29008KT 250V310 9999NDV OVC042 23/16 Q1019

2010/08/09 21:00
LFMT 092100Z 30008KT CAVOK 26/17 Q1015 BECMG SHRA

2010/08/09 21:00
LFOB 092100Z AUTO 35006KT 9999NDV NSC 17/12 Q1016

2010/08/09 21:00
LFOH 092100Z AUTO 00000KT 9999NDV NSC 14/10 Q1016

2010/08/09 21:00
LFOT 092100Z 31005KT CAVOK 23/12 Q1016 NOSIG

2010/08/09 21:00
LFPN 092100Z AUTO 34006KT 9999NDV NSC 18/12 Q1016

2010/08/09 21:00
LFRC 092100Z AUTO 23010KT 9999NDV OVC003 17/16 Q1016

2010/08/09 21:00
LFRD 092100Z AUTO 19002KT 9999NDV FEW047 14/12 Q1017

2010/08/09 21:00
LFRK 092100Z AUTO VRB02KT 9999NDV ///////// 16/11 Q1017

2010/08/09 21:00
LFRN 092100Z AUTO 34006KT 9999NDV NSC 18/11 Q1017

2010/08/09 21:00
LFRO 092100Z AUTO 21007KT 9999NDV BKN009 OVC023 17/16 Q1017

2010/08/09 21:00
LFRQ 092100Z AUTO 24004KT 200V280 9999NDV BKN005 OVC018 17/16 Q1018

2010/08/09 21:00
LFRT 092100Z AUTO 24005KT 210V270 9999NDV FEW015 16/15 Q1017

2010/08/09 21:00
LFRZ 092100Z AUTO 28010KT 9999NDV NSC 17/15 Q1018

2010/08/09 21:00
LFSB 092100Z VRB02KT CAVOK 18/14 Q1017 NOSIG

2010/08/09 21:00
LFST 092100Z AUTO 25004KT 9999NDV NSC 17/14 Q1017

2010/08/09 21:00
LFTH 092100Z AUTO 35003KT 6000NDV NSC 22/20 Q1016

2010/08/09 21:00
LPPR 092100Z 00000KT CAVOK 24/17 Q1016

2010/08/09 21:00
TKPN 092100Z 09011KT 9999 -SHRA SCT015 28/25 Q1013

2010/08/09 21:00
MYNN 092100Z 00000KT 9999 -SHRA SCT012CB SCT018 BKN080 27/24 A2996

2010/08/09 21:01
PAKI 092101Z AUTO 18020KT 1 3/4SM +RA BR OVC010 09/09 A2927 RMK AO2 TSNO CIG 005V014 P0000 $

2010/08/09 20:59
PAVC 092059Z AUTO 21018G29KT 1SM BR 10/08 A2962 RMK AO2 PWINO TSNO PK WND 20029/2058 $

2010/08/09 21:02
K2W6 092102Z AUTO 14006KT 10SM CLR 31/17 A3000 RMK AO1

2010/08/09 21:05
KCGS 092105Z AUTO 22005KT 10SM CLR 35/18 A2996 RMK AO1

2010/08/09 21:03
KCBE 092103Z AUTO 00000KT 10SM CLR 34/16 A2999 RMK AO1

2010/08/09 21:01
KDMW 092101Z AUTO 17007KT 152V212 10SM SCT065 BKN090 34/19 A3000 RMK AO2

2010/08/09 21:03
KFME 092103Z AUTO 14009KT 10SM SCT060 SCT070 30/22 A2999 RMK AO1

2010/08/09 21:03
KFDK 092103Z AUTO 16007KT 130V190 10SM SCT100 34/18 A2998 RMK AO2

2010/08/09 21:03
KW29 092103Z AUTO 17008KT 10SM CLR 31/19 A2997 RMK AO1

2010/08/09 21:00
NWWW 092100Z AUTO VRB03KT 9999NDV NCD 19/14 Q1024

2010/08/09 21:00
YSRI 092100Z AUTO 00000KT 6000NDV // BKN056 BKN077 OVC087 08/08 Q1019

2010/08/09 21:00
K2G4 092100Z AUTO 21005KT 10SM SCT055 28/12 A3012 RMK AO1

2010/08/09 21:00
KCGE 092100Z AUTO 20005KT 10SM CLR 33/21 A3000 RMK AO1

2010/08/09 21:00
SMJP 092100Z 00000KT 9999 FEW020CB 28/24 Q1012 TEMPO TS

2010/08/09 21:00
MNPC 092100Z 09008KT 7000 SCT018 SCT300 30/26 Q1010 HZ

2010/08/09 21:00
MNRS 092100Z 08006KT 9999 FEW015CB BKN070 29/25 Q1010 CB/4C

2010/08/09 21:00
MNJG 092100Z 00000KT 9999 BKN019 23/19 Q1011

2010/08/09 21:00
MNJU 092100Z 06006KT 9999 SCT020 SCT080 29/25 Q1011

2010/08/09 21:00
MNCH 092100Z 09006KT 8000 TS FEW024CB SCT300 30/27 Q1009 CBRA/NE/E/SE CB//N/NW TCU/S/SW

2010/08/09 21:00
MNBL 092100Z 06010KT 9999 BKN018 SCT070 29/26 Q1010

2010/08/09 21:00
SCAR 092100Z 20008KT CAVOK 15/09 Q1016

2010/08/09 21:00
SCDA 092100Z 23006KT 8000 OVC020 15/09 Q1016

2010/08/09 21:00
SCFA 092100Z 17007KT 9999 FEW020 15/08 Q1015 NOSIG

2010/08/09 21:00
SCCF 092100Z 25017KT CAVOK 22/M12 Q1024

2010/08/09 21:00
SCAT 092100Z 26010KT CAVOK 15/07 Q1017

2010/08/09 21:00
SCIP 092100Z 03011KT 8000 -SHRA SCT015 BKN020 18/16 Q1021 TEMPO 5000 -SHRA BKN015

2010/08/09 21:00
SCSE 092100Z 27007KT 9999 BKN017 12/09 Q1017 NEFO PLAYA 2450FT

2010/08/09 21:00
SCEL 092100Z 17010KT CAVOK 19/01 Q1015 NOSIG

2010/08/09 21:00
SCIE 092100Z 21007KT CAVOK 14/04 Q1016

2010/08/09 21:00
SCTC 092100Z 22006KT 190V260 CAVOK 14/06 Q1019

2010/08/09 21:00
SCJO 092100Z 17012KT 9999 FEW020 13/07 Q1022

2010/08/09 21:00
SCTE 092100Z 14004KT 9999 FEW040 11/08 Q1024 NOSIG

2010/08/09 21:00
SCBA 092100Z 30026KT 9999 FEW030 FEW070 04/M01 Q1018

2010/08/09 21:00
SCCI 092100Z 25021G34KT 9999 FEW013 03/M01 Q1008 NOSIG

2010/08/09 21:00
SCNT 092100Z 23012G23KT 9999 BKN015 SCT110 06/M01 Q1012

2010/08/09 21:00
TTPP 092100Z ///06KT 9999 -SHRA SCT010CB SCT080 BKN260 27/24 Q1011 TEMPO RA

2010/08/09 21:00
SARP 092100Z 14005KT CAVOK 18/09 Q1020

2010/08/09 21:00
KHWY 092100Z AUTO 17009G14KT 10SM CLR 34/18 A2997 RMK AO2

2010/08/09 21:00
KIPJ 092100Z AUTO 00000KT 10SM CLR 35/18 A3001 RMK AO2 T03460183

2010/08/09 21:00
KIXA 092100Z AUTO 00000KT 10SM CLR 33/21 A2999 RMK AO2 T03250208

2010/08/09 21:00
KJES 092100Z AUTO 09013G18KT 10SM CLR 34/26 A2994 RMK AO2 T03400262

2010/08/09 21:00
KJGG 092100Z AUTO 16008KT 10SM CLR 34/15 A3001 RMK AO1

2010/08/09 21:00
KJKA 092100Z AUTO 14010KT 10SM CLR 34/27 A2994 RMK AO2 T03410270

2010/08/09 21:00
KLDJ 092100Z AUTO 18007KT 7SM BKN070 BKN080 33/16 A2993 RMK AO2 T03340164

2010/08/09 21:00
KLHZ 092100Z AUTO 16003KT 10SM CLR 33/20 A3002 RMK AO2 T03290203

2010/08/09 21:00
KMQI 092100Z AUTO 08005KT 10SM BKN075 29/24 A3002 RMK AO2

2010/08/09 21:00
KPGV 092100Z AUTO 00000KT 10SM CLR 32/18 A3001 RMK AO2

2010/08/09 21:00
KRUQ 092100Z AUTO 12004KT 10SM SCT049 33/19 A3001 RMK AO2

2010/08/09 21:00
KSIF 092100Z AUTO 13004KT 7SM SCT060 SCT070 31/23 A3000 RMK AO2 T03110225

2010/08/09 21:00
KSUT 092100Z AUTO 18007KT 10SM SCT043 28/22 A3001 RMK AO2

2010/08/09 21:00
KTPF 092100Z AUTO 30004KT 10SM BKN031 BKN040 29/27 A2988 RMK AO2

2010/08/09 20:58
KVUJ 092058Z AUTO 14005KT 10SM BKN090 33/22 A2999 RMK AO2

2010/08/09 20:55
KVVG 092055Z AUTO 00000KT 30/25 A2990 RMK AO2

2010/08/09 20:59
KW99 092059Z AUTO 18005KT 10SM SCT075 SCT085 36/12 A2997 RMK AO2

2010/08/09 20:58
K0R3 092058Z AUTO 21008KT SCT047 SCT060 SCT075 34/27 A2991 RMK AO2 LTG DSNT NE AND E PWINO

2010/08/09 21:00
K1A5 092100Z AUTO 12003KT 10SM BKN060 BKN070 OVC090 29/19 A3008 RMK AO2 T02910189

2010/08/09 21:00
K3A1 092100Z AUTO 24005KT 10SM CLR 36/22 A2999 RMK AO2 T03550215 TSNO

2010/08/09 20:59
K3I2 092059Z AUTO 00000KT 10SM CLR 32/19 A2999 RMK AO2

2010/08/09 21:00
K3J7 092100Z AUTO 14006KT 10SM BKN060 BKN065 BKN100 34/21 A2996 RMK AO2 T03390206

2010/08/09 20:58
K4A9 092058Z AUTO 34004KT 10SM SCT120 30/23 A2999 RMK AO2 T02960230

2010/08/09 21:00
K4R4 092100Z AUTO 16010KT 7SM SCT031 BKN039 BKN045 34/25 A2994 RMK AO2 T03410249

2010/08/09 20:58
K8A0 092058Z AUTO 17003KT 10SM SCT070 SCT095 36/18 A2997 RMK AO2 LTG DSNT NW

2010/08/09 20:58
KACP 092058Z AUTO 17005KT 10SM SCT055 SCT075 BKN080 36/24 A2990 RMK AO2

2010/08/09 21:00
KAFP 092100Z AUTO 12003KT 10SM SCT055 SCT095 34/20 A2998 RMK AO2 T03350200

2010/08/09 21:00
KALX 092100Z AUTO 00000KT 10SM CLR 35/20 A2997 RMK AO1

2010/08/09 21:00
KAVC 092100Z AUTO 00000KT 10SM CLR 33/19 A3006 RMK AO2

2010/08/09 21:00
KBCB 092100Z AUTO 25004KT 10SM CLR 33/19 A3010 RMK AO2 PWINO

2010/08/09 21:00
KBIJ 092100Z AUTO 06004KT 10SM SCT060 SCT080 35/21 A2993 RMK AO2

2010/08/09 21:00
KBQK 092100Z AUTO 11010KT 10SM SCT100 31/25 A2997 RMK AO1 6//// T03070250 PNO

2010/08/09 21:00
KCCO 092100Z AUTO 00000KT 10SM CLR 32/24 A3000 RMK AO1

2010/08/09 20:59
KCJR 092059Z AUTO 17006KT 10SM CLR 34/21 A2997 RMK AO2

2010/08/09 20:55
KCLS 092055Z AUTO 35004KT 10SM OVC022 18/13 A3002 RMK AO2

2010/08/09 21:00
KCPC 092100Z AUTO 16008G14KT 10SM CLR 33/23 A2998 RMK AO2 T03250230

2010/08/09 21:00
KCTJ 092100Z AUTO 16004KT 10SM SCT060 34/21 A3001 RMK AO2 T03440210

2010/08/09 20:55
KEMV 092055Z AUTO 10007KT 10SM CLR 32/18 A3001 RMK AO2

2010/08/09 21:00
KEYF 092100Z AUTO 10006KT 10SM CLR 35/20 A2999 RMK AO2 T03460199

2010/08/09 20:57
KEZF 092057Z AUTO 20006KT 10SM CLR 35/23 A2995 RMK AO2 T03500231

2010/08/09 21:00
KF24 092100Z AUTO 20003KT 10SM CLR 37/20 A2993 RMK AO2 T03740201

2010/08/09 21:00
KFFA 092100Z AUTO 08006KT 10SM SCT070 SCT080 28/24 A3003 RMK AO2 T02780239

2010/08/09 21:00
KFKN 092100Z AUTO 16007KT 10SM SCT080 34/21 A3000 RMK AO1

2010/08/09 20:55
KGHG 092055Z AUTO 20006KT 10SM CLR 32/22 A2991 RMK AO2

2010/08/09 21:00
KGWW 092100Z AUTO 00000KT 10SM CLR 33/20 A3001 RMK AO2 T03310204

2010/08/09 21:00
KHNZ 092100Z AUTO 16006KT 10SM SCT095 32/18 A3001 RMK AO2 T03230181

2010/08/09 20:58
KHOE 092058Z AUTO 14005KT 10SM SCT100 32/24 A2994 RMK AO2 T03230244

2010/08/09 20:59
KHRJ 092059Z AUTO 00000KT 10SM CLR 34/20 A3000 RMK AO2

2010/08/09 21:00
KHSP 092100Z AUTO 17004KT 10SM SCT045 27/17 A3022 RMK AO2

2010/08/09 21:00
K2G4 092100Z AUTO 21005KT 10SM SCT055 28/12 A3012 RMK AO1

2010/08/09 21:00
UGTB 092100Z VRB04KT 9999 SCT050 SCT100 25/12 Q1014 NOSIG RMK 13CLRD80

2010/08/09 21:00
UGSB 092100Z 11004KT P6000 SKC 26/24 Q1006 NOSIG

2010/08/09 21:00
MWCR 092100Z 06005KT 020V090 9999 -SHRA BKN018TCU BKN220 30/26 Q1013 NOSIG

2010/08/09 21:00
MWCB 092100Z VRB02KT 9999 FEW016 BKN250 32/26 Q1013

2010/08/09 21:00
UKBB 092100Z 15003MPS 090V200 9000 VCTS -SHRA SCT033CB 24/20 Q1015 88CLRD95 TEMPO 1000 TSRA

2010/08/09 21:00
UKHH 092100Z 32002MPS 4100 DU SKC 27/14 Q1013 080///65 NOSIG

2010/08/09 21:00
UKOO 092100Z 02006MPS 4900 FU SKC 28/18 Q1011 34090070 NOSIG

2010/08/09 21:00
UKDE 092100Z 17001MPS CAVOK 26/12 Q1011 02CLRD70 NOSIG

2010/08/09 21:00
UKDD 092100Z 03003MPS CAVOK 25/14 Q1012 08090070 NOSIG

2010/08/09 21:00
UKFF 092100Z 09003MPS CAVOK 23/15 Q1010 01010070 NOSIG

2010/08/09 21:00
UKLL 092100Z VRB02MPS 9999 VCTS -SHRA BKN009 SCT020CB 15/15 Q1017 31290550 TEMPO 0800 +TSRAGR

2010/08/09 21:00
UKCC 092100Z 10003MPS CAVOK 25/10 Q1012 08090070 NOSIG

2010/08/09 21:00
UKDR 092100Z 06004MPS CAVOK 26/12 Q1011 1809//70 NOSIG

2010/08/09 21:00
FLLS 092100Z 13004KT CAVOK 15/09 Q1024

2010/08/09 21:00
FQBR 092100Z /////KT CAVOK 21/20 Q1017

2010/08/09 21:00
DIAP 092100Z VRB03KT 7000 SCT011 SCT080 25/23 Q1015 NOSIG

2010/08/09 21:00
DXXX 092100Z 22004KT 8000 FEW010 BKN080 25/23 Q1014 NOSIG

2010/08/09 21:00
UBBG 092100Z 30006KT 9999 SCT100 24/13 Q1011 NOSIG RMK R30R/CLRD70 

2010/08/09 21:03
KCRG 092103Z 11009KT 10SM SCT021 BKN029 BKN040 30/25 A2994 RMK AO2

2010/08/09 21:03
KFST 092103Z AUTO 23013G22KT 10SM VCTS BKN055 BKN070 27/18 A2996 RMK AO2 WSHFT 2043 LTG DSNT SW-N

2010/08/09 21:03
KMPV 092103Z AUTO VRB04KT 2 1/2SM TSRA BKN022 BKN034 OVC075 22/18 A2996 RMK AO2 VIS 1V5 LTG DSNT ALQDS P0006

2010/08/09 21:01
PAKI 092101Z AUTO 18020KT 1 3/4SM +RA BR OVC010 09/09 A2927 RMK AO2 TSNO CIG 005V014 P0000 $

2010/08/09 21:00
MZBZ 092100Z 09004KT 9999 SCT027 BKN280 31/26 A2986 Q1011 NOSIG

2010/08/09 20:59
PGWT 092059Z 20002KT 7SM FEW016 SCT030 BKN100 BKN140 24/23 A2992 RMK WIND DATA ESTIMATED

2010/08/09 20:59
PGWT 092059Z 20002KT 7SM FEW016 SCT030 BKN100 BKN140 24/23 A2992 RMK WIND DATA ESTIMATED

2010/08/09 20:50
PTSA 092050Z 08013KT 10SM SCT015CB BKN130 OVC300 28/25 A2986 RMK CB DSNT W-NW

2010/08/09 21:00
FOOL 092100Z 17005KT 140V200 8000 SCT010 OVC033 25/23 Q1015 NOSIG

2010/08/09 20:56
PANW 092056Z AUTO 18010G16KT 10SM BKN005 BKN011 OVC065 11/10 A2958 RMK AO2 PWINO TSNO 51010 T01110100 CIG 003V007 SLP993 $

2010/08/09 21:00
KUXL 092100Z AUTO 21007KT 10SM SCT050 SCT055 SCT110 36/25 A2991 RMK AO2

2010/08/09 20:58
KDNN 092058Z AUTO 00000KT 10SM SCT060 34/20 A2997 RMK AO2

2010/08/09 21:00
KDRI 092100Z AUTO 00000KT 10SM BKN050 BKN065 35/25 A2993 RMK AO2

2010/08/09 21:00
KGAO 092100Z AUTO 00000KT 10SM VCTSRA SCT009 SCT020 26/25 A2995 RMK AO2 LTG DSNT ALQS

2010/08/09 21:00
KI16 092100Z AUTO 00000KT 10SM CLR 32/19 A2999 RMK AO2

2010/08/09 21:00
KIER 092100Z AUTO 14006KT 10SM CLR 39/25 A2989 RMK AO2 PWINO

2010/08/09 21:00
KJYO 092100Z AUTO 17010KT 10SM CLR 34/19 A2997 RMK AO2

2010/08/09 20:55
KLGC 092055Z AUTO 06005KT 10SM FEW060 36/19 A2996 RMK AO1

2010/08/09 21:00
KLKU 092100Z AUTO 17006KT 10SM CLR 33/21 A2998 RMK AO2

2010/08/09 21:00
KLNP 092100Z AUTO 00000KT 10SM CLR 29/19 A3012 RMK AO1

2010/08/09 21:00
KLOM 092100Z AUTO 22007G15KT 10SM CLR 32/19 A2996 RMK AO1 T03220188

2010/08/09 21:00
KMDQ 092100Z AUTO 31008KT 10SM CLR 32/24 A2996 RMK AO2 LTG DSNT SW T03210240

2010/08/09 21:00
KMGR 092100Z AUTO 08006KT 017V127 10SM SCT055 SCT070 36/19 A2995 RMK AO2

2010/08/09 21:00
KMKJ 092100Z AUTO 00000KT 10SM SCT050 SCT055 30/11 A3016 RMK AO1

2010/08/09 21:00
KMQS 092100Z AUTO 20004KT 8SM CLR 31/21 A3001 RMK AO2

2010/08/09 21:00
KMTV 092100Z AUTO 19003KT 10SM CLR 34/22 A3002 RMK AO2

2010/08/09 21:00
KOKV 092100Z AUTO 14009KT 10SM SCT090 35/19 A2997 RMK AO2 T03510192

2010/08/09 21:00
KOMH 092100Z AUTO 14006KT 10SM CLR 34/22 A2999 RMK AO2 T03360219

2010/08/09 21:00
KOPN 092100Z AUTO 07004KT 10SM SCT060 36/22 A2999 RMK AO1

2010/08/09 21:00
KPCM 092100Z AUTO 00000KT 10SM SCT036 SCT049 BKN075 33/24 A2989 RMK AO2

2010/08/09 21:00
KPSK 092100Z AUTO 16005KT 10SM CLR 34/13 A3009 RMK AO2

2010/08/09 21:00
KRCZ 092100Z AUTO 12003KT 10SM CLR 34/20 A2999 RMK AO2 T03360199

2010/08/09 21:00
KRMN 092100Z AUTO 18004KT 10SM SCT060 33/23 A3001 RMK AO2

2010/08/09 21:00
KSFQ 092100Z AUTO 11007KT 10SM CLR 32/22 A3001 RMK AO2

2010/08/09 21:00
KSHD 092100Z AUTO 16007KT 10SM CLR 33/21 A3002 RMK AO2

2010/08/09 21:00
KSVH 092100Z AUTO 16003KT 10SM CLR 32/20 A3001 RMK AO2 T03240204

2010/08/09 21:00
KTBR 092100Z AUTO 08007KT 10SM SCT060 35/20 A2996 RMK AO2 T03520195

2010/08/09 21:00
KTMA 092100Z AUTO 00000KT 10SM SCT060 34/20 A2995 RMK AO2 T03360195

2010/08/09 21:00
KTVI 092100Z AUTO 07008G15KT 10SM SCT055 SCT070 36/20 A2994 RMK AO2 T03610195

2010/08/09 21:00
KW45 092100Z AUTO 15007KT 10SM SCT060 SCT070 33/21 A2999 RMK AO2 T03330212

2010/08/09 20:55
KOSC 092055Z AUTO 20007KT 7SM SCT020 SCT050 SCT065 26/23 A2989 RMK AO2

2010/08/09 21:03
KCBE 092103Z AUTO 00000KT 10SM CLR 34/16 A2999 RMK AO1

2010/08/09 20:55
KBIX 092055Z 16013KT 10SM FEW015 BKN030 BKN200 32/25 A2993 RMK AO2A PRESRR WND DATA ESTMD ALSTG/SLP ESTMD 50000 SLPNO RVRNO PWINO PNO FZRANO TSNO VISNO RWY21 CHINO RWY21 $

2010/08/09 20:59
KNGU 092059Z 09008KT 070V130 10SM FEW045 SCT250 32/20 A3002 RMK AO2 SLP165 T03170200 58005

2010/08/09 20:57
KNJM 092057Z AUTO 17007KT 10SM BKN055 BKN070 28/24 A3002 RMK AO2 SLP168 T02830239 56008

2010/08/09 21:00
TTPP 092100Z ///06KT 9999 -SHRA SCT010CB SCT080 BKN260 27/24 Q1011 TEMPO RA

2010/08/09 20:55
KHRT 092055Z 18007KT 10SM VCTS FEW030CB FEW090 SCT250 33/26 A2991 RMK AO2A TS 10NW MOV W SLP131 T03260257 58018 $

2010/08/09 20:55
KHUA 092055Z AUTO 21010G14KT 35/21 A2996 RMK AO2 SLP132 T03520210 56017 PWINO PNO TSNO $

2010/08/09 21:00
KNEL 092100Z AUTO 17015KT 8SM CLR 33/17 A2995 RMK AO2 SLP139 T03280167 56015 $

2010/08/09 20:56
KNFL 092056Z 16007KT 10SM FEW080 32/02 A2992 RMK AO2 SLP107 T03170017 58017

2010/08/09 20:56
PHBK 092056Z AUTO 31008KT 10SM BKN050 28/19 A3011 RMK AO2 SLP197 6//// T02830189 TSNO $

2010/08/09 21:00
KNEL 092100Z AUTO 17015KT 8SM CLR 33/17 A2995 RMK AO2 SLP139 T03280167 56015 $

2010/08/09 20:56
KNFL 092056Z 16007KT 10SM FEW080 32/02 A2992 RMK AO2 SLP107 T03170017 58017

2010/08/09 20:59
KNGU 092059Z 09008KT 070V130 10SM FEW045 SCT250 32/20 A3002 RMK AO2 SLP165 T03170200 58005

2010/08/09 20:56
KNTD 092056Z VRB05KT 5SM HZ BKN012 18/14 A2994 RMK AO2 SLP140 LAG PK 17/17/13005 T01830139 58001 $

2010/08/09 20:55
KBIX 092055Z 16013KT 10SM FEW015 BKN030 BKN200 32/25 A2993 RMK AO2A PRESRR WND DATA ESTMD ALSTG/SLP ESTMD 50000 SLPNO RVRNO PWINO PNO FZRANO TSNO VISNO RWY21 CHINO RWY21 $

2010/08/09 20:56
KDMA 092056Z VRB05KT 10SM SCT100 34/14 A2994 RMK AO2A WND DATA ESTMD ALSTG/SLP ESTMD

2010/08/09 20:56
KHLR 092056Z AUTO 12007G15KT 10SM CLR 38/18 A2991 RMK AO2 SLP117 T03780183 56019 $

2010/08/09 20:55
KHRT 092055Z 18007KT 10SM VCTS FEW030CB FEW090 SCT250 33/26 A2991 RMK AO2A TS 10NW MOV W SLP131 T03260257 58018 $

2010/08/09 20:57
KNJM 092057Z AUTO 17007KT 10SM BKN055 BKN070 28/24 A3002 RMK AO2 SLP168 T02830239 56008

2010/08/09 20:55
KSVN 092055Z 07011G17KT 12SM FEW032 SCT250 32/23 A2995 RMK SLP145 58010 WND DATA ESTMD ALSTG/SLP EST

2010/08/09 20:57
PWAK 092057Z 07014KT 10SM FEW026 29/24 A3007 RMK AO2A

2010/08/09 21:02
KROC 092102Z 30010KT 4SM TSRA FEW009 BKN025CB BKN041 OVC130 24/21 A2994 RMK AO2 TSB02 OCNL LTGICCC OHD TS OHD MOV E P0001

2010/08/09 21:01
KCBM 092101Z AUTO 09009KT 4SM -TSRA BR OVC055 26/23 A2994 RMK AO2 SLP138 $

2010/08/09 21:00
KFCS 092100Z AUTO 01003KT 10SM -DZ FEW080 BKN100 BKN130 24/14 A3013 RMK AO2 DZB2100 SLP124

2010/08/09 21:00
HECA 092100Z 36008KT CAVOK 27/22 Q1009 NOSIG

2010/08/09 20:50
HLLB 092050Z 33015KT 9999 SCT020 25/20 Q1014

2010/08/09 21:00
WSSS 092100Z 14005KT 9999 SCT016 BKN300 28/26 Q1007 NOSIG

2010/08/09 20:59
KJNX 092059Z AUTO 00000KT 10SM CLR 33/18 A3000 RMK AO2

2010/08/09 21:00
KAYS 092100Z AUTO 10009KT 10SM SCT048 BKN055 BKN080 35/ A2993 RMK AO1

2010/08/09 20:58
KDBN 092058Z AUTO 10007KT 10SM SCT070 35/21 A2995 RMK AO1

2010/08/09 21:00
YSDU 092100Z AUTO 09006KT 2000NDV // SCT005 BKN017 OVC035 11/11 Q1015

2010/08/09 20:50
EGPU 092050Z AUTO 19004KT 9999NDV // FEW045/// 12/10 Q1004

2010/08/09 21:00
GMAD 092100Z 00000KT 8000 NSC 24/20 Q1014 NOSIG

2010/08/09 21:00
GMFF 092100Z 19027KTG40KT 6000 TSRA BKN033 SCT040CB BKN100 25/17 Q1018 NOSIG

2010/08/09 21:00
GMME 092100Z 22004KT 8000 NSC 25/22 Q1013 NOSIG

2010/08/09 21:00
GMMN 092100Z 15003KT 110V190 CAVOK 30/16 Q1015 NOSIG

2010/08/09 21:00
GMMX 092100Z 06008KTKT 6000 SCT033 FEW040CB BKN100 32/15 Q1016 NOSIG

2010/08/09 21:00
GMTT 092100Z 07019KT 9999 FEW016 SCT200 26/17 Q1013 NOSIG

2010/08/09 21:01
KMFV 092101Z AUTO 19007KT 10SM CLR 30/22 A3002 RMK AO2

2010/08/09 21:01
KMLJ 092101Z AUTO 00000KT 10SM CLR 34/22 A2998 RMK AO2

2010/08/09 21:01
KMRN 092101Z AUTO 15003KT 10SM BKN100 33/21 A3007 RMK AO2

2010/08/09 21:02
KMWK 092102Z AUTO 13003KT 10SM OVC100 32/20 A3003 RMK AO2

2010/08/09 21:01
KOCW 092101Z AUTO 10006KT 10SM CLR 31/21 A3001 RMK AO2

2010/08/09 21:01
KPTB 092101Z AUTO 16006KT 7SM CLR 34/ A2999 RMK AO2

2010/08/09 21:01
KRHP 092101Z AUTO 00000KT SCT065 33/21 A3004 RMK AO2 PWINO

2010/08/09 21:01
KTDF 092101Z AUTO 00000KT 32/20 A3002 RMK AO1

2010/08/09 21:04
KTTA 092104Z AUTO 00000KT 10SM CLR 33/20 A3000 RMK AO2

2010/08/09 21:02
K47A 092102Z AUTO 09005KT 10SM CLR 34/16 A3002 RMK AO2 LTG DSNT SW

2010/08/09 21:02
KBGE 092102Z AUTO 07008G14KT 10SM CLR 36/18 A2993 RMK AO2

2010/08/09 21:01
KCWV 092101Z AUTO 11005KT 10SM SCT060 SCT070 36/24 A2995 RMK AO2 T03550235

2010/08/09 21:15
KFDW 092115Z AUTO 07005KT 10SM CLR 35/17 A3000 RMK AO1

2010/08/09 21:02
K2W6 092102Z AUTO 14006KT 10SM CLR 31/17 A3000 RMK AO1

2010/08/09 21:05
KCGS 092105Z AUTO 22005KT 10SM CLR 35/18 A2996 RMK AO1

2010/08/09 21:03
KFDK 092103Z AUTO 16007KT 130V190 10SM SCT100 34/18 A2998 RMK AO2

2010/08/09 21:03
KW29 092103Z AUTO 17008KT 10SM CLR 31/19 A2997 RMK AO1

2010/08/09 21:02
KHQU 092102Z AUTO 09008KT 10SM CLR 34/17 A3001 RMK AO1

2010/08/09 21:01
KIDI 092101Z AUTO 25005KT 10SM CLR 30/17 A3002 RMK AO2

2010/08/09 21:01
KJYL 092101Z AUTO 09004KT 10SM CLR 34/24 A2997 RMK AO2

2010/08/09 21:01
KLWB 092101Z AUTO 00000KT 10SM CLR 31/14 A3010 RMK AO2

2010/08/09 21:00
HRYR 092100Z 01003KT CAVOK 22/12 Q1021 NOSIG

2010/08/09 21:00
TFFF 092100Z 10003KT 060V150 9999 -SHRA FEW013CB SCT020 BKN280 27/25 Q1013 TEMPO +SHRA

2010/08/09 21:00
YPGV 092100Z 00000KT 0900 FG BKN001 OVC190 22/21 Q1012

2010/08/09 21:00
OIFS 092100Z 00000KT CAVOK 12/M01 Q1021 A3016 797.0

2010/08/09 21:00
OIMB 092100Z 00000KT CAVOK 21/08 Q1014 A2997

2010/08/09 21:00
OIMT 092100Z 06012KT CAVOK 33/M02 Q1006 A2972 924.6

2010/08/09 21:00
OIZJ 092100Z 08018KT 5000 SA SKC 30/28 Q0999 A2950

2010/08/09 21:00
GCFV 092100Z VRB01KT 8000 FEW020 23/21 Q1013

2010/08/09 21:00
GCLA 092100Z VRB02KT 9999 FEW018 BKN025 22/18 Q1014

2010/08/09 21:00
GCLP 092100Z 05003KT 010V080 9999 BKN023 23/19 Q1014 NOSIG

2010/08/09 21:00
GCRR 092100Z 28006KT 250V320 9999 FEW015 25/20 Q1013

2010/08/09 21:00
GCTS 092100Z VRB02KT 9999 FEW020 BKN026 22/19 Q1014 NOSIG

2010/08/09 21:00
GCXO 092100Z 32005KT 7000 3000NW VCFG FEW001 BKN004 18/17 Q1016 NOSIG

2010/08/09 21:00
GMFF 092100Z 19027KTG40KT 6000 TSRA BKN033 SCT040CB BKN100 25/17 Q1018 NOSIG

2010/08/09 21:00
GMFO 092100Z 20002KT 9999 FEW033 SCT100 28/17 Q1017 NOSIG

2010/08/09 21:00
GMME 092100Z 22004KT 8000 NSC 25/22 Q1013 NOSIG

2010/08/09 21:00
GMMN 092100Z 15003KT 110V190 CAVOK 30/16 Q1015 NOSIG

2010/08/09 21:00
GMMX 092100Z 06008KTKT 6000 SCT033 FEW040CB BKN100 32/15 Q1016 NOSIG

2010/08/09 21:00
GMTA 092100Z 32002KT 8000 SCT010 SCT100 23//22 Q1015

2010/08/09 21:00
GMTT 092100Z 07019KT 9999 FEW016 SCT200 26/17 Q1013 NOSIG

2010/08/09 21:00
GQNN 092100Z 27008KT 240V300 8000 NSC 27/21 Q1012 NOSIG

2010/08/09 20:53
PABR 092053Z 06019KT 10SM OVC004 02/01 A2987

2010/08/09 20:53
PACD 092053Z 17013G19KT 10SM SCT031 OVC040 13/08 A2953

2010/08/09 20:55
PAED 092055Z AUTO 32008KT 10SM BKN070 OVC085 16/12 A2964

2010/08/09 20:55
PAEI 092055Z AUTO 02005KT 10SM BKN120 BKN140 19/09 A2956

2010/08/09 20:53
PAEN 092053Z 27003KT 10SM OVC070 17/12 A2964

2010/08/09 20:53
PAFA 092053Z 06003KT 10SM SCT075 BKN100 BKN120 17/09 A2957

2010/08/09 20:56
PAFS 092056Z AUTO 30005KT 10SM BKN060 12/10 A2954

2010/08/09 20:53
PAJN 092053Z 13011KT 10SM FEW027 BKN042 OVC065 15/10 A2998

2010/08/09 20:54
PAKN 092054Z 21011KT 10SM OVC018 13/10 A2957

2010/08/09 20:53
PAKT 092053Z 13006KT 10SM FEW006 BKN017 OVC026 14/12 A3003

2010/08/09 20:53
PANC 092053Z 14010G19KT 10SM SCT060 BKN070 BKN085 18/09 A2963

2010/08/09 20:53
PAOM 092053Z 12011KT 10SM SCT007 BKN013 OVC032 11/09 A2934

2010/08/09 20:53
PAOR 092053Z VRB05KT 10SM FEW070 SCT095 BKN150 18/08 A2966

2010/08/09 20:53
PAOT 092053Z 10012KT 10SM -RA BKN019 OVC022 14/12 A2944

2010/08/09 20:56
PARY 092056Z AUTO 09007KT 9SM FEW008 BKN020 OVC027 14/11 A2952

2010/08/09 20:53
PASC 092053Z 06020KT 10SM OVC005 06/03 A2973

2010/08/09 20:53
PASI 092053Z 23004KT 10SM BKN008 OVC031 14/12 A2999

2010/08/09 20:56
PATQ 092056Z AUTO 07019G23KT 10SM OVC007 02/01 A2979

2010/08/09 20:56
PAVD 092056Z 25003KT 2SM SCT001 BKN020 OVC030 12/09 A2983

2010/08/09 20:56
PAWG 092056Z 35003KT 10SM SCT010 BKN045 OVC060 14/11 A3002

2010/08/09 20:50
PFYU 092050Z VRB03KT 10SM BKN050 OVC080 16/ A2956

2010/08/09 21:00
GBYD 092100 VRB02KT 9999 SCT011 FEW018CB SCT120 26/24 Q1012 CB NE-E

2010/08/09 21:00
GOOY 092100Z 27004KT 240V310 9999 SCT013 27/22 Q1012 NOSIG

2010/08/09 21:00
GUCY 092100Z 00000KT 9999 BKN013 SCT110 26/25 Q1013 NOSIG

2010/08/09 21:00
YBAS 092100Z 26007KT CAVOK 05/01 Q1019

2010/08/09 21:00
YBBN 092100Z 08007KT 9999 FEW010 SCT060 BKN080 18/16 Q1020 INTER 2100/2400 4000 SHRA BKN012

2010/08/09 21:00
YBCS 092100Z 13008KT 6000 -SHRA FEW002 SCT025 BKN035 22/21 Q1015 FM2100 12008KT 9999 -SHRA SCT018 BKN040 TEMPO 2100/2400 3000 SHRA BKN014

2010/08/09 21:00
YBTL 092100Z 06008KT 9999 FEW020 SCT040 BKN095 23/21 Q1015

2010/08/09 21:00
YMML 092100Z 27005KT 5000 RA FEW010 BKN045 BKN055 06/05 Q1015 FM2100 34005KT 9999 -RA FEW030 BKN055 INTER 2100/2400 4000 RA BKN015

2010/08/09 21:00
YPAD 092100Z 13012KT CAVOK 09/03 Q1013 NOSIG

2010/08/09 21:00
YPCC 092100Z AUTO 13008KT 9999NDV // NCD 25/21 Q1009

2010/08/09 21:00
YPDN 092100Z 18006KT CAVOK 20/16 Q1012 NOSIG

2010/08/09 21:00
YPLM 092100Z AUTO 04007KT 9999NDV // NCD 17/15 Q1017

2010/08/09 21:00
YPPH 092100Z 06012KT CAVOK 08/M02 Q1022 NOSIG

2010/08/09 21:00
YPTN 092100Z AUTO 00000KT 9999NDV // NCD 15/07 Q1014

2010/08/09 21:00
YPXM 092100Z AUTO 09008KT 9999NDV // SCT011 BKN017 24/22 Q////

2010/08/09 21:00
YSSY 092100Z 34007KT 9000 -RA FEW060 BKN080 OVC120 11/09 Q1019 TEMPO 2100/2400 4000 RA BKN010

2010/08/09 21:00
OJAI 092100Z 28004KT CAVOK 23/18 Q1009 NOSIG

2010/08/09 21:00
OJAM 092100Z 22007KT 5000 NSC 25/17 Q1009 NOSIG

2010/08/09 21:00
OLBA 092100Z VRB03KT 8000 BKN026 28/22 Q1008 NOSIG

2010/08/09 21:00
OEDF 092100Z 18005KT 8000 SKC 33/22 Q0997 NOSIG

2010/08/09 21:00
OEDR 092100Z 00000KT CAVOK 32/27 Q0995 NOSIG

2010/08/09 21:00
OEJN 092100Z 25004KT CAVOK 33/26 Q1001 NOSIG

2010/08/09 21:00
OERK 092100Z 21003KT CAVOK 33/08 Q1004 NOSIG

2010/08/09 21:00
OIAA 092100Z 00000KT 7000 NSC 33/26 Q0997

2010/08/09 21:00
OIAW 092100Z 00000KT CAVOK 33/17 Q0997 A2945

2010/08/09 21:00
OIBB 092100Z 18004KT 5000 BR SKC 32/28 Q0997 A2946

2010/08/09 21:00
OIBK 092100Z 32004KT 5000 BR NSC 31/29 Q0997 A2945

2010/08/09 21:00
OICC 092100Z 00000KT CAVOK 23/M05 Q1013 A2991 864.6

2010/08/09 21:00
OIKB 092100Z 05006KT 7000 SKC 31/26 Q0998 A2949

2010/08/09 21:00
OIKK 092100Z 34004KT CAVOK 23/M02 Q1016 A3002

2010/08/09 21:00
OIMM 092100Z 25004KT CAVOK 24/03 Q1014 A2995

2010/08/09 21:00
OINZ 092100Z 17004KT CAVOK 24/18 Q1009 A2980

2010/08/09 21:00
OISS 092100Z 00000KT CAVOK 24/M00 Q1013 A2993

2010/08/09 21:00
OITR 092100Z 26004KT 9999 SCT035 21/12 Q1014 A2994

2010/08/09 21:00
OITT 092100Z 09022KT 9999 FEW040 FEW045CB 26/10 Q1016 A3000

2010/08/09 21:00
OIYY 092100Z 22004KT CAVOK 25/M02 Q1014 A2995

2010/08/09 21:00
OIZH 092100Z 26004KT CAVOK 24/M03 Q1010 A2984

2010/08/09 21:00
OKBK 092100Z 17007KT 8000 NSC 37/14 Q0997 NOSIG

2010/08/09 21:00
OSAP 092100Z 28012KT CAVOK 28/12 Q1005

2010/08/09 21:00
OSDI 092100Z 18005KT CAVOK 26/18 Q1007

2010/08/09 21:00
OSLK 092100Z 15003KT CAVOK 25/22 Q1006

2010/08/09 21:00
OTBD 092100Z VRB02KT 6000 NSC 33/30 Q0997 NOSIG

2010/08/09 21:00
OBBI 092100Z VRB03KT CAVOK 35/26 Q0997 NOSIG

2010/08/09 21:00
OMAA 092100Z 36005KT 250V040 CAVOK 33/23 Q0996 A2943 NOSIG

2010/08/09 21:00
OMAL 092100Z 08006KT CAVOK 37/12 Q0999 A2951

2010/08/09 21:00
OMDB 092100Z 07006KT 050V170 CAVOK 37/14 Q0997 NOSIG

2010/08/09 21:00
OMFJ 092100Z 07003KT CAVOK 31/24 Q0999 A2951

2010/08/09 21:00
OMRK 092100Z 10006KT CAVOK 34/25 Q0996 A2944

2010/08/09 21:00
OMSJ 092100Z 08003KT CAVOK 30/15 Q0997

2010/08/09 21:00
OYAA 092100Z VRB01KT 7000 NSC 31/22 Q1002

2010/08/09 21:00
OYHD 092100Z 36004KT 9999 BKN030 33/30 Q1001

2010/08/09 21:00
OYSN 092100Z VRB01KT 9999 FEW030 18/11 Q1022

2010/08/09 21:00
OYTZ 092100Z 33004KT 9999 SCT030 BKN060 23/18 Q1008

2010/08/09 21:00
OBBI 092100Z VRB03KT CAVOK 35/26 Q0997 NOSIG

2010/08/09 21:00
OJAQ 092100Z 34011KT CAVOK 32/19 Q1005

2010/08/09 21:00
OMAD 092100Z 01007KT CAVOK 34/25 Q0997 A2944

2010/08/09 21:00
SLCA 092100Z 18005KT 9999 SKC 23/06 Q1019

2010/08/09 21:00
SLCO 092100Z 19004KT 5000 FU FEW025 33/20 Q1012

2010/08/09 21:00
SLCP 092100Z 00000KT 5000 FU SKC 29/12 Q1017

2010/08/09 21:00
SLJE 092100Z 00000KT 9999 SKC 30/15 Q1017

2010/08/09 21:00
SLJO 092100Z 14004KT 5000 FU SKC 32/16 Q1014

2010/08/09 21:00
SLMG 092100Z 16004KT 6000 SKC 33/16 Q1015

2010/08/09 21:00
SLOR 092100Z 30006KT 9999 SKC 19/M08 Q1034

2010/08/09 21:00
SLPO 092100Z 05010KT 9999 SKC 16/M03 Q1034

2010/08/09 21:00
SLPS 092100Z 19008KT 4000SE FU SKC 29/13 Q1015

2010/08/09 21:00
SLRB 092100Z 00000KT 7000 SKC 28/18 Q1017

2010/08/09 21:00
SLRI 092100Z 17005KT 5000 FU FEW020 34/18 Q1012

2010/08/09 21:00
SLRQ 092100Z 00000KT 8000 FEW020 29/22 Q1014

2010/08/09 21:00
SLRY 092100Z 18006KT 5000 FU SKC 30/18 Q1014

2010/08/09 21:00
SLSA 092100Z 14005KT 7000 SKC 32/16 Q1013

2010/08/09 21:00
SLSI 092100Z 22006KT 8000 SKC 29/14 Q1016

2010/08/09 21:00
SLSU 092100Z 05011KT 9999 SKC 19/05 Q1026

2010/08/09 21:00
SLVM 092100Z 00000KT 9999 SKC 24/19 Q1016

2010/08/09 21:00
SLYA 092100Z 09005KT 9999 SKC 21/11 Q1022

2010/08/09 21:00
SBBE 092100Z 34004KT 9999 SCT020 FEW025TCU 30/25 Q1011

2010/08/09 21:00
SBBR 092100Z 09009KT CAVOK 27/M03 Q1021

2010/08/09 21:00
SBBV 092100Z 32003KT 9999 -RA SCT020 FEW027TCU BKN080 28/22 Q1010

2010/08/09 21:00
SBCF 092100Z 21002KT CAVOK 24/05 Q1020

2010/08/09 21:00
SBCG 092100Z 30002KT CAVOK 29/04 Q1016

2010/08/09 21:00
SBEG 092100Z 13006KT 9999 FEW025 31/21 Q1010

2010/08/09 21:00
SBFI 092100Z 22004KT CAVOK 17/12 Q1019

2010/08/09 21:00
SBFZ 092100Z 09012KT CAVOK 26/22 Q1012

2010/08/09 21:00
SBGL 092100Z 23011KT 9999 SCT015 BKN040 22/16 Q1021

2010/08/09 21:00
SBGR 092100Z 17005KT 5000 BR SCT012 OVC018 14/11 Q1024

2010/08/09 21:00
SBKP 092100Z 12015KT 4500 HZ NSC 18/12 Q1021

2010/08/09 21:00
SBNT 092100Z 09009KT 4000 RA BKN005 SCT020 FEW025TCU BKN100 23/22 Q1015

2010/08/09 21:00
SBPA 092100Z 14004KT CAVOK 14/03 Q1025

2010/08/09 21:00
SBPS 092100Z 06006KT CAVOK 21/18 Q1017

2010/08/09 21:00
SBRF 092100Z 10010KT 8000 VCSH SCT007 BKN015 BKN070 23/21 Q1016

2010/08/09 21:00
SBSL 092100Z 03006KT 9999 FEW020 28/23 Q1012

2010/08/09 21:00
SBSN 092100Z 10007KT 9999 FEW025 31/23 Q1010

2010/08/09 21:00
SBSV 092100Z 11006KT 9999 SCT017 24/18 Q1017

2010/08/09 21:00
SBTT 092100Z 24004KT CAVOK 31/22 Q1011

2010/08/09 21:00
SBAR 092100Z 14007KT CAVOK 25/20 Q1017

2010/08/09 21:00
SBBG 092100Z 14005KT CAVOK 13/05 Q1024

2010/08/09 21:00
SBCJ 092100Z 16003KT CAVOK 29/09 Q1015

2010/08/09 21:00
SBCR 092100Z 22007KT CAVOK 27/05 Q1014

2010/08/09 21:00
SBCT 092100Z 09010KT 5000 BR BKN004 OVC007 09/08 Q1024

2010/08/09 21:00
SBCY 092100Z 12003KT CAVOK 35/07 Q1012

2010/08/09 21:00
SBCZ 092100Z 20003KT 5000 HZ FEW040 33/20 Q1012

2010/08/09 21:00
SBFL 092100Z 11010KT 9999 SCT040 15/09 Q1024

2010/08/09 21:00
SBFN 092100Z 13012KT 9999 SCT017 26/23 Q1014

2010/08/09 21:00
SBGO 092100Z 13006KT CAVOK 31/08 Q1017

2010/08/09 20:53
PABI 092053Z 18017G23KT 10SM FEW090 SCT110 SCT180 19/05 A2959

2010/08/09 20:55
PACZ 092055Z 15007KT 8SM -RA BKN012 OVC018 10/08 A2921

2010/08/09 20:56
PADK 092056Z 27015KT 10SM OVC034 11/08 A2977

2010/08/09 20:53
PADQ 092053Z 20010KT 10SM FEW023 SCT140 BKN250 15/10 A2967

2010/08/09 20:55
PAEH 092055Z AUTO 16018G36KT 130V190 4SM OVC005 09/07

2010/08/09 20:55
PAFB 092055Z 06005KT 13SM BKN075 BKN120 18/09 A2958

2010/08/09 20:58
PAGA 092058Z AUTO 14008KT 10SM -RA BKN023 OVC028 14/11 A2948

2010/08/09 20:55
PAIM 092055Z AUTO 14004KT 10SM SCT011 OVC021 12/12 A2954

2010/08/09 20:55
PALU 092055Z AUTO 07017KT 5SM 08/07 A2960

2010/08/09 20:55
PASV 092055Z AUTO 18012KT 10SM BKN017 OVC023 10/08 A2956

2010/08/09 20:56
PASY 092056Z 27005KT 8SM SCT001 OVC005 09/09 A2986

2010/08/09 20:55
PATC 092055Z AUTO 08006KT 5SM SCT013 BKN028 OVC035 14/12 A2935

2010/08/09 20:55
PATL 092055Z AUTO 13007KT 080V200 10SM OVC013 11/11 A2953

2010/08/09 21:00
SBLO 092100Z 27004KT CAVOK 27/07 Q1018

2010/08/09 21:00
SBMA 092100Z 11006KT CAVOK 36/19 Q1011

2010/08/09 21:00
SBMN 092100Z 12003KT 9999 FEW020 31/23 Q1010

2010/08/09 21:00
SBMO 092100Z 19002KT 6000 SCT006 SCT018 BKN090 21/19 Q1017

2010/08/09 21:00
SBMQ 092100Z 09006KT 9999 FEW020 FEW025TCU 31/26 Q1011

2010/08/09 21:00
SBPK 092100Z 14004KT CAVOK 12/03 Q1025

2010/08/09 21:00
SBPP 092100Z 21006KT CAVOK 23/13 Q1019

2010/08/09 21:00
SBPV 092100Z 09004KT CAVOK 36/12 Q1010

2010/08/09 21:00
SBRB 092100Z 00000KT 5000 FU SCT030 35/17 Q1012

2010/08/09 21:00
SBRJ 092100Z 21009KT 7000 BKN015 BKN025 22/18 Q1021

2010/08/09 21:00
SBSJ 092100Z 25009KT 9999 SCT020 17/13 Q1023

2010/08/09 21:00
SBSP 092100Z 14006KT 5000 BR BKN009 14/12 Q1024

2010/08/09 21:00
SBTE 092100Z 14003KT CAVOK 35/10 Q1011

2010/08/09 21:00
SBUG 092100Z 11007KT CAVOK 16/02 Q1023

2010/08/09 21:00
SBVT 092100Z 19004KT 9999 FEW025 BKN090 24/20 Q1017

2010/08/09 21:00
SBJP 092100Z 14006KT 2500 -RA BKN010 OVC070 23/22 Q1016

2010/08/09 21:00
SBPB 092100Z 06012KT CAVOK 28/22 Q1011

2010/08/09 21:00
SBPL 092100Z 13008KT 9999 SCT025 SCT070 28/14 Q1016

2010/08/09 21:00
SBTF 092100Z 00000KT 9999 TS SCT018 SCT030CB OVC100 27/23 Q1010

2010/08/09 20:50
MUCM 092050Z 11006KT 060V170 9000 SCT020 32/22 Q1012

2010/08/09 20:54
MUCU 092054Z 14012KT 9999 SCT020CB 31/26 Q1014

2010/08/09 20:55
MUHA 092055Z 18010KT 7000 SCT030 OVC070 26/23 Q1013

2010/08/09 20:50
MUVR 092050Z 22009KT 180V270 9000 FEW018 OVC070 25/22 Q1014

2010/08/09 20:59
MYEG 092059Z AUTO 09005KT 7SM VCTSRA SCT021 BKN042 OVC085 25/22 A2997 RMK AO2 P0001

2010/08/09 20:53
TIST 092053Z 11013KT 10SM CLR 29/25 A2992

2010/08/09 20:53
TISX 092053Z 11011KT 10SM FEW028 BKN085 29/24 A2993

2010/08/09 20:50
TJPS 092050Z 16008KT 10SM FEW030 FEW060 29/26 A2991

2010/08/09 20:56
TJSJ 092056Z 08012KT 10SM FEW020 SCT039 BKN080 28/25 A2992

2010/08/09 21:00
MDLR 092100Z 12012KT 9999 SCT025 31/24 Q1012

2010/08/09 21:00
MDPC 092100Z 09010KT 9999 SCT020 SCT300 30/24 Q1011 NOSIG

2010/08/09 21:00
MDPP 092100Z 09010KT 9999 SCT022 32/26 Q1014

2010/08/09 21:00
MDSD 092100Z VRB03KT 8000 VCSH SCT016CB SCT018 SCT300 27/23 Q1012 CB/NW/N/NE/SE OVR STAION VCSH/N/NW

2010/08/09 21:00
MDST 092100Z 09014KT 9999 FEW016CB SCT023 33/24 Q1012 CB/E/S/SW

2010/08/09 20:53
TIST 092053Z 11013KT 10SM CLR 29/25 A2992 RMK AO2 SLP133 60001 T02940250 57013

2010/08/09 20:53
TISX 092053Z 11011KT 10SM FEW028 BKN085 29/24 A2993 RMK AO2 SLP134 P0001 60004 T02890239 56009

2010/08/09 20:50
TJPS 092050Z 16008KT 10SM FEW030 FEW060 29/26 A2991

2010/08/09 20:56
TJSJ 092056Z 08012KT 10SM FEW020 SCT039 BKN080 28/25 A2992 RMK AO2 SLP131 SHRA DSNT NW 60012 T02830250 58005

2010/08/09 21:00
TKPK 092100Z 08010KT 9999 -SHRA BKN014 27/25 Q1013

2010/08/09 21:00
TKPN 092100Z 09011KT 9999 -SHRA SCT015 28/25 Q1013

2010/08/09 21:00
TBPB 092100Z 19011KT 9999 SCT014 SCT260 29/24 Q1013 NOSIG

2010/08/09 21:00
TFFF 092100Z 10003KT 060V150 9999 -SHRA FEW013CB SCT020 BKN280 27/25 Q1013 TEMPO +SHRA

2010/08/09 21:00
TFFR 092100Z 11005KT 080V140 9999 FEW015CB SCT026 29/24 Q1013 TEMPO 4000 SHRA

2010/08/09 21:00
TGPY 092100Z 10010KT 9999 FEW018 BKN250 29/26 Q1012

2010/08/09 21:00
TTPP 092100Z ///06KT 9999 -SHRA SCT010CB SCT080 BKN260 27/24 Q1011 TEMPO RA

2010/08/09 21:00
MHLC 092100Z 02005KT 9999 SCT022CB BKN220 32/25 Q1010 A2983 NOSIG

2010/08/09 21:00
MHTG 092100Z 28003KT 9999 -DZ BKN026CB 24/21 Q1017 A3003 RETS BECMG 6000 -RA

2010/08/09 21:00
MNPC 092100Z 09008KT 7000 SCT018 SCT300 30/26 Q1010 HZ

2010/08/09 21:00
MPBO 092100Z 00000KT 99999 FEW025 SCT100 30/24 Q1008 MPCH 092100Z 05006KT 9999 FEW020 BKN300 Q1011

2010/08/09 21:00
MPDA 092100Z 18006KT 9999 SCT025TCU SCT120 28/24 Q1009

2010/08/09 21:00
MPMG 092100Z 14005KT 9999 SCT018 BKN300 30/24 Q1010 NOSIG

2010/08/09 21:00
MPTO 092100Z 21006KT 9999 SCT018TCU SCT090 BKN300 30/24 Q1009 NOSIG

2010/08/09 21:00
MROC 092100Z 25008KT 9999 SCT020 BKN045 25/24 A2996 RMK FEW250 TCU ARND RN DST NE NOSIG

2010/08/09 20:50
MSLP 092050Z 18006KT 9999 FEW027 FEW040CB SCT300 31/25 Q1009 A2981 CB TO W/NW/NNE

2010/08/09 21:00
MZBZ 092100Z 09004KT 9999 SCT027 BKN280 31/26 A2986 NOSIG

2010/08/09 20:53
PHJR 092053Z 08007G16KT 10SM OVC050 29/16 A3011

2010/08/09 20:53
PHKO 092053Z 19013KT 10SM OVC055 27/19 A3004

2010/08/09 20:53
PHLI 092053Z 07014KT 10SM SCT024 BKN030 OVC050 27/20 A3015

2010/08/09 20:53
PHNL 092053Z 06019G26KT 10SM FEW034 SCT047 BKN055 29/15 A3010

2010/08/09 20:54
PHOG 092054Z 07022G29KT 10SM FEW040 SCT065 30/16 A3009

2010/08/09 20:53
PHTO 092053Z VRB04KT 10SM FEW030 OVC060 26/18 A3012

2010/08/09 20:56
MUCL 092056Z 34007KT 310V020 7000 -RA FEW015 OVC060 25/24 Q1015

2010/08/09 20:50
MUCM 092050Z 11006KT 060V170 9000 SCT020 32/22 Q1012

2010/08/09 20:54
MUCU 092054Z 14012KT 9999 SCT020CB 31/26 Q1014

2010/08/09 20:56
MUGM 092056Z 13011KT 9999 FEW025CB BKN250 31/24 A2990 RMK SLP124 CB DSNT NW T03060244 55012

2010/08/09 20:55
MUHA 092055Z 18010KT 7000 SCT030 OVC070 26/23 Q1013

2010/08/09 20:50
MUVR 092050Z 22009KT 180V270 9000 FEW018 OVC070 25/22 Q1014

2010/08/09 21:00
MGGT 092100Z 18008KT 8000 TSVCRA BKN018 BKN025CB 22/17 Q1024 A3024 CB/TS/PCPN SMC S VOL/DE PACAYA EN ACTIVIDAD

2010/08/09 21:00
MGGT 092100Z 18008KT 8000 TSVCRA BKN018 BKN025CB 22/17 Q1024 A3024 CB/TS/PCPN SMC S VOL.DE PACAYA EN ACTIVIDAD

2010/08/09 21:00
MHAM 092100Z 04012KT 9999 TS FEW030 FEW034CB BKN080 30/25 CB TS NE

2010/08/09 21:00
MHCH 092100Z 34002KT 9999 TS SCT030TCU FEW032CB BKN080 29/24 CB TCU TD TS SW

2010/08/09 21:00
MHLE 092100Z 05005KT 9999 TS SCT024CB BKN200 25/16 Q1022 CB TCU TD TS S

2010/08/09 21:00
MHNO 092100Z 18004KT 9999 TS SCT040CB 27/// CB E NW TS E TCU TD HZ

2010/08/09 21:00
MHPL 092100Z 10003KT 9999 SCT030TCU SCT250 32/25 Q1013 TCU SE CTE S SW W HZ

2010/08/09 21:00
MHRO 092100Z 08010KT 9999 FEW026TCU BKN200 32/25 Q 1010 A2984 NOSIG

2010/08/09 21:00
MHSR 092100Z 01004KT 9999 SCT025CB BKN250 28/19 CB SE S SW TCU TD

2010/08/09 21:00
MHTE 092100Z 09006KT 9999 SCT024TCU 31/24 Q1011 TCU S SSW HZ

2010/08/09 21:00
MHYR 092100Z 04006KT 9999 SCT025TCU 31/20 TCU TD FEW080 HZ

2010/08/09 21:00
MNMG 092100Z 36004KT 9000 -TS FEW020CB SCT022 27/25 Q1009 A2981 CB/N/NW/W/SW/S/SE 9KM/RA/SW/W/NW/N

2010/08/09 21:00
MNPC 092100Z 09008KT 7000 SCT018 SCT300 30/26 Q1010 HZ

2010/08/09 20:54
PGSN 092054Z 20003KT 9SM -RA FEW015 SCT055 SCT110 24/23 A2993

2010/08/09 20:55
PGUA 092055Z AUTO 24003KT 10SM BKN047 25/ A2993

2010/08/09 20:54
PGUM 092054Z 00000KT 10SM OVC055 26/24 A2992

2010/08/09 20:50
PKMJ 092050Z 05018KT 15SM FEW015 SCT050 BKN120 OVC300 28/25 A2987

2010/08/09 21:00
PKWA 092100Z AUTO 07014KT 7SM -RA SCT013 BKN031 OVC047 28/24 A2989

2010/08/09 20:57
PWAK 092057Z 07014KT 10SM FEW026 29/24 A3007

2010/08/09 21:00
ZBAA 092100Z 01002MPS 340V040 CAVOK 24/17 Q1006 NOSIG

2010/08/09 21:00
ZBTJ 092100Z 04001MPS 0900 R16R/P2000N -RA FG NSC 26/24 Q1005 NOSIG

2010/08/09 21:00
ZBYN 092100Z 06001MPS 4000 -RA BR OVC040 20/18 Q1010 RERA NOSIG

2010/08/09 21:00
ZGGG 092100Z VRB01MPS 6000 SCT016 28/26 Q1005 NOSIG

2010/08/09 21:00
ZGNN 092100Z 05002MPS 6000 FEW016 26/25 Q1004 TEMPO 2000 BR

2010/08/09 21:00
ZGSZ 092100Z 11002MPS CAVOK 29/24 Q1005 NOSIG

2010/08/09 21:00
ZHHH 092100Z 09003MPS 3000 BR NSC 29/28 Q1003 NOSIG

2010/08/09 21:00
ZLLL 092100Z 01002MPS 9999 BKN043 15/14 Q1013 NOSIG

2010/08/09 21:00
ZMUB 092100Z VRB01MPS CAVOK 07/01 Q1008 NOSIG RMK QFE649.5 66

2010/08/09 21:00
ZPPP 092100Z 08002MPS 9999 SCT026 BKN040 20/16 Q1017 NOSIG

2010/08/09 21:00
ZSAM 092100Z 22003MPS CAVOK 28/23 Q1004 NOSIG

2010/08/09 21:00
ZSHC 092100Z VRB01MPS CAVOK 28/24 Q1002 NOSIG

2010/08/09 21:00
ZSOF 092100Z 06002MPS 5000 BR SKC 27/25 Q1003 NOSIG

2010/08/09 21:00
ZSPD 092100Z 33004MPS 9999 SCT011 27/25 Q1001 NOSIG

2010/08/09 21:00
ZSSS 092100Z 34004MPS 9999 SCT011 28/26 Q1001 NOSIG

2010/08/09 21:00
ZUCK 092100Z 01001MPS CAVOK 30/22 Q1003 NOSIG

2010/08/09 21:00
ZUUU 092100Z 00000MPS 4000 BR SCT040 27/24 Q1003 BECMG 2700 BR

2010/08/09 21:00
ZWWW 092100Z 15003MPS CAVOK 24/11 Q1007 NOSIG

2010/08/09 21:00
ZYHB 092100Z 17002MPS 140V220 4000 BR SKC 15/15 Q1005 NOSIG

2010/08/09 21:00
ZYTL 092100Z 19002MPS 150V210 3000 TSRA BR SCT008 BKN020 SCT040CB 23/22 Q1006 NOSIG

2010/08/09 21:00
LBBG 092100Z 36007MPS CAVOK 27/20 Q1010 NOSIG

2010/08/09 21:00
LBPD 092100Z 00000MPS CAVOK 24/20 Q1013 NOSIG

2010/08/09 21:00
LBSF 092100Z 27003MPS CAVOK 21/16 Q1017 NOSIG

2010/08/09 21:00
LBWN 092100Z 28003MPS 210V350 CAVOK 25/21 Q1011 NOSIG

2010/08/09 21:00
LHBP 092100Z VRB02KT CAVOK 15/12 Q1017 NOSIG

2010/08/09 21:00
LRBS 092100Z 00000KT CAVOK 23/20 Q1013 NOSIG

2010/08/09 21:00
LRCK 092100Z 31004KT CAVOK 24/20 Q1011 NOSIG

2010/08/09 21:00
LROP 092100Z VRB02KT CAVOK 23/20 Q1013 880///95 NOSIG

2010/08/09 21:00
LRTR 092100Z 01006KT CAVOK 19/17 Q1016

2010/08/09 21:00
EPGD 092100Z VRB01KT CAVOK 17/15 Q1016

2010/08/09 21:00
EPKK 092100Z 23002KT CAVOK 15/14 Q1017

2010/08/09 21:00
EPKT 092100Z 15004KT CAVOK 15/14 Q1017

2010/08/09 21:00
EPPO 092100Z 01004KT CAVOK 17/16 Q1016

2010/08/09 21:00
EPRZ 092100Z 26006KT CAVOK 17/16 Q1016

2010/08/09 21:00
EPWA 092100Z 24004KT 190V300 CAVOK 19/16 Q1016 NOSIG

2010/08/09 21:00
UKBB 092100Z 15003MPS 090V200 9000 VCTS -SHRA SCT033CB 24/20 Q1015 88CLRD95 TEMPO 1000 TSRA

2010/08/09 21:00
UKLL 092100Z VRB02MPS 9999 VCTS -SHRA BKN009 SCT020CB 15/15 Q1017 31290550 TEMPO 0800 +TSRAGR

2010/08/09 21:00
UKOO 092100Z 02006MPS 4900 FU SKC 28/18 Q1011 34090070 NOSIG

2010/08/09 21:00
LPFR 092100Z 29005KT 250V320 CAVOK 30/14 Q1014

2010/08/09 21:00
LPPR 092100Z 00000KT CAVOK 24/17 Q1016

2010/08/09 21:00
LPPS 092100Z 36009KT 9999 SCT011 SCT030 22/19 Q1015

2010/08/09 21:00
LPPT 092100Z 33010KT CAVOK 32/13 Q1014 NOSIG

2010/08/09 21:00
LATI 092100Z 19002KT CAVOK 22/22 Q1013 NOSIG

2010/08/09 21:00
LDDU 092100Z 01013KT 330V060 CAVOK 27/12 Q1013

2010/08/09 21:00
LDOS 092100Z 32003KT CAVOK 20/17 Q1017

2010/08/09 21:00
LDPL 092100Z 02004KT CAVOK 20/17 Q1015

2010/08/09 21:00
LDSP 092100Z 30008KT 260V340 CAVOK 27/12 Q1014

2010/08/09 21:00
LDZA 092100Z 03005KT CAVOK 20/16 Q1017 NOSIG

2010/08/09 21:00
LDZD 092100Z 12001KT CAVOK 20/16 Q1014

2010/08/09 21:00
LKMT 092100Z 21005KT CAVOK 16/15 Q1017 NOSIG

2010/08/09 21:00
LKPR 092100Z VRB02KT CAVOK 16/14 Q1018 NOSIG

2010/08/09 21:00
LKTB 092100Z 13001KT CAVOK 16/13 Q1017 NOSIG

2010/08/09 21:00
LQSA 092100Z VRB01KT CAVOK 19/15 Q1019

2010/08/09 21:00
LWOH 092100Z 36005KT CAVOK 21/14 Q1016

2010/08/09 21:00
LWSK 092100Z 36012KT CAVOK 23/14 Q1016 NOSIG

2010/08/09 21:00
LYBE 092100Z 34003KT CAVOK 21/16 Q1017 NOSIG

2010/08/09 21:00
LYNI 092100Z 08003KT 040V100 CAVOK 20/16 Q1017

2010/08/09 21:00
LYPG 092100Z 04005KT CAVOK 26/18 Q1013 NOSIG

2010/08/09 21:00
LYTV 092100Z VRB01KT CAVOK 20/17 Q1012

2010/08/09 21:00
LZIB 092100Z 01002KT CAVOK 17/15 Q1017

2010/08/09 21:00
LZKZ 092100Z 01003KT CAVOK 16/14 Q1017

2010/08/09 21:00
LZTT 092100Z 24003KT 190V290 9999 OVC080 14/13 Q1018

2010/08/09 21:00
LPAZ 092100Z 04009KT 9999 SCT018 BKN036 21/16 Q1020

2010/08/09 21:00
LPHR 092100Z 36005KT 9999 FEW016 22/16 Q1022

2010/08/09 21:00
LPLA 092100Z 05008KT 9999 FEW022 22/18 Q1022

2010/08/09 21:00
LPPD 092100Z 05007KT 020V090 9999 FEW018 BKN035 21/15 Q1021

2010/08/09 20:52
PGRO 092052Z 20002KT 7SM FEW018 BKN150 25/25 A2993

2010/08/09 20:54
PGSN 092054Z 20003KT 9SM -RA FEW015 SCT055 SCT110 24/23 A2993

2010/08/09 20:54
PGUM 092054Z 00000KT 10SM OVC055 26/24 A2992

2010/08/09 20:59
PGWT 092059Z 20002KT 7SM FEW016 SCT030 BKN100 BKN140 24/23 A2992

2010/08/09 20:50
PKMJ 092050Z 05018KT 15SM FEW015 SCT050 BKN120 OVC300 28/25 A2987

2010/08/09 20:55
PKMR 092055Z 07006KT 15SM SCT015 BKN045 BKN110 OVC300 29/25 A2987

2010/08/09 21:00
PKWA 092100Z AUTO 07014KT 7SM -RA SCT013 BKN031 OVC047 28/24 A2989

2010/08/09 20:51
PTKK 092051Z 06006KT 15SM VCSH SCT014CB BKN120 OVC280 27/25 A2987

2010/08/09 20:50
PTSA 092050Z 08013KT 10SM SCT015CB BKN130 OVC300 28/25 A2986

2010/08/09 20:55
PTTP 092055Z 25003KT 15SM BKN018TCU OVC120 24/24 A2991

2010/08/09 20:57
PWAK 092057Z 07014KT 10SM FEW026 29/24 A3007

2010/08/09 21:00
LFBD 092100Z 29007KT 260V330 9999 FEW036 18/15 Q1019 NOSIG

2010/08/09 21:00
LFBH 092100Z AUTO 30013KT 9999NDV FEW012 17/15 Q1019

2010/08/09 21:00
LFBI 092100Z AUTO 23012KT 9999NDV NSC 20/12 Q1017

2010/08/09 21:00
LFBO 092100Z 27008KT 9999 BKN045 22/16 Q1019 NOSIG

2010/08/09 21:00
LFBP 092100Z AUTO 00000KT 9999NDV FEW043 17/16 Q1020

2010/08/09 21:00
LFBT 092100Z 21004KT 9999 FEW011 BKN033 18/15 Q1021 TEMPO SCT008 BKN013

2010/08/09 21:00
LFBZ 092100Z AUTO 00000KT 9999NDV NSC 18/15 Q1020

2010/08/09 21:00
LFGJ 092100Z AUTO 07005KT 9999NDV NSC 18/15 Q1016

2010/08/09 21:00
LFKB 092100Z 21003KT 9999 FEW020 21/19 Q1016 NOSIG

2010/08/09 21:00
LFKJ 092100Z 09004KT 9999 FEW016 22/19 Q1017 NOSIG

2010/08/09 21:00
LFLB 092100Z AUTO VRB02KT 9999NDV NSC 18/15 Q1016

2010/08/09 21:00
LFLC 092100Z 28008KT CAVOK 24/14 Q1017 NOSIG

2010/08/09 21:00
LFLL 092100Z 03006KT 360V090 CAVOK 23/15 Q1016 NOSIG

2010/08/09 21:00
LFLS 092100Z AUTO 02004KT 330V080 9999NDV NSC 22/14 Q1016

2010/08/09 21:00
LFLY 092100Z AUTO 01008KT 9999NDV NSC 24/15 Q1016

2010/08/09 21:00
LFMD 092100Z AUTO 00000KT 9999NDV OVC025 24/21 Q1015

2010/08/09 21:00
LFMH 092100Z AUTO 26003KT 9999NDV NSC 23/15 Q1017

2010/08/09 21:00
LFML 092100Z 18005KT 150V210 9999 -TSRA FEW030CB SCT050 23/20 Q1015 NOSIG

2010/08/09 21:00
LFMN 092100Z VRB02KT 9999 FEW015 BKN033 24/20 Q1016 NOSIG

2010/08/09 21:00
LFMP 092100Z AUTO 32012KT 9999NDV NSC 24/16 Q1017

2010/08/09 21:00
LFMT 092100Z 30008KT CAVOK 26/17 Q1015 BECMG SHRA

2010/08/09 21:00
LFOB 092100Z AUTO 35006KT 9999NDV NSC 17/12 Q1016

2010/08/09 21:00
LFOH 092100Z AUTO 00000KT 9999NDV NSC 14/10 Q1016

2010/08/09 21:00
LFOT 092100Z 31005KT CAVOK 23/12 Q1016 NOSIG

2010/08/09 21:00
LFPB 092100Z AUTO 35007KT 9999NDV NSC 20/13 Q1015

2010/08/09 21:00
LFPG 092100Z 36008KT CAVOK 20/13 Q1016 NOSIG

2010/08/09 21:00
LFPN 092100Z AUTO 34006KT 9999NDV NSC 18/12 Q1016

2010/08/09 21:00
LFPO 092100Z 34005KT CAVOK 21/12 Q1015 NOSIG

2010/08/09 21:00
LFQQ 092100Z 26006KT CAVOK 17/11 Q1016 NOSIG

2010/08/09 21:00
LFRB 092100Z 22009KT 3000 -DZ BR BKN005 BKN009 17/16 Q1017 NOSIG

2010/08/09 21:00
LFRC 092100Z AUTO 23010KT 9999NDV OVC003 17/16 Q1016

2010/08/09 21:00
LFRD 092100Z AUTO 19002KT 9999NDV FEW047 14/12 Q1017

2010/08/09 21:00
LFRK 092100Z AUTO VRB02KT 9999NDV ///////// 16/11 Q1017

2010/08/09 21:00
LFRN 092100Z AUTO 34006KT 9999NDV NSC 18/11 Q1017

2010/08/09 21:00
LFRO 092100Z AUTO 21007KT 9999NDV BKN009 OVC023 17/16 Q1017

2010/08/09 21:00
LFRQ 092100Z AUTO 24004KT 200V280 9999NDV BKN005 OVC018 17/16 Q1018

2010/08/09 21:00
LFRS 092100Z 26004KT CAVOK 16/14 Q1018 NOSIG

2010/08/09 21:00
LFRT 092100Z AUTO 24005KT 210V270 9999NDV FEW015 16/15 Q1017

2010/08/09 21:00
LFRZ 092100Z AUTO 28010KT 9999NDV NSC 17/15 Q1018

2010/08/09 21:00
LFSB 092100Z VRB02KT CAVOK 18/14 Q1017 NOSIG

2010/08/09 21:00
LFSF 092100Z AUTO VRB02KT 9999NDV NSC 18/13 Q1016

2010/08/09 21:00
LFSN 092100Z VRB01KT CAVOK 18/12 Q1017 NOSIG

2010/08/09 21:00
LFSR 092100Z AUTO 10002KT 9999NDV NSC 18/14 Q1016

2010/08/09 21:00
LFST 092100Z AUTO 25004KT 9999NDV NSC 17/14 Q1017

2010/08/09 21:00
LFTW 092100Z AUTO 18005KT 9999NDV //////TCU 22/17 Q1015

2010/08/09 21:00
LFBA 092100Z AUTO 25003KT 9999NDV NSC 18/15 Q1019

2010/08/09 21:00
LFBC 092100Z AUTO 32003KT 9999NDV NSC 17/15 Q1020

2010/08/09 21:00
LFBL 092100Z AUTO 27005KT 230V310 9999NDV FEW042 18/14 Q1019

2010/08/09 21:00
LFBM 092100Z AUTO 29002KT 9999NDV NSC 17/14 Q1020

2010/08/09 21:00
LFKF 092100Z AUTO VRB01KT 9999NDV NCD 23/14 Q1016

2010/08/09 21:00
LFOE 092100Z AUTO 32005KT 270V340 9999NDV NSC 18/12 Q1017

2010/08/09 21:00
LFOP 092100Z AUTO 02003KT 9999NDV NSC 17/13 Q1017

2010/08/09 21:00
LFPB 092100Z AUTO 35007KT 9999NDV NSC 20/13 Q1015

2010/08/09 21:00
LFPG 092100Z 36008KT CAVOK 20/13 Q1016 NOSIG

2010/08/09 21:00
LFPV 092100Z AUTO 35006KT 9999NDV NSC 20/12 Q1016

2010/08/09 21:00
LFQQ 092100Z 26006KT CAVOK 17/11 Q1016 NOSIG

2010/08/09 21:00
LFRH 092100Z 26003KT 9999 SCT009 OVC018 17/16 Q1018

2010/08/09 21:00
LFSD 092100Z AUTO 27002KT 9999NDV NSC 19/13 Q1016

2010/08/09 21:00
LFSI 092100Z AUTO 11004KT 9999NDV NSC 18/13 Q1016

2010/08/09 21:00
LFSL 092100Z AUTO VRB03KT 9999NDV BKN049 19/16 Q1019

2010/08/09 21:00
LFSO 092100Z AUTO 07002KT 9999NDV NSC 18/11 Q1017

2010/08/09 21:00
LFSX 092100Z AUTO 12005KT 9999NDV NSC 15/13 Q1017

2010/08/09 21:00
LFTH 092100Z AUTO 35003KT 6000NDV NSC 22/20 Q1016

2010/08/09 21:00
EICK 092100Z 29005KT 9999 BKN037 SCT250 14/09 Q1012 NOSIG

2010/08/09 21:00
EIDW 092100Z 25008KT 9999 FEW028 14/10 Q1010 NOSIG

2010/08/09 21:00
EINN 092100Z 25010KT 9999 FEW024 BKN050 14/11 Q1011 NOSIG

2010/08/09 21:00
FMMI 092100Z 09006KT 9999 FEW016 BKN020 14/13 Q1026 NOSIG

2010/08/09 21:00
FMMI 092100Z AUTO 09006KT 14/13 Q1026

2010/08/09 21:00
WBGG 092100Z 11001KT 9999 SCT020 BKN150 24/23 Q1008 NOSIG

2010/08/09 21:00
WBKK 092100Z 24019KT 9999 -TSRA FEW014 FEW017CB SCT040 BKN270 26/25 Q1010 NOSIG

2010/08/09 21:00
WBSB 092100Z 08007KT 7000 -RA FEW003 SCT020 BKN150 26/25 Q1009 NOSIG

2010/08/09 20:55
KQAE 092055Z 32004KT 8000 HZ CLR 35/08 A2955 RMK SLP003 57002

2010/08/09 20:55
KQMG 092055Z AUTO 30005G17KT 10SM CLR 32/09 A3004 RMK AO2 LTG DSNT SE SLP095 T03200085 58017

2010/08/09 20:55
KQTO 092055Z 34005KT 9999 CLR 34/05 A2953 RMK SLP996 50000

2010/08/09 20:55
KQTU 092055Z 33006KT 9999 CLR 35/03 A2961 RMK SLP005 52004

2010/08/09 20:55
KQTX 092055Z 36004KT 9999 CLR 35/00 A2961 RMK SLP996 51005

2010/08/09 20:55
KQTZ 092055Z VRB05KT 9999 CLR 36/06 A2953 RMK SLP994 QNH1000MB WND DATA ESTMD ALSTG/SLP ESTMD 50000

2010/08/09 20:55
KQXJ 092055Z 30008KT 9999 SKC 34/01 A2949 RMK SLP986 50001 PA+419 DA+2747

2010/08/09 21:00
ORER 092100Z 00000KT CAVOK 30/00 Q1003

2010/08/09 20:55
KQAQ 092055Z 28006KT 8000 HZ CLR 35/08 A2956 RMK SLP004 PA +460 DA +2815 54000

2010/08/09 20:55
KQPD 092055Z AUTO 00000KT 9999 29/M01 A2964 RMK AO2 SLP940 T02871012 52005 $

2010/08/09 20:55
KQSL 092055Z 32009KT 9999 CLR 34/02 A2959 RMK SLP010 Q1002MB 52002

2010/08/09 20:55
KQTI 092055Z AUTO 34009KT 9999 CLR 32/05 A2964 RMK AO2 SLP009 T03160046 54001

2010/08/09 21:00
WBKK 092100Z 24019KT 9999 -TSRA FEW014 FEW017CB SCT040 BKN270 26/25 Q1010 NOSIG

2010/08/09 21:00
WMKJ 092100Z 29001KT 9999 FEW022 BKN300 24/24 Q1007

2010/08/09 21:00
WMKK 092100Z 00000KT 9999 FEW017CB SCT140 BKN280 25/24 Q1007 NOSIG

2010/08/09 21:00
WMKP 092100Z 29001KT 9000 FEW025 SCT140 BKN270 27/25 Q1006 NOSIG

2010/08/09 21:00
WMSA 092100Z 00000KT 9999 FEW027 BKN280 26/25 Q1007

2010/08/09 21:00
YBAS 092100Z 26007KT CAVOK 05/01 Q1019

2010/08/09 21:00
YBBN 092100Z 08007KT 9999 FEW010 SCT060 BKN080 18/16 Q1020 INTER 2100/2400 4000 SHRA BKN012

2010/08/09 21:00
YBCS 092100Z 13008KT 6000 -SHRA FEW002 SCT025 BKN035 22/21 Q1015 FM2100 12008KT 9999 -SHRA SCT018 BKN040 TEMPO 2100/2400 3000 SHRA BKN014

2010/08/09 21:00
YBTL 092100Z 06008KT 9999 FEW020 SCT040 BKN095 23/21 Q1015

2010/08/09 21:00
YMML 092100Z 27005KT 5000 RA FEW010 BKN045 BKN055 06/05 Q1015 FM2100 34005KT 9999 -RA FEW030 BKN055 INTER 2100/2400 4000 RA BKN015

2010/08/09 21:00
YPAD 092100Z 13012KT CAVOK 09/03 Q1013 NOSIG

2010/08/09 21:00
YPCC 092100Z AUTO 13008KT 9999NDV // NCD 25/21 Q1009

2010/08/09 21:00
YPDN 092100Z 18006KT CAVOK 20/16 Q1012 NOSIG

2010/08/09 21:00
YPKU 092100Z AUTO 16013KT 9999NDV // NCD 20/M01 Q1015

2010/08/09 21:00
YPLM 092100Z AUTO 04007KT 9999NDV // NCD 17/15 Q1017

2010/08/09 21:00
YPPH 092100Z 06012KT CAVOK 08/M02 Q1022 NOSIG

2010/08/09 21:00
YPTN 092100Z AUTO 00000KT 9999NDV // NCD 15/07 Q1014

2010/08/09 21:00
YPXM 092100Z AUTO 09008KT 9999NDV // SCT011 BKN017 24/22 Q////

2010/08/09 21:00
YSSY 092100Z 34007KT 9000 -RA FEW060 BKN080 OVC120 11/09 Q1019 TEMPO 2100/2400 4000 RA BKN010

2010/08/09 21:00
RJAA 092100Z 17002KT 8000 FEW020 SCT150 23/22 Q1016 NOSIG RMK 1CU020 3AC150 A3001

2010/08/09 21:00
RJAA 092100Z 17002KT 8000 FEW020 SCT150 23/22 Q1016 NOSIG

2010/08/09 21:00
RJAH 092100Z 14003KT 9999 FEW020 SCT150 24/24 Q1015

2010/08/09 21:00
RJCC 092100Z 19004KT 1800 R19R/1600VP1800N R01R/1800U BCFG BR SCT001 BKN002 22/21 Q1014 RMK 4ST001 7ST002 A2995

2010/08/09 21:00
RJCC 092100Z 19004KT 1800 R19R/1600VP1800N R01R/1800U BCFG BR SCT001 BKN002 22/21 Q1014

2010/08/09 21:00
RJFK 092100Z 12007KT 9999 FEW010 BKN/// 26/23 Q1012 RMK 1CU010 A2990

2010/08/09 21:00
RJFK 092100Z 12007KT 9999 FEW010 BKN/// 26/23 Q1012

2010/08/09 21:00
RJOO 092100Z 00000KT 9999 -SHRA FEW002 SCT010 BKN020 26/24 Q1014 RMK 1ST002 4CU010 6CU020 A2995

2010/08/09 21:00
RJOO 092100Z 00000KT 9999 -SHRA FEW002 SCT010 BKN020 26/24 Q1014

2010/08/09 21:00
RJSS 092100Z 36003KT 320V060 9999 FEW008 25/22 Q1014

2010/08/09 21:00
RJTT 092100Z 14005KT 9999 FEW010 BKN030 BKN100 27/23 Q1015 RMK 1CU010 5CU030 7AC100 A2999

2010/08/09 21:00
RJTT 092100Z 14005KT 9999 FEW010 BKN030 BKN100 27/23 Q1015

2010/08/09 20:55
RODN 092055Z 16015G23KT 9999 -RA FEW019 SCT035 BKN065 BKN090 27/26 A2974 RMK AO2A PK WND 15028/2000 CIG 016 RWY05 SLP071 P0007 60007 T02740259 52006

2010/08/09 21:00
RJAW 092100Z 06006KT 9999 FEW012 26/24 Q1014 RMK 2CU012 A2995

2010/08/09 21:00
RJOI 092100Z 14004KT 9999 FEW020 BKN040 OVC080 28/24 A2992 RMK SLP133 FIRST T02780239 53006

2010/08/09 21:00
RJFR 092100Z 12007KT 9999 FEW007 SCT150 BKN170 27/24 Q1011

2010/08/09 20:55
RJTY 092055Z AUTO 28003KT 9999 OVC018 24/23 A3006 RMK AO2 CIG 016V022 SLP171 T02450231 53005

2010/08/09 21:00
RKNY 092100Z AUTO 31005KT3000NDV NCD 23/21 Q1008

2010/08/09 21:00
RKPC 092100Z 13011KT 100V160 7000 BKN025 BKN130 28/24 Q1005 NOSIG

2010/08/09 21:00
RKPK 092100Z 36005KT 9999 SCT010 BKN040 BKN080 26/23 Q1010 NOSIG

2010/08/09 21:00
RKSI 092100Z 06005KT 9999 SCT040 BKN120 26/23 Q1008 NOSIG

2010/08/09 21:00
RKSS 092100Z 02002KT CAVOK 25/22 Q1008 NOSIG

2010/08/09 21:00
RKTN 092100Z 12002KT 9000 FEW005 SCT020 BKN030 26/25 Q1009 NOSIG

2010/08/09 21:00
RKTU 092100Z 33002KT 9000 -RA SCT020 OVC030 25/24 Q1009 NOSIG

2010/08/09 20:56
KABQ 092056Z 32004KT 10SM SCT080 31/10 A3010

2010/08/09 20:52
KATL 092052Z VRB03KT 10SM FEW065 SCT090 SCT250 34/18 A2999

2010/08/09 20:53
KBGR 092053Z 24005KT 10SM FEW045 BKN065 28/17 A2986

2010/08/09 20:53
KBHM 092053Z COR 00000KT 10SM FEW 060 36/19 A2997

2010/08/09 20:53
KBHM 092053Z 00000KT 10SM CLR 36/19 A2997

2010/08/09 20:53
KBNA 092053Z 35003KT 10SM FEW055 SCT080 SCT180 BKN250 35/22 A2993

2010/08/09 20:54
KBOS 092054Z 23015KT 10SM SCT070 BKN100 BKN220 32/15 A2988

2010/08/09 20:54
KBWI 092054Z 14007G14KT 8SM SCT055 SCT250 31/21 A2996

2010/08/09 20:56
KCHS 092056Z 12009G16KT 10SM SCT028 SCT033 BKN043 31/25 A2998

2010/08/09 20:51
KCLE 092051Z 22007KT 10SM FEW050 BKN150 OVC250 29/18 A2998

2010/08/09 20:52
KCLT 092052Z 16009KT 9SM SCT050 BKN180 BKN250 32/21 A3002

2010/08/09 20:52
KCVG 092052Z 24005KT 8SM FEW060 SCT150 SCT250 33/19 A2997

2010/08/09 20:53
KDEN 092053Z 14011KT 10SM SCT060 SCT080 BKN140 28/13 A3005

2010/08/09 20:53
KDFW 092053Z 19009G17KT 10SM SCT065TCU 37/20 A2987

2010/08/09 20:53
KDTW 092053Z 23006KT 7SM -RA FEW020 BKN060 OVC130 25/22 A2995

2010/08/09 20:51
KEWR 092051Z 15011G16KT 9SM BKN065TCU BKN250 32/21 A2993

2010/08/09 20:53
KFLL 092053Z 15009KT 10SM FEW026 SCT060 28/24 A2988

2010/08/09 20:52
KIAD 092052Z 17008KT 9SM FEW055 33/21 A2997

2010/08/09 20:53
KIAH 092053Z 11007G15KT 10SM SCT055 36/22 A2990

2010/08/09 20:54
KIND 092054Z VRB06KT 10SM FEW055 SCT140 BKN250 34/20 A2993

2010/08/09 20:56
KJAX 092056Z 06008KT 10SM FEW035 SCT065 BKN090 BKN200 28/24 A2994

2010/08/09 20:51
KJFK 092051Z 18019KT 9SM FEW140 BKN250 28/20 A2996

2010/08/09 20:56
KLAS 092056Z 11007KT 080V140 10SM CLR 34/03 A2986

2010/08/09 20:53
KLAX 092053Z 27010KT 10SM FEW015 19/12 A2994

2010/08/09 20:51
KLGA 092051Z 17018G23KT 10SM FEW060 OVC250 31/18 A2994

2010/08/09 20:55
KLGC 092055Z AUTO 06005KT 10SM FEW060 36/19 A2996

2010/08/09 20:53
KLIT 092053Z 16005KT 10SM SCT055 BKN250 37/23 A2989

2010/08/09 20:53
KLOU 092053Z 27005KT 10SM FEW065 36/20 A2993

2010/08/09 20:53
KMCI 092053Z 21012KT 10SM BKN250 37/24 A2986

2010/08/09 20:50
BGBW 092050Z AUTO 05002KT 8000NDV RA FEW003/// BKN006/// OVC022/// 10/09 Q1008

2010/08/09 20:50
BGGH 092050Z 20006KT 9999 BKN020 BKN060 10/08 Q1008 RMK 6ST 7AS

2010/08/09 20:50
BGJN 092050Z 14010KT 9999 FEW029 BKN110 13/04 Q1008 RMK 2SC 6AC

2010/08/09 20:50
BGSF 092050Z 07009KT 9999 BKN042 14/05 Q1008

2010/08/09 20:55
BGTL 092055Z AUTO 26007KT 9999 CLR 06/03 A2986 RMK AO2 SLP117 T00580031 58005

2010/08/09 21:00
BIAR 092100Z 33007KT CAVOK 13/08 Q1013

2010/08/09 21:00
BIEG 092100Z 02010KT 3000N 8000S VCFG BKN001 09/09 Q1012

2010/08/09 21:00
BIKF 092100Z 31008KT 9999 BKN012 11/08 Q1014

2010/08/09 21:00
BIRK 092100Z 33002KT 9999 BKN011 11/09 Q1014

2010/08/09 21:00
GVAC 092100Z 08006KT 9999 BKN014 25/19 Q1014 NOSIG

2010/08/09 21:00
LPLA 092100Z 05008KT 9999 FEW022 22/18 Q1022

2010/08/09 20:55
TXKF 092055Z 19011KT 9999 FEW018 SCT180 BKN300 29/23 Q1021

2010/08/09 21:00
RPLB 092100Z 00000KT 9999 -RA SCT020 OVC080 25/23 Q1009 LGT RA INTMT

2010/08/09 21:00
RPLC 092100Z VRBO2G23KT 9999 FEW042 BKN300 24/23 Q1009 A2981 RMK NOSIG

2010/08/09 21:00
RPLL 092100Z 00000KT 8000 FEW023 BKN300 26/24 Q1008 NOSIG RMK A2977

2010/08/09 21:00
RPVM 092100Z 00000KT 9999 FEW020 BKN250 26/25 Q1009 A2981

2010/08/09 21:00
AYPY 092100Z 00000KT 9999 SCT040 BKN140 25/24 Q1008 RMKS/ HAZE

2010/08/09 21:00
AYPY 092100Z 00000KT 9999 SCT040 BKN140 25/24 Q1008 RMKS. HAZE

2010/08/09 20:52
PGRO 092052Z 20002KT 7SM FEW018 BKN150 25/25 A2993 RMK OCNL LTGICCC DSNT NW

2010/08/09 20:54
PGSN 092054Z 20003KT 9SM -RA FEW015 SCT055 SCT110 24/23 A2993 RMK AO2 SLP132 P0017 60039 T02390233 51007

2010/08/09 20:55
PGUA 092055Z AUTO 24003KT 10SM BKN047 25/ A2993 RMK AO2 DZE1956 SLP117 60000 T0247 53010 VISNO RWY24L $

2010/08/09 20:54
PGUM 092054Z 00000KT 10SM OVC055 26/24 A2992 RMK AO2 SLP125 T02560244 53008

2010/08/09 20:59
PGWT 092059Z 20002KT 7SM FEW016 SCT030 BKN100 BKN140 24/23 A2992 RMK WIND DATA ESTIMATED

2010/08/09 20:50
PHJH 092050Z 07017KT 15SM FEW040 29/17 A3011

2010/08/09 20:53
PHJR 092053Z 08007G16KT 10SM OVC050 29/16 A3011 RMK AO2 SLP204 T02890156 53004

2010/08/09 20:54
PHMK 092054Z 04014G26KT 10SM FEW030 29/16 A3010 RMK AO2 PK WND 04029/2035 SLP194 T02890156 51005

2010/08/09 20:50
PKMJ 092050Z 05018KT 15SM FEW015 SCT050 BKN120 OVC300 28/25 A2987

2010/08/09 20:55
PKMR 092055Z 07006KT 15SM SCT015 BKN045 BKN110 OVC300 29/25 A2987 RMK SLP115 60002 8/878 T02850252 52017

2010/08/09 21:00
PKWA 092100Z AUTO 07014KT 7SM -RA SCT013 BKN031 OVC047 28/24 A2989 RMK AO2 T02770239

2010/08/09 20:56
PMDY 092056Z AUTO 08012KT 10SM FEW025 28/22 A3025 RMK AO2 TSNO 51007 T02830216 SLP553

2010/08/09 20:51
PTKK 092051Z 06006KT 15SM VCSH SCT014CB BKN120 OVC280 27/25 A2987 RMK VCSH W SHRAE29 CB SE-SW-W MOV SW SLP116 60021 8/371 T02680249 52015

2010/08/09 20:50
PTSA 092050Z 08013KT 10SM SCT015CB BKN130 OVC300 28/25 A2986 RMK CB DSNT W-NW

2010/08/09 20:55
PTTP 092055Z 25003KT 15SM BKN018TCU OVC120 24/24 A2991 RMK RAE30 TCU ALQDS SLP128 60038 8/22/ T02380235 52007

2010/08/09 20:57
PWAK 092057Z 07014KT 10SM FEW026 29/24 A3007 RMK AO2A

2010/08/09 21:00
LPFR 092100Z 29005KT 250V320 CAVOK 30/14 Q1014

2010/08/09 21:00
LPLA 092100Z 05008KT 9999 FEW022 22/18 Q1022

2010/08/09 21:00
LPMA 092100Z 08003KT 360V120 9999 SCT012 22/19 Q1015 RS36002KT 0509003KT 2312001KT

2010/08/09 21:00
LPPR 092100Z 00000KT CAVOK 24/17 Q1016

2010/08/09 21:00
LPPS 092100Z 36009KT 9999 SCT011 SCT030 22/19 Q1015

2010/08/09 21:00
LPPT 092100Z 33010KT CAVOK 32/13 Q1014 NOSIG

2010/08/09 20:53
KMCO 092053Z 10011KT 10SM SCT031TCU BKN075 BKN190 32/23 A2989

2010/08/09 20:53
KMEM 092053Z 19009KT 10SM FEW080 BKN150 OVC250 29/23 A2994

2010/08/09 20:53
KMIA 092053Z 18004KT 10SM SCT022 SCT075 BKN130 BKN250 30/23 A2989

2010/08/09 20:53
KMSP 092053Z 10008KT 10SM FEW070 34/18 A2989

2010/08/09 20:53
KMSY 092053Z 24004KT 10SM -RA FEW016 SCT041 SCT150 OVC200 26/24 A2996

2010/08/09 20:53
KOAK 092053Z 31012KT 10SM FEW016 19/12 A2992

2010/08/09 20:52
KOKC 092052Z 15011G19KT 10SM FEW070 SCT250 37/20 A2988

2010/08/09 20:53
KONT 092053Z 27010KT 10SM CLR 29/08 A2990

2010/08/09 20:51
KORD 092051Z 30010KT 10SM SCT038 SCT150 BKN200 BKN250 31/22 A2991

2010/08/09 20:51
KORF 092051Z 11009KT 10SM FEW035 31/20 A3001

2010/08/09 20:53
KPBI 092053Z 15011KT 10SM SCT024TCU SCT075 SCT250 30/23 A2988

2010/08/09 20:54
KPHF 092054Z 09009KT 10SM CLR 31/17 A3001

2010/08/09 20:54
KPHL 092054Z 22013KT 10SM FEW065 SCT250 34/18 A2996

2010/08/09 20:51
KPHX 092051Z 01004KT 10SM FEW120 SCT150 SCT180 38/07 A2983

2010/08/09 20:51
KPIT 092051Z 19006KT 10SM SCT150 BKN250 31/15 A2999

2010/08/09 20:51
KRDU 092051Z 15005KT 10SM SCT060 SCT250 32/19 A3001

2010/08/09 20:51
KSAN 092051Z VRB06KT 10SM FEW020 22/14 A2994

2010/08/09 20:53
KSEA 092053Z 19005KT 10SM SCT016 OVC023 18/12 A3000

2010/08/09 20:56
KSFO 092056Z 33011KT 10SM FEW010 20/12 A2991

2010/08/09 20:51
KSTL 092051Z 25007KT 10SM FEW046 BKN250 36/24 A2990

2010/08/09 20:51
KTEB 092051Z 16011G16KT 10SM FEW070 32/19 A2992

2010/08/09 20:53
KTPA 092053Z 27005KT 7SM SCT025TCU BKN065 BKN250 29/24 A2988

2010/08/09 21:00
UBBB 092100Z 27004KT CAVOK 29/29 Q1009 NOSIG RMK R88CLRD70

2010/08/09 21:00
UBBG 092100Z 30006KT 9999 SCT100 24/13 Q1011 NOSIG RMK R30R/CLRD70

2010/08/09 21:00
UTTT 092100Z 09003MPS CAVOK 23/07 Q1006 R08R/CLRD70 TEMPO 03005G10MPS

2010/08/09 21:00
SCAR 092100Z 20008KT CAVOK 15/09 Q1016

2010/08/09 21:00
SCBA 092100Z 30026KT 9999 FEW030 FEW070 04/M01 Q1018

2010/08/09 21:00
SCCF 092100Z 25017KT CAVOK 22/M12 Q1024

2010/08/09 21:00
SCCH 092100Z 18005KT CAVOK 16/04 Q1016

2010/08/09 21:00
SCCI 092100Z 25021G34KT 9999 FEW013 03/M01 Q1008 NOSIG

2010/08/09 21:00
SCDA 092100Z 23006KT 8000 OVC020 15/09 Q1016

2010/08/09 21:00
SCEL 092100Z 17010KT CAVOK 19/01 Q1015 NOSIG

2010/08/09 21:00
SCFA 092100Z 17007KT 9999 FEW020 15/08 Q1015 NOSIG

2010/08/09 21:00
SCIE 092100Z 21007KT CAVOK 14/04 Q1016

2010/08/09 21:00
SCIP 092100Z 03011KT 8000 -SHRA SCT015 BKN020 18/16 Q1021 TEMPO 5000 -SHRA BKN015

2010/08/09 21:00
SCTE 092100Z 14004KT 9999 FEW040 11/08 Q1024 NOSIG

2010/08/09 21:00
SLCB 092100Z 00000KT 9999 SKC 25/01 Q1021

2010/08/09 21:00
SLLP 092100Z 10011KT 070V130 9999 SKC 14/M07 Q1036

2010/08/09 21:00
SLTJ 092100Z 13014KT 9999 SKC 18/09 Q1020

2010/08/09 21:00
SLVR 092100Z 16004KT 8000 SKC 25/10 Q1015

2010/08/09 21:00
SUAA 092100Z 24004KT 9000 FU SCT200 11/05 Q1024

2010/08/09 21:00
SULS 092100Z 22007KT 7000 NSC 11/06 Q1024

2010/08/09 21:00
SUMU 092100Z 25004KT 5000 BR NSC 12/06 Q1024 NOSIG

2010/08/09 21:00
SUSO 092100Z 00000KT CAVOK 17/03 Q1023

2010/08/09 21:00
SOCA 092100Z 05009KT 030V090 9999 FEW023 30/24 Q1012 NOSIG

2010/08/09 21:00
SPIM 092100Z 17008KT 5000 HZ SCT018 17/13 Q1015 NOSIG RMK BIRD HAZARD RWY 15 PP000

2010/08/09 21:00
SPQT 092100Z /////KT 8000 FEW020 SCT100 31/21 Q1012 NOSIG RMK BRUMOSO BIRD HAZARD RWY 06/24 PP000

2010/08/09 21:00
SPQU 092100Z 26008KT 230V300 CAVOK 18/M14 Q1026 NOSIG RMK PP000

2010/08/09 21:00
SPSO 092100Z 28008KT 7000 FEW012 19/13 Q1016 RMK BIRDS HAZARD RWY 22/04 W PP000

2010/08/09 21:00
SPTN 092100Z 22008KT CAVOK 17/09 Q1013 RMK PP000

2010/08/09 21:00
SPZO 092100Z 02006KT 290V050 9999 SKC 20/M19 Q1029 NOSIG RMK PP000

2010/08/09 21:00
SVBC 092100Z 18005KT 9999 SCT010 SCT060 29/23 Q1012

2010/08/09 21:00
SVMC 092100Z 18007KT 9999 BKN013 32/23 Q1010

2010/08/09 21:00
SVMG 092100Z 18006KT 9999 SCT010 BKN080 28/20 Q1011 NOSIG

2010/08/09 21:00
SVMG 092100Z 18006KT 9999 SCT010 SCT080 28/20 Q1011 NOSIG

2010/08/09 21:00
SVMI 092100Z 36004KT 9999 FEW016 BKN100 32/27 Q1009 NOSIG

2010/08/09 21:00
SCSE 092100Z 27007KT 9999 BKN017 12/09 Q1017 NEFO PLAYA 2450FT

2010/08/09 21:00
SCTC 092100Z 22006KT 190V260 CAVOK 14/06 Q1019

2010/08/09 21:00
SCVD 0923100Z 17006KT CAVOK 15/08 Q1021 RMK HR66

2010/08/09 21:00
OOMS 092100Z 00000KT 8000 NSC 30/27 Q0998 NOSIG

2010/08/09 20:50
OOSA 092050Z 16005KT 140V200 6000 BKN012 OVC025 25/22 Q1003 NOSIG RMK05 RH82

2010/08/09 21:00
UDYZ 092100Z 04004MPS 9999 SKC 27/10 Q1010 09010070 NOSIG

2010/08/09 21:00
UDSG 092100Z 05006MPS 9999 FEW050 20/10 Q1017 02CLRD70 NOSIG

2010/08/09 21:00
LJCE 092100Z AUTO 11001KT 9999NDV NCD 19/17 Q1017

2010/08/09 21:00
LRAR 092100Z 31002KT CAVOK 18/17 Q1017

2010/08/09 21:00
LRBM 092100Z 02004KT CAVOK 17/16 Q1016

2010/08/09 21:00
LRCL 092100Z VRB02KT 9999 FEW050 18/17 Q1017

2010/08/09 21:00
LROD 092100Z AUTO 00000KT 5000 +RA NCD 17/16 Q1017

2010/08/09 21:00
LRSM 092100Z AUTO 21004KT 9000 NCD 18/17 Q1017

2010/08/09 21:00
LRTM 092100Z VRB02KT CAVOK 21/18 Q1017

2010/08/09 21:00
LKKB 092100Z 36001KT CAVOK 16/15 Q1017

2010/08/09 21:00
LKLN 092100Z AUTO 00000KT CAVOK 15/14 Q1018

2010/08/09 21:00
LKNA 092100Z 35003KT CAVOK 18/12 Q1018

2010/08/09 21:00
LKPD 092100Z 00000KT CAVOK 17/16 Q1017

2010/08/09 21:00
LKPO 092100Z 20004KT CAVOK 16/14 Q1017 NOSIG

2010/08/09 21:00
LJLJ 092100Z VRB01KT 9999 BKN030 19/16 Q1018 NOSIG

2010/08/09 21:00
LJMB 092100Z 00000KT CAVOK 17/16 Q1018

2010/08/09 21:00
LJPZ 092100Z AUTO 12006KT 9999NDV NCD 20/18 Q1015

2010/08/09 21:00
UTDD 092100Z VRB01MPS 9999 FEW200 24/09 Q1006 09CLRD70 NOSIG RMK QFE687/0916

2010/08/09 21:00
UTDL 092100Z 24005MPS 9999 FEW070CB FEW170 26/09 Q1006 NOSIG RMK QFE717 8809//70

2010/08/09 21:00
UTAA 092100Z VRB01MPS 7000 SKC 27/01 Q1009 NOSIG

2010/08/09 21:00
UTAK 092100Z 00000MPS 6000 SKC 26/23 Q1009 NOSIG

2010/08/09 21:00
UTAM 092100Z 33006MPS 6300 SKC 27/05 Q1006 NOSIG

2010/08/09 21:00
UTAT 092100Z 33005MPS P5000 SKC 23/12 Q1008 NOSIG

2010/08/09 21:00
LCLK 092100Z VRB02KT CAVOK 28/26 Q1005 NOSIG

2010/08/09 21:00
LCPH 092100Z 30008KT 9999 FEW011 28/26 Q1005

2010/08/09 21:00
HSSS 092100Z 18012KT CAVOK 29/18 Q1009 NOSIG

2010/08/09 21:00
LRBC 092100Z 34006KT CAVOK 22/20 Q1015

2010/08/09 21:00
LRCV 092100Z AUTO 26006KT 9999 NCD 21/17 Q1014

2010/08/09 21:00
LRIA 092100Z 32010KT 290V350 CAVOK 22/20 Q1015

2010/08/09 21:00
LRSV 092100Z 24001KT 9999 TS SCT033CB 20/19 Q1017

2010/08/09 21:00
LRTC 092100Z AUTO 33010KT 9999 NCD 25/20 Q1011

2010/08/09 21:00
OERY 092100Z 12008KT CAVOK 37/05 Q1005 NOSIG

2010/08/09 21:00
WMBA 092100Z 00000KT 8000 FEW005 SCT150 BKN280 25/24 Q1006

2010/08/09 21:00
WMKA 092100Z 06001KT 9999 FEW030 SCT140 BKN260 26/25 Q1006

2010/08/09 21:00
WMKB 092100Z 03001KT 9000 FEW025 SCT140 BKN270 26/24 Q1006 NOSIG

2010/08/09 21:00
WMKC 092100Z 00000KT 9999 FEW017CB SCT020 BKN200 26/25 Q1006

2010/08/09 21:00
WMKD 092100Z 00000KT 9999 FEW025 BKN280 26/24 Q1007 NOSIG

2010/08/09 21:00
WMKI 092100Z 03004KT 9999 FEW027 SCT140 BKN270 25/22 Q1007

2010/08/09 21:00
WMKL 092100Z 07004KT 9999 -RA FEW010 FEW017CB SCT026 BKN260 24/23 Q1006

2010/08/09 21:00
WMKM 092100Z 09005KT 4000 -TSRA FEW010 FEW016CB SCT026 BKN260 23/22 Q1008

2010/08/09 21:00
WMKN 092100Z 19003KT 9999 FEW024 BKN250 26/25 Q1006

2010/08/09 21:00
UAAA 092100Z 17003MPS 9999 FEW050CB SCT100 20/08 Q1008 88CLRD65 NOSIG

2010/08/09 21:00
UACC 092100Z 02006MPS CAVOK 11/04 Q1015 040/0070 NOSIG RMK QFE730/0973

2010/08/09 21:00
UARR 092100Z 03006MPS CAVOK 26/09 Q1016 04CLRD70 NOSIG RMK QFE758/1011

2010/08/09 21:00
UATE 092100Z 10003MPS CAVOK 26/05 Q1010 120///70 NOSIG RMK QFE755/1007

2010/08/09 21:00
UATT 092100Z 07005MPS CAVOK 22/04 Q1018 31CLRD70 NOSIG RMK QFE743/0991

2010/08/09 21:00
UAUU 092100Z 00000MPS CAVOK 12/04 Q1020 33CLRD70 NOSIG RMK QFE750/1000

2010/08/09 21:03
KMPV 092103Z AUTO VRB04KT 2 1/2SM TSRA BKN022 BKN034 OVC075 22/18 A2996

2010/08/09 21:00
LEAL 092100Z VRB01KT 9999 FEW050 28/19 Q1016 NOSIG

2010/08/09 21:00
LEAM 092100Z 25003KT CAVOK 25/21 Q1016

2010/08/09 21:00
LEAS 092100Z 08005KT 050V110 9999 SCT020 BKN030 19/16 Q1020 NOSIG

2010/08/09 21:00
LEBB 092100Z 00000KT 9999 SCT030 BKN040 21/16 Q1020 NOSIG

2010/08/09 21:00
LEBL 092100Z 05003KT 010V080 9999 FEW020 25/20 Q1017 NOSIG

2010/08/09 21:00
LECO 092100Z 32003KT 290V010 CAVOK 20/16 Q1018

2010/08/09 21:00
LEGE 092100Z 02005KT 6000 FEW010 SCT034 21/20 Q1017

2010/08/09 21:00
LEGR 092100Z VRB01KT 9999 FEW090 29/15 Q1018

2010/08/09 21:00
LEIB 092100Z 36003KT CAVOK 24/20 Q1016 NOSIG

2010/08/09 21:00
LEJR 092100Z 18004KT 9999 FEW020 28/10 Q1014

2010/08/09 21:00
LELC 092100Z 00000KT CAVOK 26/20 Q1015 NOSIG

2010/08/09 21:00
LEMD 092100Z VRB02KT CAVOK 29/12 Q1017 NOSIG

2010/08/09 21:00
LEMG 092100Z 10003KT CAVOK 27/18 Q1016 NOSIG

2010/08/09 21:00
LEMH 092100Z 06003KT 9999 FEW020 23/20 Q1016

2010/08/09 21:00
LEPA 092100Z 00000KT CAVOK 22/18 Q1016 NOSIG

2010/08/09 21:00
LEPP 092100Z 33005KT 300V360 CAVOK 17/15 Q1020

2010/08/09 21:00
LERS 092100Z 12006KT 080V160 9999 FEW030 25/21 Q1017

2010/08/09 21:00
LEST 092100Z VRB01KT CAVOK 17/14 Q1019 NOSIG

2010/08/09 21:00
LETO 092100Z 00000KT 9999 FEW050 28/12 Q1017 NOSIG

2010/08/09 21:00
LEVC 092100Z 36003KT 330V050 CAVOK 28/15 Q1015 NOSIG

2010/08/09 21:00
LEVD 092100Z 34005KT 9999 FEW030 23/05 Q1019

2010/08/09 21:00
LEVT 092100Z 05003KT 9999 FEW018 BKN026 16/15 Q1021

2010/08/09 21:00
LEVX 092100Z 01006KT 310V030 CAVOK 23/16 Q1017

2010/08/09 21:00
LEXJ 092100Z VRB02KT 9999 BKN040 20/16 Q1020

2010/08/09 21:00
LEZG 092100Z 29013KT 9999 FEW060 24/14 Q1017

2010/08/09 21:00
LEZL 092100Z 07002KT CAVOK 33/14 Q1013 NOSIG

2010/08/09 20:50
EGDR 092050Z 26007KT 0400 FG SCT000 OVC002 16/16 Q1013 RED

2010/08/09 21:00
UKBB 092100Z 15003MPS 090V200 9000 VCTS -SHRA SCT033CB 24/20 Q1015 88CLRD95 TEMPO 1000 TSRA

2010/08/09 21:00
UKCC 092100Z 10003MPS CAVOK 25/10 Q1012 08090070 NOSIG

2010/08/09 21:00
UKDD 092100Z 03003MPS CAVOK 25/14 Q1012 08090070 NOSIG

2010/08/09 21:00
UKDE 092100Z 17001MPS CAVOK 26/12 Q1011 02CLRD70 NOSIG

2010/08/09 21:00
UKDR 092100Z 06004MPS CAVOK 26/12 Q1011 1809//70 NOSIG

2010/08/09 21:00
UKFF 092100Z 09003MPS CAVOK 23/15 Q1010 01010070 NOSIG

2010/08/09 21:00
UKHH 092100Z 32002MPS 4100 DU SKC 27/14 Q1013 080///65 NOSIG

2010/08/09 21:00
UKLL 092100Z VRB02MPS 9999 VCTS -SHRA BKN009 SCT020CB 15/15 Q1017 31290550 TEMPO 0800 +TSRAGR

2010/08/09 21:00
UKOO 092100Z 02006MPS 4900 FU SKC 28/18 Q1011 34090070 NOSIG

2010/08/09 21:00
DTMB 092100Z 08004KT CAVOK 25/20 Q1016 NOSIG

2010/08/09 21:00
DTTA 092100Z 00000KT CAVOK 23/17 Q1016 NOSIG

2010/08/09 21:00
DTTB 092100Z 09004KT CAVOK 21/17 Q1017

2010/08/09 21:00
DTTG 092100Z 07006KT CAVOK 25/17 Q1015 NOSIG

2010/08/09 21:00
DTTJ 092100Z 14006KT CAVOK 26/22 Q1015 NOSIG

2010/08/09 21:00
DTTK 092100Z 10002KT CAVOK 26/12 Q1016

2010/08/09 21:00
DTTN 092100Z 03006KT CAVOK 28/10 Q1015

2010/08/09 21:00
DTTX 092100Z 08006KT CAVOK 25/20 Q1016 NOSIG

2010/08/09 21:00
DTTZ 092100Z 08016KT CAVOK 30/17 Q1014 NOSIG

2010/08/09 21:00
SVPM 092100Z 00000KT 9999 SCT070 XX/XX Q1014

2010/08/09 21:00
SVSA 092100Z 00000KT 9999 FEW017 CB SCT020 31/21 Q1012

2010/08/09 21:00
SVSZ 092100Z 00000KT 9999 SCT020 XX/XX Q1008

2010/08/09 20:50
EGOS 092050Z AUTO 23005KT 9999NDV -SHRA BKN050/// 16/13 Q1010

2010/08/09 20:50
EDDS 092050Z VRB03KT CAVOK 17/12 Q1018

2010/08/09 20:50
EGPK 092050Z 12002KT 9999 FEW015 SCT045 13/11 Q1008

2010/08/09 20:55
EGUL 092055Z AUTO 23012KT 9999 FEW050 BKN090 20/15 A2987 RMK AO2 SLP116 T01990146 53003

2010/08/09 20:55
EGUN 092055Z AUTO 23010KT 9999 FEW060 OVC085 20/17 A2988 RMK AO2 SLP107 T01970173 53003

2010/08/09 20:55
EGVA 092055Z AUTO 20007KT 9999 SCT013 BKN022 BKN029 BKN039 18/17 A2988 RMK AO2 CIG 020V025 SLP118 60000 T01750166 56006 $

2010/08/09 20:55
ETAD 092055Z AUTO 00000KT 9999 OVC080 18/11 A3004 RMK AO2 SLP166 60000 T01840111 51005 $

2010/08/09 20:55
ETAR 092055Z AUTO 00000KT 9999 SCT080 16/14 A3003 RMK AO2 SLP164 60000 T01580142 51006 $

2010/08/09 20:55
KQIR 092055Z 00000KT 9999 CLR 32/28 A2946 RMK AO2A SLP975 T03180280 404460294 58007

2010/08/09 21:00
LEMO 092100Z 03005KT 350V050 CAVOK 34/15 Q1013 NOSIG

2010/08/09 20:50
LIRN 092050Z VRB01KT CAVOK 23/19 Q1015

2010/08/09 20:55
LIYW 092055Z AUTO 03003KT 9999 CLR 21/19 A2999 RMK AO2 SLP154 T02110189 51008

2010/08/09 21:00
LPLA 092100Z 05008KT 9999 FEW022 22/18 Q1022

2010/08/09 20:50
LTAC 092050Z 02005KT CAVOK 24/08 Q1013 NOSIG

2010/08/09 20:50
LTAG 092050Z 16002KT 9999 SCT035 27/23 Q1006 NOSIG

2010/08/09 20:56
PHBK 092056Z AUTO 31008KT 10SM BKN050 28/19 A3011 RMK AO2 SLP197 6//// T02830189 TSNO $

2010/08/09 20:57
PHNG 092057Z AUTO 07011G16KT 10SM SCT043 OVC050 28/18 A3012 RMK AO2 SLP195 T02780178 51006 $

2010/08/09 21:00
AYMO 092100Z AUTO 28003KT //// // ////// 27/24 Q1010

2010/08/09 20:50
BGAA 092050Z AUTO 24005KT 210V280 9999NDV OVC100/// 10/07 Q1008

2010/08/09 20:50
BGQQ 092050Z AUTO 28009KT 9999NDV NCD 05/03 Q1012

2010/08/09 20:50
BGSS 092050Z AUTO 27014KT 9999NDV NCD 11/09 Q1008

2010/08/09 20:50
BGUK 092050Z AUTO 34010KT 0400NDV -RA NCD 05/05 Q1009

2010/08/09 21:00
BKPR 092100Z 31005KT CAVOK 20/14 Q1018 NOSIG RMK BLU

2010/08/09 20:55
PHHI 092055Z AUTO 08013KT 10SM OVC034 25/18 A3013 RMK AO2 SLP192 T02450176 52006 $

2010/08/09 20:55
PHSF 092055Z 28008KT 7SM FEW200 24/09 A3032 RMK SLPNO 52003

2010/08/09 20:50
PKMJ 092050Z 05018KT 15SM FEW015 SCT050 BKN120 OVC300 28/25 A2987

2010/08/09 21:00
PKWA 092100Z AUTO 07014KT 7SM -RA SCT013 BKN031 OVC047 28/24 A2989 RMK AO2 T02770239

2010/08/09 20:56
PMDY 092056Z AUTO 08012KT 10SM FEW025 28/22 A3025 RMK AO2 TSNO 51007 T02830216 SLP553

2010/08/09 20:50
PTSA 092050Z 08013KT 10SM SCT015CB BKN130 OVC300 28/25 A2986 RMK CB DSNT W-NW

2010/08/09 20:57
PWAK 092057Z 07014KT 10SM FEW026 29/24 A3007 RMK AO2A

2010/08/09 21:00
RJOI 092100Z 14004KT 9999 FEW020 BKN040 OVC080 28/24 A2992 RMK SLP133 FIRST T02780239 53006

2010/08/09 20:55
RJTY 092055Z AUTO 28003KT 9999 OVC018 24/23 A3006 RMK AO2 CIG 016V022 SLP171 T02450231 53005

2010/08/09 21:00
RKPK 092100Z 36005KT 9999 SCT010 BKN040 BKN080 26/23 Q1010 NOSIG

2010/08/09 20:55
RODN 092055Z 16015G23KT 9999 -RA FEW019 SCT035 BKN065 BKN090 27/26 A2974 RMK AO2A PK WND 15028/2000 CIG 016 RWY05 SLP071 P0007 60007 T02740259 52006

2010/08/09 21:00
DTKA 092100Z 06004KT 9999 FEW026 23/19 Q1016 NOSIG

2010/08/09 21:00
DTTF 092100Z 06006KT CAVOK 28/10 Q1014 NOSIG

2010/08/09 20:50
EDDE 092050Z 33004KT CAVOK 16/13 Q1017

2010/08/09 20:50
EDFH 092050Z 21005KT CAVOK 17/10 Q1017

2010/08/09 20:50
EDLV 092050Z 10002KT CAVOK 16/16 Q1016

2010/08/09 20:50
EDSB 092050Z 00000KT CAVOK 16/14 Q1017

2010/08/09 20:50
EDTL 092050Z 07002KT CAVOK 17/13 Q1016

2010/08/09 20:50
EETU 092050Z AUTO 16005KT 9999NDV BKN170/// 18/17 Q1014

2010/08/09 20:50
EFET 092050Z AUTO 04004KT 010V070 9999 OVC033 11/08 Q1013

2010/08/09 20:50
EFHA 092050Z AUTO 16005KT 110V220 9999 FEW019 SCT050 BKN090 18/15 Q1010

2010/08/09 20:50
EFJO 092050Z AUTO 21007KT 180V250 CAVOK 22/15 Q1011

2010/08/09 20:50
EFKA 092050Z AUTO 17001KT 5000 BR BKN013 BKN017 18/18 Q1008

2010/08/09 20:50
EFKI 092050Z AUTO 16002KT //// FEW031 SCT053 BKN113 19/18 Q1008

2010/08/09 20:50
EFKS 092050Z AUTO 25003KT 9999 BKN009 BKN029 18/17 Q1008

2010/08/09 20:50
EFKT 092050Z AUTO 36006KT 320V070 9999 OVC012 12/09 Q1012

2010/08/09 20:50
EFLP 092050Z AUTO 18002KT CAVOK 19/16 Q1013

2010/08/09 20:50
EFMI 092050Z AUTO 15003KT CAVOK 18/15 Q1012

2010/08/09 20:50
EFSA 092050Z AUTO 19003KT CAVOK 20/16 Q1012

2010/08/09 20:50
EFSI 092050Z AUTO 14002KT 6000 FEW039 SCT047 BKN070 17/17 Q1008

2010/08/09 20:50
EFUT 092050Z AUTO 16003KT CAVOK 18/15 Q1012

2010/08/09 20:50
EFVR 092050Z AUTO 16002KT CAVOK 18/15 Q1011

2010/08/09 20:50
EGCN 092050Z 22005KT 9999 FEW040 16/11 Q1010

2010/08/09 20:50
EGDX 092050Z AUTO 24008KT 8000NDV RADZ BKN012/// 17/16 Q1012

2010/08/09 20:50
EGEC 092050Z AUTO 14005KT 110V190 9999NDV // FEW040/// 12/10 Q1007

2010/08/09 20:50
EGOM 092050Z AUTO 25005KT 9999NDV // SCT019/// 11/09 Q1008

2010/08/09 20:50
EGOP 092050Z AUTO 25010KT 9999NDV // SCT005/// BKN018/// 16/15 Q1011

2010/08/09 20:50
EGPI 092050Z AUTO 14006KT 9999NDV // NSC 11/11 Q1006

2010/08/09 20:50
EGUB 092050Z 19010KT 9999 FEW012 BKN014 BKN035 18/15 Q1012 TEMPO 7000 -RADZ

2010/08/09 20:50
EGUB 092050Z 19010KT 9999 FEW012 BKN014 BKN035 18/15 Q1012 GRN TEMPO 7000 -RADZ GRN

2010/08/09 20:50
EGUW 092050Z 20009KT CAVOK 19/11 Q1012 BLU NOSIG

2010/08/09 20:50
EGVN 092050Z 20008KT 9999 BKN010 OVC040 18/16 Q1012 GRN TEMPO SCT006 YLO1

2010/08/09 20:50
EGVN 092050Z 20008KT 9999 BKN010 OVC040 18/16 Q1012 TEMPO SCT006

2010/08/09 20:50
EGVO 092050Z 20009KT 9999 OVC008 17/15 Q1013 GRN TEMPO BKN006 YLO1

2010/08/09 20:50
EGVP 092050Z AUTO 22010KT 9999NDV // OVC007/// 17/16 Q1013

2010/08/09 20:50
EGWU 092050Z 23011KT 9999 SCT019 BKN050 BKN090 18/14 Q1013 WHT NOSIG

2010/08/09 20:50
EGWU 092050Z 23011KT 9999 SCT019 BKN050 BKN090 18/14 Q1013 NOSIG

2010/08/09 20:50
EGXC 092050Z 23008KT 9999 FEW038 BKN080 19/14 Q1010 NOSIG

2010/08/09 20:50
EGXC 092050Z 23008KT 9999 FEW038 BKN080 19/14 Q1010 BLU NOSIG

2010/08/09 20:50
EGXD 092050Z 21002KT 9999 FEW025 SCT080 14/13 Q1009 BLU NOSIG

2010/08/09 20:50
EGXE 092050Z AUTO 26007KT 9999NDV FEW027/// BKN070/// 15/13 Q1009

2010/08/09 20:50
EGXG 092050Z AUTO 27002KT 9999NDV FEW070/// 15/14 Q1009

2010/08/09 20:50
EGXJ 092050Z AUTO 21014KT 9999NDV // BKN046/// 18/14 Q1010

2010/08/09 20:50
EGXT 092050Z AUTO 21011KT 9999NDV FEW060/// 18/14 Q1011

2010/08/09 20:50
EGXU 092050Z AUTO 23005KT 9999NDV // SCT070/// 16/13 Q1009

2010/08/09 20:50
EGXW 092050Z 23012KT 9999 FEW025 BKN080 19/15 Q1010 BLU NOSIG

2010/08/09 20:50
EGXX 092050Z AUTO 20007KT 9999NDV // BKN070/// 19/13 Q1010

2010/08/09 20:50
EGXZ 092050Z AUTO 28004KT 9999NDV SCT080/// 16/12 Q1009

2010/08/09 20:50
EGYD 092050Z AUTO 21009KT 9999NDV // FEW070/// 18/14 Q1010

2010/08/09 20:50
EGYM 092050Z 23011KT CAVOK 20/14 Q1011 BLU NOSIG

2010/08/09 20:50
ENBS 092050Z 01005KT 9999 SCT004 BKN007 07/06 Q1015

2010/08/09 20:50
ENHE 092050Z 04020KT 9999 BKN013 10/08 Q1012

2010/08/09 21:00
EPWR 092100Z 24005KT CAVOK 18/16 Q1017

2010/08/09 20:50
ESGR 092050Z AUTO 24007KT 210V280 9999NDV SCT013/// BKN020/// 15/14 Q1010

2010/08/09 20:50
ESMQ 092050Z AUTO 22006KT 9999NDV SCT036/// 16/14 Q1013

2010/08/09 20:50
ESMT 092050Z AUTO 25009KT 9999NDV OVC035/// 17/10 Q1014

2010/08/09 20:50
ESNG 092050Z AUTO 35004KT 9999NDV SCT029/// 10/09 Q1012

2010/08/09 20:50
ESNK 092050Z AUTO 32004KT 280V030 9999NDV RA FEW013/// SCT017/// BKN021/// 16/15 Q1007 REDZ

2010/08/09 20:50
ESNL 092050Z AUTO 04004KT 010V070 9999NDV BKN019/// OVC024/// 15/13 Q1010

2010/08/09 20:50
ESNX 092050Z AUTO 36004KT 9999NDV OVC022/// 14/12 Q1011

2010/08/09 20:50
ESNY 092050Z AUTO 29001KT 4800 BR OVC001 17/17 Q1007

2010/08/09 20:50
ESOE 092050Z AUTO 25006KT 9999NDV FEW011/// SCT016/// BKN084/// 17/17 Q1008

2010/08/09 20:50
ESSL 092050Z AUTO 25008KT 9999NDV FEW013/// OVC015/// 16/15 Q1010

2010/08/09 20:50
ESTA 092050Z AUTO 28008KT 9999NDV FEW033/// OVC040/// 17/10 Q1014

2010/08/09 20:50
ESTL 092050Z AUTO 23006KT 9999NDV OVC042/// 15/12 Q1015

2010/08/09 20:50
ESUT 092050Z AUTO 17010KT 9999NDV SCT035/// BKN098/// 16/12 Q1011

2010/08/09 20:55
ETOU 092055Z AUTO 00000KT 9999 FEW080 16/13 A3003 RMK AO2 SLP168 T01630128 51006

2010/08/09 20:50
ETUO 092050Z AUTO 00000KT 9999NDV // BKN070/// 17/14 Q1016

2010/08/09 20:50
EVLA 092050Z AUTO 23008KT 9999 BKN014 BKN018 19/16 Q1014

2010/08/09 20:50
EVVA 092050Z AUTO 21007KT 9999 SCT021 BKN030 18/16 Q1013

2010/08/09 20:50
EYKA 092050Z 17004KT CAVOK 17/17 Q1016

2010/08/09 20:50
EYPA 092050Z VRB03KT CAVOK 17/16 Q1015

2010/08/09 20:50
EYPA 092050Z VRB03KT R19/P1500N 17/16 Q1015

2010/08/09 21:00
FAGC 092100Z AUTO 19013KT //// // ////// 05/M11 Q1028

2010/08/09 21:00
FAJB 092100Z AUTO 19004KT //// // ////// 05/M10 Q1028

2010/08/09 21:00
FASI 092100Z AUTO 20005KT //// // ////// 06/M09 Q1028

2010/08/09 21:00
FAVV 092100Z AUTO 22005KT //// // ////// 04/M10 Q1027

2010/08/09 20:51
KABE 092051Z 25006KT 9SM CLR 33/19 A2995

2010/08/09 20:53
KAGC 092053Z 18006KT 10SM CLR 31/16 A2999

2010/08/09 20:54
KAKR 092054Z AUTO 24008KT 10SM CLR 31/18 A2999

2010/08/09 20:51
KALB 092051Z 27009KT 7SM SCT070 BKN095 BKN120 31/18 A2989

2010/08/09 20:56
KART 092056Z AUTO 23007KT 7SM CLR 26/20 A2990

2010/08/09 20:54
KAVP 092054Z 28010G21KT 10SM CLR 32/14 A2995

2010/08/09 20:53
KBAF 092053Z 24013KT 10SM CLR 34/16 A2990

2010/08/09 20:51
KBDL 092051Z 21011KT 10SM FEW070 SCT100 BKN140 33/14 A2990

2010/08/09 20:52
KBDR 092052Z 18013KT 8SM CLR 29/21 A2993

2010/08/09 20:56
KBED 092056Z 29010KT 9SM CLR 33/16 A2988

2010/08/09 20:54
KBTV 092054Z 18005KT 4SM -TSRA BR FEW047CB BKN070 OVC095 23/21 A2988

2010/08/09 20:54
KBUF 092054Z 24006KT 7SM -RA FEW030 BKN050 BKN075 OVC130 24/19 A2994

2010/08/09 20:53
KBVY 092053Z 27010G15KT 10SM FEW070 33/16 A2987

2010/08/09 20:56
KCAE 092056Z 13011KT 10SM SCT065 SCT090 BKN210 34/21 A2998

2010/08/09 20:51
KCAK 092051Z COR 26009KT 7SM SCT065 BKN130 BKN180 29/17 A3000

2010/08/09 20:55
KCEF 092055Z AUTO 20009KT 10SM SCT090 33/17 A2989

2010/08/09 20:51
KCMH 092051Z 18008G16KT 120V210 10SM FEW070 SCT140 BKN200 32/18 A2997

2010/08/09 20:53
KCRQ 092053Z 24009KT 10SM CLR 21/14 A2992

2010/08/09 20:54
KCRW 092054Z 22004KT 10SM FEW060 32/16 A3000

2010/08/09 20:56
KDAY 092056Z 24004KT 9SM SCT050 BKN150 OVC250 32/19 A2998

2010/08/09 20:55
KDOV 092055Z AUTO 13008KT 10SM CLR 30/22 A2997

2010/08/09 20:51
KERI 092051Z 26008KT 7SM FEW100 28/18 A2996

2010/08/09 20:53
KEWB 092053Z 22012G18KT 10SM CLR 29/20 A2993

2010/08/09 21:03
KFDK 092103Z AUTO 16007KT 130V190 10SM SCT100 34/18 A2998

2010/08/09 20:53
KFVE 092053Z AUTO 16003KT 8SM SCT075 BKN100 22/19 A2981

2010/08/09 20:56
KGON 092056Z 21009KT 5SM HZ CLR 26/22 A2994

2010/08/09 20:54
KGSO 092054Z 19007KT 10SM SCT055 33/19 A3002

2010/08/09 20:53
KGSP 092053Z VRB05KT 10SM CLR 33/21 A3000

2010/08/09 20:56
KHPN 092056Z 20008G15KT 9SM SCT100 30/18 A2994

2010/08/09 20:51
KHTS 092051Z 00000KT 10SM CLR 32/18 A2999

2010/08/09 21:00
GMAD 092100Z 00000KT 8000 NSC 24/20 Q1014 NOSIG

2010/08/09 21:00
GMFM 092100Z 15010KT 8000 FEW026 FEW033CB SCT100 31/14 Q1018

2010/08/09 21:00
GMMC 092100Z 32004KT 5000 NSC 29/22 Q1011

2010/08/09 21:00
GMML 092100Z 33007KT 8000 FEW016 SCT100 22/18 Q1014

2010/08/09 21:00
GMMW 092100Z 00000KT CAVOK 24/20 Q1015

2010/08/09 21:00
GMMZ 092100Z 24007KT CAVOK 29/07 Q1023

2010/08/09 20:50
HLLM 092050Z 08005KT 7000 SKC 26/18 Q1016

2010/08/09 21:03
KCBE 092103Z AUTO 00000KT 10SM CLR 34/16 A2999 RMK AO1

2010/08/09 20:55
KEGI 092055Z 12009KT 080V140 10SM FEW040 35/20 A2992 RMK AO2A SLP130 T03530203 58020 $

2010/08/09 21:03
KFME 092103Z AUTO 14009KT 10SM SCT060 SCT070 30/22 A2999 RMK AO1

2010/08/09 21:00
LBGO 092100Z VRB01MPS CAVOK 22/20 Q1013 NOSIG

2010/08/09 21:00
LEAB 092100Z 19006KT CAVOK 25/13 Q1019 NOSIG

2010/08/09 21:00
LELN 092100Z 28007KT CAVOK 21/01 Q1020

2010/08/09 21:00
LESA 092100Z 26005KT CAVOK 25/14 Q1019

2010/08/09 21:00
LETO 092100Z 00000KT 9999 FEW050 28/12 Q1017 NOSIG

2010/08/09 21:00
LFBE 092100Z AUTO 26006KT 9999NDV FEW039 19/14 Q1019

2010/08/09 21:00
LFBG 092100Z AUTO 27008KT 9999NDV BKN041 19/12 Q1019

2010/08/09 21:00
LFCR 092100Z AUTO 27008KT 9999NDV BKN044 18/14 Q1021

2010/08/09 21:00
LFJL 092100Z AUTO 27001KT 9999NDV NSC 20/10 Q1017

2010/08/09 21:00
LFLX 092100Z AUTO 25004KT 9999NDV NSC 22/12 Q1016

2010/08/09 21:00
LFMI 092100Z AUTO 16005KT 100V200 9999NDV //////TCU 21/20 Q1016

2010/08/09 21:00
LFMK 092100Z AUTO 29008KT 250V310 9999NDV OVC042 23/16 Q1019

2010/08/09 21:00
LFMO 092100Z AUTO 16007KT 9999NDV //////TCU 25/17 Q1015

2010/08/09 21:00
LFMU 092100Z AUTO 28010KT 9999NDV NSC 24/18 Q1016

2010/08/09 21:00
LFMV 092100Z AUTO 15004KT 9999NDV //////TCU 24/17 Q1015

2010/08/09 21:00
LFOA 092100Z AUTO 08002KT 9999NDV NSC 22/10 Q1016

2010/08/09 21:00
LFOJ 092100Z AUTO 22002KT 9999NDV NSC 20/11 Q1015

2010/08/09 21:00
LFOK 092100Z AUTO 11005KT 9999NDV NSC 19/10 Q1016

2010/08/09 21:00
LFQI 092100Z AUTO 29007KT 9999NDV NSC 18/12 Q1016

2010/08/09 20:50
LGHI 092050Z 35010KT CAVOK 31/20 Q1008

2010/08/09 21:00
LKCV 092100Z 10003KT 080V170 CAVOK 15/14 Q1017 NOSIG RMK BLU+ BLU+

2010/08/09 21:00
LKKV 092100Z 10001KT CAVOK 14/13 Q1019

2010/08/09 21:00
LKNA 092100Z 35003KT CAVOK 18/12 Q1018 RMK BLU+

2010/08/09 21:00
LKPD 092100Z 00000KT CAVOK 17/16 Q1017 RMK BLU+

2010/08/09 21:00
LKPO 092100Z 20004KT CAVOK 16/14 Q1017 NOSIG RMK BLU+ BLU+

2010/08/09 20:50
LOXT 092050Z 26003KT 25KM FEW090AC 17/15 Q1017 RMK FEW

2010/08/09 21:00
LQBK 092100Z 31002KT CAVOK 19/17 Q1017 NOSIG

2010/08/09 21:00
LQMO 092100Z 18002KT CAVOK 25/14 Q1012

2010/08/09 20:50
LTAB 092050Z 25004KT 210V330 CAVOK 25/08 Q1012 NOSIG RMK RWY06 27005KT

2010/08/09 20:50
LTAE 092050Z 03005KT CAVOK 25/10 Q1012 NOSIG RMK RWY21 06008KT 020V100

2010/08/09 20:50
LTAZ 092050Z 20004KT 140V270 CAVOK 24/04 Q1011

2010/08/09 20:50
LTBR 092050Z 33007KT 9999 FEW035 26/22 Q1010 NOSIG

2010/08/09 20:50
LTBR 092050Z 33007KT 9999 FEW035 26/22 Q1010 NOSIG RMK RWY07 24003KT

2010/08/09 20:50
LTBU 092050Z 36012KT CAVOK 26/21 Q1010

2010/08/09 20:50
LTBU 092050Z 36012KT CAVOK 26/21 Q1010 RMK RWY23 35013KT

2010/08/09 20:50
LTCF 092050Z 02005KT 9999 -TSRA FEW025CB SCT030 16/12 Q1020

2010/08/09 21:00
LTFH 0902050Z 28009KT 9999 SCT033 27/24 Q1006 NOSIG

2010/08/09 20:50
LTFJ 092050Z 36006KT 9999 SCT016 27/24 Q1009 NOSIG

2010/08/09 21:00
LZKC 092100Z AUTO VRB02KT //// ////// 18/17 Q1016

2010/08/09 21:00
LZLU 092100Z AUTO VRB01KT //// ////// 17/15 Q1017

2010/08/09 21:00
LZNI 092100Z AUTO 00000KT 9999 ////// 17/15 Q1017

2010/08/09 21:00
LZPE 092100Z AUTO 02004KT 350V050 9999 ////// 15/14 Q1018

2010/08/09 21:00
LZPP 092100Z AUTO VRB02KT 9999 ////// 16/15 Q1018

2010/08/09 21:00
LZSL 092100Z 20002KT CAVOK 16/15 Q1017

2010/08/09 21:00
LZZI 092100Z 00000KT CAVOK 14/13 Q1018

2010/08/09 21:00
UHHH 092100Z 11004MPS 9999 BKN003 OVC019CB 20/20 Q1005 NOSIG

2010/08/09 21:00
MHTR 092100Z 08014KT 9999 FEW025TCU BKN250 32/27 TCU SE S W HZ

2010/08/09 20:56
MMIA 092056Z RTD 00000KT 8SM BKN020CB BKN100 30/23 A2991 RMK SLP/// 6//// 8/360 9//

2010/08/09 20:50
MMTG 092050Z 05005KT 10SM SCT020 SCT080 SCT300 32/23 A2988 RMK SLP076 57028 902 8/454 CBS 1 QUAD

2010/08/09 21:00
MNBL 092100Z 06010KT 9999 BKN018 SCT070 29/26 Q1010

2010/08/09 21:00
MNCH 092100Z 09006KT 8000 TS FEW024CB SCT300 30/27 Q1009 CBRA/NE/E/SE CB//N/NW TCU/S/SW

2010/08/09 21:00
MNJG 092100Z 00000KT 9999 BKN019 23/19 Q1011

2010/08/09 21:00
MNJU 092100Z 06006KT 9999 SCT020 SCT080 29/25 Q1011

2010/08/09 21:00
MNRS 092100Z 08006KT 9999 FEW015CB BKN070 29/25 Q1010 CB/4C

2010/08/09 20:51
MUCF 092051Z 34006KT 4000 -RA FEW018 OVC060 25/23 Q1014

2010/08/09 20:51
MUHG 092051Z 16014KT 0100 +TSRA BKN016 OVC090 23/21 Q1013

2010/08/09 20:55
OAHR 092055Z AUTO /////KT //// // ////// 27/M01 Q1010

2010/08/09 21:00
OIIE 092100Z 08004KT CAVOK 28/02 Q1011 A2987

2010/08/09 21:00
OYDM 092100Z 00000KT 9999 SCT050 17/15 Q////

2010/08/09 21:00
OYRN 092100Z 32006KT CAVOK 29/20 Q1002

2010/08/09 21:00
OYSQ 092100Z 20030G40KT 9999 FEW018 28/22 Q1007

2010/08/09 21:00
OYSY 092100Z 19004KT 120V240 9999 FEW040 BKN080 35/12 Q1005

2010/08/09 21:00
RJBB 092100Z 21011KT 9999 FEW010 BKN180 27/24 Q1013 NOSIG

2010/08/09 21:00
RJFS 092100Z 06005KT 9999 FEW015 SCT100 BKN150 26/24 Q1010

2010/08/09 21:00
RJGG 092100Z 12010KT 9999 FEW010 BKN045 26/25 Q1014 NOSIG

2010/08/09 21:00
ROIG 092100Z 21008KT 170V260 8000 -TSRA FEW010 SCT020 FEW025CB BKN090 28/25 Q1004

2010/08/09 21:00
SADF 092100Z 05004KT CAVOK 18/06 Q1024

2010/08/09 21:00
SAWH 092100Z 25013KT 5000 SN OVC015 M01/M03 Q0999

2010/08/09 21:00
SCJO 092100Z 17012KT 9999 FEW020 13/07 Q1022

2010/08/09 21:00
SVVG 092100Z 00000KT 9999 SCT020 32/XX Q1009

2010/08/09 21:00
UBBN 092100Z 12008KT 9999 BKN100 28/08 Q1009 R14R/CLRD60 NOSIG RMK G/O QFE682

2010/08/09 21:00
YPKU 092100Z AUTO 16013KT 9999NDV // NCD 20/M01 Q1015

2010/08/09 21:00
YSTW 092100Z AUTO 20007KT 9000NDV // SCT037 BKN056 OVC072 12/10 Q1018

2010/08/09 21:00
YSWG 092100Z 07013KT 9999 FEW020 SCT035 BKN065 10/08 Q1014

2010/08/09 21:00
YTEF 092100Z AUTO 13011KT //// // ////// 08/M05 Q1021

2010/08/09 21:00
YTNK 092100Z 15008KT CAVOK 10/01 Q1018

2010/08/09 21:00
YTRE 092100Z AUTO 03008KT //// // ////// 16/14 Q1020

2010/08/09 21:00
YWGT 092100Z AUTO 14009KT //// // ////// 08/07 Q1014

2010/08/09 21:00
YWHA 092100Z AUTO 23006KT 9999NDV // NCD 07/06 Q1012

2010/08/09 21:00
YWLM 092100Z 04005KT 9999 -RA FEW050 SCT080 OVC100 13/12 Q1019

2010/08/09 21:00
ZBHH 092100Z 07003MPS CAVOK 12/08 Q1012 NOSIG

2010/08/09 21:00
ZBSJ 092100Z 06002MPS 1100 R33/1100N BR -RA OVC040 23/22 Q1006 NOSIG

2010/08/09 21:00
ZGHA 092100Z 25001MPS 2700 BR NSC 28/27 Q1002 NOSIG

2010/08/09 21:00
ZGKL 092100Z 34001MPS 4000 BR SKC 26/25 Q1004 NOSIG

2010/08/09 21:00
ZGOW 092100Z 31001MPS 7000 NSC 27/25 Q1005 NOSIG

2010/08/09 21:00
ZJHK 092100Z 18001MPS CAVOK 26/25 Q1003 NOSIG

2010/08/09 21:00
ZLXY 092100Z 04003MPS 3500 BR NSC 26/23 Q1004 NOSIG

2010/08/09 21:00
ZSQD 092100Z VRB01MPS 9999 FEW017 24/22 Q1006 NOSIG

2010/08/09 21:00
ZWSH 092100Z AUTO 31002MPS 220V360 CAVOK 26/08 Q1010

2010/08/09 21:00
ZYCC 092100Z 17002MPS 3000 BR SCT016 18/17 Q1007 NOSIG

2010/08/09 21:00
ZYTX 092100Z VRB01MPS 3000 BR OVC040 21/20 Q1006 NOSIG

2010/08/09 20:45
LHDC 092045Z 22002KT CAVOK 18/16 Q1017

2010/08/09 20:45
LHKE 092045Z 31002MPS CAVOK 17/14 Q1016 NOSIG RMK BLU

2010/08/09 20:45
LHPP 092045Z 06003KT CAVOK 18/16 Q1019

2010/08/09 20:45
LHSN 092045Z 30001MPS CAVOK 19/16 Q1017 NOSIG RMK BLU

2010/08/09 20:45
LHUD 092045Z 00000KT CAVOK 17/16 Q1018

2010/08/09 20:53
KHUL 092053Z AUTO 25005KT 10SM BKN095 25/17 A2983

2010/08/09 20:53
KHVN 092053Z 19009G17KT 9SM CLR 29/22 A2994

2010/08/09 20:53
KIAG 092053Z 29014G18KT 5SM -TSRA FEW025 BKN045CB BKN065 OVC130 24/21 A2995

2010/08/09 20:51
KILG 092051Z 17013G19KT 10SM CLR 31/22 A2998

2010/08/09 20:53
KILM 092053Z AUTO 14007KT 10SM CLR 30/23 A3000

2010/08/09 20:54
KINT 092054Z 18006KT 10SM FEW095 32/19 A3003

2010/08/09 20:55
KLSV 092055Z AUTO 00000KT 10SM CLR 34/04 A2988

2010/08/09 20:53
KLUK 092053Z 15007KT 8SM SCT070 33/21 A2995

2010/08/09 20:54
KLWM 092054Z 26011G17KT 10SM FEW070 33/16 A2989

2010/08/09 20:56
KMDT 092056Z 12004KT 8SM FEW050 SCT250 32/19 A2994

2010/08/09 20:53
KMSS 092053Z AUTO 30005KT 10SM SCT040 26/21 A2989

2010/08/09 20:54
KORH 092054Z 26011KT 10SM FEW060 31/15 A2995

2010/08/09 20:55
KPQI 092055Z AUTO 24007KT 10SM SCT034 24/17 A2980

2010/08/09 20:55
KPSM 092055Z 23008KT 10SM SCT060 BKN100 33/18 A2986

2010/08/09 20:51
KPVD 092051Z 19013KT 10SM FEW046TCU SCT060 SCT080 SCT250 30/21 A2993

2010/08/09 20:51
KPWM 092051Z 15007KT 10SM SCT075 BKN090 27/19 A2987

2010/08/09 20:54
KRIC 092054Z 21009KT 8SM SCT060 SCT250 33/19 A2998

2010/08/09 20:54
KROC 092054Z 28010KT 5SM -RA FEW009 SCT040 BKN055 OVC130 26/21 A2994

2010/08/09 20:54
KSYR 092054Z 25010G18KT 180V270 10SM BKN060 OVC100 29/18 A2990

2010/08/09 20:55
KWRI 092055Z AUTO 27010KT 10SM CLR 34/18 A2993

2010/08/09 21:00
VTBS 092100Z 21001KT 9000 FEW020 SCT120 BKN300 26/24 Q1004 NOSIG

2010/08/09 21:00
VTBD 092100Z 23005KT 9999 FEW020 SCT120 BKN300 26/23 Q1003 NOSIG

2010/08/09 21:00
VTCC 092100Z 11002KT 9999 BKN035 SCT110 26/24 Q1005 A2969

2010/08/09 21:00
VTBU 092100Z 24003KT 9999 FEW020 BKN300 29/26 Q1004 A2966

2010/08/09 21:00
VTSP 092100Z 25007T 7000 SCT018 SCT120 BKN300 28/24 Q1007 A2974

2010/08/09 21:00
VVTS 092100Z 23009KT 8000 -RA SCT015 BKN040 25/24 Q1005 NOSIG

2010/08/09 21:00
VVNB 092100Z 07003KT 6000 NSC 26/25 Q1003 NOSIG

2010/08/09 21:00
VVDN 092100Z 23004KT 8000 FEW013 SCT060 25/23 Q1004 NOSIG

2010/08/09 20:53
KAMA 092053Z 18013G21KT 10SM SCT070 33/16 A2998

2010/08/09 20:53
KAUS 092053Z 14007KT 10SM FEW065 36/19 A2990

2010/08/09 20:53
KBPT 092053Z 17006KT 10SM FEW060 BKN080 34/25 A2992

2010/08/09 21:00
KBQK 092100Z AUTO 11010KT 10SM SCT100 31/25 A2997

2010/08/09 20:53
KBRO 092053Z AUTO 13014KT 10SM CLR 36/23 A2987

2010/08/09 20:53
KBTR 092053Z 33005G14KT 2SM +TSRA BR FEW014 BKN039CB OVC050 24/24 A2997

2010/08/09 20:53
KCHA 092053Z 18004KT 10SM FEW055 SCT095 SCT250 35/21 A2996

2010/08/09 20:51
KCRP 092051Z 09014G20KT 10SM SCT036 34/24 A2988

2010/08/09 20:53
KDAL 092053Z 18009KT 10SM FEW060 37/20 A2987

2010/08/09 20:53
KDRT 092053Z AUTO 15014G19KT 10SM FEW060 37/19 A2984

2010/08/09 20:51
KELP 092051Z 23008KT 190V250 10SM FEW100 35/08 A3001

2010/08/09 20:53
KEYW 092053Z 30011KT 3SM -RA BR SCT013 SCT021 BKN031 26/24 A2989

2010/08/09 20:53
KFPR 092053Z 13015KT 10SM FEW025 31/24 A2989

2010/08/09 20:53
KFTW 092053Z 17007G16KT 10SM FEW065 38/21 A2987

2010/08/09 20:53
KFTY 092053Z 10004KT 8SM FEW080 34/19 A2998

2010/08/09 20:53
KFXE 092053Z 14008KT 10SM SCT050 SCT080 30/23 A2988

2010/08/09 20:52
KGLS 092052Z 16010KT 10SM CLR 33/24 A2994

2010/08/09 20:53
KGPT 092053Z 14010KT 10SM SCT040 33/26 A2993

2010/08/09 20:53
KHOU 092053Z 18007KT 10SM SCT055 33/23 A2990

2010/08/09 20:52
KHRL 092052Z 10013KT 10SM SCT070 35/24 A2985

2010/08/09 20:53
KHSV 092053Z 33010KT 4SM R18R/5500VP6000FT RA SCT055 SCT080 BKN100 29/24 A2995

2010/08/09 20:53
KLCH 092053Z 16004KT 10SM CLR 34/23 A2991

2010/08/09 20:55
KLGC 092055Z AUTO 06005KT 10SM FEW060 36/19 A2996

2010/08/09 20:56
KLRD 092056Z 16011G14KT 10SM CLR 39/20 A2986

2010/08/09 20:53
KMAF 092053Z 16009KT 10SM FEW065 35/17 A2993

2010/08/09 20:53
KMFE 092053Z 14011KT 7SM CLR 34/23 A2985

2010/08/09 20:53
KMGM 092053Z 19003KT 10SM SCT070 36/20 A2993

2010/08/09 20:56
KMOB 092056Z 16009KT 10SM SCT035 BKN200 33/24 A2995

2010/08/09 20:53
KNEW 092053Z 23007KT 10SM FEW015 BKN045 28/25 A2996

2010/08/09 20:53
KOPF 092053Z 16007KT 10SM FEW028 SCT038 29/23 A2989

2010/08/09 21:00
KOPN 092100Z AUTO 07004KT 10SM SCT060 36/22 A2999

2010/08/09 20:53
KPDK 092053Z 12006KT 10SM BKN060 BKN080 34/19 A3000

2010/08/09 20:53
KPIE 092053Z 30008KT 10SM BKN028 28/24 A2989

2010/08/09 20:53
KPNS 092053Z AUTO 17008KT 10SM CLR 32/24 A2992

2010/08/09 20:53
KRSW 092053Z AUTO 19012KT 8SM -RA SCT015 BKN021 OVC055 26/24 A2986

2010/08/09 20:53
KSAV 092053Z 08006KT 10SM 32/24 A2996

2010/08/09 20:56
KSHV 092056Z 00000KT 10SM SCT070 37/22 A2989

2010/08/09 20:53
KSSI 092053Z AUTO 10010KT 10SM BKN090 29/24 A2996

2010/08/09 20:53
KTMB 092053Z 19009KT 10SM FEW021 31/24 A2989

2010/08/09 20:53
KTUL 092053Z 19008KT 10SM SCT070 38/19 A2987

2010/08/09 20:53
KTYS 092053Z 28004KT 10SM FEW060 34/20 A2997

2010/08/09 21:00
OIBL 092100Z 01008KT 6000 SKC 35/17 Q0997 A2945

2010/08/09 21:00
OIIK 092100Z 00000KT CAVOK 21/09 Q1014 A2997

2010/08/09 21:00
OITM 092100Z 09016KT 9999 SCT040 28/10 Q1013 A2994

2010/08/09 21:00
UKCW 092100Z 07003MPS CAVOK 26/07 Q1013 0909//70 NOSIG

2010/08/09 21:00
UKLU 092100Z 00000MPS 9999 BKN100 17/16 Q1016 10090070 NOSIG

2010/08/09 21:00
UKKK 092100Z 12001MPS 7000 TS BKN030CB BKN050 24/19 Q1015 08CLRD70 TEMPO 36009G14MPS 2100 -TSRAGR SCT005 BKN020CB

2010/08/09 21:00
UKKM 092100Z 00000MPS 5000 BR FEW030CB BKN100 22/21 Q1015

2010/08/09 21:00
OEMA 092100Z 27012KT 9000 FEW045 40/08 Q1005 NOSIG

2010/08/09 21:00
OYSN 092100Z VRB01KT 9999 FEW030 18/11 Q1022

2010/08/09 20:53
KAZO 092053Z 19006KT 9SM FEW020 28/23 A2993

2010/08/09 20:53
KBDE 092053Z AUTO 17003KT 10SM CLR 32/19 A2988

2010/08/09 20:53
KBTL 092053Z 21007KT 10SM CLR 28/22 A2995

2010/08/09 20:53
KBTM 092053Z AUTO 18008KT 10SM FEW120 23/06 A2999

2010/08/09 20:55
KCIU 092055Z AUTO 21006KT 10SM FEW037 SCT044 27/19 A2990

2010/08/09 20:53
KCMX 092053Z AUTO 29010KT 10SM CLR 27/19 A2991

2010/08/09 20:54
KCOS 092054Z 18008KT 10SM FEW120 24/13 A3016

2010/08/09 20:53
KCPR 092053Z 23023G29KT 10SM CLR 27/04 A3005

2010/08/09 20:53
KDET 092053Z 24006KT 10SM -RA SCT075 25/22 A2995

2010/08/09 20:55
KDLH 092055Z 29004KT 10SM FEW035 31/18 A2993

2010/08/09 20:54
KDSM 092054Z 17004KT 10SM OVC035 31/24 A2987

2010/08/09 20:53
KELO 092053Z AUTO 00000KT 10SM SCT090 29/17 A2992

2010/08/09 20:53
KFAR 092053Z 20007KT 10SM FEW100 32/20 A2987

2010/08/09 20:53
KFNT 092053Z AUTO 18005KT 10SM FEW012 SCT050 26/22 A2993

2010/08/09 20:53
KGFK 092053Z 21013G16KT 10SM FEW250 34/19 A2983

2010/08/09 20:53
KGRB 092053Z 22006KT 10SM SCT040 30/23 A2987

2010/08/09 20:53
KGRR 092053Z 22007KT 10SM FEW029 BKN037 BKN046 28/22 A2992

2010/08/09 20:53
KICT 092053Z 16012KT 10SM SCT070 SCT200 39/20 A2986

2010/08/09 20:55
KINL 092055Z AUTO 00000KT 10SM CLR 31/19 A2990

2010/08/09 20:52
KISN 092052Z 00000KT 10SM CLR 31/17 A2983

2010/08/09 20:54
KLEX 092054Z 00000KT 10SM FEW055 34/19 A2998

2010/08/09 20:53
KMBS 092053Z 20005KT 10SM SCT007 BKN020 OVC043 24/23 A2992

2010/08/09 20:51
KMDW 092051Z 27008KT 10SM FEW040 BKN090 BKN150 BKN250 31/21 A2991

2010/08/09 20:54
KMKC 092054Z 17012KT 10SM CLR 37/24 A2984

2010/08/09 20:52
KMKE 092052Z 11006KT 10SM BKN038 BKN049 BKN230 29/22 A2989

2010/08/09 20:52
KMLI 092052Z 10006KT 10SM FEW024 30/24 A2991

2010/08/09 20:54
KMOT 092054Z 19003KT 10SM CLR 34/14 A2983

2010/08/09 20:50
KMWA 092050Z 18005KT 15SM SCT060 BKN090 37/18 A2990

2010/08/09 20:52
KOMA 092052Z VRB05KT 10SM SCT035 SCT160 SCT250 33/26 A2984

2010/08/09 20:55
KPHN 092055Z AUTO 00000KT 10SM -RA SCT065 SCT080 SCT100 25/20 A2994

2010/08/09 20:54
KPIA 092054Z 13004KT 10SM CLR 32/24 A2991

2010/08/09 20:53
KPTK 092053Z 16006KT 10SM FEW007 SCT030 BKN080 24/22 A2993

2010/08/09 20:53
KPUB 092053Z 24004KT 10SM FEW110 28/14 A3004

2010/08/09 20:50
KSAW 092050Z 04012KT 10SM SCT060 27/20 A2989

2010/08/09 20:56
KSDF 092056Z VRB03KT 10SM SCT065 SCT150 SCT250 37/20 A2992

2010/08/09 20:52
KSGF 092052Z 21009KT 10SM FEW060 36/22 A2993

2010/08/09 20:53
KSTP 092053Z AUTO 06006KT 10SM CLR 33/21 A2989

2010/08/09 20:54
KSUS 092054Z COR 19005KT 10SM FEW050 BKN200 36/24 A2988

2010/08/09 20:54
KSUS 092054Z 19005KT 10SM CLR 36/24 A2988

2010/08/09 20:52
KTOL 092052Z 00000KT 7SM FEW050 30/21 A2993

2010/08/09 20:54
KAPN 092054Z 12007KT 10SM FEW025 BKN055 26/21 A2989

2010/08/09 21:01
KCBM 092101Z AUTO 09009KT 4SM -TSRA BR OVC055 26/23 A2994 RMK AO2 SLP138 $

2010/08/09 21:05
KCBM 092105Z AUTO 09009KT 5SM -TSRA OVC050 26/24 A2994 RMK AO2 SLP139 $

2010/08/09 21:00
KFCS 092100Z AUTO 01003KT 10SM -DZ FEW080 BKN100 BKN130 24/14 A3013 RMK AO2 DZB2100 SLP124

2010/08/09 20:53
KBFI 092053Z 14006KT 10SM OVC025 19/12 A2999

2010/08/09 20:53
KBIL 092053Z 04005KT 10SM SCT075CB BKN110 29/11 A2985

2010/08/09 20:53
KBKE 092053Z AUTO 28006KT 10SM CLR 27/09 A2987

2010/08/09 20:53
KBLI 092053Z 20004KT 7SM -RA BKN015 OVC040 15/14 A2997

2010/08/09 20:53
KBOI 092053Z VRB03KT 10SM CLR 29/08 A2985

2010/08/09 20:53
KCLM 092053Z AUTO 33004KT 9SM -RA SCT020 BKN095 13/12 A2999

2010/08/09 20:56
KCTB 092056Z AUTO 00000KT 10SM CLR 26/07 A2985

2010/08/09 20:56
KDUG 092056Z AUTO 28004KT 10SM CLR 32/14 A3005

2010/08/09 20:53
KFAT 092053Z VRB05KT 10SM FEW080 32/10 A2985

2010/08/09 20:55
KGDV 092055Z AUTO 09007KT 10SM CLR 33/07 A2984

2010/08/09 20:53
KGEG 092053Z 23007G19KT 10SM SCT075 SCT120 BKN200 26/07 A2984

2010/08/09 20:53
KGGW 092053Z AUTO 22005KT 10SM CLR 31/09 A2983

2010/08/09 20:53
KGLH 092053Z 35004KT 10SM CLR 38/23 A2989

2010/08/09 20:55
KGPI 092055Z VRB03KT 10SM CLR 26/07 A2982

2010/08/09 20:53
KGTF 092053Z VRB04KT 10SM CLR 29/06 A2983

2010/08/09 20:53
KGWO 092053Z AUTO 18010G16KT 9SM TS BKN042 OVC055 29/26 A2993

2010/08/09 20:53
KHLN 092053Z 11005KT 10SM SCT100 28/07 A2985

2010/08/09 20:53
KHQM 092053Z AUTO 21007KT 9SM BKN009 OVC024 14/12 A3002

2010/08/09 20:53
KHVR 092053Z AUTO 00000KT 10SM CLR 30/09 A2981

2010/08/09 20:53
KIPL 092053Z AUTO 00000KT 10SM CLR 37/06 A2975

2010/08/09 20:53
KLBB 092053Z 18013G18KT 10SM SCT060TCU SCT180 BKN250 34/17 A2998

2010/08/09 20:53
KMSO 092053Z 20008KT 10SM -RA SCT085 SCT110 23/13 A2985

2010/08/09 20:52
KMWH 092052Z 17011G15KT 10SM CLR 28/09 A2979

2010/08/09 20:56
KNUW 092056Z 25004KT 3SM -RA BR SCT005 BKN016 OVC030 14/12 A2999

2010/08/09 20:53
KOLF 092053Z AUTO 11005KT 10SM CLR 32/11 A2982

2010/08/09 20:54
KOLM 092054Z 00000KT 10SM OVC019 17/13 A3001

2010/08/09 20:54
KOLS 092054Z AUTO VRB04KT 10SM FEW075 32/13 A3004

2010/08/09 20:53
KPAE 092053Z 26003KT 10SM OVC022 17/12 A3000

2010/08/09 20:53
KPDX 092053Z VRB05KT 10SM BKN028 17/10 A3002

2010/08/09 20:53
KPMD 092053Z 35006KT 10SM CLR 32/01 A2992

2010/08/09 20:55
KRNO 092055Z VRB04KT 10SM SCT080 29/02 A2996

2010/08/09 20:53
KRNT 092053Z 13003KT 10SM BKN026 OVC032 18/12 A2999

2010/08/09 20:53
KSAC 092053Z 22007KT 10SM CLR 27/14 A2986

2010/08/09 20:55
KSCK 092055Z 00000KT 10SM CLR 27/13 A2985

2010/08/09 20:53
KSDM 092053Z 29009G14KT 270V340 10SM CLR 22/13 A2993

2010/08/09 20:53
KSFF 092053Z 21009KT 10SM CLR 28/07 A2982

2010/08/09 20:53
KSJC 092053Z 30008KT 10SM FEW007 24/13 A2989

2010/08/09 20:53
KSLC 092053Z 25018G27KT 10SM BKN110CB BKN150 BKN200 28/01 A2999

2010/08/09 20:53
KSMF 092053Z 21008KT 10SM CLR 27/16 A2985

2010/08/09 20:53
KTIW 092053Z 18007KT 10SM SCT020 BKN026 17/12 A3000

2010/08/09 20:53
KTUS 092053Z 24008KT 10SM FEW090 34/13 A2995

2010/08/09 20:54
KACY 092054Z 17012KT 10SM CLR 31/17 A3000

2010/08/09 20:53
KAUG 092053Z AUTO VRB04KT 10SM CLR 29/18 A2987

2010/08/09 20:54
KAVL 092054Z 14009KT 10SM FEW050 SCT065 SCT090 28/20 A3009

2010/08/09 20:53
KBGM 092053Z AUTO 21008G37KT 170V330 10SM FEW070 SCT095 29/14 A2999

2010/08/09 20:51
KBKW 092051Z AUTO 22004KT 6SM HZ CLR 29/17 A3011

2010/08/09 21:03
KCBE 092103Z AUTO 00000KT 10SM CLR 34/16 A2999

2010/08/09 20:51
KCON 092051Z AUTO 24009KT 10SM SCT065 32/16 A2988

2010/08/09 20:52
KDCA 092052Z 16008KT 8SM SCT060 SCT095 BKN250 33/21 A2996

2010/08/09 20:51
KEKN 092051Z AUTO 31007KT 9SM CLR 30/19 A3007

2010/08/09 20:53
KGFL 092053Z AUTO 25008KT 10SM CLR 31/18 A2987

2010/08/09 20:53
KGSP 092053Z VRB05KT 10SM CLR 33/21 A3000

2010/08/09 21:00
KIPJ 092100Z AUTO 00000KT 10SM CLR 35/18 A3001

2010/08/09 20:54
KIPT 092054Z 10009KT 10SM CLR 32/16 A2993

2010/08/09 20:54
KLYH 092054Z 14006KT 10SM FEW055 32/21 A3002

2010/08/09 20:53
KMHT 092053Z 24008G15KT 10SM SCT060 32/16 A2987

2010/08/09 20:51
KMPV 092051Z AUTO 06003KT 10SM -TSRA FEW036 SCT044 BKN055 23/18 A2996

2010/08/09 20:51
KNYC 092051Z AUTO VRB03KT 10SM FEW070 30/19 A2997

2010/08/09 20:54
KPNE 092054Z AUTO 25010KT 10SM SCT065 33/19 A2996

2010/08/09 20:54
KROA 092054Z 11008KT 10SM FEW080 32/20 A3003

2010/08/09 20:53
KSMQ 092053Z AUTO VRB05KT 10SM FEW070 33/18 A2991

2010/08/09 20:54
KWAL 092054Z 19011KT 10SM BKN075 28/22 A3002

2010/08/09 20:53
KAAF 092053Z AUTO 13007KT 10SM CLR 33/24 A2991

2010/08/09 20:53
KABR 092053Z AUTO 16009KT 10SM CLR 33/18 A2989

2010/08/09 20:51
KACT 092051Z 16010KT 10SM SCT065 38/19 A2989

2010/08/09 20:53
KAGS 092053Z 13005KT 10SM FEW055 34/22 A2997

2010/08/09 20:51
KAHN 092051Z 29004KT 6SM HZ SCT060 33/21 A2999

2010/08/09 20:53
KALI 092053Z AUTO 13011G17KT 10SM SCT047 BKN060 36/24 A2986

2010/08/09 20:53
KAUS 092053Z 14007KT 10SM FEW065 36/19 A2990

2010/08/09 21:00
KAYS 092100Z AUTO 10009KT 10SM SCT048 BKN055 BKN080 35/ A2993

2010/08/09 20:51
KBVE 092051Z AUTO 22005KT CLR 27/25 A2995

2010/08/09 20:55
KCAO 092055Z AUTO 15008G23KT 10SM FEW075 34/13 A3003

2010/08/09 20:53
KCDS 092053Z AUTO 21007KT 10SM CLR 34/19 A2990

2010/08/09 20:53
KCLL 092053Z 18008KT 10SM FEW065 37/19 A2990

2010/08/09 20:53
KCNM 092053Z AUTO 09007KT 10SM FEW070 34/16 A2995

2010/08/09 20:53
KCOT 092053Z AUTO VRB05G14KT 10SM CLR 38/18 A2985

2010/08/09 20:51
KCSG 092051Z 15010KT 10SM SCT070 SCT100 35/19 A2995

2010/08/09 20:53
KCTY 092053Z AUTO 09006G20KT 31/24 A2990

2010/08/09 20:53
KDAB 092053Z 09009G18KT 10SM FEW025 SCT250 30/23 A2992

2010/08/09 20:53
KDHT 092053Z AUTO 17009G15KT 10SM BKN075 BKN120 33/15 A2998

2010/08/09 20:53
KECP 092053Z AUTO 06004KT 10SM FEW060 35/22 A2990

2010/08/09 20:53
KELD 092053Z AUTO 00000KT 10SM CLR 37/19 A2989

2010/08/09 20:51
KELP 092051Z 23008KT 190V250 10SM FEW100 35/08 A3001

2010/08/09 20:53
KESF 092053Z AUTO 09003KT 10SM CLR 37/22 A2989

2010/08/09 20:53
KFSM 092053Z 28004KT 10SM SCT070 37/22 A2988

2010/08/09 20:53
KFYV 092053Z 19008KT 10SM BKN065 35/19 A2994

2010/08/09 20:53
KGAG 092053Z AUTO 19007G17KT 10SM VCTS FEW001 36/18 A2989

2010/08/09 20:51
KGDP 092051Z AUTO 24017G21KT 10SM CLR 32/10 A3014

2010/08/09 20:53
KHBR 092053Z AUTO 24011G17KT 10SM CLR 39/15 A2987

2010/08/09 20:51
KHDO 092051Z AUTO 11009KT 10SM CLR 37/19 A2991

2010/08/09 20:53
KHOT 092053Z AUTO 20008KT 10SM CLR 37/21 A2990

2010/08/09 20:53
KHRO 092053Z AUTO 19004KT 10SM CLR 34/23 A2996

2010/08/09 20:54
KIPT 092054Z 10009KT 10SM CLR 32/16 A2993

2010/08/09 21:00
ZSNJ 092100Z 06002MPS 2000 BR SCT005 BKN040 26/24 Q1003 NOSIG

2010/08/09 20:54
KJAN 092054Z 26007KT 1 3/4SM R16L/5000VP6000FT +TSRA BR BKN024 OVC045CB 27/25 A2992

2010/08/09 20:53
KJBR 092053Z AUTO 14007KT 10SM CLR 34/25 A2989

2010/08/09 20:51
KJCT 092051Z AUTO 17008G15KT 10SM CLR 37/16 A2991

2010/08/09 20:55
KJQF 092055Z 17004KT 7SM SCT049 SCT065 34/19 A3001

2010/08/09 20:53
KLFK 092053Z AUTO 00000KT 10SM FEW065 37/21 A2991

2010/08/09 20:53
KLFT 092053Z 00000KT 10SM CLR 35/23 A2991

2010/08/09 20:53
KMCN 092053Z 00000KT 8SM CLR 35/21 A2997

2010/08/09 20:58
KMEI 092058Z 13004KT 10SM CLR 34/23 A2993

2010/08/09 20:53
KMLC 092053Z AUTO 19007KT 10SM FEW075 38/18 A2990

2010/08/09 20:53
KMLU 092053Z AUTO 00000KT 10SM OVC055 37/23 A2990

2010/08/09 20:53
KMWL 092053Z AUTO 16011G16KT 10SM SCT070 38/19 A2987

2010/08/09 20:53
KPBF 092053Z AUTO 00000KT 10SM CLR 37/23 A2991

2010/08/09 20:53
KPNC 092053Z AUTO 15012KT 10SM CLR 38/20 A2986

2010/08/09 20:53
KPSX 092053Z AUTO 18014G19KT 10SM FEW090 35/26 A2991

2010/08/09 20:53
KPWA 092053Z 18014G19KT 10SM CLR 37/19 A2988

2010/08/09 20:53
KRMG 092053Z AUTO VRB06KT 10SM SCT065 36/19 A2996

2010/08/09 20:53
KRSL 092053Z AUTO 18012G19KT 10SM CLR 38/19 A2984

2010/08/09 20:56
KSHV 092056Z 00000KT 10SM SCT070 37/22 A2989

2010/08/09 20:52
KSPS 092052Z COR 20011KT 10SM SCT080 SCT095 BKN250 39/18 A2985

2010/08/09 20:52
KSPS 092052Z 20011KT 10SM SCT080 SCT150 BKN250 39/18 A2985

2010/08/09 20:53
KTLH 092053Z 03006KT 10SM FEW060 35/20 A2992

2010/08/09 20:53
KTOP 092053Z 18012KT 10SM CLR 39/22 A2984

2010/08/09 20:53
KTRI 092053Z 35004KT 10SM SCT050 SCT060 SCT250 34/17 A3003

2010/08/09 20:53
KTUP 092053Z 14010KT 10SM CLR 33/25 A2994

2010/08/09 20:51
KVCT 092051Z 12012KT 10SM CLR 36/25 A2990

2010/08/09 20:53
KVGT 092053Z 16013G18KT 10SM CLR 34/03 A2989

2010/08/09 20:58
KVUJ 092058Z AUTO 14005KT 10SM BKN090 33/22 A2999

2010/08/09 20:57
KWRB 092057Z VRB06KT 10SM FEW050 36/22 A2996

2010/08/09 20:53
KAIA 092053Z AUTO 28014KT 10SM CLR 32/11 A2997

2010/08/09 20:51
KAID 092051Z 16004KT 10SM CLR 32/22 A2996

2010/08/09 20:54
KALO 092054Z AUTO 07008KT 10SM CLR 30/24 A2989

2010/08/09 20:52
KALS 092052Z AUTO 25007KT 220V280 10SM 21/13 A3025

2010/08/09 20:50
KANW 092050Z AUTO 07003KT 10SM CLR 31/16 A2994

2010/08/09 20:53
KBBW 092053Z AUTO 14003KT 10SM CLR 31/20 A2994

2010/08/09 20:53
KBFF 092053Z AUTO 32006KT 10SM CLR 29/13 A2999

2010/08/09 20:50
KBIE 092050Z AUTO 15007KT 140V200 10SM CLR 36/23 A2984

2010/08/09 20:52
KBIS 092052Z 15015KT 10SM CLR 35/16 A2985

2010/08/09 20:53
KBPI 092053Z AUTO 20017G23KT 10SM BKN100 22/02 A3013

2010/08/09 20:53
KBRL 092053Z AUTO VRB03KT 10SM CLR 33/25 A2990

2010/08/09 20:53
KCAG 092053Z AUTO 01009KT 10SM -RA SCT050 SCT090 19/12 A3021

2010/08/09 20:53
KCGI 092053Z 19006KT 10SM CLR 34/26 A2989

2010/08/09 20:52
KCID 092052Z 09006KT 10SM FEW035 31/24 A2990

2010/08/09 20:55
KCNK 092055Z AUTO 18012KT 10SM CLR 39/19 A2984

2010/08/09 20:52
KCNU 092052Z AUTO 17012KT 10SM FEW065 37/21 A2988

2010/08/09 20:54
KCOU 092054Z 18005KT 10SM FEW090 33/26 A2991

2010/08/09 20:53
KDBQ 092053Z 00000KT 10SM CLR 31/23 A2993

2010/08/09 20:52
KDDC 092052Z AUTO 18013G18KT 10SM SCT085 BKN110 37/14 A2988

2010/08/09 20:55
KDVL 092055Z AUTO 22009KT 10SM CLR 32/19 A2984

2010/08/09 20:55
KEAR 092055Z AUTO 08005KT 10SM CLR 32/24 A2993

2010/08/09 20:54
KEVV 092054Z 18005KT 10SM CLR 36/20 A2991

2010/08/09 20:53
KFNB 092053Z AUTO 15008KT 10SM CLR 37/26 A2981

2010/08/09 20:56
KFSD 092056Z 11008KT 10SM SCT030 30/23 A2990

2010/08/09 20:54
KFWA 092054Z 20006KT 9SM FEW048 BKN140 BKN250 30/23 A2995

2010/08/09 20:54
KGCK 092054Z 16012G20KT 10SM CLR 38/14 A2989

2010/08/09 20:53
KGJT 092053Z VRB04KT 10SM SCT100 29/08 A3008

2010/08/09 20:53
KGLD 092053Z AUTO 13010G16KT 10SM CLR 33/17 A2996

2010/08/09 20:55
KGPZ 092055Z AUTO 00000KT 10SM CLR 31/21 A2993

2010/08/09 20:53
KGRI 092053Z 03005KT 10SM CLR 33/22 A2989

2010/08/09 20:55
KHON 092055Z AUTO 13011KT 10SM CLR 32/18 A2988

2010/08/09 20:54
KSBN 092054Z 23006KT 8SM CLR 29/22 A2994

2010/08/09 20:53
KHSI 092053Z AUTO 07005KT 10SM FEW085 33/23 A2989

2010/08/09 20:53
KHTL 092053Z AUTO 26003KT 10SM CLR 27/22 A2991

2010/08/09 20:53
KIML 092053Z AUTO VRB05KT 10SM CLR 32/20 A2996

2010/08/09 20:55
KIRK 092055Z AUTO 22005KT 10SM CLR 32/26 A2989

2010/08/09 20:52
KJAC 092052Z 12010KT 080V180 RA SCT065 BKN085 BKN110 12/04 A3008

2010/08/09 20:53
KJKL 092053Z AUTO 00000KT 10SM CLR 33/18 A3002

2010/08/09 20:53
KJLN 092053Z 19009KT 10SM CLR 36/22 A2991

2010/08/09 20:59
KJNX 092059Z AUTO 00000KT 10SM CLR 33/18 A3000

2010/08/09 20:53
KLAN 092053Z 24012KT 10SM SCT021 BKN050 28/22 A2993

2010/08/09 20:53
KLBF 092053Z AUTO 12005KT 10SM CLR 31/19 A2995

2010/08/09 20:53
KLND 092053Z AUTO 17013G20KT 10SM FEW110 30/04 A2996

2010/08/09 20:54
KLNK 092054Z VRB03KT 10SM CLR 34/25 A2985

2010/08/09 20:53
KLXV 092053Z AUTO 30010G19KT 7SM -RA BKN048 OVC060 14/09 A3040

2010/08/09 20:53
KMCK 092053Z AUTO 06007KT 10SM FEW044 33/23 A2992

2010/08/09 20:53
KMCW 092053Z AUTO 10005KT 10SM BKN030 BKN038 30/24 A2992

2010/08/09 20:52
KMFD 092052Z 21008KT 8SM CLR 30/16 A3000

2010/08/09 20:52
KMHK 092052Z 18008KT 10SM SCT085 39/18 A2982

2010/08/09 20:55
KMKG 092055Z 21010KT 10SM SCT016 28/22 A2992

2010/08/09 20:53
KMSN 092053Z 29004KT 10SM SCT030 29/23 A2991

2010/08/09 20:53
KODX 092053Z AUTO 00000KT 10SM CLR 31/21 A2990

2010/08/09 20:50
KONL 092050Z AUTO 11004KT 10SM CLR 29/22 A2992

2010/08/09 20:53
KOTM 092053Z AUTO 15004KT 10SM CLR 30/24 A2988

2010/08/09 20:53
KPAH 092053Z VRB04KT 10SM CLR 34/24 A2990

2010/08/09 20:53
KPKD 092053Z AUTO 23006KT 10SM CLR 32/18 A2992

2010/08/09 20:52
KRAP 092052Z 17005KT 10SM CLR 29/19 A2991

2010/08/09 20:54
KRFD 092054Z VRB03KT 10SM FEW030 SCT085 SCT250 30/22 A2993

2010/08/09 20:53
KRIW 092053Z AUTO 17014G21KT 10SM CLR 31/04 A2999

2010/08/09 20:54
KRST 092054Z 00000KT 10SM FEW034 31/23 A2993

2010/08/09 20:53
KSHR 092053Z AUTO 17006KT 10SM CLR 32/08 A2988

2010/08/09 20:53
KSLN 092053Z 18016G21KT 10SM CLR 39/18 A2983

2010/08/09 20:52
KSPI 092052Z 16004KT 10SM CLR 34/26 A2990

2010/08/09 20:53
KSTC 092053Z VRB03KT 10SM CLR 33/19 A2991

2010/08/09 20:52
KSUX 092052Z 03005KT 10SM OVC022 28/24 A2988

2010/08/09 20:53
KTCS 092053Z AUTO 00000KT 10SM CLR 32/09 A3006

2010/08/09 21:01
KTDF 092101Z AUTO 00000KT 32/20 A3002

2010/08/09 20:55
KUDG 092055Z 14007KT 10SM CLR 33/23 A3002

2010/08/09 20:54
KUIN 092054Z AUTO 16007KT 9SM CLR 33/27 A2988

2010/08/09 20:53
KVIH 092053Z AUTO 10004KT 10SM CLR 33/26 A2992

2010/08/09 20:52
KVTN 092052Z AUTO VRB03KT 10SM CLR 34/14 A2992

2010/08/09 20:51
KYNG 092051Z 25009KT 10SM FEW050 BKN100 OVC200 29/17 A3000

2010/08/09 21:00
RJAA 092100Z 17002KT 8000 FEW020 SCT150 23/22 Q1016 NOSIG

2010/08/09 21:00
RJBB 092100Z 21011KT 9999 FEW010 BKN180 27/24 Q1013 NOSIG

2010/08/09 21:00
RJTT 092100Z 14005KT 9999 FEW010 BKN030 BKN100 27/23 Q1015

2010/08/09 21:00
RJOO 092100Z 00000KT 9999 -SHRA FEW002 SCT010 BKN020 26/24 Q1014

2010/08/09 21:00
RJGG 092100Z 12010KT 9999 FEW010 BKN045 26/25 Q1014 NOSIG

2010/08/09 20:55
KAST 092055Z AUTO 29006KT 10SM BKN012 OVC017 15/12 A3003

2010/08/09 20:54
KBFL 092054Z 32009KT 10SM CLR 32/13 A2983

2010/08/09 20:52
KBLU 092052Z AUTO 21008KT 10SM CLR 22/06 A3011

2010/08/09 20:56
KBZN 092056Z VRB05KT 10SM BKN085 26/09 A2994

2010/08/09 20:53
KCNY 092053Z AUTO 27014G20KT 10SM FEW090 31/05 A3004

2010/08/09 20:52
KCZZ 092052Z AUTO 23012KT 29/M01 A2992

2010/08/09 20:55
KDRA 092055Z AUTO 21017G28KT 10SM CLR 34/M06 A2994

2010/08/09 20:53
KELY 092053Z AUTO 16007G17KT 10SM FEW110 26/M02 A3012

2010/08/09 20:54
KEUG 092054Z 00000KT 10SM BKN019 BKN150 18/12 A3000

2010/08/09 20:56
KFLG 092056Z VRB06KT 10SM FEW060 21/08 A3029

2010/08/09 20:50
KHMS 092050Z 09007KT 15SM FEW250 30/09 A2975

2010/08/09 20:56
KINW 092056Z AUTO 00000KT 10SM FEW080 30/07 A3010

2010/08/09 20:59
KJNX 092059Z AUTO 00000KT 10SM CLR 33/18 A3000

2010/08/09 20:53
KLGB 092053Z 21008KT 10SM CLR 21/13 A2993

2010/08/09 20:56
KLWS 092056Z 00000KT 10SM CLR 29/06 A2977

2010/08/09 20:53
KMFR 092053Z 31004KT 10SM CLR 29/09 A2987

2010/08/09 20:56
KMHS 092056Z AUTO VRB03KT 10SM CLR 28/08 A2996

2010/08/09 20:56
KNUQ 092056Z 34009KT 10SM CLR 22/13 A2990

2010/08/09 20:54
KOLM 092054Z 00000KT 10SM OVC019 17/13 A3001

2010/08/09 20:53
KPDT 092053Z 28008KT 10SM CLR 28/04 A2981

2010/08/09 20:53
KPGA 092053Z AUTO 20009G14KT 160V240 10SM CLR 32/01 A3004

2010/08/09 20:53
KPIH 092053Z 23023G29KT 10SM FEW050 BKN060CB 22/09 A3004

2010/08/09 20:54
KRBL 092054Z AUTO 17007G15KT 10SM CLR 30/13 A2984

2010/08/09 20:53
KRDD 092053Z 16005G14KT 10SM CLR 32/11 A2982

2010/08/09 20:52
KSDB 092052Z AUTO 19016G20KT 10SM CLR 27/M07 A3007

2010/08/09 20:53
KSHN 092053Z AUTO 21009KT 10SM BKN019 18/12 A2998

2010/08/09 20:54
KSJN 092054Z AUTO 15005KT 10SM CLR 27/08 A3017

2010/08/09 20:53
KSLC 092053Z 25018G27KT 10SM BKN110CB BKN150 BKN200 28/01 A2999

2010/08/09 20:56
KBIH 092056Z AUTO 18014G24KT 10SM CLR 32/M06 A2994

2010/08/09 20:56
KMEH 092056Z AUTO 00000KT 10SM CLR 21/06 A2993

2010/08/09 20:52
KMLF 092052Z AUTO 22014G22KT 10SM CLR 28/01 A3008

2010/08/09 20:56
KSMP 092056Z AUTO 24008G16KT M1/4SM FG VV001 10/09 A3000

2010/08/09 20:51
KSMX 092051Z 32011KT 10SM CLR 19/11 A2994

2010/08/09 20:50
KSOW 092050Z AUTO 26009KT 10SM FEW065 FEW110 26/09 A3025

2010/08/09 20:50
KTRK 092050Z 20009KT 10SM FEW060 24/03 A3008

2010/08/09 20:56
KWMC 092056Z AUTO 21012G20KT 10SM CLR 31/02 A2994

2010/08/09 20:53
KYKM 092053Z VRB03KT 10SM SCT080 28/07 A2978

2010/08/09 20:51
KABE 092051Z 25006KT 9SM CLR 33/19 A2995

2010/08/09 20:53
KACK 092053Z 21010KT 8SM SCT004 24/22 A2997

2010/08/09 20:54
KACY 092054Z 17012KT 10SM CLR 31/17 A3000

2010/08/09 20:53
KAGC 092053Z 18006KT 10SM CLR 31/16 A2999

2010/08/09 20:53
KAGS 092053Z 13005KT 10SM FEW055 34/22 A2997

2010/08/09 20:54
KAKR 092054Z AUTO 24008KT 10SM CLR 31/18 A2999

2010/08/09 20:51
KALB 092051Z 27009KT 7SM SCT070 BKN095 BKN120 31/18 A2989

2010/08/09 20:56
KAND 092056Z AUTO 11006KT 10SM CLR 34/19 A2999

2010/08/09 20:53
KAOO 092053Z AUTO 22004KT 10SM CLR 31/14 A3002

2010/08/09 20:55
KAPG 092055Z 18007KT 7SM SCT200 33/21 A2998

2010/08/09 20:56
KART 092056Z AUTO 23007KT 7SM CLR 26/20 A2990

2010/08/09 20:54
KAVL 092054Z 14009KT 10SM FEW050 SCT065 SCT090 28/20 A3009

2010/08/09 20:54
KAVP 092054Z 28010G21KT 10SM CLR 32/14 A2995

2010/08/09 20:53
KBAF 092053Z 24013KT 10SM CLR 34/16 A2990

2010/08/09 20:51
KBDL 092051Z 21011KT 10SM FEW070 SCT100 BKN140 33/14 A2990

2010/08/09 20:52
KBDR 092052Z 18013KT 8SM CLR 29/21 A2993

2010/08/09 20:56
KBED 092056Z 29010KT 9SM CLR 33/16 A2988

2010/08/09 20:53
KBFD 092053Z AUTO 24007KT 10SM CLR 27/16 A3004

2010/08/09 20:53
KBGM 092053Z AUTO 21008G37KT 170V330 10SM FEW070 SCT095 29/14 A2999

2010/08/09 20:53
KBGR 092053Z 24005KT 10SM FEW045 BKN065 28/17 A2986

2010/08/09 20:53
KBKL 092053Z VRB05KT 6SM HZ CLR 29/21 A2994

2010/08/09 20:51
KBKW 092051Z AUTO 22004KT 6SM HZ CLR 29/17 A3011

2010/08/09 20:54
KBOS 092054Z 23015KT 10SM SCT070 BKN100 BKN220 32/15 A2988

2010/08/09 20:54
KBTV 092054Z 18005KT 4SM -TSRA BR FEW047CB BKN070 OVC095 23/21 A2988

2010/08/09 20:54
KBUF 092054Z 24006KT 7SM -RA FEW030 BKN050 BKN075 OVC130 24/19 A2994

2010/08/09 20:53
KBVY 092053Z 27010G15KT 10SM FEW070 33/16 A2987

2010/08/09 20:54
KBWI 092054Z 14007G14KT 8SM SCT055 SCT250 31/21 A2996

2010/08/09 20:56
KCAE 092056Z 13011KT 10SM SCT065 SCT090 BKN210 34/21 A2998

2010/08/09 20:51
KCAK 092051Z COR 26009KT 7SM SCT065 BKN130 BKN180 29/17 A3000

2010/08/09 20:54
KCAR 092054Z AUTO 24008KT 10SM CLR 24/17 A2982

2010/08/09 21:00
RJAA 092100Z 17002KT 8000 FEW020 SCT150 23/22 Q1016 NOSIG

2010/08/09 21:00
RJBB 092100Z 21011KT 9999 FEW010 BKN180 27/24 Q1013 NOSIG

2010/08/09 21:00
RJTT 092100Z 14005KT 9999 FEW010 BKN030 BKN100 27/23 Q1015

2010/08/09 21:00
RJOO 092100Z 00000KT 9999 -SHRA FEW002 SCT010 BKN020 26/24 Q1014

2010/08/09 21:00
RJFF 092100Z 15009KT 9999 -RA FEW020 SCT110 BKN140 26/23 Q1010

2010/08/09 21:00
RJGG 092100Z 12010KT 9999 FEW010 BKN045 26/25 Q1014 NOSIG

2010/08/09 21:00
RJFK 092100Z 12007KT 9999 FEW010 BKN/// 26/23 Q1012

2010/08/09 21:00
RJFR 092100Z 12007KT 9999 FEW007 SCT150 BKN170 27/24 Q1011

2010/08/09 21:00
RJAA 092100Z 17002KT 8000 FEW020 SCT150 23/22 Q1016 NOSIG

2010/08/09 21:00
RJBB 092100Z 21011KT 9999 FEW010 BKN180 27/24 Q1013 NOSIG

2010/08/09 21:00
RJTT 092100Z 14005KT 9999 FEW010 BKN030 BKN100 27/23 Q1015

2010/08/09 21:00
RJOO 092100Z 00000KT 9999 -SHRA FEW002 SCT010 BKN020 26/24 Q1014

2010/08/09 21:00
ROAH 092100Z 18020KT 9999 FEW010 SCT015 BKN100 28/26 Q1006

2010/08/09 21:00
RJGG 092100Z 12010KT 9999 FEW010 BKN045 26/25 Q1014 NOSIG

2010/08/09 21:00
RJFF 092100Z 15009KT 9999 -RA FEW020 SCT110 BKN140 26/23 Q1010

2010/08/09 21:00
RJCC 092100Z 19004KT 1800 R19R/1600VP1800N R01R/1800U BCFG BR SCT001 BKN002 22/21 Q1014

2010/08/09 21:00
RJFK 092100Z 12007KT 9999 FEW010 BKN/// 26/23 Q1012

2010/08/09 21:00
RJSS 092100Z 36003KT 320V060 9999 FEW008 25/22 Q1014

2010/08/09 20:55
TXKF 092055Z 19011KT 9999 FEW018 SCT180 BKN300 29/23 Q1021

2010/08/09 20:55
TXKF 092055Z 19011KT 9999 FEW018 SCT180 BKN300 29/23 Q1021 /

2010/08/09 21:00
LKKV 092100Z 10001KT CAVOK 14/13 Q1019 RMK REG QNH 1015

2010/08/09 21:00
MNJG 092100Z 00000KT 9999 BKN019 23/19 Q1011

2010/08/09 21:00
MNJU 092100Z 06006KT 9999 SCT020 SCT080 29/25 Q1011

2010/08/09 21:00
MNPC 092100Z 09008KT 7000 SCT018 SCT300 30/26 Q1010 HZ

2010/08/09 21:00
MNRS 092100Z 08006KT 9999 FEW015CB BKN070 29/25 Q1010 CB/4C

2010/08/09 21:00
MWCR 092100Z 06005KT 020V090 9999 -SHRA BKN018TCU BKN220 30/26 Q1013 NOSIG

2010/08/09 20:59
MYEG 092059Z AUTO 09005KT 7SM VCTSRA SCT021 BKN042 OVC085 25/22 A2997 RMK AO2 P0001

2010/08/09 21:00
MYNN 092100Z 00000KT 9999 -SHRA SCT012CB SCT018 BKN080 27/24 A2996

2010/08/09 21:00
MZBZ 092100Z 09004KT 9999 SCT027 BKN280 31/26 A2986 Q1011 NOSIG

2010/08/09 20:56
PHBK 092056Z AUTO 31008KT 10SM BKN050 28/19 A3011 RMK AO2 SLP197 6//// T02830189 TSNO $

2010/08/09 20:57
PWAK 092057Z 07014KT 10SM FEW026 29/24 A3007 RMK AO2A

2010/08/09 21:00
TKPN 092100Z 09011KT 9999 -SHRA SCT015 28/25 Q1013

2010/08/09 21:00
UACC 092100Z 02006MPS CAVOK 11/04 Q1015 040/0070 NOSIG RMK QFE730/0973

2010/08/09 21:00
UATT 092100Z 07005MPS CAVOK 22/04 Q1018 31CLRD70 NOSIG RMK QFE743/0991

2010/08/09 21:00
WMKJ 092100Z 29001KT 9999 FEW022 BKN300 24/24 Q1007

2010/08/09 21:00
WMKK 092100Z 00000KT 9999 FEW017CB SCT140 BKN280 25/24 Q1007 NOSIG

2010/08/09 21:00
WMKP 092100Z 29001KT 9000 FEW025 SCT140 BKN270 27/25 Q1006 NOSIG

2010/08/09 21:00
WMSA 092100Z 00000KT 9999 FEW027 BKN280 26/25 Q1007

2010/08/09 21:00
ZBHH 092100Z 07003MPS CAVOK 12/08 Q1012 NOSIG

2010/08/09 21:00
ZHHH 092100Z 09003MPS 3000 BR NSC 29/28 Q1003 NOSIG

2010/08/09 21:00
ZUCK 092100Z 01001MPS CAVOK 30/22 Q1003 NOSIG

2010/08/09 21:00
ZWSH 092100Z AUTO 31002MPS 220V360 CAVOK 26/08 Q1010

2010/08/09 20:55
KCEF 092055Z AUTO 20009KT 10SM SCT090 33/17 A2989

2010/08/09 20:53
KCHO 092053Z 21010G16KT 180V250 9SM CLR 33/19 A2998

2010/08/09 20:56
KCHS 092056Z 12009G16KT 10SM SCT028 SCT033 BKN043 31/25 A2998

2010/08/09 20:53
KCKB 092053Z 26006KT 9SM CLR 31/18 A3002

2010/08/09 20:51
KCLE 092051Z 22007KT 10SM FEW050 BKN150 OVC250 29/18 A2998

2010/08/09 20:52
KCLT 092052Z 16009KT 9SM SCT050 BKN180 BKN250 32/21 A3002

2010/08/09 20:51
KCMH 092051Z 18008G16KT 120V210 10SM FEW070 SCT140 BKN200 32/18 A2997

2010/08/09 20:54
KCRW 092054Z 22004KT 10SM FEW060 32/16 A3000

2010/08/09 20:52
KCVG 092052Z 24005KT 8SM FEW060 SCT150 SCT250 33/19 A2997

2010/08/09 20:53
KDAN 092053Z AUTO 22007KT 8SM CLR 34/20 A3000

2010/08/09 20:56
KDAY 092056Z 24004KT 9SM SCT050 BKN150 OVC250 32/19 A2998

2010/08/09 20:52
KDCA 092052Z 16008KT 8SM SCT060 SCT095 BKN250 33/21 A2996

2010/08/09 20:56
KDUJ 092056Z AUTO 22007KT 10SM CLR 29/16 A3003

2010/08/09 20:54
KECG 092054Z 14005KT 10SM CLR 30/21 A3002

2010/08/09 20:51
KEKN 092051Z AUTO 31007KT 9SM CLR 30/19 A3007

2010/08/09 20:53
KELM 092053Z AUTO 24008KT 10SM CLR 31/17 A2993

2010/08/09 20:51
KERI 092051Z 26008KT 7SM FEW100 28/18 A2996

2010/08/09 20:53
KEWB 092053Z 22012G18KT 10SM CLR 29/20 A2993

2010/08/09 20:54
KEWN 092054Z 13005KT 10SM FEW034 31/23 A3001

2010/08/09 20:51
KEWR 092051Z 15011G16KT 9SM BKN065TCU BKN250 32/21 A2993

2010/08/09 20:53
KFAY 092053Z AUTO 06007KT 10SM CLR 34/18 A2998

2010/08/09 20:53
KFLO 092053Z 14005KT 10SM CLR 33/21 A2999

2010/08/09 20:53
KFRG 092053Z AUTO 21014KT 10SM CLR 28/19 A2996

2010/08/09 20:53
KFVE 092053Z AUTO 16003KT 8SM SCT075 BKN100 22/19 A2981

2010/08/09 20:53
KGFL 092053Z AUTO 25008KT 10SM CLR 31/18 A2987

2010/08/09 20:56
KGON 092056Z 21009KT 5SM HZ CLR 26/22 A2994

2010/08/09 20:54
KGSO 092054Z 19007KT 10SM SCT055 33/19 A3002

2010/08/09 20:53
KGSP 092053Z VRB05KT 10SM CLR 33/21 A3000

2010/08/09 20:53
KHFD 092053Z 18010KT 8SM FEW095 31/19 A2991

2010/08/09 20:53
KHKY 092053Z VRB03KT 10SM CLR 33/21 A3002

2010/08/09 20:56
KHPN 092056Z 20008G15KT 9SM SCT100 30/18 A2994

2010/08/09 20:51
KHTS 092051Z 00000KT 10SM CLR 32/18 A2999

2010/08/09 20:53
KHVN 092053Z 19009G17KT 9SM CLR 29/22 A2994

2010/08/09 20:56
KHYA 092056Z 22014G18KT 10SM CLR 28/21 A2994

2010/08/09 20:52
KIAD 092052Z 17008KT 9SM FEW055 33/21 A2997

2010/08/09 20:53
KIAG 092053Z 29014G18KT 5SM -TSRA FEW025 BKN045CB BKN065 OVC130 24/21 A2995

2010/08/09 20:51
KILG 092051Z 17013G19KT 10SM CLR 31/22 A2998

2010/08/09 20:53
KILM 092053Z AUTO 14007KT 10SM CLR 30/23 A3000

2010/08/09 20:54
KINT 092054Z 18006KT 10SM FEW095 32/19 A3003

2010/08/09 20:54
KIPT 092054Z 10009KT 10SM CLR 32/16 A2993

2010/08/09 20:56
KISP 092056Z 20012KT 10SM FEW150 OVC250 28/18 A2995

2010/08/09 20:51
KJFK 092051Z 18019KT 9SM FEW140 BKN250 28/20 A2996

2010/08/09 20:54
KJST 092054Z AUTO 27004KT 10SM FEW090 28/14 A3007

2010/08/09 20:50
KLBE 092050Z 21005KT 10SM SKC 30/17 A3001

2010/08/09 20:55
KLCK 092055Z AUTO 21003KT 10SM CLR 32/18 A2997

2010/08/09 20:53
KLEB 092053Z 00000KT 6SM HZ FEW046 23/20 A2990

2010/08/09 20:51
KLGA 092051Z 17018G23KT 10SM FEW060 OVC250 31/18 A2994

2010/08/09 20:53
KLUK 092053Z 15007KT 8SM SCT070 33/21 A2995

2010/08/09 20:54
KLWM 092054Z 26011G17KT 10SM FEW070 33/16 A2989

2010/08/09 20:54
KLYH 092054Z 14006KT 10SM FEW055 32/21 A3002

2010/08/09 20:56
KMDT 092056Z 12004KT 8SM FEW050 SCT250 32/19 A2994

2010/08/09 20:52
KMFD 092052Z 21008KT 8SM CLR 30/16 A3000

2010/08/09 20:53
KMGW 092053Z VRB05KT 10SM CLR 32/17 A3002

2010/08/09 20:53
KMHT 092053Z 24008G15KT 10SM SCT060 32/16 A2987

2010/08/09 20:54
KMIV 092054Z AUTO VRB06KT 10SM CLR 31/18 A2997

2010/08/09 20:53
KMRB 092053Z 15006KT 10SM FEW080 34/17 A2995

2010/08/09 20:53
KMSS 092053Z AUTO 30005KT 10SM SCT040 26/21 A2989

2010/08/09 20:54
KNKT 092054Z 10005KT 10SM BKN075 29/24 A3001

2010/08/09 20:51
KORF 092051Z 11009KT 10SM FEW035 31/20 A3001

2010/08/09 20:54
KORH 092054Z 26011KT 10SM FEW060 31/15 A2995

2010/08/09 20:54
KPHF 092054Z 09009KT 10SM CLR 31/17 A3001

2010/08/09 20:54
KPHL 092054Z 22013KT 10SM FEW065 SCT250 34/18 A2996

2010/08/09 20:51
KPIT 092051Z 19006KT 10SM SCT150 BKN250 31/15 A2999

2010/08/09 20:53
KPKB 092053Z 25003KT 8SM CLR 31/17 A3002

2010/08/09 20:53
KPOU 092053Z 23006KT 10SM CLR 33/18 A2990

2010/08/09 20:55
KPQI 092055Z AUTO 24007KT 10SM SCT034 24/17 A2980

2010/08/09 20:55
KPSM 092055Z 23008KT 10SM SCT060 BKN100 33/18 A2986

2010/08/09 20:51
KPVD 092051Z 19013KT 10SM FEW046TCU SCT060 SCT080 SCT250 30/21 A2993

2010/08/09 20:51
KPWM 092051Z 15007KT 10SM SCT075 BKN090 27/19 A2987

2010/08/09 20:54
KRDG 092054Z 20009KT 10SM CLR 33/19 A2994

2010/08/09 20:51
KRDU 092051Z 15005KT 10SM SCT060 SCT250 32/19 A3001

2010/08/09 20:54
KRIC 092054Z 21009KT 8SM SCT060 SCT250 33/19 A2998

2010/08/09 20:54
KROA 092054Z 11008KT 10SM FEW080 32/20 A3003

2010/08/09 20:54
KROC 092054Z 28010KT 5SM -RA FEW009 SCT040 BKN055 OVC130 26/21 A2994

2010/08/09 20:53
KRWI 092053Z AUTO 13004KT 10SM CLR 33/19 A3001

2010/08/09 20:53
KSAV 092053Z 08006KT 10SM 32/24 A2996

2010/08/09 20:54
KSBY 092054Z 17010KT 10SM CLR 31/18 A3000

2010/08/09 20:51
KSLK 092051Z AUTO 24006KT 7SM FEW039 26/18 A2992

2010/08/09 20:54
KSYR 092054Z 25010G18KT 180V270 10SM BKN060 OVC100 29/18 A2990

2010/08/09 20:51
KTEB 092051Z 16011G16KT 10SM FEW070 32/19 A2992

2010/08/09 20:52
KTOL 092052Z 00000KT 7SM FEW050 30/21 A2993

2010/08/09 20:53
KTTN 092053Z 25010G17KT 8SM CLR 34/18 A2994

2010/08/09 20:55
KWRI 092055Z AUTO 27010KT 10SM CLR 34/18 A2993

2010/08/09 20:51
KYNG 092051Z 25009KT 10SM FEW050 BKN100 OVC200 29/17 A3000

2010/08/09 20:53
KZZV 092053Z AUTO 22003KT 10SM CLR 31/18 A2999

2010/08/09 20:52
KABI 092052Z 20007KT 10SM FEW070 36/18 A2992

2010/08/09 20:56
KABQ 092056Z 32004KT 10SM SCT080 31/10 A3010

2010/08/09 20:53
KABY 092053Z 10009G15KT 10SM FEW065 35/19 A2996

2010/08/09 20:51
KACT 092051Z 16010KT 10SM SCT065 38/19 A2989

2010/08/09 20:53
KAEX 092053Z 01004KT 10SM CLR 38/20 A2988

2010/08/09 20:53
KAFW 092053Z 17007KT 10SM SCT070 38/20 A2987

2010/08/09 20:51
KAHN 092051Z 29004KT 6SM HZ SCT060 33/21 A2999

2010/08/09 20:53
KALI 092053Z AUTO 13011G17KT 10SM SCT047 BKN060 36/24 A2986

2010/08/09 20:53
KAMA 092053Z 18013G21KT 10SM SCT070 33/16 A2998

2010/08/09 20:53
KANB 092053Z AUTO 09004KT 10SM CLR 35/21 A2996

2010/08/09 20:53
KAPF 092053Z 15007KT 10SM FEW016 BKN060 26/24 A2989

2010/08/09 20:52
KATL 092052Z VRB03KT 10SM FEW065 SCT090 SCT250 34/18 A2999

2010/08/09 20:53
KAUS 092053Z 14007KT 10SM FEW065 36/19 A2990

2010/08/09 20:53
KBFM 092053Z 16010G17KT 10SM SCT037 33/24 A2994

2010/08/09 20:53
KBHM 092053Z COR 00000KT 10SM FEW 060 36/19 A2997

2010/08/09 20:53
KBHM 092053Z 00000KT 10SM CLR 36/19 A2997

2010/08/09 20:53
KBNA 092053Z 35003KT 10SM FEW055 SCT080 SCT180 BKN250 35/22 A2993

2010/08/09 20:53
KBPT 092053Z 17006KT 10SM FEW060 BKN080 34/25 A2992

2010/08/09 21:00
KBQK 092100Z AUTO 11010KT 10SM SCT100 31/25 A2997

2010/08/09 20:53
KBRO 092053Z AUTO 13014KT 10SM CLR 36/23 A2987

2010/08/09 20:53
KBTR 092053Z 33005G14KT 2SM +TSRA BR FEW014 BKN039CB OVC050 24/24 A2997

2010/08/09 20:53
KCEW 092053Z AUTO 06004KT 10SM FEW055 35/24 A2993

2010/08/09 20:53
KCHA 092053Z 18004KT 10SM FEW055 SCT095 SCT250 35/21 A2996

2010/08/09 20:53
KCLL 092053Z 18008KT 10SM FEW065 37/19 A2990

2010/08/09 20:53
KCNM 092053Z AUTO 09007KT 10SM FEW070 34/16 A2995

2010/08/09 20:51
KCRP 092051Z 09014G20KT 10SM SCT036 34/24 A2988

2010/08/09 20:51
KCSG 092051Z 15010KT 10SM SCT070 SCT100 35/19 A2995

2010/08/09 20:53
KCSV 092053Z AUTO 29005KT 10SM CLR 28/21 A3006

2010/08/09 20:53
KDAB 092053Z 09009G18KT 10SM FEW025 SCT250 30/23 A2992

2010/08/09 20:53
KDAL 092053Z 18009KT 10SM FEW060 37/20 A2987

2010/08/09 20:53
KDFW 092053Z 19009G17KT 10SM SCT065TCU 37/20 A2987

2010/08/09 20:53
KDHN 092053Z 09006KT 10SM FEW065 34/21 A2997

2010/08/09 20:55
KDLF 092055Z AUTO 16008KT 10SM FEW065 37/19 A2985

2010/08/09 20:53
KDMN 092053Z AUTO VRB04KT 10SM CLR 33/08 A3004

2010/08/09 20:51
KELP 092051Z 23008KT 190V250 10SM FEW100 35/08 A3001

2010/08/09 20:53
KESF 092053Z AUTO 09003KT 10SM CLR 37/22 A2989

2010/08/09 20:53
KEYW 092053Z 30011KT 3SM -RA BR SCT013 SCT021 BKN031 26/24 A2989

2010/08/09 20:53
KFLL 092053Z 15009KT 10SM FEW026 SCT060 28/24 A2988

2010/08/09 20:53
KFSM 092053Z 28004KT 10SM SCT070 37/22 A2988

2010/08/09 20:53
KFTW 092053Z 17007G16KT 10SM FEW065 38/21 A2987

2010/08/09 20:53
KFTY 092053Z 10004KT 8SM FEW080 34/19 A2998

2010/08/09 20:53
KGGG 092053Z AUTO 24005KT 10SM CLR 36/20 A2991

2010/08/09 20:52
KGLS 092052Z 16010KT 10SM CLR 33/24 A2994

2010/08/09 20:53
KGNV 092053Z 08009G21KT 10SM -RA FEW036 SCT047 BKN055 32/24 A2991

2010/08/09 20:53
KGPT 092053Z 14010KT 10SM SCT040 33/26 A2993

2010/08/09 20:53
KGUP 092053Z AUTO 27005KT 10SM SCT080 BKN100 25/08 A3023

2010/08/09 20:53
KGWO 092053Z AUTO 18010G16KT 9SM TS BKN042 OVC055 29/26 A2993

2010/08/09 20:53
KHOT 092053Z AUTO 20008KT 10SM CLR 37/21 A2990

2010/08/09 20:53
KHOU 092053Z 18007KT 10SM SCT055 33/23 A2990

2010/08/09 20:52
KHRL 092052Z 10013KT 10SM SCT070 35/24 A2985

2010/08/09 20:53
KHRO 092053Z AUTO 19004KT 10SM CLR 34/23 A2996

2010/08/09 20:53
KHSV 092053Z 33010KT 4SM R18R/5500VP6000FT RA SCT055 SCT080 BKN100 29/24 A2995

2010/08/09 20:53
KIAH 092053Z 11007G15KT 10SM SCT055 36/22 A2990

2010/08/09 20:54
KJAN 092054Z 26007KT 1 3/4SM R16L/5000VP6000FT +TSRA BR BKN024 OVC045CB 27/25 A2992

2010/08/09 20:56
KJAX 092056Z 06008KT 10SM FEW035 SCT065 BKN090 BKN200 28/24 A2994

2010/08/09 20:53
KJBR 092053Z AUTO 14007KT 10SM CLR 34/25 A2989

2010/08/09 20:53
KLBB 092053Z 18013G18KT 10SM SCT060TCU SCT180 BKN250 34/17 A2998

2010/08/09 20:53
KLCH 092053Z 16004KT 10SM CLR 34/23 A2991

2010/08/09 20:53
KLFT 092053Z 00000KT 10SM CLR 35/23 A2991

2010/08/09 20:53
KLIT 092053Z 16005KT 10SM SCT055 BKN250 37/23 A2989

2010/08/09 20:56
KLRD 092056Z 16011G14KT 10SM CLR 39/20 A2986

2010/08/09 20:50
KLRU 092050Z AUTO 28003KT 10SM SCT080 31/11 A3007

2010/08/09 20:53
KMAF 092053Z 16009KT 10SM FEW065 35/17 A2993

2010/08/09 20:53
KMCN 092053Z 00000KT 8SM CLR 35/21 A2997

2010/08/09 20:53
KMCO 092053Z 10011KT 10SM SCT031TCU BKN075 BKN190 32/23 A2989

2010/08/09 20:58
KMEI 092058Z 13004KT 10SM CLR 34/23 A2993

2010/08/09 20:53
KMEM 092053Z 19009KT 10SM FEW080 BKN150 OVC250 29/23 A2994

2010/08/09 20:53
KMFE 092053Z 14011KT 7SM CLR 34/23 A2985

2010/08/09 20:53
KMGM 092053Z 19003KT 10SM SCT070 36/20 A2993

2010/08/09 20:53
KMIA 092053Z 18004KT 10SM SCT022 SCT075 BKN130 BKN250 30/23 A2989

2010/08/09 20:53
KMKL 092053Z 27008KT 10SM SCT035TCU 35/24 A2992

2010/08/09 20:53
KMLB 092053Z 11012KT 10SM FEW030 29/24 A2990

2010/08/09 20:53
KMLC 092053Z AUTO 19007KT 10SM FEW075 38/18 A2990

2010/08/09 20:53
KMLU 092053Z AUTO 00000KT 10SM OVC055 37/23 A2990

2010/08/09 20:56
KMOB 092056Z 16009KT 10SM SCT035 BKN200 33/24 A2995

2010/08/09 20:53
KMSL 092053Z AUTO 18011KT 10SM FEW040 29/23 A2997

2010/08/09 20:53
KMSY 092053Z 24004KT 10SM -RA FEW016 SCT041 SCT150 OVC200 26/24 A2996

2010/08/09 20:53
KNEW 092053Z 23007KT 10SM FEW015 BKN045 28/25 A2996

2010/08/09 20:56
KNGP 092056Z 12009KT 10SM FEW035TCU SCT045 SCT250 32/27 A2988

2010/08/09 20:52
KOKC 092052Z 15011G19KT 10SM FEW070 SCT250 37/20 A2988

2010/08/09 20:53
KPBI 092053Z 15011KT 10SM SCT024TCU SCT075 SCT250 30/23 A2988

2010/08/09 20:53
KPDK 092053Z 12006KT 10SM BKN060 BKN080 34/19 A3000

2010/08/09 20:53
KPIE 092053Z 30008KT 10SM BKN028 28/24 A2989

2010/08/09 20:53
KPNS 092053Z AUTO 17008KT 10SM CLR 32/24 A2992

2010/08/09 20:51
KROW 092051Z 21006KT 10SM CLR 33/14 A2999

2010/08/09 20:53
KRSW 092053Z AUTO 19012KT 8SM -RA SCT015 BKN021 OVC055 26/24 A2986

2010/08/09 20:53
KSFB 092053Z 11012KT 10SM FEW090 33/23 A2989

2010/08/09 20:56
KSHV 092056Z 00000KT 10SM SCT070 37/22 A2989

2010/08/09 20:51
KSJT 092051Z 18007G15KT 150V210 10SM SCT075 38/17 A2990

2010/08/09 21:06
CYTZ 092106Z AUTO 31014G24KT 6SM -RA 23/21 A2993 RMK SLP137 DENSITY ALT 1200FT PCPN 0.5MM PAST HR MAX WND 30024KT AT 2103Z LTNG DIST NE E CLD MISG RVR MISG

2010/08/09 20:55
KBIX 092055Z 16013KT 10SM FEW015 BKN030 BKN200 32/25 A2993 RMK AO2A PRESRR WND DATA ESTMD ALSTG/SLP ESTMD 50000 SLPNO RVRNO PWINO PNO FZRANO TSNO VISNO RWY21 CHINO RWY21 $

2010/08/09 21:00
KCDH 092100Z AUTO 10004KT 10SM SCT070 BKN095 37/21 A2988 RMK AO2

2010/08/09 20:56
KDMA 092056Z VRB05KT 10SM SCT100 34/14 A2994 RMK AO2A WND DATA ESTMD ALSTG/SLP ESTMD

2010/08/09 20:55
KESN 092055Z 23008KT 07SM HZ FEW070 33/22 A3001

2010/08/09 21:02
KHDC 092102Z AUTO 19004KT 10SM CLR 27/27 A2998 RMK AO2 LTG DSNT ALQS

2010/08/09 20:55
KHRT 092055Z 18007KT 10SM VCTS FEW030CB FEW090 SCT250 33/26 A2991 RMK AO2A TS 10NW MOV W SLP131 T03260257 58018 $

2010/08/09 21:00
KJFZ 092100Z AUTO 27004KT 10SM CLR 31/18 A3012 RMK

2010/08/09 21:01
KOBE 092101Z AUTO 08004KT 10SM SCT029 BKN040 BKN070 31/23 A2987 RMK AO2 LTG DSNT S

2010/08/09 21:03
KTNB 092103Z AUTO 18004KT 10SM SCT048 SCT060 SCT085 27/21 A3016 RMK AO2

2010/08/09 21:00
KUNV 092100Z AUTO 22005KT 10SM CLR 32/15 A2999 RMK AO2 T03150148

2010/08/09 21:00
KVDI 092100Z AUTO 08010G15KT 10SM SCT070 36/20 A2996 RMK AO2

2010/08/09 21:00
KVJI 092100Z AUTO 33003KT 10SM SCT050 33/19 A3008 RMK AO2 TSNO

2010/08/09 21:00
KW22 092100Z AUTO 29004KT 10SM CLR 30/18 A3006 RMK AO2

2010/08/09 21:00
KWDR 092100Z AUTO 00000KT 10SM CLR 33/20 A3003 RMK AO1

2010/08/09 21:00
KXSA 092100Z AUTO 11004KT 10SM BKN060 OVC070 32/22 A2998 RMK AO2

2010/08/09 21:07
PADM 092107Z AUTO 17014G21KT 1SM RA BR SCT011 BKN017 OVC065 11/09 A2940 RMK AO2 TSNO P0001 $

2010/08/09 21:02
PAJZ 092102Z AUTO 17013KT 10SM SCT008 BKN030 OVC044 12/11 A2960 RMK AO2 PWINO TSNO OVC V BKN $

2010/08/09 20:53
KSRQ 092053Z AUTO 04004KT 10SM CLR 33/23 A2985

2010/08/09 20:53
KSSI 092053Z AUTO 10010KT 10SM BKN090 29/24 A2996

2010/08/09 20:53
KTCC 092053Z AUTO 18012G18KT 10SM CLR 34/13 A2996

2010/08/09 20:53
KTCL 092053Z 20007KT 10SM FEW049 36/22 A2993

2010/08/09 20:53
KTCS 092053Z AUTO 00000KT 10SM CLR 32/09 A3006

2010/08/09 20:53
KTLH 092053Z 03006KT 10SM FEW060 35/20 A2992

2010/08/09 20:53
KTPA 092053Z 27005KT 7SM SCT025TCU BKN065 BKN250 29/24 A2988

2010/08/09 20:53
KTRI 092053Z 35004KT 10SM SCT050 SCT060 SCT250 34/17 A3003

2010/08/09 20:53
KTUL 092053Z 19008KT 10SM SCT070 38/19 A2987

2010/08/09 20:53
KTUP 092053Z 14010KT 10SM CLR 33/25 A2994

2010/08/09 20:53
KTXK 092053Z 06004KT 10SM CLR 36/22 A2990

2010/08/09 20:53
KTYR 092053Z AUTO VRB06KT 10SM CLR 37/19 A2993

2010/08/09 20:53
KTYS 092053Z 28004KT 10SM FEW060 34/20 A2997

2010/08/09 20:51
KVCT 092051Z 12012KT 10SM CLR 36/25 A2990

2010/08/09 20:53
KVLD 092053Z 05010KT 10SM BKN050 35/21 A2993

2010/08/09 20:53
KVRB 092053Z 12013G20KT 10SM CLR 31/24 A2990

2010/08/09 20:53
TIST 092053Z 11013KT 10SM CLR 29/25 A2992

2010/08/09 20:53
TISX 092053Z 11011KT 10SM FEW028 BKN085 29/24 A2993

2010/08/09 20:50
TJPS 092050Z 16008KT 10SM FEW030 FEW060 29/26 A2991

2010/08/09 20:56
TJSJ 092056Z 08012KT 10SM FEW020 SCT039 BKN080 28/25 A2992

2010/08/09 21:00
TKPK 092100Z 08010KT 9999 -SHRA BKN014 27/25 Q1013

2010/08/09 21:00
SAWE 092100Z 25026G36KT CAVOK 01/M02 Q1002

2010/08/09 21:00
SUMU 092100Z 25004KT 5000 BR NSC 12/06 Q1024 NOSIG

2010/08/09 21:00
SUAA 092100Z 24004KT 9000 FU SCT200 11/05 Q1024

2010/08/09 21:00
SULS 092100Z 22007KT 7000 NSC 11/06 Q1024

2010/08/09 21:00
SUSO 092100Z 00000KT CAVOK 17/03 Q1023

2010/08/09 21:00
LKKV 092100Z 10001KT CAVOK 14/13 Q1019

2010/08/09 21:00
LKMT 092100Z 21005KT CAVOK 16/15 Q1017 NOSIG

2010/08/09 21:00
LKPR 092100Z VRB02KT CAVOK 16/14 Q1018 NOSIG

2010/08/09 21:00
LKTB 092100Z 13001KT CAVOK 16/13 Q1017 NOSIG

2010/08/09 21:00
SAZM 092100Z 00000KT CAVOK 11/07 Q1023

2010/08/09 21:00
YPGV 092100Z 00000KT 0900 FG BKN001 BKN190 22/21 Q1012

2010/08/09 21:00
SAVC 092100Z 32005KT CAVOK 14/M00 Q1017

2010/08/09 21:00
YBCS 092100Z 13008KT 6000 -SHRA FEW002 SCT025 BKN035 22/21 Q1015

2010/08/09 20:45
LHDC 092045Z 22002KT CAVOK 18/16 Q1017

2010/08/09 20:45
LHKE 092045Z 31002MPS CAVOK 17/14 Q1016 NOSIG RMK BLU

2010/08/09 20:45
LHPA 092045Z 17001MPS CAVOK 16/15 Q1019 NOSIG RMK BLU

2010/08/09 20:45
LHPP 092045Z 06003KT CAVOK 18/16 Q1019

2010/08/09 20:45
LHPR 092045Z 00000KT CAVOK 16/15 Q1018

2010/08/09 20:45
LHSN 092045Z 30001MPS CAVOK 19/16 Q1017 NOSIG RMK BLU

2010/08/09 20:45
LHUD 092045Z 00000KT CAVOK 17/16 Q1018

2010/08/09 21:00
GMFF 092100Z 19027KTG40KT 6000 TSRA BKN033 SCT040CB BKN100 25/17 Q1018 NOSIG

2010/08/09 21:00
GMFM 092100Z 15010KT 8000 FEW026 FEW033CB SCT100 31/14 Q1018

2010/08/09 21:00
GMFO 092100Z 20002KT 9999 FEW033 SCT100 28/17 Q1017 NOSIG

2010/08/09 21:00
GMMC 092100Z 32004KT 5000 NSC 29/22 Q1011

2010/08/09 21:00
GMMH 092100Z 32008KT CAVOK 22/19 Q1013

2010/08/09 21:00
GMML 092100Z 33007KT 8000 FEW016 SCT100 22/18 Q1014

2010/08/09 21:00
GMMW 092100Z 00000KT CAVOK 24/20 Q1015

2010/08/09 21:00
GMMZ 092100Z 24007KT CAVOK 29/07 Q1023

2010/08/09 21:00
GMTA 092100Z 32002KT 8000 SCT010 SCT100 23//22 Q1015

2010/08/09 21:00
MKJS 092100Z 26005KT 9999 FEW022 FEW024CB BKN220 30/22 Q1012

2010/08/09 20:53
KABR 092053Z AUTO 16009KT 10SM CLR 33/18 A2989

2010/08/09 20:50
KALN 092050Z 15012KT 10SM FEW050 BKN200 35/26 A2990

2010/08/09 20:54
KALO 092054Z AUTO 07008KT 10SM CLR 30/24 A2989

2010/08/09 20:53
KASE 092053Z VRB03KT 10SM SCT045 18/09 A3027

2010/08/09 20:53
KATY 092053Z AUTO 07009KT 10SM CLR 32/16 A2993

2010/08/09 20:53
KAXN 092053Z AUTO VRB06KT 10SM CLR 31/18 A2995

2010/08/09 20:53
KAZO 092053Z 19006KT 9SM FEW020 28/23 A2993

2010/08/09 20:53
KBDE 092053Z AUTO 17003KT 10SM CLR 32/19 A2988

2010/08/09 20:53
KBFF 092053Z AUTO 32006KT 10SM CLR 29/13 A2999

2010/08/09 20:52
KBIS 092052Z 15015KT 10SM CLR 35/16 A2985

2010/08/09 20:55
KBKF 092055Z 17014G18KT 70SM FEW080 BKN180 28/14 A3008

2010/08/09 20:53
KBRL 092053Z AUTO VRB03KT 10SM CLR 33/25 A2990

2010/08/09 20:53
KBTL 092053Z 21007KT 10SM CLR 28/22 A2995

2010/08/09 20:53
KCGI 092053Z 19006KT 10SM CLR 34/26 A2989

2010/08/09 20:52
KCID 092052Z 09006KT 10SM FEW035 31/24 A2990

2010/08/09 20:55
KCIU 092055Z AUTO 21006KT 10SM FEW037 SCT044 27/19 A2990

2010/08/09 20:53
KCMI 092053Z 17004KT 10SM CLR 33/26 A2992

2010/08/09 20:53
KCMX 092053Z AUTO 29010KT 10SM CLR 27/19 A2991

2010/08/09 20:54
KCOS 092054Z 18008KT 10SM FEW120 24/13 A3016

2010/08/09 20:54
KCOU 092054Z 18005KT 10SM FEW090 33/26 A2991

2010/08/09 20:53
KCPR 092053Z 23023G29KT 10SM CLR 27/04 A3005

2010/08/09 20:52
KDDC 092052Z AUTO 18013G18KT 10SM SCT085 BKN110 37/14 A2988

2010/08/09 20:54
KDEC 092054Z 25003KT 10SM FEW049 35/24 A2991

2010/08/09 20:53
KDEN 092053Z 14011KT 10SM SCT060 SCT080 BKN140 28/13 A3005

2010/08/09 20:53
KDET 092053Z 24006KT 10SM -RA SCT075 25/22 A2995

2010/08/09 20:55
KDLH 092055Z 29004KT 10SM FEW035 31/18 A2993

2010/08/09 20:54
KDSM 092054Z 17004KT 10SM OVC035 31/24 A2987

2010/08/09 20:53
KDTW 092053Z 23006KT 7SM -RA FEW020 BKN060 OVC130 25/22 A2995

2010/08/09 20:56
KEAU 092056Z 34004KT 10SM CLR 33/21 A2990

2010/08/09 20:50
KEGE 092050Z 32004KT 10SM SCT085 23/07 A3020

2010/08/09 20:53
KELO 092053Z AUTO 00000KT 10SM SCT090 29/17 A2992

2010/08/09 20:54
KEVV 092054Z 18005KT 10SM CLR 36/20 A2991

2010/08/09 21:05
SARF 092105Z 18006KT CAVOK 15/09 Q1020

2010/08/09 21:00
SAZN 092100Z 27003KT CAVOK 14/00 Q1022

2010/08/09 21:00
CYAM 092100Z CCA 18005KT 15SM FEW040 SCT220 28/20 A2988 RMK CU2CI1 SLP118

2010/08/09 21:00
CYAM 092100Z 18005KT 15SM FEW040 FEW220 28/20 A2988 RMK CU2CI1 SLP118

2010/08/09 21:00
CYGP 092100Z 23007KT 15SM FEW035 SCT220 26/16 A2972 RMK CU1CI1 SLP066

2010/08/09 21:00
CYGR 092100Z 19012G17KT 20SM FEW020 BKN080 OVC230 20/15 A2987 RMK SC2AC5CI2 SLP116

2010/08/09 21:00
CYHD 092100Z AUTO 32004KT 9SM FEW035 FEW047 FEW083 28/19 A2990 RMK SLP128

2010/08/09 21:00
CYHU 092100Z AUTO 27008KT 9SM FEW081 27/16 A2986 RMK SLP112 DENSITY ALT 1500FT RVR MISG

2010/08/09 21:00
CYKO 092100Z 31012KT 15SM FEW023 FEW050 FEW210 13/08 A2989 RMK CU1SC1CI1 LAST OBS/NEXT 101200UTC SLP123

2010/08/09 21:00
CYMO 092100Z AUTO 09013KT 9SM FEW095 20/16 A2985 RMK SLP109

2010/08/09 21:00
CYNA 092100Z AUTO 24005KT 210V270 9SM FEW030 20/15 A2974 RMK SLP071

2010/08/09 21:00
CYND 092100Z 27004KT 15SM FEW040 BKN250 27/17 A2988 RMK CU1CI5 SLP118

2010/08/09 21:00
CYPQ 092100Z AUTO ///// 1 3/4SM -RA FEW001 FEW012 SCT021 BKN029 23/23 A2990 RMK PCPN 0.5MM PAST HR SLP127

2010/08/09 21:00
CYQT 092100Z 23007KT 20SM FEW050 30/20 A2985 RMK CU1 SLP109

2010/08/09 21:00
CYRJ 092100Z 07003KT 25SM BKN035 BKN100 25/16 A2980 RMK CU6AC1 SLP093

2010/08/09 21:00
CYRL 092100Z 00000KT 15SM FEW030 OVC240 28/17 A2989 RMK CU1CI0 SLP123

2010/08/09 21:00
CYTS 092100Z 29004KT 15SM SCT070 BKN160 29/12 A2986 RMK CU3AC2 SLP112

2010/08/09 21:00
CYTZ 092100Z AUTO 30016G25KT 3SM RA VCTS 22/20 A2993 RMK PRESRR SLP136 DENSITY ALT 1100FT PCPN 15.2MM PAST HR MAX WND 23029KT AT 2024Z LTNG DIST NE E SE CLD MISG RVR MISG

2010/08/09 21:00
CYVP 092100Z 35015KT 15SM SCT028 BKN081 10/06 A2970 RMK SC4AC3 SLP061

2010/08/09 21:00
CYVV 092100Z 22002KT 4SM BR BKN016 BKN030 23/21 A2992 RMK SC5SC2 WND L/V SLP130

2010/08/09 21:00
CYWA 092100Z AUTO 10003KT 9SM CLR 27/17 A2988 RMK SLP121

2010/08/09 21:00
CYXR 092100Z AUTO 05002KT 9SM FEW053 FEW072 28/15 A2986 RMK SLP106

2010/08/09 21:00
CYYY 092100Z 24011G16KT 15SM FEW045 SCT150 26/14 A2975 RMK CU2AC2 SLP074

2010/08/09 21:00
CYZE 092100Z AUTO 22007KT 9SM CLR 25/19 A2990 RMK DENSITY ALT 1900FT

2010/08/09 21:00
CYZR 092100Z AUTO 34006KT 9SM -RA FEW038 BKN089 25/22 A2994 RMK SLP136 DENSITY ALT 1800FT

2010/08/09 21:00
CYOW 092100Z CCA 25004KT 15SM FEW035 SCT050 BKN220 26/20 A2990 RMK SC2SC1CI3 TCU ASOCTD SLP124

2010/08/09 21:00
CYQM 092100Z CCA 20012KT 15SM FEW008 OVC016 20/18 A2986 RMK SF1SC7 SH ENE SLP113

2010/08/09 21:00
CBBC 092100Z AUTO 32004KT 270V030 9SM OVC040 17/M06 A3000 RMK SLP162

2010/08/09 21:00
CYBD 092100Z 27012KT 15SM FEW075TCU BKN100 21/10 A2994 RMK TCU2AC6 SLP140

2010/08/09 21:00
CYCD 092100Z 16003KT 20SM FEW019 BKN050 BKN100 18/12 A2997 RMK SC2SC3AC1 SLP149

2010/08/09 21:00
CYCG 092100Z 15005KT 15SM BKN065TCU BKN120 BKN260 27/10 A2977 RMK TCU5AC1CI1 SLP071

2010/08/09 21:00
CYDA 092100Z 00000KT 20SM SCT055 BKN100 BKN240 19/09 A2967 RMK SC4AC2CI0 SLP056

2010/08/09 21:00
CYGE 092100Z 04006KT 10SM TSRA BKN020 OVC050CB 15/13 A2986 RERA RMK SC5CB3 CB MOVG S SLP115

2010/08/09 21:00
CYKA 092100Z 28004KT 20SM -SHRA BKN055 OVC085 16/13 A2993 RMK SC6AC2 SLP138

2010/08/09 21:00
CYLW 092100Z AUTO 18008KT 160V230 9SM SCT091 24/07 A2979 RMK SLP082 DENSITY ALT 2900FT

2010/08/09 21:00
CYMA 092100Z 00000KT 20SM FEW055 SCT070 BKN100 BKN230 20/16 A2970 RMK SC2AC2AS1CI1 TCU ASOCTD ACSL SLP069

2010/08/09 21:00
CYOC 092100Z 06008KT 35SM FEW028 FEW100 BKN210 16/10 A2965 RMK CF1AC1CI2 SLP049

2010/08/09 21:00
CYPW 092100Z 27005KT 50SM FEW030 FEW045 FEW130 FEW280 19/12 A2995 RMK CU1SC1AC1CI1 TR CLDS FEW TCU SLP144

2010/08/09 21:00
CYQH 092100Z 27004KT 30SM BKN038 21/10 A2979 RMK SC5 SLP094

2010/08/09 21:00
CYQU 092100Z 27010KT 25SM SCT065 BKN250 20/06 A2981 RMK CU4CI0 SLP105

2010/08/09 21:00
CYWL 092100Z 32002KT 15SM FEW009 BKN040 BKN100 13/08 A2996 RMK SF2SC4AC1 SLP151

2010/08/09 21:00
CYXJ 092100Z 24010KT 15SM BKN070 BKN220 19/06 A2980 RMK AC6CI0 SLP099

2010/08/09 21:00
CYXT 092100Z 20005KT 20SM FEW040 BKN070 BKN140 BKN250 18/10 A2999 RMK CU1AC5AC0CI1 TCU E SLP158

2010/08/09 21:00
CYXY 092100Z 15012G17KT 40SM FEW058 SCT150 BKN200 16/06 A2981 RMK SC2AC2CI1 SLP110

2010/08/09 21:00
CYYD 092100Z 36009KT 25SM BKN060 20/03 A2992 RMK CU6 SLP132

2010/08/09 21:00
CYYF 092100Z 36008KT 15SM FEW080 SCT140 BKN250 25/09 A2979 RMK CF2AC2CI2 SLP082

2010/08/09 21:00
CYZW 092100Z 16008KT 30SM FEW055 BKN120 BKN160 16/07 A2985 RMK SC2AS3AC2 SLP125

2010/08/09 21:00
CYZY 092100Z AUTO VRB02KT 9SM OVC076 17/07 A2986 RMK SLP121 DENSITY ALT 3000FT

2010/08/09 21:00
CZFA 092100Z 33004KT 30SM FEW060 SCT160 BKN240 20/05 A2974 RMK CU2AC2CI0 SLP083

2010/08/09 21:00
CZMT 092100Z 35004KT 6SM -DZ BR BKN004 OVC020 14/13 A3004 RMK SC5SC3 SLP172

2010/08/09 21:00
CYAY 092100Z AUTO 24015G26KT 9SM SCT024 BKN100 BKN120 20/15 A2975 RMK SLP078 DENSITY ALT 900FT MAX WND 25028KT AT 2033Z

2010/08/09 21:00
CYCX 092100Z 17007KT 12SM FEW045 SCT077 SCT250 24/21 A2985 RMK CU2AC1CI1 DA+1614FT SLP107

2010/08/09 21:00
CYDF 092100Z 23015G20KT 12SM -SHRA FEW015 BKN045 OVC090 19/16 A2991 RMK SF1SC4AC3 SLP130

2010/08/09 21:00
CYDP 092100Z 36004KT 15SM -SHRA FEW015 OVC028 11/09 A2959 RMK SF1SC8 TR SF SLP020

2010/08/09 21:00
CYGW 092100Z 27007KT 1SM -DZ BR BKN002 OVC009 11/10 A2984 RMK SF6SC2 VIS VRB 3/4-11/4 SLP107

2010/08/09 21:00
CYLU 092100Z 19004KT 10SM -RA BKN015 BKN040 11/10 A2963 RMK SC6SC2 LASTOBS/NEXT101200Z SLP036

2010/08/09 21:00
CYSJ 092100Z 23011G20KT 1/2SM R23/5000FT/D FG VV002 16/15 A2991 RMK FG8 SLP130

2010/08/09 21:00
CYTQ 092100Z 03012G17KT 15SM OVC012 08/07 A2978 RMK SC8 LAST OBS/NEXT 101200Z SLP088

2010/08/09 21:00
CYYG 092100Z 19013KT 15SM VCSH BKN072 OVC110 22/15 A2987 RMK AC6AC2 SLP115

2010/08/09 21:00
CYGQ 092100Z CCA 30008KT 15SM FEW030 SCT035 SCT110 28/18 A2988 RMK CF1CU2AC0 SLP118

2010/08/09 21:00
CWEU 092100Z 27012KT 40SM FEW020 FEW080 FEW200 03/00 A3002 RMK CU1AC1CS1 AC LENT SLP166

2010/08/09 21:00
CWFD 092100Z AUTO 35021G28KT 0SM 04/ RMK ALTM MISG

2010/08/09 21:00
CWKP 092100Z AUTO 09013KT 07/ A2975 RMK SLP097

2010/08/09 21:00
CWRH 092100Z AUTO ///// 04/ A2975 RMK SLP102

2010/08/09 21:00
CWSA 092100Z AUTO 14010KT 9SM BKN039 OVC065 19/15 A2999 RMK SLP155

2010/08/09 21:00
CWTU 092100Z AUTO 16017G22KT 11/ A2958 RMK SLP030

2010/08/09 21:00
CWXR 092100Z AUTO 07004KT 08/ A2979 RMK SLP096

2010/08/09 21:00
CWYM 092100Z AUTO 05030G40KT 05/ RMK ALTM MISG SLP113

2010/08/09 21:00
CYPD 092100Z AUTO 18011KT 9SM CLR 22/12 A2996 RMK SLP146 DENSITY ALT 1200FT MAX WND 16017KT AT 2033Z

2010/08/09 21:00
CZFM 092100Z 18005KT 35SM FEW030 SCT200 18/10 A2971 RMK SC1CI1 SLP063

2010/08/09 21:00
CZFN 092100Z 24006KT 30SM FEW020 BKN065 BKN100 19/11 A2972 RMK SC1SC4AC2 SLP068

2010/08/09 21:00
CZPC 092100Z AUTO 23006KT 9SM FEW035 FEW048 SCT064 24/11 A2984 RMK SLP091

2010/08/09 21:00
CZUM 092100Z AUTO 24003KT 9SM BKN032 BKN062 BKN074 15/11 A2964 RMK SLP047

2010/08/09 21:00
CYWH 092100Z 22003KT 12SM -SHRA FEW010 SCT015 BKN030 BKN090 14/11 A2997 RMK SF1SC2SC2AC1 SLP150

2010/08/09 21:00
CYAW 092100Z 18006KT 15SM BKN110 BKN300 19/17 A2997 RMK AC6CI0 DA+837FT SLP148

2010/08/09 21:00
CYBG 092100Z 27008KT 25SM FEW050 27/13 A2979 RMK CU2 MDT CU SLP090

2010/08/09 21:00
CYEG 092100Z 12006KT 15SM FEW042 BKN260 23/14 A2981 RMK CU2CI1 SLP095

2010/08/09 21:00
CYFB 092100Z 04007KT 20SM -RA OVC027 13/10 A2980 RMK SC8 SLP094

2010/08/09 21:00
CYFC 092100Z AUTO 19008KT 9SM FEW020 SCT071 BKN091 23/20 A2984 RMK SLP107 DENSITY ALT 1100FT RVR MISG

2010/08/09 21:00
CYGL 092100Z 30007KT 15SM BKN011 12/10 A2985 RMK SC7 SLP114

2010/08/09 21:00
CYHZ 092100Z 19011KT 15SM FEW030 BKN110 20/17 A2996 RMK CU1AC6 SLP147

2010/08/09 21:00
CYJT 092100Z 25010G16KT 12SM -SHRA SCT050 OVC100 18/16 A2994 RMK SC3AC5 VIS LWR N SLP140

2010/08/09 21:00
CYMX 092100Z 21005KT 25SM FEW040 FEW220 BKN250 27/17 A2988 RMK CU1CC1CI0 SLP118

2010/08/09 21:00
CYOW 092100Z 25004KT 15SM FEW035 SCT050 BKN220 26/20 A2990 RMK SC2SC1CI3 SLP124

2010/08/09 21:00
CYQB 092100Z 24011KT 15SM FEW030 BKN250 26/18 A2984 RMK CU2CI1 TCU ASOCTD SLP104

2010/08/09 21:00
CYQG 092100Z 24006KT 7SM -SHRA SCT077 OVC250 27/21 A2995 RMK AC4CS4 SLP138

2010/08/09 21:00
CYQM 092100Z 20012KT 15SM FEW008 OVC016 20/18 A2986 RMK SF1SC7 SLP113

2010/08/09 21:00
CYQQ 092100Z 10005KT 20SM FEW040 FEW100 19/12 A2995 RMK SC2AC1 SLP141

2010/08/09 21:00
CYQX 092100Z 22012G22KT 15SM FEW031 FEW090 BKN130 OVC260 22/16 A2996 RMK SC1AC1AC5CI1 CU ASOCTD SLP147

2010/08/09 21:00
CYQY 092100Z 20009G15KT 15SM SCT170 BKN210 21/12 A2997 RMK AC4CS3 SLP151

2010/08/09 21:00
CYTR 092100Z 22010KT 3SM -SHRA BR OVC040 23/18 A2991 RMK FG2SC6 VIS VRB 2-4 SLP127

2010/08/09 21:00
CYUL 092100Z 27007KT 15SM FEW030 SCT070 BKN210 26/18 A2987 RMK CF1AC4CI0 SLP116

2010/08/09 21:00
CYVR 092100Z 26007KT 15SM FEW012 FEW043 BKN051 BKN120 17/13 A2997 RMK CF1CU2CU3AC2 SLP148

2010/08/09 21:00
CYWG 092100Z 19010KT 15SM FEW075 FEW093 SCT260 33/19 A2980 RMK AC2AC1CI1 SLP091

2010/08/09 21:00
CYXX 092100Z 22008KT 3SM -SHRA BR SCT015 OVC030 16/11 A2998 RMK SF4SC4 CVCTV CLD EMBD SLP152

2010/08/09 21:00
CYYC 092100Z 12007KT 40SM FEW060TCU SCT190 SCT260 23/08 A2984 RMK TCU1AC2CI0 SH W SLP097

2010/08/09 21:00
CYYJ 092100Z 12005KT 15SM FEW014 BKN030 OVC090 16/14 A2997 RMK SC2SC3AC3 SLP150

2010/08/09 21:00
CYYQ 092100Z 05013KT 15SM SCT012 14/11 A3001 RMK SC3 SLP162

2010/08/09 21:00
CYYR 092100Z 24008KT 15SM FEW044 SCT080 BKN098 BKN130 20/14 A2960 RMK CU2AC2AC2AC1 SLP026

2010/08/09 21:00
CYYT 092100Z 25013G22KT 15SM BKN170 OVC230 21/14 A3007 RMK AC6CI2 SLP185

2010/08/09 21:00
CYYZ 092100Z 01010G17KT 7SM -SHRA OVC027 22/21 A2995 RETSRA RMK SC8 WSHFT 2054Z SLP142

2010/08/09 21:00
CYZF 092100Z 15010KT 15SM FEW030 FEW110 BKN210 20/12 A2972 RMK SC1AC1CI1 TCU TOPS DIST W SLP071

2010/08/09 21:00
CYZV 092100Z 22008KT 30SM SCT070 BKN150 BKN250 19/14 A2969 RMK CU4AC1CI0 SLP054

2010/08/09 21:00
CYZX 092100Z 23005KT 15SM SCT070 BKN100 OVC250 26/17 A2989 RMK AC3AC3CI0 WNDY HILL 22013G19KT SLP123

2010/08/09 21:00
CWAE 092100Z 18005KT 15SM SCT016 BKN045 16/12 A2993 RMK SC3SC4 WND ESTD SLP131

2010/08/09 21:00
CWCA 092100Z 21010KT 15SM VCSH BKN030 BKN070 17/14 A2962 RMK SC5AC1 SLP031

2010/08/09 21:00
CWCL 092100Z AUTO 03002KT 9SM SCT012 SCT046 SCT063 SCT083 11/08 A2997 RMK SLP154

2010/08/09 21:00
CWDL 092100Z 24005KT 15SM FEW050 FEW070 BKN075 18/05 A2991 RMK CU2AC1AS5 18.0/6.6/0/0/0 LAST OBS/NXT OBS 10 1400Z SLP129

2010/08/09 21:00
CWIL 092100Z AUTO 19008KT 19/ A2984 RMK SLP111

2010/08/09 21:00
CWKM 092100Z AUTO 07012KT 10/ A2972 RMK SLP068

2010/08/09 21:00
CWKW 092100Z AUTO 14003KT 08/ A2969 RMK SLP075

2010/08/09 21:00
CWLI 092100Z AUTO 23005KT 10/ A2979 RMK SLP098

2010/08/09 21:00
CWLX 092100Z AUTO 30011KT 18/ A2987 RMK SLP124

2010/08/09 21:00
CWLY 092100Z AUTO 01008KT 6SM OVC014 14/13 A2995 RMK PCPN 2.0MM PAST HR SLP143

2010/08/09 21:00
CWOB 092100Z AUTO ///// 0SM CLR 04/ A2972 RMK SLP100

2010/08/09 21:00
CWPX 092100Z AUTO ///// 16/ A2983 RMK SLP115

2010/08/09 21:00
CWRX 092100Z AUTO 32007KT 14/ A2989

2010/08/09 21:00
CWSW 092100Z 17007KT 20SM BKN056 BKN260 23/09 A2986 RMK CU6CI1 TCU EMBD SLP102

2010/08/09 21:00
CWUP 092100Z AUTO 31002KT 04/ A2991 RMK SLP151

2010/08/09 21:00
CWUW 092100Z AUTO ///// 9SM CLR 13/ A2989 RMK SLP148

2010/08/09 21:00
CWVH 092100Z AUTO 15010KT 13/ A2974 RMK SLP084

2010/08/09 21:00
CWYK 092100Z AUTO ///// 08/ A2957 RMK SLP034

2010/08/09 21:00
CWZZ 092100Z AUTO ///// 0SM CLR 06/ A2963 RMK SLP052

2010/08/09 21:00
CZBF 092100Z 00000KT 15SM FEW030TCU SCT120 SCT210 23/17 A2978 RMK TCU2AC1CI1 CB ASOCTD SLP085

2010/08/09 21:00
CZCP 092100Z AUTO 06008KT 1/8SM CLR 07/ A2979 RMK SLP096

2010/08/09 21:00
CZST 092100Z 21004KT 15SM SCT048 BKN062 OVC120 16/11 A3000 RMK SC3SC3AC2 SLP158

2010/08/09 21:00
CYBW 092100Z CCA 13005KT 30SM FEW035 SCT045CB BKN250 22/08 A2984 RMK CU2CB2CI2 SH S-N/ CB S + W SLP103

2010/08/09 21:00
CWHN 092100Z AUTO 18011KT 160V220 9SM FEW046 FEW074 SCT085 26/10 A2982 RMK SLP101

2010/08/09 21:00
CYBK 092100Z 12007KT 20SM FEW030 18/12 A2999 RMK SC1 SLP156

2010/08/09 21:00
CYBU 092100Z AUTO VRB08KT 9SM CLR 28/16 A2981 RMK SLP096 DENSITY ALT 3100FT

2010/08/09 21:00
CYDN 092100Z AUTO 31011KT 9SM CLR 31/15 A2978 RMK SLP084 DENSITY ALT 3200FT

2010/08/09 21:00
CYEN 092100Z 03005KT 15SM FEW140 FEW260 32/14 A2985 RMK AC1CI0 SLP101

2010/08/09 21:00
CYET 092100Z AUTO 07005KT 040V100 9SM BKN044 BKN069 BKN079 BKN096 17/12 A2982 RMK SLP104

2010/08/09 21:00
CYGX 092100Z 09003KT 15SM BKN080 BKN200 22/07 A2994 RMK AS5CI0 SLP143

2010/08/09 21:00
CYKJ 092100Z AUTO 08004KT 6SM -RA SCT006 BKN012 OVC016 16/15 A2981 RMK SLP107 DENSITY ALT 2300FT PCPN 1.2MM PAST HR

2010/08/09 21:00
CYLL 092100Z 19006KT 15SM FEW047 SCT300 24/14 A2985 RMK CU2CI1 SLP110

2010/08/09 21:00
CYNE 092100Z AUTO 11007KT 9SM BKN037 BKN062 BKN082 BKN097 26/18 A2980 RMK SLP097

2010/08/09 21:00
CYOJ 092100Z 13010G15KT 15SM FEW048 SCT060 22/10 A2971 RMK CU2SC1 SLP068

2010/08/09 21:00
CYPA 092100Z 21006KT 15SM FEW056 27/13 A2983 RMK CU1 TCU ASOCTD NE SLP102

2010/08/09 21:00
CYPG 092100Z 18005KT 120V210 12SM FEW150 32/20 A2981 RMK AC2 SLP092

2010/08/09 21:00
CYPY 092100Z AUTO 11007KT 060V140 9SM FEW095 24/13 A2974 RMK SLP077

2010/08/09 21:00
CYQF 092100Z 12003KT 15SM FEW035 BKN260 23/14 A2982 RMK CU2CI2 SLP100

2010/08/09 21:00
CYQL 092100Z 21009KT 40SM FEW070 BKN280 26/10 A2982 RMK CU2CI2 SLP088

2010/08/09 21:00
CYQR 092100Z 32005KT 15SM FEW040 FEW330 26/16 A2988 RMK CF1CI1 SLP119

2010/08/09 21:00
CYQW 092100Z AUTO 17005KT 9SM CLR 26/13 A2987 RMK SLP114 DENSITY ALT 3500FT

2010/08/09 21:00
CYVC 092100Z 29010KT 15SM BKN037TCU 25/17 A2979 RMK TCU6 SLP091

2010/08/09 21:00
CYXD 092100Z AUTO 11006KT 9SM BKN054 24/12 A2979 RMK SLP086

2010/08/09 21:00
CYYL 092100Z AUTO 12006KT 9SM -RA SCT037 OVC048 16/13 A2985 RMK SLP120 DENSITY ALT 1600FT

2010/08/09 21:00
CYYN 092100Z AUTO 14003KT 080V230 9SM FEW067 FEW073 26/11 A2985 RMK SLP102

2010/08/09 21:00
CYZH 092100Z AUTO 32006KT 300V020 9SM CLR 20/10 A2981 RMK SLP100

2010/08/09 21:00
CYBC 092100Z AUTO 23011KT 9SM FEW037 FEW068 FEW081 SCT098 23/15 A2973 RMK SLP068

2010/08/09 21:00
CYBN 092100Z AUTO 20009KT 9SM -RA CLR 21/19 A2992 RMK SLP130

2010/08/09 21:00
CYEL 092100Z 18002KT 15SM FEW050 FEW220 27/16 A2991 RMK CU1CI1 WNDS ESTD/ SLP125

2010/08/09 21:00
CYFR 092100Z 00000KT 15SM FEW090 OVC120 20/15 A2973 RMK AC1AC6 SLP073

2010/08/09 21:00
CYGK 092100Z 24008KT 6SM HZ SCT075 OVC140 26/21 A2991 RMK AC3AC5 SLP128

2010/08/09 21:00
CYGQ 092100Z 30008KT 15SM FEW030 SCT035 SCT110 28/18 A2988 RMK CF1CU3AC0 SLP118

2010/08/09 21:00
CYHM 092100Z 28004KT 1SM -SHRA BR FEW004 SCT022 OVC042 23/23 A2995 RETS RMK SF2SC2SC5 SLP141

2010/08/09 21:00
CYKF 092100Z AUTO 25003KT 9SM -RA FEW043 OVC089 22/21 A2996 RMK SLP144 DENSITY ALT 2000FT

2010/08/09 21:00
CYKL 092100Z AUTO 28008KT 250V320 9SM SCT022 BKN096 14/10 A2961 RMK SLP039

2010/08/09 21:00
CYKZ 092100Z 28003KT 8SM -SHRA FEW012 BKN035 OVC060 21/20 A2994 RETSRA RMK SF1SC6SC2 SF TR /R17/ SLP137

2010/08/09 21:00
CYLD 092100Z 29003KT 15SM TS VCSH BKN025TCU BKN140 25/18 A2991 RMK TCU4AC2 CB ASOCTD SLP130

2010/08/09 21:00
CYOO 092100Z AUTO 24006KT 4SM RA BR 22/21 A2993 RMK SLP134 DENSITY ALT 1300FT PCPN 1.5MM PAST HR LTNG DIST SE S SW CLD MISG

2010/08/09 21:00
CYPL 092100Z 00000KT 15SM SCT050 BKN260 27/14 A2989 RMK CU3CI1 SLP125

2010/08/09 21:00
CYQA 092100Z AUTO 30004KT 260V340 9SM BKN190 25/21 A2990 RMK SLP125 DENSITY ALT 2300FT

2010/08/09 21:00
CYQK 092100Z 18005KT 15SM FEW240 28/16 A2991 RMK CI1 SLP128

2010/08/09 21:00
CYRB 092100Z 02013KT 15SM FEW002 SCT017 OVC038 08/07 A2988 RMK SF1SC2SC4 SLP125

2010/08/09 21:00
CYSB 092100Z 12006KT 15SM FEW052 FEW210 27/14 A2990 RMK CU1CI0 SLP124

2010/08/09 21:00
CYSC 092100Z AUTO 26005KT 240V300 9SM FEW029 SCT051 24/20 A2988 RMK DENSITY ALT 2000FT

2010/08/09 21:00
CYSN 092100Z 26008KT 4SM -SHRA BR FEW017 SCT029 OVC044 24/23 A2994 RMK SC2SC2SC5 SLP138

2010/08/09 21:00
CYSP 092100Z 27008KT 15SM FEW030 23/20 A2991 RMK CU2 CU NE SE LAST OBS/NEXT 101200UTC SLP130

2010/08/09 21:00
CYVO 092100Z 30005KT 15SM FEW040 FEW062 SCT080 SCT250 26/14 A2989 RMK CU1SC1AC4CI1 SLP127

2010/08/09 21:00
CYVQ 092100Z 00000KT 30SM FEW040 SCT100 SCT290 20/12 A2973 RMK CU1AC3CI1 SLP070

2010/08/09 21:00
CYXL 092100Z 00000KT 15SM FEW046 FEW230 28/16 A2990 RMK CU1CI0 SLP125

2010/08/09 21:00
CYXU 092100Z 24005KT 3SM -SHRA BR SCT022 BKN037 BKN053 OVC130 25/22 A2996 RMK SF3SC2SC2AC1 SLP141

2010/08/09 21:00
CYXZ 092100Z 27008KT 200V290 15SM FEW029TCU FEW040 24/17 A2989 RMK TCU1SC1 TR TCU SC SLP125

2010/08/09 21:00
CYYB 092100Z 32002KT 15SM FEW038 FEW240 26/15 A2992 RMK CU1CI1 SLP129

2010/08/09 21:00
CYYH 092100Z 22009KT 15SM FEW200 SCT250 17/09 A2991 RMK CI1CI0 SLP131

2010/08/09 21:00
CYYB 092100Z CCA 32002KT 15SM FEW038 FEW240 26/15 A2992 RMK CU1CI1 TR CU SLP129

2010/08/09 21:00
CWRF 092100Z AUTO ///// 20/ A2976

2010/08/09 21:00
CWVD 092100Z AUTO ///// 02/ A2985 RMK SLP145

2010/08/09 21:00
CYBW 092100Z 13005KT 30SM FEW035 SCT045CB BKN250 22/08 A2984 RMK CU2CB2CI2 SH S-N/ CB W SLP103

2010/08/09 21:00
CYED 092100Z AUTO 12004KT 9SM FEW054 SCT064 SCT071 BKN078 24/12 A2980 RMK SLP093

2010/08/09 21:00
CYEK 092100Z 08005KT 15SM OVC066 12/11 A3005 RMK AS7 SLP175

2010/08/09 21:00
CYIO 092100Z 02003KT 30SM FEW030 BKN140 BKN250 11/05 A2990 RMK SC1AS5CI2 SLP129

2010/08/09 21:00
CYLJ 092100Z 24006KT 15SM FEW060 FEW250 27/11 A2982 RMK CU2CI1 TR CI SLP101

2010/08/09 21:00
CYMJ 092100Z 08003KT 15SM FEW052 SCT280 28/13 A2987 RMK CU1CI1 SLP113

2010/08/09 21:00
CYOD 092100Z 23009KT 15SM SCT060 SCT110 26/11 A2982 RMK CU3AC1 MDT CU ASOCTD SLP102

2010/08/09 21:00
CYPE 092100Z 22010KT 15SM BKN055 BKN250 21/06 A2978 RMK CU5CI2 SLP091

2010/08/09 21:00
CYQV 092100Z AUTO 29008KT 9SM FEW044 FEW063 FEW090 27/17 A2984 RMK SLP108

2010/08/09 21:00
CYSF 092100Z AUTO 05003KT 3SM HZ OVC034 18/15 A2980 RMK DENSITY ALT 1400FT

2010/08/09 21:00
CYSM 092100Z 00000KT 15SM FEW035TCU SCT110 BKN220 22/12 A2975 RMK TCU1AC2CI1 SLP079

2010/08/09 21:00
CYTH 092100Z 10008KT 15SM FEW038 BKN056TCU OVC110 21/10 A2989 RMK SC2TCU4AC2 SLP126

2010/08/09 21:00
CYUB 092100Z 11006KT 15SM BKN012 13/08 A2976 RMK SC6 SLP078

2010/08/09 21:00
CYUS 092100Z AUTO 10003KT 9SM CLR A3100

2010/08/09 21:00
CYUX 092100Z 06007KT 15SM FEW150 FEW250 11/05 A2992 RMK AC1CI1 SLP134

2010/08/09 21:00
CYVT 092100Z 30004KT 250V350 15SM FEW036TCU SCT100 BKN240 24/16 A2979 RMK TCU2ACC2CI1 CB TPS W-NW SLP092

2010/08/09 21:00
CYXH 092100Z 19006KT 120V230 30SM FEW070 BKN270 29/11 A2981 RMK CU2CI1 SLP089

2010/08/09 21:00
CYZU 092100Z 11004KT 15SM BKN050 BKN120 BKN250 21/11 A2981 RMK CU5AC1CI0 SLP095

2010/08/09 21:00
CYAH 092100Z 25009KT 12SM BKN012 BKN047 13/11 A2977 RMK SC5SC2 LAST STFD OB/NEXT 101300UTC SLP090

2010/08/09 21:00
CYBX 092100Z 21017G24KT 1 1/2SM BR OVC002 15/14 A2975 RMK FG4SF4 SLP076

2010/08/09 21:00
CYGV 092100Z AUTO 23010KT 9SM CLR 19/14 A2970 RMK SLP060

2010/08/09 21:00
CYHA 092100Z 33009KT 15SM MIFG FEW002 FEW015 BKN030 07/05 A2982 RMK SF1SC1SC5 LAST OBS/NEXT 101200UTC SLP099

2010/08/09 21:00
CYIK 092100Z 31004KT 15SM FEW007 FEW019 FEW060 FEW150 FEW300 10/08 A2988 RMK ST1CU1SC1AC1CC1 LAST OBS/NEXT 101200UTC SLP123

2010/08/09 21:00
CYKG 092100Z 36015KT 15SM OVC032 11/06 A2981 RMK SC7 SLP104

2010/08/09 21:00
CYKQ 092100Z 32008KT 15SM FEW290 21/13 A2985 RMK CI0 LAST OBS/NEXT 221400 UTC SLP110

2010/08/09 21:00
CYLA 092100Z 36017KT 15SM OVC012 07/06 A2978 RMK ST7 LAST OBS/NEXT 101200Z SLP088

2010/08/09 21:00
CYMH 092100Z AUTO 23014G22KT 9SM FEW032 FEW042 SCT076 19/15 A2970 RMK SLP059

2010/08/09 21:00
CYMT 092100Z 27008KT 15SM FEW040 SCT045 BKN070 23/12 A2984 RMK SC2CU2AC2 SLP111

2010/08/09 21:00
CYMU 092100Z 27003KT 15SM FEW006 BKN025 12/09 A2981 RMK SC2SC3 LAST OBS/ NEXT 101200Z SLP097

2010/08/09 21:00
CYNM 092100Z AUTO 29008KT 240V310 9SM FEW062 26/12 A2983 RMK SLP107

2010/08/09 21:00
CYOY 092100Z AUTO 23006KT 210V270 9SM FEW036 FEW065 SCT070 SCT090 25/16 A2983 RMK SLP103

2010/08/09 21:00
CYPH 092100Z 04008KT 15SM SCT030 BKN065 BKN230 17/12 A2984 RMK SC3SC1CI1 LAST STFD OBS/NEXT 101200 UTC SLP105

2010/08/09 21:00
CYPX 092100Z 30015KT 15SM BKN040 18/10 A2985 RMK SC6 LAST OBS/NEXT 101200UTC SLP108

2010/08/09 21:00
CYQI 092100Z 23014KT 10SM OVC020 20/18 A2996 RMK SC8 SLP146

2010/08/09 21:00
CYSK 092100Z 01010KT 15SM FEW010 SCT220 12/09 A2985 RMK SF1CI2 SLP110

2010/08/09 21:00
CYUY 092100Z 30005KT 15SM FEW050 FEW120 27/14 A2990 RMK CU1AC1 SLP126

2010/08/09 21:00
CYWK 092100Z 28010KT 5SM -SHRA BR BKN020 OVC032 12/11 A2970 RMK SC5SC3 CU ASOCTD VIS HIER S SLP068

2010/08/09 21:00
CYZG 092100Z 07006KT 15SM FEW032 FEW170 BKN240 12/06 A2986 RMK CU1AC2CC2 LAST OBS/NEXT101200 UTC SLP122

2010/08/09 21:00
CYAZ 092100Z 17006KT 5SM BR SCT003 BKN008 BKN015 14/13 A2998 RMK SF2SF2SC1 CIG AND VIS LWR E SLP154

2010/08/09 21:00
CYBL 092100Z 11006KT 30SM FEW045 FEW100 21/12 A2994 RMK CU2AC1 SLP137

2010/08/09 21:00
CYBV 092100Z 22008KT 15SM FEW090 SCT230 28/19 A2982 RMK AC2CC2 LAST OBS/NEXT 101200Z SLP099

2010/08/09 21:00
CYCP 092100Z 00000KT 5SM -RA BR FEW002 BKN015 BKN055 OVC095 15/12 A2993 RMK SF2SF3SC2AS2 SLP142

2010/08/09 21:00
CYCQ 092100Z 24005KT 35SM BKN045TCU 20/05 A2979 RMK TCU7 CB EMBDD SLP098

2010/08/09 21:00
CYDB 092100Z 10017G25KT 25SM FEW080 FEW110 SCT250 16/05 A2969 RMK AC1AC1CC1 SLP069

2010/08/09 21:00
CYDC 092100Z 27006KT 15SM FEW050 OVC090 19/07 A2988 RMK SC2AC6 TCU EMBD SLP113

2010/08/09 21:00
CYDQ 092100Z AUTO 27010G17KT 9SM BKN086 20/04 A2980 RMK SLP095 DENSITY ALT 3300FT MAX WND 24018KT AT 2010Z

2010/08/09 21:00
CYEV 092100Z 22003KT 15SM FEW021 FEW050 15/10 A2974 RMK SC2SC1 SLP074

2010/08/09 21:00
CYFO 092100Z 22007KT 15SM FEW015 BKN035 BKN250 22/18 A2981 RMK SC2SC3CI0 SLP097

2010/08/09 21:00
CYHE 092100Z AUTO 32003KT 250V040 8SM -RA OVC019 OVC046 OVC057 17/15 A2993 RMK SLP137

2010/08/09 21:00
CYIV 092100Z 09003KT 15SM FEW050 FEW100 SCT250 25/14 A2989 RMK SC1AC0CI0 SLP125

2010/08/09 21:00
CYKY 092100Z 15009KT 12SM FEW053 FEW250 25/13 A2985 RMK CU1CI0 SLP108

2010/08/09 21:00
CYPR 092100Z AUTO /////KT 9SM BKN005 BKN051 15/13 A3003 RMK SLP169 WND MISG

2010/08/09 21:00
CYQD 092100Z 16007KT 15SM SCT035TCU BKN100 25/18 A2979 RMK TCU4AC1 TCU ALQDS SLP091

2010/08/09 21:00
CYQZ 092100Z AUTO 20006KT 090V260 9SM FEW045 OVC076 17/07 A2992 RMK SLP141 DENSITY ALT 2400FT

2010/08/09 21:00
CYRV 092100Z AUTO 17003KT 9SM FEW027 BKN081 BKN095 19/16 A2981 RMK SLP097

2010/08/09 21:00
CYUA 092100Z AUTO 08011KT 9SM 12/ A2971 RMK SLP064

2010/08/09 21:00
CYXE 092100Z 28004KT 15SM FEW046 26/14 A2985 RMK CU1 SLP111

2010/08/09 21:00
CYXQ 092100Z 06004KT 30SM FEW045 FEW085 SCT120 BKN210 19/11 A2967 RMK SC1AC1AC2CI2 SLP053

2010/08/09 21:00
CYXS 092100Z AUTO 18007KT 140V240 9SM OVC071 17/07 A2991 RMK SLP136 DENSITY ALT 3000FT

2010/08/09 21:00
CYZP 092100Z AUTO 26009KT 9SM -RA FEW030 OVC047 15/13 A3003 RMK SLP170

2010/08/09 21:00
CYZT 092100Z 34010KT 20SM FEW027 SCT055 17/10 A3002 RMK SC1SC3 SLP164

2010/08/09 21:00
CYBB 092100Z 00000KT 15SM FEW140 FEW220 23/M10 A2994 RMK AC1CI1 SLP141

2010/08/09 21:00
CYCB 092100Z 05011KT 15SM FEW070 18/14 A2984 RMK AC0 FU SLP105

2010/08/09 21:00
CYCO 092100Z 08006KT 1 1/2SM BR OVC003 10/10 A2976 RMK FG2ST6 BLN EST SLP079

2010/08/09 21:00
CYFS 092100Z 32013KT 15SM OVC010 17/14 A2970 RMK SC8 SLP062

2010/08/09 21:00
CYGH 092100Z 02003KT 25SM FEW100 18/11 A2974 RMK AC1 SLP075

2010/08/09 21:00
CYGT 092100Z 00000KT 15SM BKN095 18/08 A2992 RMK AC5 19.1/11.1/0 LAST OBS/NXT OBS 101200Z SLP134

2010/08/09 21:00
CYHK 092100Z 19010KT 15SM SKC 16/09 A2991 RMK SLP131

2010/08/09 21:00
CYHY 092100Z 18007KT 15SM BKN015 BKN230 22/12 A2970 RMK SC6CI0 SLP062

2010/08/09 21:00
CYJF 092100Z 00000KT 10SM -RA FEW007 BKN020 OVC120 16/15 A2975 RMK SF2SC4AS2 -RA INTMT SLP079

2010/08/09 21:00
CYKD 092100Z 16007KT 15SM OVC018 16/10 A2971 RMK SC5 SLP063

2010/08/09 21:00
CYLK 092100Z 00000KT 6SM FU BKN022 OVC080 24/15 A2971 RMK SC5AC2 SLP065

2010/08/09 21:00
CYOA 092100Z 12015KT 2SM FU SKC 22/12 A2979 RMK FU2 SLP100

2010/08/09 21:00
CYPC 092100Z 35004KT 15SM BKN004 OVC010 09/08 A2979 RMK ST5SC3 BLN EST SLP090

2010/08/09 21:00
CYRA 092100Z 16005KT 12SM FEW022 23/15 A2968 RMK SC1 SLP056

2010/08/09 21:00
CYRT 092100Z 27010KT 15SM BKN090 19/10 A3005 RMK AC5 SLP177

2010/08/09 21:00
CYSY 092100Z 09015KT 15SM BKN018 09/04 A2986 RMK SC6 SLP117

2010/08/09 21:00
CYUT 092100Z 25002KT 25SM FEW200 16/05 A2994 RMK CS1 SLP140

2010/08/09 21:00
CYVM 092100Z AUTO 06004KT 9SM OVC004 04/04 A2993 RMK SLP137

2010/08/09 21:00
CYWJ 092100Z 29006KT 40SM FEW030 BKN080 20/11 A2971 RMK SC1AC4 SLP066

2010/08/09 20:53
KFAR 092053Z 20007KT 10SM FEW100 32/20 A2987

2010/08/09 20:53
KFNT 092053Z AUTO 18005KT 10SM FEW012 SCT050 26/22 A2993

2010/08/09 20:56
KFSD 092056Z 11008KT 10SM SCT030 30/23 A2990

2010/08/09 20:54
KFWA 092054Z 20006KT 9SM FEW048 BKN140 BKN250 30/23 A2995

2010/08/09 20:54
KGCK 092054Z 16012G20KT 10SM CLR 38/14 A2989

2010/08/09 20:53
KGFK 092053Z 21013G16KT 10SM FEW250 34/19 A2983

2010/08/09 20:53
KGJT 092053Z VRB04KT 10SM SCT100 29/08 A3008

2010/08/09 20:53
KGRB 092053Z 22006KT 10SM SCT040 30/23 A2987

2010/08/09 20:53
KGRI 092053Z 03005KT 10SM CLR 33/22 A2989

2010/08/09 20:53
KGRR 092053Z 22007KT 10SM FEW029 BKN037 BKN046 28/22 A2992

2010/08/09 20:53
KHIB 092053Z AUTO 28005KT 10SM CLR 31/19 A2993

2010/08/09 20:55
KHON 092055Z AUTO 13011KT 10SM CLR 32/18 A2988

2010/08/09 20:53
KHUF 092053Z 14006KT 10SM SCT044 34/23 A2993

2010/08/09 20:52
KHUT 092052Z 16012G18KT 10SM CLR 39/19 A2986

2010/08/09 20:53
KICT 092053Z 16012KT 10SM SCT070 SCT200 39/20 A2986

2010/08/09 20:54
KIND 092054Z VRB06KT 10SM FEW055 SCT140 BKN250 34/20 A2993

2010/08/09 20:55
KINL 092055Z AUTO 00000KT 10SM CLR 31/19 A2990

2010/08/09 20:55
KIRK 092055Z AUTO 22005KT 10SM CLR 32/26 A2989

2010/08/09 20:52
KJAC 092052Z 12010KT 080V180 RA SCT065 BKN085 BKN110 12/04 A3008

2010/08/09 20:53
KJLN 092053Z 19009KT 10SM CLR 36/22 A2991

2010/08/09 20:56
KJMS 092056Z AUTO 21010KT 10SM CLR 33/20 A2988

2010/08/09 20:56
KJXN 092056Z 18007KT 10SM FEW060 BKN080 23/23 A2995

2010/08/09 20:53
KLAN 092053Z 24012KT 10SM SCT021 BKN050 28/22 A2993

2010/08/09 20:53
KLAR 092053Z AUTO 16008KT 10SM FEW100 24/07 A3019

2010/08/09 20:53
KLBF 092053Z AUTO 12005KT 10SM CLR 31/19 A2995

2010/08/09 20:55
KLBL 092055Z 19012G18KT 10SM FEW095 39/14 A2990

2010/08/09 20:54
KLEX 092054Z 00000KT 10SM FEW055 34/19 A2998

2010/08/09 20:54
KLNK 092054Z VRB03KT 10SM CLR 34/25 A2985

2010/08/09 20:53
KLOU 092053Z 27005KT 10SM FEW065 36/20 A2993

2010/08/09 20:53
KLOZ 092053Z AUTO 09007KT 10SM BKN046 31/22 A3000

2010/08/09 20:53
KLSE 092053Z VRB05KT 10SM CLR 32/23 A2989

2010/08/09 20:53
KMBS 092053Z 20005KT 10SM SCT007 BKN020 OVC043 24/23 A2992

2010/08/09 20:53
KMCI 092053Z 21012KT 10SM BKN250 37/24 A2986

2010/08/09 20:51
KMDW 092051Z 27008KT 10SM FEW040 BKN090 BKN150 BKN250 31/21 A2991

2010/08/09 20:52
KMHK 092052Z 18008KT 10SM SCT085 39/18 A2982

2010/08/09 20:54
KMKC 092054Z 17012KT 10SM CLR 37/24 A2984

2010/08/09 20:52
KMKE 092052Z 11006KT 10SM BKN038 BKN049 BKN230 29/22 A2989

2010/08/09 20:55
KMKG 092055Z 21010KT 10SM SCT016 28/22 A2992

2010/08/09 20:52
KMLI 092052Z 10006KT 10SM FEW024 30/24 A2991

2010/08/09 20:54
KMOT 092054Z 19003KT 10SM CLR 34/14 A2983

2010/08/09 20:53
KMSN 092053Z 29004KT 10SM SCT030 29/23 A2991

2010/08/09 20:53
KMSP 092053Z 10008KT 10SM FEW070 34/18 A2989

2010/08/09 20:55
KOFF 092055Z AUTO 23006KT 10SM CLR 34/25 A2985

2010/08/09 20:52
KOMA 092052Z VRB05KT 10SM SCT035 SCT160 SCT250 33/26 A2984

2010/08/09 20:51
KORD 092051Z 30010KT 10SM SCT038 SCT150 BKN200 BKN250 31/22 A2991

2010/08/09 20:53
KOSH 092053Z 00000KT 10SM CLR 30/22 A2989

2010/08/09 20:53
KOTM 092053Z AUTO 15004KT 10SM CLR 30/24 A2988

2010/08/09 20:56
KOWB 092056Z 30004KT 9SM FEW075 38/22 A2991

2010/08/09 20:53
KPAH 092053Z VRB04KT 10SM CLR 34/24 A2990

2010/08/09 20:54
KPIA 092054Z 13004KT 10SM CLR 32/24 A2991

2010/08/09 20:53
KPIR 092053Z AUTO 11012KT 10SM CLR 33/19 A2986

2010/08/09 20:54
KPLN 092054Z AUTO 01005KT 8SM FEW033 SCT055 SCT075 28/22 A2988

2010/08/09 20:53
KPTK 092053Z 16006KT 10SM FEW007 SCT030 BKN080 24/22 A2993

2010/08/09 20:53
KPUB 092053Z 24004KT 10SM FEW110 28/14 A3004

2010/08/09 20:52
KRAP 092052Z 17005KT 10SM CLR 29/19 A2991

2010/08/09 20:54
KRFD 092054Z VRB03KT 10SM FEW030 SCT085 SCT250 30/22 A2993

2010/08/09 20:54
KRKS 092054Z AUTO 20024G30KT 10SM CLR 26/M03 A3013

2010/08/09 20:54
KRST 092054Z 00000KT 10SM FEW034 31/23 A2993

2010/08/09 20:50
KSAW 092050Z 04012KT 10SM SCT060 27/20 A2989

2010/08/09 20:56
KSDF 092056Z VRB03KT 10SM SCT065 SCT150 SCT250 37/20 A2992

2010/08/09 20:53
KSDM 092053Z 29009G14KT 270V340 10SM CLR 22/13 A2993

2010/08/09 20:52
KSGF 092052Z 21009KT 10SM FEW060 36/22 A2993

2010/08/09 21:06
KJAN 092106Z 24004KT 4SM -RA BR BKN022 OVC045 27/26 A2991 RMK AO2 TSE04 TS DSPTD P0008 

2010/08/09 20:53
KSLN 092053Z 18016G21KT 10SM CLR 39/18 A2983

2010/08/09 20:52
KSPI 092052Z 16004KT 10SM CLR 34/26 A2990

2010/08/09 20:53
KSTC 092053Z VRB03KT 10SM CLR 33/19 A2991

2010/08/09 20:53
KSTJ 092053Z 20009KT 10SM CLR 34/25 A2983

2010/08/09 20:51
KSTL 092051Z 25007KT 10SM FEW046 BKN250 36/24 A2990

2010/08/09 20:53
KSTP 092053Z AUTO 06006KT 10SM CLR 33/21 A2989

2010/08/09 20:54
KSUS 092054Z COR 19005KT 10SM FEW050 BKN200 36/24 A2988

2010/08/09 20:54
KSUS 092054Z 19005KT 10SM CLR 36/24 A2988

2010/08/09 20:52
KSUX 092052Z 03005KT 10SM OVC022 28/24 A2988

2010/08/09 20:53
KTVC 092053Z 27008KT 10SM SCT032 BKN070 30/22 A2986

2010/08/09 20:54
KUIN 092054Z AUTO 16007KT 9SM CLR 33/27 A2988

2010/08/09 20:53
KWRL 092053Z AUTO 19013G18KT 10SM FEW110 33/04 A2986

2010/08/09 20:53
KYIP 092053Z AUTO 16005KT 6SM -RA BKN025 BKN046 BKN080 24/22 A2995

2010/08/09 20:54
KAPN 092054Z 12007KT 10SM FEW025 BKN055 26/21 A2989

2010/08/09 20:54
KSBN 092054Z 23006KT 8SM CLR 29/22 A2994

2010/08/09 21:00
FBSK 092100Z 20010KT CAVOK 12/07 Q1028 NOSIG

2010/08/09 21:00
FBSK 092100Z 20010KT CAVOK 12/07 Q1028 NOSIG

2010/08/09 21:00
FABL 092100Z 16004KT CAVOK 00/M09 Q1031 NOSIG

2010/08/09 21:00
FACT 092100Z 15005KT 9999 FEW025 09/07 Q1035 NOSIG

2010/08/09 21:00
FAEL 092100Z AUTO 24022KT 9999 R11/M0050N R29/M0050N +RA FEW019 BKN041 12/04 Q1029

2010/08/09 21:00
FAGG 092100Z AUTO 29011KT 9999 R29/M0050N R11/M0050N BKN031 09/07 Q1034

2010/08/09 21:00
FAJS 092100Z 20013KT CAVOK 04/M09 Q1029 NOSIG

2010/08/09 21:00
FAKN 092100Z AUTO 08009KT //// // ////// 14/11 Q1024

2010/08/09 21:00
FALA 092100Z 21010KT CAVOK 07/M09 Q1029

2010/08/09 21:00
FALE 092100Z 26004KT CAVOK 11/08 Q1026 NOSIG

2010/08/09 21:00
FAMM 092100Z AUTO 17006KT //// // ////// 03/M12 Q1029

2010/08/09 21:00
FAPE 092100Z 25027G37KT 9999 FEW040 11/09 Q1029 RESHRA NOSIG

2010/08/09 21:00
FAPN 092100Z AUTO 21009KT //// // ////// 09/M09 Q1028

2010/08/09 21:00
FAPP 092100Z AUTO 18013G23KT //// // ////// 15/M06 Q1024

2010/08/09 21:00
FAUP 092100Z AUTO 00000KT //// // ////// 04/M09 Q1031

2010/08/09 21:00
FYGB 092100Z AUTO 13003KT //// // ////// 07/M08 Q1030

2010/08/09 21:00
FYGF 092100Z AUTO 11005KT //// // ////// 15/M01 Q1027

2010/08/09 21:00
FYKT 092100Z AUTO 08009KT //// // ////// 09/M07 Q1031

2010/08/09 21:00
FYLZ 092100Z 20011KT //// VV/// 12/M00 Q1024 

2010/08/09 21:00
FYML 092100Z AUTO 13003KT //// // ////// ///// Q1033

2010/08/09 21:00
FYOA 092100Z AUTO 06004KT //// // ////// 18/M03 Q1020

2010/08/09 21:00
FYOJ 092100Z AUTO 09004KT //// // ////// 17/M04 Q1022

2010/08/09 21:00
FYOW 092100Z AUTO 12006KT //// // ////// 17/M04 Q1024

2010/08/09 21:00
FYWB 092100Z 00000KT 6000 VV/// 14/08 Q1016 

2010/08/09 21:00
FYWH 092100Z AUTO 13006KT //// // ////// 06/M08 Q1031

2010/08/09 21:00
FYWW 092100Z AUTO 11007KT //// // ////// 10/M08 Q1029

2010/08/09 20:53
KACV 092053Z AUTO 33008KT 10SM OVC005 13/11 A2996

2010/08/09 20:53
KALW 092053Z 26010G15KT 10SM CLR 27/06 A2983

2010/08/09 20:53
KBFI 092053Z 14006KT 10SM OVC025 19/12 A2999

2010/08/09 20:54
KBFL 092054Z 32009KT 10SM CLR 32/13 A2983

2010/08/09 20:53
KBIL 092053Z 04005KT 10SM SCT075CB BKN110 29/11 A2985

2010/08/09 20:53
KBKE 092053Z AUTO 28006KT 10SM CLR 27/09 A2987

2010/08/09 20:53
KBLI 092053Z 20004KT 7SM -RA BKN015 OVC040 15/14 A2997

2010/08/09 20:53
KBOI 092053Z VRB03KT 10SM CLR 29/08 A2985

2010/08/09 20:53
KBTM 092053Z AUTO 18008KT 10SM FEW120 23/06 A2999

2010/08/09 20:53
KBUR 092053Z 19009KT 10SM CLR 26/12 A2991

2010/08/09 20:56
KBZN 092056Z VRB05KT 10SM BKN085 26/09 A2994

2010/08/09 20:53
KCDC 092053Z AUTO 23009G17KT 10SM CLR 26/03 A3014

2010/08/09 20:56
KCEC 092056Z AUTO 28005KT 10SM BKN010 14/11 A2996

2010/08/09 20:53
KCLM 092053Z AUTO 33004KT 9SM -RA SCT020 BKN095 13/12 A2999

2010/08/09 20:56
KCTB 092056Z AUTO 00000KT 10SM CLR 26/07 A2985

2010/08/09 20:56
KEKO 092056Z AUTO 22012G19KT 10SM CLR 31/02 A2998

2010/08/09 20:54
KEUG 092054Z 00000KT 10SM BKN019 BKN150 18/12 A3000

2010/08/09 20:53
KFAT 092053Z VRB05KT 10SM FEW080 32/10 A2985

2010/08/09 20:56
KFLG 092056Z VRB06KT 10SM FEW060 21/08 A3029

2010/08/09 20:54
KGCN 092054Z 20008G20KT 10SM CLR 24/03 A3024

2010/08/09 20:53
KGEG 092053Z 23007G19KT 10SM SCT075 SCT120 BKN200 26/07 A2984

2010/08/09 20:53
KGGW 092053Z AUTO 22005KT 10SM CLR 31/09 A2983

2010/08/09 20:53
KGTF 092053Z VRB04KT 10SM CLR 29/06 A2983

2010/08/09 20:53
KHLN 092053Z 11005KT 10SM SCT100 28/07 A2985

2010/08/09 20:53
KHQM 092053Z AUTO 21007KT 9SM BKN009 OVC024 14/12 A3002

2010/08/09 20:53
KIDA 092053Z 24008KT 10SM SCT025 SCT050 BKN100 22/11 A3003

2010/08/09 20:56
KLAS 092056Z 11007KT 080V140 10SM CLR 34/03 A2986

2010/08/09 20:53
KLAX 092053Z 27010KT 10SM FEW015 19/12 A2994

2010/08/09 20:53
KLGB 092053Z 21008KT 10SM CLR 21/13 A2993

2010/08/09 20:53
KLMT 092053Z 33008KT 10SM FEW045 SCT100 SCT250 27/04 A2995

2010/08/09 20:53
KLVM 092053Z AUTO 30007KT 10SM VCTS SCT080 BKN095 26/07 A2993

2010/08/09 20:53
KMFR 092053Z 31004KT 10SM CLR 29/09 A2987

2010/08/09 20:53
KMLS 092053Z AUTO 08003KT 10SM CLR 33/08 A2982

2010/08/09 20:54
KMRY 092054Z 23007KT 200V260 10SM OVC015 17/11 A2995

2010/08/09 20:53
KMSO 092053Z 20008KT 10SM -RA SCT085 SCT110 23/13 A2985

2010/08/09 20:53
KMYV 092053Z AUTO 15007KT 10SM CLR 28/14 A2984

2010/08/09 20:56
KNTD 092056Z VRB05KT 5SM HZ BKN012 18/14 A2994

2010/08/09 20:53
KOAK 092053Z 31012KT 10SM FEW016 19/12 A2992

2010/08/09 20:53
KOGD 092053Z AUTO 25008G16KT 10SM CLR 28/03 A3001

2010/08/09 20:54
KOLM 092054Z 00000KT 10SM OVC019 17/13 A3001

2010/08/09 20:53
KONT 092053Z 27010KT 10SM CLR 29/08 A2990

2010/08/09 20:55
KOTH 092055Z 35015G19KT 10SM OVC020 16/11 A3006

2010/08/09 20:53
KPAE 092053Z 26003KT 10SM OVC022 17/12 A3000

2010/08/09 20:53
KPDX 092053Z VRB05KT 10SM BKN028 17/10 A3002

2010/08/09 20:51
KPHX 092051Z 01004KT 10SM FEW120 SCT150 SCT180 38/07 A2983

2010/08/09 20:53
KPIH 092053Z 23023G29KT 10SM FEW050 BKN060CB 22/09 A3004

2010/08/09 20:53
KPMD 092053Z 35006KT 10SM CLR 32/01 A2992

2010/08/09 20:53
KPRB 092053Z AUTO A2988

2010/08/09 20:53
KPRC 092053Z 21010G17KT 10SM BKN100TCU 28/08 A3013

2010/08/09 20:53
KPSP 092053Z 10006G14KT 10SM CLR 38/01 A2978

2010/08/09 20:54
KRBL 092054Z AUTO 17007G15KT 10SM CLR 30/13 A2984

2010/08/09 20:53
KRDD 092053Z 16005G14KT 10SM CLR 32/11 A2982

2010/08/09 20:56
KRDM 092056Z 32010G18KT 10SM FEW080 28/05 A2990

2010/08/09 20:55
KRNO 092055Z VRB04KT 10SM SCT080 29/02 A2996

2010/08/09 20:53
KRNT 092053Z 13003KT 10SM BKN026 OVC032 18/12 A2999

2010/08/09 20:53
KSAC 092053Z 22007KT 10SM CLR 27/14 A2986

2010/08/09 20:51
KSAN 092051Z VRB06KT 10SM FEW020 22/14 A2994

2010/08/09 20:53
KSBA 092053Z 20006KT 10SM FEW001 18/13 A2994

2010/08/09 20:53
KSBD 092053Z 28006KT 7SM SKC 29/06 A2989

2010/08/09 20:56
KSBP 092056Z 31005KT 10SM CLR 22/13 A2993

2010/08/09 20:55
KSCK 092055Z 00000KT 10SM CLR 27/13 A2985

2010/08/09 20:53
KSEA 092053Z 19005KT 10SM SCT016 OVC023 18/12 A3000

2010/08/09 20:53
KSFF 092053Z 21009KT 10SM CLR 28/07 A2982

2010/08/09 20:56
KSFO 092056Z 33011KT 10SM FEW010 20/12 A2991

2010/08/09 20:53
KSHR 092053Z AUTO 17006KT 10SM CLR 32/08 A2988

2010/08/09 20:53
KSJC 092053Z 30008KT 10SM FEW007 24/13 A2989

2010/08/09 20:53
KSLC 092053Z 25018G27KT 10SM BKN110CB BKN150 BKN200 28/01 A2999

2010/08/09 20:53
KSMF 092053Z 21008KT 10SM CLR 27/16 A2985

2010/08/09 20:51
KSMX 092051Z 32011KT 10SM CLR 19/11 A2994

2010/08/09 20:53
KSNA 092053Z COR 21007KT 10SM FEW019 24/13 A2992

2010/08/09 20:53
KSNA 092053Z 21007KT 10SM FEW085 24/13 A2992

2010/08/09 20:53
KSNS 092053Z 27008KT 10SM CLR 19/12 A2993

2010/08/09 20:53
KTIW 092053Z 18007KT 10SM SCT020 BKN026 17/12 A3000

2010/08/09 20:53
KTUS 092053Z 24008KT 10SM FEW090 34/13 A2995

2010/08/09 20:53
KTVL 092053Z AUTO 02007KT 10SM CLR 23/08 A3010

2010/08/09 20:53
KTWF 092053Z AUTO 17019G24KT 10SM CLR 30/06 A2992

2010/08/09 20:56
KUKI 092056Z AUTO 13006KT 10SM CLR 29/14 A2985

2010/08/09 20:53
KYKM 092053Z VRB03KT 10SM SCT080 28/07 A2978

2010/08/09 20:50
LIBD 092050Z 26004KT 230V290 CAVOK 22/16 Q1014 RMK VIS MIN 9999

2010/08/09 20:50
LIBP 092050Z 00000KT 9999 SCT070 23/20 Q1014 RMK VIS MIN 9999

2010/08/09 20:45
LIBR 092045Z 33009KT CAVOK 24/20 Q1014 NOSIG RMK SKC VIS MIN 9999 WIND THR13 WIND THR31 31007KT BLU

2010/08/09 20:55
LIBV 092055Z 35004KT CAVOK 22/18 Q1013 RMK SKC VIS MIN 9999 WIND THR14 34005KT BLU

2010/08/09 20:50
LICA 092050Z 24004KT 9999 SCT020 25/21 Q1015 RMK VIS MIN 9999

2010/08/09 20:50
LICC 092050Z 28007KT CAVOK 25/21 Q1014 RMK VIS MIN 9999

2010/08/09 20:50
LICJ 092050Z 05008KT CAVOK 25/19 Q1016 RMK VIS MIN 9999

2010/08/09 20:50
LICR 092050Z 36013KT 9999 FEW030 25/19 Q1015 RMK VIS MIN 9999

2010/08/09 20:55
LICT 092055Z 00000KT CAVOK 25/20 Q1016 RMK SKC VIS MIN 9999 WIND THR13 06001KT BLU

2010/08/09 20:55
LIMU 092055Z 23005KT 9999 FEW026 23/22 Q1017 RMK SCT QUK / QUL / VIS MAR 20 KM VIS MIN 9999

2010/08/09 20:55
LIVD 092055Z 00000KT CAVOK 17/13 Q1020 RMK SKC VIS MIN 9999

2010/08/09 20:55
LIVE 092055Z 00000KT CAVOK 13/09 Q1020 RMK SKC VIS MIN 9999

2010/08/09 20:55
LIVR 092055Z 13008KT 0500 FG VV002 12/12 Q1023 RMK MON INVIS VIS MIN 0500

2010/08/09 20:55
LIVT 092055Z 04004KT CAVOK 22/18 Q1015 RMK FEW FEW100 QUK / QUL / VIS MAR 20 KM VIS MIN 9999

2010/08/09 20:50
LIMP 092050Z 21005KT CAVOK 24/18 Q1015 RMK VIS MIN 9999

2010/08/09 20:50
LIMZ 092050Z 22004KT 9999 SCT080 20/18 Q1016 RMK VIS MIN 9999

2010/08/09 20:55
LIPA 092055Z 07003KT 9999 FEW040 21/20 Q1015 RMK FEW VIS MIN 9999 A2998 BLU

2010/08/09 20:50
LIPB 092050Z 00000KT 9999 FEW070 SCT100 24/15 Q1015 RMK MON LIB VIS MIN 9999

2010/08/09 20:55
LIPC 092055Z 21003KT CAVOK 22/19 Q1014 RMK SCT SCT200 VIS MIN 9999 WIND THR12 21003KT BLU

2010/08/09 20:45
LIPH 092045Z 00000KT 9999 SCT080 24/20 Q1015 RMK SCT VIS MIN 9999 WIND THR07 /////KT BLU

2010/08/09 20:50
LIPO 092050Z 05004KT CAVOK 23/18 Q1015 RMK VIS MIN 9999

2010/08/09 20:50
LIPQ 092050Z 09005KT CAVOK 22/18 Q1015

2010/08/09 20:45
LIPR 092045Z 16001KT CAVOK 24/21 Q1014 RMK SKC VIS MIN 9999 WIND THR31 00000KT BLU

2010/08/09 20:55
LIPS 092055Z 00000KT 9999 FEW025 23/19 Q1015 RMK FEW VIS MIN 9999 BLU

2010/08/09 20:45
LIPX 092045Z 34004KT CAVOK 24/23 Q1015 RMK SKC VIS MIN 9999 BLU

2010/08/09 20:50
LIPY 092050Z 16003KT 120V180 CAVOK 22/19 Q1015 RMK VIS MIN 9999

2010/08/09 20:55
LIVP 092055Z 20009KT 9999 0100S FEW000 10/10 Q1024 RMK FEW MON CLD SCT VAL S NEBBIA VIS MIN 0100S

2010/08/09 21:00
OMAA 092100Z 36005KT 250V040 CAVOK 33/23 Q0996 A2943 NOSIG

2010/08/09 21:00
OMAD 092100Z 01007KT CAVOK 34/25 Q0997 A2944

2010/08/09 21:00
OMAL 092100Z 08006KT CAVOK 37/12 Q0999 A2951

2010/08/09 21:00
OMDB 092100Z 07006KT 050V170 CAVOK 37/14 Q0997 NOSIG

2010/08/09 21:00
OMDW 092100Z 07002KT CAVOK 33/14 Q0998 NOSIG

2010/08/09 21:00
OMFJ 092100Z 07003KT CAVOK 31/24 Q0999 A2951

2010/08/09 21:00
OMRK 092100Z 10006KT CAVOK 34/25 Q0996 A2944

2010/08/09 21:00
OMSJ 092100Z 08003KT CAVOK 30/15 Q0997

2010/08/09 21:00
OOMS 092100Z 00000KT 8000 NSC 30/27 Q0998 NOSIG

2010/08/09 21:00
OOSA 092100Z 16005KT 140V200 6000 BKN012 OVC025 25/22 Q1003 NOSIG RMK05 RH82

2010/08/09 20:50
LIBF 092050Z 28007KT CAVOK 24/13 Q1015 RMK VIS MIN 9999

2010/08/09 20:50
LIEA 092050Z VRB02KT CAVOK 19/15 Q1017 RMK VIS MIN 9999

2010/08/09 20:55
LIED 092055Z 33008KT 9999 BKN060 26/06 Q1015 RMK BKN VIS MIN 9999 BLU

2010/08/09 20:50
LIEO 092050Z 08004KT CAVOK 24/19 Q1016 RMK VIS MIN 9999

2010/08/09 20:55
LIRE 092055Z 00000KT CAVOK 22/20 Q1015 RMK SKC VIS MIN 9999 WIND THR31 09002KT BLU

2010/08/09 20:55
LIRM 092055Z 13003KT 9999 FEW040 26/25 Q1016 RMK FEW VIS MIN 9999 WIND THR06 13003KT BLU

2010/08/09 20:55
LIRS 092055Z 01007KT CAVOK 23/14 Q1015 RMK SKC VIS MIN 9999 WIND THR21 /////KT BLU

2010/08/09 20:50
LIRZ 092050Z 36004KT CAVOK 22/17 Q1016 RMK VIS MIN 9999

2010/08/09 21:00
UMGG 092100Z 30003MPS 9999 FEW036CB BKN100 22/19 Q1014 R10/290350 NOSIG

2010/08/09 21:00
UMMS 092100Z 32004MPS 8000 NSC 19/18 Q1015 R31/290060 NOSIG

2010/08/09 21:00
LPFR 092100Z 29005KT 250V320 CAVOK 30/14 Q1014

2010/08/09 21:00
LPMA 092100Z 08003KT 360V120 9999 SCT012 22/19 Q1015 RS36002KT 0509003KT 2312001KT

2010/08/09 21:00
LPPR 092100Z 00000KT CAVOK 24/17 Q1016

2010/08/09 21:00
LPPS 092100Z 36009KT 9999 SCT011 SCT030 22/19 Q1015

2010/08/09 21:00
LPPT 092100Z 33010KT CAVOK 32/13 Q1014 NOSIG

2010/08/09 21:00
TGPY 092100Z 10010KT 9999 FEW018 BKN250 29/26 Q1012

2010/08/09 20:53
PABR 092053Z 06019KT 10SM OVC004 02/01 A2987

2010/08/09 20:53
PABT 092053Z 00000KT 10SM FEW016 SCT050 OVC110 16/10 A2957

2010/08/09 20:53
PACV 092053Z 12007KT 10SM FEW015 OVC033 14/11 A2985

2010/08/09 20:58
PADU 092058Z 22003KT 10SM SCT017 BKN025 11/08 A2954

2010/08/09 20:53
PAEN 092053Z 27003KT 10SM OVC070 17/12 A2964

2010/08/09 20:58
PAGA 092058Z AUTO 14008KT 10SM -RA BKN023 OVC028 14/11 A2948

2010/08/09 20:53
PAGK 092053Z 15019G30KT 10SM FEW060 SCT080 SCT100 SCT150 16/07 A2969

2010/08/09 20:53
PAGY 092053Z AUTO 19017G23KT 10SM OVC070 16/09 A2993

2010/08/09 20:53
PAIL 092053Z 12006KT 10SM BKN038 OVC046 12/09 A2960

2010/08/09 20:54
PAKN 092054Z 21011KT 10SM OVC018 13/10 A2957

2010/08/09 20:53
PAKT 092053Z 13006KT 10SM FEW006 BKN017 OVC026 14/12 A3003

2010/08/09 20:53
PASC 092053Z 06020KT 10SM OVC005 06/03 A2973

2010/08/09 20:53
PASI 092053Z 23004KT 10SM BKN008 OVC031 14/12 A2999

2010/08/09 20:52
PATA 092052Z 12007KT 10SM -RA BKN023 OVC035 13/12 A2957

2010/08/09 20:56
PAUN 092056Z AUTO 11006KT 10SM OVC050 12/08 A2939

2010/08/09 20:56
PAVD 092056Z 25003KT 2SM SCT001 BKN020 OVC030 12/09 A2983

2010/08/09 20:50
PHJH 092050Z 07017KT 15SM FEW040 29/17 A3011

2010/08/09 20:54
PHMK 092054Z 04014G26KT 10SM FEW030 29/16 A3010

2010/08/09 20:56
PMDY 092056Z AUTO 08012KT 10SM FEW025 28/22 A3025

2010/08/09 21:00
FMEE 092100Z 13013KT 9999 FEW026 SCT050 20/18 Q1023 TEMPO 5000 SHRA

2010/08/09 21:02
TFFF 092102Z 10003KT 060V150 9999 -SHRA FEW013CB SCT020 BKN280 27/25 Q1013 TEMPO +SHRA RMK B2

2010/08/09 20:55
KQA7 092055Z AUTO 14002KT 8000 FEW085 30/M02 A2983 RMK AO2 SLP982 T03001017 52002 $

2010/08/09 20:55
KQC3 092055Z AUTO 11002KT 9999 SCT120 BKN130 18/17 A3007 RMK AO2 SLP071 T01820165 58013 PNO $

2010/08/09 20:55
KQDX 092055Z AUTO 09003KT 9000 30/M02 A2963 RMK AO2 SLP951 T03021022 54001 $

2010/08/09 20:55
KQHT 092055Z 13005KT 9999 FEW150 21/10 A2981 RMK AO2A SLP058 58005

2010/08/09 20:55
KQL5 092055Z 18003KT 9999 SCT080 BKN240 28/23 A2961 RMK AO2A SLP990 WND DATA ESTMD ALSTG/SLP ESTMD 58002

2010/08/09 20:55
KQLE 092055Z VRB01KT 8000 DU SCT150 BKN250 33/M01 A2965 RMK SLP957 T03281011 58002 PA3199 DA5960 RH11

2010/08/09 20:55
KQVF 092055Z AUTO 17004KT 11SM FEW031 24/20 A3000 RMK AO2 SLP159 T02360203 402810221 50004

2010/08/09 21:06
CYLD 092106Z 27006KT 15SM -SHRA BKN025TCU RETS RMK TCU4 CB NE ASOCTD

2010/08/09 21:00
VTBS 092100Z 21001KT 9000 FEW020 SCT120 BKN300 26/24 Q1004 NOSIG

2010/08/09 21:00
VTBD 092100Z 23005KT 9999 FEW020 SCT120 BKN300 26/23 Q1003 NOSIG

2010/08/09 21:00
VTCC 092100Z 11002KT 9999 BKN035 SCT110 26/24 Q1005 A2969

2010/08/09 21:00
VTBU 092100Z 24003KT 9999 FEW020 BKN300 29/26 Q1004 A2966

2010/08/09 21:00
VTSP 092100Z 25007T 7000 SCT018 SCT120 BKN300 28/24 Q1007 A2974

2010/08/09 21:00
VVTS 092100Z 23009KT 8000 -RA SCT015 BKN040 25/24 Q1005 NOSIG

2010/08/09 21:00
VVNB 092100Z 07003KT 6000 NSC 26/25 Q1003 NOSIG

2010/08/09 21:00
VVDN 092100Z 23004KT 8000 FEW013 SCT060 25/23 Q1004 NOSIG

2010/08/09 21:00
NZAA 092100Z 11005KT CAVOK 07/04 Q1026 NOSIG

2010/08/09 21:00
NZWN 092100Z 22008KT 9999 FEW038 08/03 Q1026 NOSIG 

2010/08/09 21:00
NZCH 092100Z 34001KT CAVOK 01/M01 Q1026 NOSIG 

2010/08/09 20:55
LIMU 092055Z 23005KT 9999 FEW026 23/22 Q1017 RMK SCT QUK / QUL / VIS MAR 20 KM VIS MIN 9999

2010/08/09 20:55
LIPA 092055Z 07003KT 9999 FEW040 21/20 Q1015 RMK FEW VIS MIN 9999 A2998 BLU

2010/08/09 20:50
LIPB 092050Z 00000KT 9999 FEW070 SCT100 24/15 Q1015 RMK MON LIB VIS MIN 9999

2010/08/09 20:55
LIPC 092055Z 21003KT CAVOK 22/19 Q1014 RMK SCT SCT200 VIS MIN 9999 WIND THR12 21003KT BLU

2010/08/09 20:45
LIPH 092045Z 00000KT 9999 SCT080 24/20 Q1015 RMK SCT VIS MIN 9999 WIND THR07 /////KT BLU

2010/08/09 20:45
LIPR 092045Z 16001KT CAVOK 24/21 Q1014 RMK SKC VIS MIN 9999 WIND THR31 00000KT BLU

2010/08/09 20:55
LIPS 092055Z 00000KT 9999 FEW025 23/19 Q1015 RMK FEW VIS MIN 9999 BLU

2010/08/09 20:45
LIPX 092045Z 34004KT CAVOK 24/23 Q1015 RMK SKC VIS MIN 9999 BLU

2010/08/09 20:50
LIPY 092050Z 16003KT 120V180 CAVOK 22/19 Q1015 RMK VIS MIN 9999

2010/08/09 20:55
LIVD 092055Z 00000KT CAVOK 17/13 Q1020 RMK SKC VIS MIN 9999

2010/08/09 20:55
LIVE 092055Z 00000KT CAVOK 13/09 Q1020 RMK SKC VIS MIN 9999

2010/08/09 20:55
LIVP 092055Z 20009KT 9999 0100S FEW000 10/10 Q1024 RMK FEW MON CLD SCT VAL S NEBBIA VIS MIN 0100S

2010/08/09 20:55
LIVR 092055Z 13008KT 0500 FG VV002 12/12 Q1023 RMK MON INVIS VIS MIN 0500

2010/08/09 20:55
LIVT 092055Z 04004KT CAVOK 22/18 Q1015 RMK FEW FEW100 QUK / QUL / VIS MAR 20 KM VIS MIN 9999

2010/08/09 21:00
LELO 092100Z VRB02KT CAVOK 20/14 Q1019

2010/08/09 21:00
LERT 092100Z VRB01KT CAVOK 28/20 Q1014 NOSIG

2010/08/09 21:00
LFBY 092100Z AUTO 19001KT 9999 // ////// 18/15 Q1020

2010/08/09 21:00
LFRJ 092100Z AUTO 22009KT 9999NDV BKN009/// BKN014/// OVC054/// 17/16 Q1017

2010/08/09 21:00
LJLJ 092100Z VRB01KT 9999 BKN030 19/16 Q1018 NOSIG

2010/08/09 21:00
LJMB 092100Z 00000KT CAVOK 17/16 Q1018

2010/08/09 21:00
LJPZ 092100Z AUTO 12006KT 9999NDV NCD 20/18 Q1015

2010/08/09 21:00
LKKV 092100Z 10001KT CAVOK 14/13 Q1019 RMK REG QNH 1015

2010/08/09 21:00
LKMT 092100Z 21005KT CAVOK 16/15 Q1017 NOSIG RMK REG QNH 1015

2010/08/09 21:00
LKPR 092100Z VRB02KT CAVOK 16/14 Q1018 NOSIG RMK REG QNH 1015

2010/08/09 21:00
LKTB 092100Z 13001KT CAVOK 16/13 Q1017 NOSIG RMK REG QNH 1015

2010/08/09 21:00
LPAZ 092100Z 04009KT 9999 SCT018 BKN036 21/16 Q1020

2010/08/09 21:00
LPFR 092100Z 29005KT 250V320 CAVOK 30/14 Q1014

2010/08/09 21:00
LPHR 092100Z 36005KT 9999 FEW016 22/16 Q1022

2010/08/09 21:00
LPPD 092100Z 05007KT 020V090 9999 FEW018 BKN035 21/15 Q1021

2010/08/09 21:00
LPPS 092100Z 36009KT 9999 SCT011 SCT030 22/19 Q1015

2010/08/09 21:00
LPPT 092100Z 33010KT CAVOK 32/13 Q1014 NOSIG

2010/08/09 21:00
LRAR 092100Z 31002KT CAVOK 18/17 Q1017

2010/08/09 21:00
LRBC 092100Z 34006KT CAVOK 22/20 Q1015

2010/08/09 21:00
LRBM 092100Z 02004KT CAVOK 17/16 Q1016

2010/08/09 21:00
LRCL 092100Z VRB02KT 9999 FEW050 18/17 Q1017

2010/08/09 21:00
LRCV 092100Z AUTO 26006KT 9999 NCD 21/17 Q1014

2010/08/09 21:00
LRIA 092100Z 32010KT 290V350 CAVOK 22/20 Q1015

2010/08/09 21:00
LROD 092100Z AUTO 00000KT 5000 +RA NCD 17/16 Q1017

2010/08/09 21:00
LRSM 092100Z AUTO 21004KT 9000 NCD 18/17 Q1017

2010/08/09 21:00
LRSV 092100Z 24001KT 9999 TS SCT033CB 20/19 Q1017

2010/08/09 21:00
LRTC 092100Z AUTO 33010KT 9999 NCD 25/20 Q1011

2010/08/09 21:00
LRTM 092100Z VRB02KT CAVOK 21/18 Q1017

2010/08/09 21:00
SEQU 092100Z 11008KT 9999 SCT040 17/03 Q1025 RMK A3029 NOSIG

2010/08/09 21:00
SEGU 092100Z 22012KT 9999 SCT026 BKN100 27/20 Q1010 NOSIG

2010/08/09 20:55
LIMU 092055Z 23005KT 9999 FEW026 23/22 Q1017 RMK SCT QUK / QUL / VIS MAR 20 KM VIS MIN 9999

2010/08/09 20:55
LIVD 092055Z 00000KT CAVOK 17/13 Q1020 RMK SKC VIS MIN 9999

2010/08/09 20:55
LIVE 092055Z 00000KT CAVOK 13/09 Q1020 RMK SKC VIS MIN 9999

2010/08/09 20:55
LIVR 092055Z 13008KT 0500 FG VV002 12/12 Q1023 RMK MON INVIS VIS MIN 0500

2010/08/09 20:55
LIVT 092055Z 04004KT CAVOK 22/18 Q1015 RMK FEW FEW100 QUK / QUL / VIS MAR 20 KM VIS MIN 9999

2010/08/09 20:50
LIMP 092050Z 21005KT CAVOK 24/18 Q1015 RMK VIS MIN 9999

2010/08/09 20:50
LIMZ 092050Z 22004KT 9999 SCT080 20/18 Q1016 RMK VIS MIN 9999

2010/08/09 20:55
LIPA 092055Z 07003KT 9999 FEW040 21/20 Q1015 RMK FEW VIS MIN 9999 A2998 BLU

2010/08/09 20:50
LIPB 092050Z 00000KT 9999 FEW070 SCT100 24/15 Q1015 RMK MON LIB VIS MIN 9999

2010/08/09 20:55
LIPC 092055Z 21003KT CAVOK 22/19 Q1014 RMK SCT SCT200 VIS MIN 9999 WIND THR12 21003KT BLU

2010/08/09 20:45
LIPH 092045Z 00000KT 9999 SCT080 24/20 Q1015 RMK SCT VIS MIN 9999 WIND THR07 /////KT BLU

2010/08/09 20:50
LIPO 092050Z 05004KT CAVOK 23/18 Q1015 RMK VIS MIN 9999

2010/08/09 20:50
LIPQ 092050Z 09005KT CAVOK 22/18 Q1015

2010/08/09 20:45
LIPR 092045Z 16001KT CAVOK 24/21 Q1014 RMK SKC VIS MIN 9999 WIND THR31 00000KT BLU

2010/08/09 20:55
LIPS 092055Z 00000KT 9999 FEW025 23/19 Q1015 RMK FEW VIS MIN 9999 BLU

2010/08/09 20:45
LIPX 092045Z 34004KT CAVOK 24/23 Q1015 RMK SKC VIS MIN 9999 BLU

2010/08/09 20:50
LIPY 092050Z 16003KT 120V180 CAVOK 22/19 Q1015 RMK VIS MIN 9999

2010/08/09 20:55
LIVP 092055Z 20009KT 9999 0100S FEW000 10/10 Q1024 RMK FEW MON CLD SCT VAL S NEBBIA VIS MIN 0100S

2010/08/09 20:50
LIBF 092050Z 28007KT CAVOK 24/13 Q1015 RMK VIS MIN 9999

2010/08/09 20:50
LIEA 092050Z VRB02KT CAVOK 19/15 Q1017 RMK VIS MIN 9999

2010/08/09 20:55
LIED 092055Z 33008KT 9999 BKN060 26/06 Q1015 RMK BKN VIS MIN 9999 BLU

2010/08/09 20:50
LIEO 092050Z 08004KT CAVOK 24/19 Q1016 RMK VIS MIN 9999

2010/08/09 20:55
LIRE 092055Z 00000KT CAVOK 22/20 Q1015 RMK SKC VIS MIN 9999 WIND THR31 09002KT BLU

2010/08/09 20:55
LIRM 092055Z 13003KT 9999 FEW040 26/25 Q1016 RMK FEW VIS MIN 9999 WIND THR06 13003KT BLU

2010/08/09 20:55
LIRS 092055Z 01007KT CAVOK 23/14 Q1015 RMK SKC VIS MIN 9999 WIND THR21 /////KT BLU

2010/08/09 20:50
LIRZ 092050Z 36004KT CAVOK 22/17 Q1016 RMK VIS MIN 9999

2010/08/09 21:00
FBSK 092100Z 20010KT CAVOK 12/07 Q1028 NOSIG

2010/08/09 21:07
CYKF 092107Z AUTO 30005KT 230V310 9SM FEW040 OVC086 22/21 A2997 RMK SLP145 DENSITY ALT 2000FT

2010/08/09 21:03
KFDK 092103Z AUTO 16007KT 130V190 10SM SCT100 34/18 A2998

2010/08/09 20:51
KABE 092051Z 25006KT 9SM CLR 33/19 A2995

2010/08/09 20:51
KALB 092051Z 27009KT 7SM SCT070 BKN095 BKN120 31/18 A2989

2010/08/09 20:56
KART 092056Z AUTO 23007KT 7SM CLR 26/20 A2990

2010/08/09 20:54
KAVP 092054Z 28010G21KT 10SM CLR 32/14 A2995

2010/08/09 20:51
KBDL 092051Z 21011KT 10SM FEW070 SCT100 BKN140 33/14 A2990

2010/08/09 20:52
KBDR 092052Z 18013KT 8SM CLR 29/21 A2993

2010/08/09 20:54
KBTV 092054Z 18005KT 4SM -TSRA BR FEW047CB BKN070 OVC095 23/21 A2988

2010/08/09 20:54
KBUF 092054Z 24006KT 7SM -RA FEW030 BKN050 BKN075 OVC130 24/19 A2994

2010/08/09 20:56
KCAE 092056Z 13011KT 10SM SCT065 SCT090 BKN210 34/21 A2998

2010/08/09 20:51
KCAK 092051Z COR 26009KT 7SM SCT065 BKN130 BKN180 29/17 A3000

2010/08/09 20:51
KCMH 092051Z 18008G16KT 120V210 10SM FEW070 SCT140 BKN200 32/18 A2997

2010/08/09 20:53
KCRQ 092053Z 24009KT 10SM CLR 21/14 A2992

2010/08/09 20:54
KCRW 092054Z 22004KT 10SM FEW060 32/16 A3000

2010/08/09 20:56
KDAY 092056Z 24004KT 9SM SCT050 BKN150 OVC250 32/19 A2998

2010/08/09 20:51
KERI 092051Z 26008KT 7SM FEW100 28/18 A2996

2010/08/09 20:54
KGSO 092054Z 19007KT 10SM SCT055 33/19 A3002

2010/08/09 20:53
KGSP 092053Z VRB05KT 10SM CLR 33/21 A3000

2010/08/09 20:51
KHTS 092051Z 00000KT 10SM CLR 32/18 A2999

2010/08/09 20:53
KHUL 092053Z AUTO 25005KT 10SM BKN095 25/17 A2983

2010/08/09 20:53
KIAG 092053Z 29014G18KT 5SM -TSRA FEW025 BKN045CB BKN065 OVC130 24/21 A2995

2010/08/09 20:51
KILG 092051Z 17013G19KT 10SM CLR 31/22 A2998

2010/08/09 20:53
KILM 092053Z AUTO 14007KT 10SM CLR 30/23 A3000

2010/08/09 20:53
KMSS 092053Z AUTO 30005KT 10SM SCT040 26/21 A2989

2010/08/09 20:54
KORH 092054Z 26011KT 10SM FEW060 31/15 A2995

2010/08/09 20:51
KPVD 092051Z 19013KT 10SM FEW046TCU SCT060 SCT080 SCT250 30/21 A2993

2010/08/09 20:51
KPWM 092051Z 15007KT 10SM SCT075 BKN090 27/19 A2987

2010/08/09 20:54
KRIC 092054Z 21009KT 8SM SCT060 SCT250 33/19 A2998

2010/08/09 20:54
KROC 092054Z 28010KT 5SM -RA FEW009 SCT040 BKN055 OVC130 26/21 A2994

2010/08/09 20:54
KSYR 092054Z 25010G18KT 180V270 10SM BKN060 OVC100 29/18 A2990

2010/08/09 20:55
KMZZ 092055Z AUTO 19003KT 7SM CLR 31/22 A2995 RMK AO2

2010/08/09 21:05
KYIP 092105Z AUTO 11009KT 10SM -RA BKN035 BKN080 24/22 A2993 RMK AO2 PRESFR P0000 TSNO

2010/08/09 21:06
KCLM 092106Z AUTO VRB03KT 10SM -RA FEW003 SCT016 SCT095 14/13 A2999 RMK AO2 P0000

2010/08/09 21:06
KFZY 092106Z AUTO 31005KT 1SM +RA BR BKN019 BKN040 OVC055 22/20 A2994 RMK AO2 LTG DSNT SE P0013

2010/08/09 21:06
KOXR 092106Z 23007KT 10SM FEW012 19/13 A2993 RMK AO2

2010/08/09 20:56
KSAT 092056Z 15005KT 10SM FEW060 35/20 A2991

2010/08/09 21:06
PACM 092106Z AUTO 15013KT 6SM +RA BR BKN016 BKN047 OVC075 11/09 A2925 RMK AO2 TSNO BKN V SCT RAB05 P0000 $

2010/08/09 21:06
PACM 092106Z AUTO 15013KT 6SM +RA BR BKN016 BKN047 OVC075 11/09 A2925 RMK AO2 TSNO BKN V SCT RAB05 P0000 $

2010/08/09 21:05
PAOO 092105Z AUTO 16018KT 1 3/4SM BR BKN007 OVC013 09/09 A2922 RMK AO2 TSNO CIG 005V010 $

2010/08/09 21:00
K2G4 092100Z AUTO 21005KT 10SM SCT055 28/12 A3012 RMK AO1

2010/08/09 21:02
K2W6 092102Z AUTO 14006KT 10SM CLR 31/17 A3000 RMK AO1

2010/08/09 21:04
KASJ 092104Z AUTO 00000KT 10SM CLR 32/16 A3000 RMK AO2

2010/08/09 21:03
KCBE 092103Z AUTO 00000KT 10SM CLR 34/16 A2999 RMK AO1

2010/08/09 21:15
KCCA 092115Z AUTO 00000KT 8SM CLR 37/24 A2990 RMK AO2

2010/08/09 21:00
KCGE 092100Z AUTO 20005KT 10SM CLR 33/21 A3000 RMK AO1

2010/08/09 21:05
KCGS 092105Z AUTO 22005KT 10SM CLR 35/18 A2996 RMK AO1

2010/08/09 21:03
KFDK 092103Z AUTO 16007KT 130V190 10SM SCT100 34/18 A2998 RMK AO2

2010/08/09 21:01
KDMW 092101Z AUTO 17007KT 152V212 10SM SCT065 BKN090 34/19 A3000 RMK AO2

2010/08/09 21:03
KFME 092103Z AUTO 14009KT 10SM SCT060 SCT070 30/22 A2999 RMK AO1

2010/08/09 20:55
KGZL 092055Z AUTO 19007G16KT 10SM 38/19 A2989 RMK AO2 PWINO

2010/08/09 21:03
KW29 092103Z AUTO 17008KT 10SM CLR 31/19 A2997 RMK AO1

2010/08/09 21:00
KXLL 092100Z AUTO 20008KT 5SM HZ SCT060 33/20 A2996 RMK AO2 T03300204

2010/08/09 20:55
KMZZ 092055Z AUTO 19003KT 7SM CLR 31/22 A2995 RMK AO2

2010/08/09 21:03
K11R 092103Z AUTO 14007KT 10SM CLR 36/19 A2990 RMK AO2

2010/08/09 21:05
K3T5 092105Z AUTO 18008KT 10SM SCT055 36/22 A2989 RMK AO2 T03560217

2010/08/09 21:02
KAPY 092102Z AUTO 11010KT 10SM SCT060 36/19 A2982 RMK AO2 T03560192

2010/08/09 21:05
KAQO 092105Z AUTO 14011KT FEW070 37/18 A2992 RMK AO2 PWINO

2010/08/09 21:04
KARM 092104Z AUTO 10005KT 10SM SCT046 SCT060 38/23 A2991 RMK AO2 T03830231

2010/08/09 21:07
KASW 092107Z AUTO 20003KT 7SM SCT100 BKN120 30/23 A2995 RMK AO2 T02990234

2010/08/09 21:05
KERV 092105Z AUTO 17012G15KT 10SM SCT065 36/17 A2994 RMK AO2 T03600169

2010/08/09 21:02
KF05 092102Z AUTO 21010G15KT 150V220 CLR 39/16 A2985 RMK AO2 T03880164

2010/08/09 21:03
KGLE 092103Z AUTO 17006G18KT 10SM BKN065 BKN090 37/18 A2989 RMK AO2

2010/08/09 21:06
KHQZ 092106Z AUTO 16010G15KT 10SM SCT060 36/19 A2989 RMK AO2

2010/08/09 21:13
KMNZ 092113Z AUTO 17010KT 10SM SCT070 38/17 A2991 RMK AO2

2010/08/09 21:05
KOXI 092105Z AUTO 24005KT 10SM SCT100 SCT120 30/22 A2992 RMK AO1 T03000223

2010/08/09 21:07
KPSN 092107Z AUTO 22006KT 36/21 A2992 RMK AO2 PWINO

2010/08/09 21:05
KRCR 092105Z AUTO 23004KT 7SM SCT027 32/24 A2995 RMK AO2

2010/08/09 21:05
KSFY 092105Z AUTO 25003KT 10SM SCT080 31/23 A2991 RMK AO2

2010/08/09 20:58
KTZR 092058Z 00000KT 10SM SKC 29/20 A2998

2010/08/09 21:00
CXBK 092100Z AUTO 34005KT 27/13 RMK AO1 SLP103 T02650130 58002

2010/08/09 21:00
CXBK 092100Z AUTO 34005KT 27/13 RMK AO1 SLP103 T02650130 58002

2010/08/09 21:00
CXBO 092100Z AUTO 24010KT 26/17 RMK AO1 T02620171

2010/08/09 21:00
CXCH 092100Z AUTO 22/17 RMK AO1 T02200169

2010/08/09 21:00
CXCK 092100Z AUTO 12008KT 19/ RMK AO1 T0193

2010/08/09 21:00
CXHA 092100Z AUTO 36002KT 28/21 RMK AO1 SLP127 T02760208 58008

2010/08/09 21:00
CXHF 092100Z AUTO 26/15 RMK AO1 T02620146

2010/08/09 21:00
CXIB 092100Z AUTO 20006KT 23/12 RMK AO1 SLP131 T02250118 58018

2010/08/09 21:00
CXMI 092100Z AUTO 18012KT 18/16 RMK AO1 SLP145 T01810159 56017

2010/08/09 21:00
CXMY 092100Z AUTO 21/16 RMK AO1 T02080161

2010/08/09 21:00
CXOX 092100Z AUTO 28005KT 24/16 RMK AO1 SLP090 T02420162 53006

2010/08/09 21:00
CXSH 092100Z AUTO 18005KT 27/19 RMK AO1 SLP100 T02680187 56012

2010/08/09 21:00
CXSR 092100Z AUTO 25007KT 20/04 RMK AO1 SLP097 T01990041 53014

2010/08/09 21:00
CXTP 092100Z AUTO 23010G21KT 20/15 RMK AO1 PK WND 22024/2002 SLP161 T02020152 56009

2010/08/09 21:00
CXCH 092100Z AUTO 22/17 RMK AO1 T02200169

2010/08/09 21:00
CXCK 092100Z AUTO 12008KT 19/ RMK AO1 T0193

2010/08/09 21:00
CXHA 092100Z AUTO 36002KT 28/21 RMK AO1 SLP127 T02760208 58008

2010/08/09 21:00
CXHF 092100Z AUTO 26/15 RMK AO1 T02620146

2010/08/09 21:00
CXIB 092100Z AUTO 20006KT 23/12 RMK AO1 SLP131 T02250118 58018

2010/08/09 21:00
CXMI 092100Z AUTO 18012KT 18/16 RMK AO1 SLP145 T01810159 56017

2010/08/09 21:00
CXMY 092100Z AUTO 21/16 RMK AO1 T02080161

2010/08/09 21:00
CXOX 092100Z AUTO 28005KT 24/16 RMK AO1 SLP090 T02420162 53006

2010/08/09 21:00
CXSH 092100Z AUTO 18005KT 27/19 RMK AO1 SLP100 T02680187 56012

2010/08/09 21:00
CXSR 092100Z AUTO 25007KT 20/04 RMK AO1 SLP097 T01990041 53014

2010/08/09 21:00
CXTP 092100Z AUTO 23010G21KT 20/15 RMK AO1 PK WND 22024/2002 SLP161 T02020152 56009

2010/08/09 21:00
CXHA 092100Z AUTO 36002KT 28/21 RMK AO1 SLP127 T02760208 58008

2010/08/09 21:00
CXHF 092100Z AUTO 26/15 RMK AO1 T02620146

2010/08/09 21:00
CXIB 092100Z AUTO 20006KT 23/12 RMK AO1 SLP131 T02250118 58018

2010/08/09 21:00
CXMI 092100Z AUTO 18012KT 18/16 RMK AO1 SLP145 T01810159 56017

2010/08/09 21:00
CXMY 092100Z AUTO 21/16 RMK AO1 T02080161

2010/08/09 21:00
CXOX 092100Z AUTO 28005KT 24/16 RMK AO1 SLP090 T02420162 53006

2010/08/09 21:00
CXSH 092100Z AUTO 18005KT 27/19 RMK AO1 SLP100 T02680187 56012

2010/08/09 21:00
CXSR 092100Z AUTO 25007KT 20/04 RMK AO1 SLP097 T01990041 53014

2010/08/09 21:00
CXTP 092100Z AUTO 23010G21KT 20/15 RMK AO1 PK WND 22024/2002 SLP161 T02020152 56009

2010/08/09 21:00
CXTP 092100Z AUTO 23010G21KT 20/15 RMK AO1 PK WND 22024/2002 SLP161 T02020152 56009

2010/08/09 21:00
TVSV 092100Z 09006KT 9999 FEW021 BKN260 FEW///CB 29/25 Q1013 CB NW+W 

2010/08/09 21:00
CWBU 092100Z AUTO 28005KT 27/15 RMK AO1 SLP095 T02720152 51005

2010/08/09 21:00
CWBU 092100Z AUTO 28005KT 27/15 RMK AO1 SLP095 T02720152 51005

2010/08/09 21:06
KJAN 092106Z 24004KT 4SM -RA BR BKN022 OVC045 27/26 A2991 RMK AO2 TSE04 TS DSPTD P0008

2010/08/09 21:00
MKJS 092100Z 26005KT 9999 SCT022 BKN220 30/22 Q1012

2010/08/09 21:00
CWBV 092100Z AUTO 18011KT 19/17 RMK AO1 SLP153 T01890170 56024

2010/08/09 21:00
CWRN 092100Z AUTO 17013KT 20/16 RMK AO1 PK WND 17020/2043 SLP151 T02000161 56023

2010/08/09 21:00
CWEP 092100Z AUTO 19010G15KT 21/17 RMK AO1 SLP122 T02090166 58026

2010/08/09 21:00
CWEP 092100Z AUTO 19010G15KT 21/17 RMK AO1 SLP122 T02090166 58026

2010/08/09 21:00
CWBE 092100Z AUTO 21005KT 21/19 RMK AO1 SLP133 T02080185 55011

2010/08/09 21:00
CWLS 092100Z AUTO 20008KT 22/21 RMK AO1 0PAST HR 8005 SLP129 P0008 T02170206 50086

2010/08/09 21:00
CWPC 092100Z AUTO 30019KT 24/18 RMK AO1 PK WND 31022/2057 T02430175

2010/08/09 21:00
CWNC 092100Z AUTO 28003KT 22/22 RMK AO1 4PAST HR 5000 SLP126 P0002 T02150215 50010

2010/08/09 21:00
CWNZ 092100Z AUTO 11002KT 27/14 RMK AO1 SLP107 T02700138 57009

2010/08/09 21:00
CWNC 092100Z AUTO 28003KT 22/22 RMK AO1 4PAST HR 5000 SLP126 P0002 T02150215 50010

2010/08/09 21:00
CWNZ 092100Z AUTO 11002KT 27/14 RMK AO1 SLP107 T02700138 57009

2010/08/09 21:00
CWNC 092100Z AUTO 28003KT 22/22 RMK AO1 4PAST HR 5000 SLP126 P0002 T02150215 50010

2010/08/09 21:00
CWNZ 092100Z AUTO 11002KT 27/14 RMK AO1 SLP107 T02700138 57009

2010/08/09 21:00
CWNC 092100Z AUTO 28003KT 22/22 RMK AO1 4PAST HR 5000 SLP126 P0002 T02150215 50010

2010/08/09 21:00
CWNZ 092100Z AUTO 11002KT 27/14 RMK AO1 SLP107 T02700138 57009

2010/08/09 21:00
CWDQ 092100Z AUTO 27006KT 27/12 RMK AO1 SLP104 T02740116 56006

2010/08/09 21:00
CWWB 092100Z AUTO 24004KT 24/22 RMK AO1 SLP131 T02370219 53005

2010/08/09 21:00
CWGT 092100Z AUTO 24004KT 16/11 RMK AO1 SLP139 T01600114 58004

2010/08/09 21:00
CWGW 092100Z AUTO 18004KT 23/10 RMK AO1 SLP097 T02310101 56013

2010/08/09 21:00
CWHL 092100Z AUTO 25003KT 13/ RMK AO1 SLP161 T0132 53002

2010/08/09 21:00
CWHT 092100Z AUTO 24007KT 17/04 RMK AO1 SLP097 T01700044 58011

2010/08/09 21:00
CWHV 092100Z AUTO 24005KT 25/15 RMK AO1 SLP110 T02520154 56013

2010/08/09 21:00
CWIS 092100Z AUTO 23005KT 21/15 RMK AO1 PK WND 21018/2020 SLP113 T02140148 56003

2010/08/09 21:00
CWIT 092100Z AUTO 30003KT 25/20 RMK AO1 T02510197

2010/08/09 21:00
CWJC 092100Z AUTO 21/05 RMK AO1 25 0000 SLP138 T02120054

2010/08/09 21:00
CWHL 092100Z AUTO 25003KT 13/ RMK AO1 SLP161 T0132 53002

2010/08/09 21:00
CWHT 092100Z AUTO 24007KT 17/04 RMK AO1 SLP097 T01700044 58011

2010/08/09 21:00
CWHV 092100Z AUTO 24005KT 25/15 RMK AO1 SLP110 T02520154 56013

2010/08/09 21:00
CWIS 092100Z AUTO 23005KT 21/15 RMK AO1 PK WND 21018/2020 SLP113 T02140148 56003

2010/08/09 21:00
CWIT 092100Z AUTO 30003KT 25/20 RMK AO1 T02510197

2010/08/09 21:00
CWJC 092100Z AUTO 21/05 RMK AO1 25 0000 SLP138 T02120054

2010/08/09 21:00
CWHL 092100Z AUTO 25003KT 13/ RMK AO1 SLP161 T0132 53002

2010/08/09 21:00
CWHT 092100Z AUTO 24007KT 17/04 RMK AO1 SLP097 T01700044 58011

2010/08/09 21:00
CWHV 092100Z AUTO 24005KT 25/15 RMK AO1 SLP110 T02520154 56013

2010/08/09 21:00
CWIS 092100Z AUTO 23005KT 21/15 RMK AO1 PK WND 21018/2020 SLP113 T02140148 56003

2010/08/09 21:00
CWIT 092100Z AUTO 30003KT 25/20 RMK AO1 T02510197

2010/08/09 21:00
CWJC 092100Z AUTO 21/05 RMK AO1 25 0000 SLP138 T02120054

2010/08/09 21:00
CERM 092100Z AUTO 15003KT 25/18 RMK AO1 SLP089 T02510180 58010

2010/08/09 21:00
CZCR 092100Z AUTO 25005KT 26/16 RMK AO1 SLP079 T02560162 56018

2010/08/09 21:00
CZSP 092100Z AUTO 16006KT 21/15 RMK AO1 SLP111 T02110145 56029

2010/08/09 21:00
CXLB 092100Z AUTO 20013KT 19/16 RMK AO1 PK WND 19019/2009 SLP141 T01940160 56019

2010/08/09 21:00
CXPC 092100Z AUTO 19003KT 25/22 RMK AO1 SLP105 T02470221 57008

2010/08/09 21:00
CXTD 092100Z AUTO 18007KT 21/13 RMK AO1 SLP144 T02070127 56023

2010/08/09 21:00
CXVN 092100Z AUTO 25004KT 24/23 RMK AO1 4PAST HR 3005 SLP124 P0009 T02360226 50024

2010/08/09 21:00
CXZV 092100Z AUTO 24004KT 18/14 RMK AO1 SLP052 T01830139 56009

2010/08/09 21:00
CXLB 092100Z AUTO 20013KT 19/16 RMK AO1 PK WND 19019/2009 SLP141 T01940160 56019

2010/08/09 21:00
CXPC 092100Z AUTO 19003KT 25/22 RMK AO1 SLP105 T02470221 57008

2010/08/09 21:00
CXTD 092100Z AUTO 18007KT 21/13 RMK AO1 SLP144 T02070127 56023

2010/08/09 21:00
CXVN 092100Z AUTO 25004KT 24/23 RMK AO1 4PAST HR 3005 SLP124 P0009 T02360226 50024

2010/08/09 21:00
CXZV 092100Z AUTO 24004KT 18/14 RMK AO1 SLP052 T01830139 56009

2010/08/09 21:00
CWVF 092100Z AUTO 29007KT 16/ RMK AO1 T0159

2010/08/09 21:00
CWVQ 092100Z AUTO 27003KT 26/19 RMK AO1 T02600194

2010/08/09 21:00
CWVV 092100Z AUTO 18003KT 16/13 RMK AO1 4PAST HR 3001 SLP150 P0002 T01570133 50014

2010/08/09 21:00
CWWA 092100Z AUTO 25002KT 17/14 RMK AO1 3002 SLP144 T01710141 50012

2010/08/09 21:00
CWWK 092100Z AUTO 21002KT 16/14 RMK AO1 4PAST HR 3002 SLP157 P0002 T01640144 50006

2010/08/09 21:00
CWXA 092100Z AUTO 26007G16KT 18/08 RMK AO1 PK WND 26022/2024 SLP100 T01820080 53003

2010/08/09 21:00
CWLB 092100Z AUTO 23003KT 24/10 RMK AO1 SLP100 T02370096 56001

2010/08/09 21:00
CWDC 092100Z AUTO 22002KT 18/17 RMK AO1 8PAST HR 3009 SLP094 P0003 T01750166 50024

2010/08/09 21:00
CWEH 092100Z AUTO 17007KT 27/06 RMK AO1 SLP105 T02670060 57011

2010/08/09 21:00
CWKO 092100Z AUTO 04002KT 28/08 RMK AO1 SLP115 T02790082 58008

2010/08/09 21:00
CWOY 092100Z AUTO 29003KT 25/14 RMK AO1 SLP116 T02540138 51003

2010/08/09 21:00
CWDC 092100Z AUTO 22002KT 18/17 RMK AO1 8PAST HR 3009 SLP094 P0003 T01750166 50024

2010/08/09 21:00
CWEH 092100Z AUTO 17007KT 27/06 RMK AO1 SLP105 T02670060 57011

2010/08/09 21:00
CWKO 092100Z AUTO 04002KT 28/08 RMK AO1 SLP115 T02790082 58008

2010/08/09 21:00
CWOY 092100Z AUTO 29003KT 25/14 RMK AO1 SLP116 T02540138 51003

2010/08/09 21:00
CWEK 092100Z AUTO 18005KT 13/ RMK AO1 SLP163 T0127 55000

2010/08/09 21:00
CWEQ 092100Z AUTO 22006KT 29/18 RMK AO1 SLP091 T02870178 50003

2010/08/09 21:00
CWLP 092100Z AUTO 29013KT 15/12 RMK AO1 SLP166 T01480123 58001

2010/08/09 21:00
CWVT 092100Z AUTO 31003KT 24/15 RMK AO1 SLP102 T02440149 53008

2010/08/09 21:00
CWZW 092100Z AUTO 17008KT 16/06 RMK AO1 SLP125 T01590061 58008

2010/08/09 21:00
CXTP 092100Z AUTO 23010G21KT 20/15 RMK AO1 PK WND 22024/2002 SLP161 T02020152 56009

2010/08/09 21:00
CXTP 092100Z AUTO 23010G21KT 20/15 RMK AO1 PK WND 22024/2002 SLP161 T02020152 56009

2010/08/09 21:00
CXTP 092100Z AUTO 23010G21KT 20/15 RMK AO1 PK WND 22024/2002 SLP161 T02020152 56009

2010/08/09 21:00
CXTP 092100Z AUTO 23010G21KT 20/15 RMK AO1 PK WND 22024/2002 SLP161 T02020152 56009

2010/08/09 21:00
CXTP 092100Z AUTO 23010G21KT 20/15 RMK AO1 PK WND 22024/2002 SLP161 T02020152 56009

2010/08/09 21:00
CXTP 092100Z AUTO 23010G21KT 20/15 RMK AO1 PK WND 22024/2002 SLP161 T02020152 56009

2010/08/09 21:00
CXTP 092100Z AUTO 23010G21KT 20/15 RMK AO1 PK WND 22024/2002 SLP161 T02020152 56009

2010/08/09 21:00
CXTP 092100Z AUTO 23010G21KT 20/15 RMK AO1 PK WND 22024/2002 SLP161 T02020152 56009

2010/08/09 21:00
CXTP 092100Z AUTO 23010G21KT 20/15 RMK AO1 PK WND 22024/2002 SLP161 T02020152 56009

2010/08/09 21:00
CWQK 092100Z AUTO 26011KT RMK AO1 

2010/08/09 21:00
CWRY 092100Z AUTO 22007KT 28/04 RMK AO1 PK WND 24017/2001 SLP093 T02750040 56011

2010/08/09 21:00
CWSD 092100Z AUTO 20005KT 20/18 RMK AO1 1PAST HR 6021 SLP109 P0004 T01980181 50011

2010/08/09 21:00
CWSK 092100Z AUTO 15005KT 17/14 RMK AO1 SLP130 T01710142 52004

2010/08/09 21:00
CWYL 092100Z AUTO 24002KT 13/11 RMK AO1 0PAST HR M P0004 T01340110 50024

2010/08/09 21:00
CWYY 092100Z AUTO 31004KT 28/10 RMK AO1 T02800097

2010/08/09 21:00
CWZO 092100Z AUTO 16009KT RMK AO1 

2010/08/09 21:00
CWNE 092100Z AUTO 20010G17KT 20/19 RMK AO1 6025 PK WND 22017/2054 SLP103 T02000185 50006

2010/08/09 21:00
CWNP 092100Z AUTO 29003KT 23/18 RMK AO1 6004 SLP085 T02280176 50004

2010/08/09 21:00
CWPD 092100Z AUTO 09002KT 22/12 RMK AO1 SLP080 T02170121 56003

2010/08/09 21:00
CWPE 092100Z AUTO 23004KT 15/14 RMK AO1 SLP124 T01480143 56012

2010/08/09 21:00
CWPR 092100Z AUTO 28006KT 20/ RMK AO1 SLP117 T0196 55003

2010/08/09 21:00
CWPZ 092100Z AUTO 31005KT 17/04 RMK AO1 SLP137 T01710040 55000

2010/08/09 21:00
CWNE 092100Z AUTO 20010G17KT 20/19 RMK AO1 6025 PK WND 22017/2054 SLP103 T02000185 50006

2010/08/09 21:00
CWNP 092100Z AUTO 29003KT 23/18 RMK AO1 6004 SLP085 T02280176 50004

2010/08/09 21:00
CWPD 092100Z AUTO 09002KT 22/12 RMK AO1 SLP080 T02170121 56003

2010/08/09 21:00
CWPE 092100Z AUTO 23004KT 15/14 RMK AO1 SLP124 T01480143 56012

2010/08/09 21:00
CWPR 092100Z AUTO 28006KT 20/ RMK AO1 SLP117 T0196 55003

2010/08/09 21:00
CWPZ 092100Z AUTO 31005KT 17/04 RMK AO1 SLP137 T01710040 55000

2010/08/09 21:00
CWNE 092100Z AUTO 20010G17KT 20/19 RMK AO1 6025 PK WND 22017/2054 SLP103 T02000185 50006

2010/08/09 21:00
CWNP 092100Z AUTO 29003KT 23/18 RMK AO1 6004 SLP085 T02280176 50004

2010/08/09 21:00
CWPD 092100Z AUTO 09002KT 22/12 RMK AO1 SLP080 T02170121 56003

2010/08/09 21:00
CWPE 092100Z AUTO 23004KT 15/14 RMK AO1 SLP124 T01480143 56012

2010/08/09 21:00
CWPR 092100Z AUTO 28006KT 20/ RMK AO1 SLP117 T0196 55003

2010/08/09 21:00
CWPZ 092100Z AUTO 31005KT 17/04 RMK AO1 SLP137 T01710040 55000

2010/08/09 21:00
CWNE 092100Z AUTO 20010G17KT 20/19 RMK AO1 6025 PK WND 22017/2054 SLP103 T02000185 50006

2010/08/09 21:00
CWNP 092100Z AUTO 29003KT 23/18 RMK AO1 6004 SLP085 T02280176 50004

2010/08/09 21:00
CWPD 092100Z AUTO 09002KT 22/12 RMK AO1 SLP080 T02170121 56003

2010/08/09 21:00
CWPE 092100Z AUTO 23004KT 15/14 RMK AO1 SLP124 T01480143 56012

2010/08/09 21:00
CWPR 092100Z AUTO 28006KT 20/ RMK AO1 SLP117 T0196 55003

2010/08/09 21:00
CWPZ 092100Z AUTO 31005KT 17/04 RMK AO1 SLP137 T01710040 55000

2010/08/09 21:00
CWPR 092100Z AUTO 28006KT 20/ RMK AO1 SLP117 T0196 55003

2010/08/09 21:00
CWPZ 092100Z AUTO 31005KT 17/04 RMK AO1 SLP137 T01710040 55000

2010/08/09 21:00
CWPR 092100Z AUTO 28006KT 20/ RMK AO1 SLP117 T0196 55003

2010/08/09 21:00
CWPZ 092100Z AUTO 31005KT 17/04 RMK AO1 SLP137 T01710040 55000

2010/08/09 21:00
CWPR 092100Z AUTO 28006KT 20/ RMK AO1 SLP117 T0196 55003

2010/08/09 21:00
CWPZ 092100Z AUTO 31005KT 17/04 RMK AO1 SLP137 T01710040 55000

2010/08/09 21:00
CWPR 092100Z AUTO 28006KT 20/ RMK AO1 SLP117 T0196 55003

2010/08/09 21:00
CWPZ 092100Z AUTO 31005KT 17/04 RMK AO1 SLP137 T01710040 55000

2010/08/09 21:00
CWPR 092100Z AUTO 28006KT 20/ RMK AO1 SLP117 T0196 55003

2010/08/09 21:00
CWPZ 092100Z AUTO 31005KT 17/04 RMK AO1 SLP137 T01710040 55000

2010/08/09 21:00
CWPR 092100Z AUTO 28006KT 20/ RMK AO1 SLP117 T0196 55003

2010/08/09 21:00
CWPZ 092100Z AUTO 31005KT 17/04 RMK AO1 SLP137 T01710040 55000

2010/08/09 21:00
CWEL 092100Z AUTO 31007KT 16/13 RMK AO1 3002 SLP136 T01630129 50004

2010/08/09 21:00
CWEW 092100Z AUTO 23005KT 28/19 RMK AO1 SLP113 T02750185 57011

2010/08/09 21:00
CWGB 092100Z AUTO 27010KT 17/12 RMK AO1 SLP140 T01690122 57003

2010/08/09 21:00
CWGM 092100Z AUTO 20009KT 25/06 RMK AO1 T02460059

2010/08/09 21:00
CWEL 092100Z AUTO 31007KT 16/13 RMK AO1 3002 SLP136 T01630129 50004

2010/08/09 21:00
CWEW 092100Z AUTO 23005KT 28/19 RMK AO1 SLP113 T02750185 57011

2010/08/09 21:00
CWGB 092100Z AUTO 27010KT 17/12 RMK AO1 SLP140 T01690122 57003

2010/08/09 21:00
CWGM 092100Z AUTO 20009KT 25/06 RMK AO1 T02460059

2010/08/09 21:00
CWGB 092100Z AUTO 27010KT 17/12 RMK AO1 SLP140 T01690122 57003

2010/08/09 21:00
CWGM 092100Z AUTO 20009KT 25/06 RMK AO1 T02460059

2010/08/09 21:00
CWGB 092100Z AUTO 27010KT 17/12 RMK AO1 SLP140 T01690122 57003

2010/08/09 21:00
CWGM 092100Z AUTO 20009KT 25/06 RMK AO1 T02460059

2010/08/09 21:00
CWGB 092100Z AUTO 27010KT 17/12 RMK AO1 SLP140 T01690122 57003

2010/08/09 21:00
CWGM 092100Z AUTO 20009KT 25/06 RMK AO1 T02460059

2010/08/09 21:00
CWAV 092100Z AUTO 11007KT 24/07 RMK AO1 SLP092 T02390065 57006

2010/08/09 21:00
CWBO 092100Z AUTO 19008KT 26/10 RMK AO1 SLP094 T02590104 57006

2010/08/09 21:00
CWBS 092100Z AUTO 20013KT 26/ RMK AO1 T0258

2010/08/09 21:00
CWDJ 092100Z AUTO 34006KT 26/15 RMK AO1 SLP116 T02620147 58002

2010/08/09 21:00
EIDW 092100Z 25008KT 9999 FEW028 14/10 Q1010 NOSIG

2010/08/09 21:00
EINN 092100Z 25010KT 9999 FEW024 BKN050 14/11 Q1011 NOSIG

2010/08/09 21:00
EICK 092100Z 29005KT 9999 BKN037 SCT250 14/09 Q1012 NOSIG

2010/08/09 21:06
KJAN 092106Z 24004KT 4SM -RA BR BKN022 OVC045 27/26 A2991 RMK AO2 TSE04 TS DSPTD P0008

2010/08/09 21:06
KOXR 092106Z 23007KT 10SM FEW012 19/13 A2993 RMK AO2

2010/08/09 20:56
KSAT 092056Z 15005KT 10SM FEW060 35/20 A2991

2010/08/09 21:07
PADM 092107Z AUTO 17014G21KT 1SM RA BR SCT011 BKN017 OVC065 11/09 A2940 RMK AO2 TSNO P0001 $

2010/08/09 21:02
PAJZ 092102Z AUTO 17013KT 10SM SCT008 BKN030 OVC044 12/11 A2960 RMK AO2 PWINO TSNO OVC V BKN $

2010/08/09 21:05
KYIP 092105Z AUTO 11009KT 10SM -RA BKN035 BKN080 24/22 A2993 RMK AO2 PRESFR P0000 TSNO

2010/08/09 21:06
KCLM 092106Z AUTO VRB03KT 10SM -RA FEW003 SCT016 SCT095 14/13 A2999 RMK AO2 P0000

2010/08/09 21:06
PACM 092106Z AUTO 15013KT 6SM +RA BR BKN016 BKN047 OVC075 11/09 A2925 RMK AO2 TSNO BKN V SCT RAB05 P0000 $

2010/08/09 21:06
PACM 092106Z AUTO 15013KT 6SM +RA BR BKN016 BKN047 OVC075 11/09 A2925 RMK AO2 TSNO BKN V SCT RAB05 P0000 $

2010/08/09 21:05
PAOO 092105Z AUTO 16018KT 1 3/4SM BR BKN007 OVC013 09/09 A2922 RMK AO2 TSNO CIG 005V010 $

2010/08/09 21:05
KNQX 092105Z 28007KT 10SM SCT010 BKN020 BKN040 BKN140 27/24 A2988 RMK AO2 TSE05RAE05 TSE04 T1 SET P0000 $

2010/08/09 21:06
KFZY 092106Z AUTO 31005KT 1SM +RA BR BKN019 BKN040 OVC055 22/20 A2994 RMK AO2 LTG DSNT SE P0013

2010/08/09 21:03
KCBE 092103Z AUTO 00000KT 10SM CLR 34/16 A2999 RMK AO1

2010/08/09 21:07
KPSN 092107Z AUTO 22006KT 36/21 A2992 RMK AO2 PWINO

2010/08/09 21:05
KSFY 092105Z AUTO 25003KT 10SM SCT080 31/23 A2991 RMK AO2

2010/08/09 21:02
KAPY 092102Z AUTO 11010KT 10SM SCT060 36/19 A2982 RMK AO2 T03560192

2010/08/09 21:00
CTRA 092100Z AUTO 22003KT 29/20 RMK AO1 SLP123 T02880197 50000

2010/08/09 21:00
CXBI 092100Z AUTO 26004KT 22/20 RMK AO1 5001 SLP131 T02220200 50021

2010/08/09 21:00
CWJO 092100Z AUTO 30010KT 27/13 RMK AO1 PK WND 31017/2012 SLP090 T02700130 56008

2010/08/09 21:00
CWJV 092100Z AUTO 32002KT 25/10 RMK AO1 SLP083 T02500102 56012

2010/08/09 21:00
CWKX 092100Z AUTO 22006KT 17/04 RMK AO1 SLP143 T01670041 58008

2010/08/09 21:00
CWLC 092100Z AUTO 17004KT 12/ RMK AO1 T0124

2010/08/09 21:00
CWLM 092100Z AUTO 24004KT 14/13 RMK AO1 4PAST HR M P0002 T01350126 50006

2010/08/09 21:00
CWMM 092100Z AUTO 19003KT 15/14 RMK AO1 3003 SLP151 T01510135 50004

2010/08/09 20:55
KBIX 092055Z 16013KT 10SM FEW015 BKN030 BKN200 32/25 A2993 RMK AO2A PRESRR WND DATA ESTMD ALSTG/SLP ESTMD 50000 SLPNO RVRNO PWINO PNO FZRANO TSNO VISNO RWY21 CHINO RWY21 $

2010/08/09 20:56
KDMA 092056Z VRB05KT 10SM SCT100 34/14 A2994 RMK AO2A WND DATA ESTMD ALSTG/SLP ESTMD

2010/08/09 20:55
KHRT 092055Z 18007KT 10SM VCTS FEW030CB FEW090 SCT250 33/26 A2991 RMK AO2A TS 10NW MOV W SLP131 T03260257 58018 $

2010/08/09 20:56
PHBK 092056Z AUTO 31008KT 10SM BKN050 28/19 A3011 RMK AO2 SLP197 6//// T02830189 TSNO $

2010/08/09 20:57
PWAK 092057Z 07014KT 10SM FEW026 29/24 A3007 RMK AO2A

2010/08/09 21:00
KCDH 092100Z AUTO 10004KT 10SM SCT070 BKN095 37/21 A2988 RMK AO2

2010/08/09 21:00
KJFZ 092100Z AUTO 27004KT 10SM CLR 31/18 A3012 RMK

2010/08/09 21:00
KUNV 092100Z AUTO 22005KT 10SM CLR 32/15 A2999 RMK AO2 T03150148

2010/08/09 21:00
KVDI 092100Z AUTO 08010G15KT 10SM SCT070 36/20 A2996 RMK AO2

2010/08/09 21:00
KVJI 092100Z AUTO 33003KT 10SM SCT050 33/19 A3008 RMK AO2 TSNO

2010/08/09 21:00
KW22 092100Z AUTO 29004KT 10SM CLR 30/18 A3006 RMK AO2

2010/08/09 21:00
KWDR 092100Z AUTO 00000KT 10SM CLR 33/20 A3003 RMK AO1

2010/08/09 21:00
KXSA 092100Z AUTO 11004KT 10SM BKN060 OVC070 32/22 A2998 RMK AO2

2010/08/09 21:00
K2G4 092100Z AUTO 21005KT 10SM SCT055 28/12 A3012 RMK AO1

2010/08/09 20:55
KGZL 092055Z AUTO 19007G16KT 10SM 38/19 A2989 RMK AO2 PWINO

2010/08/09 21:00
KXLL 092100Z AUTO 20008KT 5SM HZ SCT060 33/20 A2996 RMK AO2 T03300204

2010/08/09 20:58
KTZR 092058Z 00000KT 10SM SKC 29/20 A2998

2010/08/09 20:55
KESN 092055Z 23008KT 07SM HZ FEW070 33/22 A3001

2010/08/09 21:02
KHDC 092102Z AUTO 19004KT 10SM CLR 27/27 A2998 RMK AO2 LTG DSNT ALQS

2010/08/09 21:01
KOBE 092101Z AUTO 08004KT 10SM SCT029 BKN040 BKN070 31/23 A2987 RMK AO2 LTG DSNT S

2010/08/09 21:03
KTNB 092103Z AUTO 18004KT 10SM SCT048 SCT060 SCT085 27/21 A3016 RMK AO2

2010/08/09 21:02
K2W6 092102Z AUTO 14006KT 10SM CLR 31/17 A3000 RMK AO1

2010/08/09 21:04
KASJ 092104Z AUTO 00000KT 10SM CLR 32/16 A3000 RMK AO2

2010/08/09 21:15
KCCA 092115Z AUTO 00000KT 8SM CLR 37/24 A2990 RMK AO2

2010/08/09 21:05
KCGS 092105Z AUTO 22005KT 10SM CLR 35/18 A2996 RMK AO1

2010/08/09 21:03
KFDK 092103Z AUTO 16007KT 130V190 10SM SCT100 34/18 A2998 RMK AO2

2010/08/09 21:03
KW29 092103Z AUTO 17008KT 10SM CLR 31/19 A2997 RMK AO1

2010/08/09 21:03
K11R 092103Z AUTO 14007KT 10SM CLR 36/19 A2990 RMK AO2

2010/08/09 21:05
K3T5 092105Z AUTO 18008KT 10SM SCT055 36/22 A2989 RMK AO2 T03560217

2010/08/09 21:05
KAQO 092105Z AUTO 14011KT FEW070 37/18 A2992 RMK AO2 PWINO

2010/08/09 21:04
KARM 092104Z AUTO 10005KT 10SM SCT046 SCT060 38/23 A2991 RMK AO2 T03830231

2010/08/09 21:07
KASW 092107Z AUTO 20003KT 7SM SCT100 BKN120 30/23 A2995 RMK AO2 T02990234

2010/08/09 21:05
KERV 092105Z AUTO 17012G15KT 10SM SCT065 36/17 A2994 RMK AO2 T03600169

2010/08/09 21:02
KF05 092102Z AUTO 21010G15KT 150V220 CLR 39/16 A2985 RMK AO2 T03880164

2010/08/09 21:03
KGLE 092103Z AUTO 17006G18KT 10SM BKN065 BKN090 37/18 A2989 RMK AO2

2010/08/09 21:06
KHQZ 092106Z AUTO 16010G15KT 10SM SCT060 36/19 A2989 RMK AO2

2010/08/09 21:13
KMNZ 092113Z AUTO 17010KT 10SM SCT070 38/17 A2991 RMK AO2

2010/08/09 21:05
KOXI 092105Z AUTO 24005KT 10SM SCT100 SCT120 30/22 A2992 RMK AO1 T03000223

2010/08/09 21:05
KRCR 092105Z AUTO 23004KT 7SM SCT027 32/24 A2995 RMK AO2

2010/08/09 21:00
FALA 092100Z 21010KT CAVOK 07/M09 Q1029

2010/08/09 21:00
FBSK 092100Z 20010KT CAVOK 12/07 Q1028 NOSIG

2010/08/09 21:00
FYWB 092100Z 00000KT 6000 VV/// 14/08 Q1016

2010/08/09 21:00
FYWH 092100Z AUTO 13006KT //// // ////// 06/M08 Q1031

2010/08/09 21:00
HSSS 092100Z 18012KT CAVOK 29/18 Q1009 NOSIG

2010/08/09 21:00
HKJK 092100Z 01004KT 9999 FEW021 15/14 Q1023 NOSIG

2010/08/09 21:00
OOMS 092100Z 00000KT 8000 NSC 30/27 Q0998 NOSIG

2010/08/09 21:00
OOSA 092100Z 16005KT 140V200 6000 BKN012 OVC025 25/22 Q1003 NOSIG RMK05 RH82

2010/08/09 21:00
OEMA 092100Z 27012KT 9000 FEW045 40/08 Q1005 NOSIG

2010/08/09 20:50
OOSA 092050Z 16005KT 140V200 6000 BKN012 OVC025 25/22 Q1003 NOSIG RMK05 RH82

2010/08/09 21:00
UAAA 092100Z 17003MPS 9999 FEW050CB SCT100 20/08 Q1008 88CLRD65 NOSIG

2010/08/09 21:00
UACC 092100Z 02006MPS CAVOK 11/04 Q1015 040/0070 NOSIG RMK QFE730/0973

2010/08/09 21:00
UARR 092100Z 03006MPS CAVOK 26/09 Q1016 04CLRD70 NOSIG RMK QFE758/1011

2010/08/09 21:00
UATE 092100Z 10003MPS CAVOK 26/05 Q1010 120///70 NOSIG RMK QFE755/1007

2010/08/09 21:00
UATT 092100Z 07005MPS CAVOK 22/04 Q1018 31CLRD70 NOSIG RMK QFE743/0991

2010/08/09 21:00
UAUU 092100Z 00000MPS CAVOK 12/04 Q1020 33CLRD70 NOSIG RMK QFE750/1000

2010/08/09 21:00
UTDD 092100Z VRB01MPS 9999 FEW200 24/09 Q1006 09CLRD70 NOSIG RMK QFE687/0916

2010/08/09 21:00
MWCB 092100Z VRB02KT 9999 FEW016 BKN250 32/26 Q1013

2010/08/09 21:00
MWCR 092100Z 06005KT 020V090 9999 -SHRA BKN018TCU BKN220 30/26 Q1013 NOSIG

2010/08/09 21:00
MYNN 092100Z 00000KT 9999 -SHRA SCT012CB SCT018 BKN080 27/24 A2996

2010/08/09 21:00
MZBZ 092100Z 09004KT 9999 SCT027 BKN280 31/26 A2986 Q1011 NOSIG

2010/08/09 21:00
FMMI 092100Z AUTO 09006KT 14/13 Q1026

2010/08/09 21:00
ZSNJ 092100Z 06002MPS 2000 BR SCT005 BKN040 26/24 Q1003 NOSIG

2010/08/09 21:00
CYZX 092100Z 23005KT 15SM SCT070 BKN100 OVC250 26/17 A2989 RMK AC3AC3CI0 WNDY HILL 22013G19KT SLP123

2010/08/09 21:00
CYZY 092100Z AUTO VRB02KT 9SM OVC076 17/07 A2986 RMK SLP121 DENSITY ALT 3000FT

2010/08/09 21:00
CZBF 092100Z 00000KT 15SM FEW030TCU SCT120 SCT210 23/17 A2978 RMK TCU2AC1CI1 CB ASOCTD SLP085

2010/08/09 21:00
CYOW 092100Z CCA 25004KT 15SM FEW035 SCT050 BKN220 26/20 A2990 RMK SC2SC1CI3 TCU ASOCTD SLP124

2010/08/09 21:00
CYQM 092100Z CCA 20012KT 15SM FEW008 OVC016 20/18 A2986 RMK SF1SC7 SH ENE SLP113

2010/08/09 21:00
CYAW 092100Z 18006KT 15SM BKN110 BKN300 19/17 A2997 RMK AC6CI0 DA+837FT SLP148

2010/08/09 21:00
CYBG 092100Z 27008KT 25SM FEW050 27/13 A2979 RMK CU2 MDT CU SLP090

2010/08/09 21:00
CYDQ 092100Z AUTO 27010G17KT 9SM BKN086 20/04 A2980 RMK SLP095 DENSITY ALT 3300FT MAX WND 24018KT AT 2010Z

2010/08/09 21:00
CYEG 092100Z 12006KT 15SM FEW042 BKN260 23/14 A2981 RMK CU2CI1 SLP095

2010/08/09 21:00
CYFB 092100Z 04007KT 20SM -RA OVC027 13/10 A2980 RMK SC8 SLP094

2010/08/09 21:00
CYFC 092100Z AUTO 19008KT 9SM FEW020 SCT071 BKN091 23/20 A2984 RMK SLP107 DENSITY ALT 1100FT RVR MISG

2010/08/09 21:00
CYGL 092100Z 30007KT 15SM BKN011 12/10 A2985 RMK SC7 SLP114

2010/08/09 21:00
CYHZ 092100Z 19011KT 15SM FEW030 BKN110 20/17 A2996 RMK CU1AC6 SLP147

2010/08/09 21:00
CYJT 092100Z 25010G16KT 12SM -SHRA SCT050 OVC100 18/16 A2994 RMK SC3AC5 VIS LWR N SLP140

2010/08/09 21:00
CYKL 092100Z AUTO 28008KT 250V320 9SM SCT022 BKN096 14/10 A2961 RMK SLP039

2010/08/09 21:00
CYMH 092100Z AUTO 23014G22KT 9SM FEW032 FEW042 SCT076 19/15 A2970 RMK SLP059

2010/08/09 21:00
CYMX 092100Z 21005KT 25SM FEW040 FEW220 BKN250 27/17 A2988 RMK CU1CC1CI0 SLP118

2010/08/09 21:00
CYOW 092100Z 25004KT 15SM FEW035 SCT050 BKN220 26/20 A2990 RMK SC2SC1CI3 SLP124

2010/08/09 21:00
CYPL 092100Z 00000KT 15SM SCT050 BKN260 27/14 A2989 RMK CU3CI1 SLP125

2010/08/09 21:00
CYQB 092100Z 24011KT 15SM FEW030 BKN250 26/18 A2984 RMK CU2CI1 TCU ASOCTD SLP104

2010/08/09 21:00
CYQG 092100Z 24006KT 7SM -SHRA SCT077 OVC250 27/21 A2995 RMK AC4CS4 SLP138

2010/08/09 21:00
CYQM 092100Z 20012KT 15SM FEW008 OVC016 20/18 A2986 RMK SF1SC7 SLP113

2010/08/09 21:00
CYQQ 092100Z 10005KT 20SM FEW040 FEW100 19/12 A2995 RMK SC2AC1 SLP141

2010/08/09 21:00
CYQX 092100Z 22012G22KT 15SM FEW031 FEW090 BKN130 OVC260 22/16 A2996 RMK SC1AC1AC5CI1 CU ASOCTD SLP147

2010/08/09 21:00
CYQY 092100Z 20009G15KT 15SM SCT170 BKN210 21/12 A2997 RMK AC4CS3 SLP151

2010/08/09 21:00
CYRB 092100Z 02013KT 15SM FEW002 SCT017 OVC038 08/07 A2988 RMK SF1SC2SC4 SLP125

2010/08/09 21:00
CYSJ 092100Z 23011G20KT 1/2SM R23/5000FT/D FG VV002 16/15 A2991 RMK FG8 SLP130

2010/08/09 21:00
CYTR 092100Z 22010KT 3SM -SHRA BR OVC040 23/18 A2991 RMK FG2SC6 VIS VRB 2-4 SLP127

2010/08/09 21:00
CYUL 092100Z 27007KT 15SM FEW030 SCT070 BKN210 26/18 A2987 RMK CF1AC4CI0 SLP116

2010/08/09 21:00
CYUY 092100Z 30005KT 15SM FEW050 FEW120 27/14 A2990 RMK CU1AC1 SLP126

2010/08/09 21:00
CYVP 092100Z 35015KT 15SM SCT028 BKN081 10/06 A2970 RMK SC4AC3 SLP061

2010/08/09 21:00
CYVR 092100Z 26007KT 15SM FEW012 FEW043 BKN051 BKN120 17/13 A2997 RMK CF1CU2CU3AC2 SLP148

2010/08/09 21:00
CYWG 092100Z 19010KT 15SM FEW075 FEW093 SCT260 33/19 A2980 RMK AC2AC1CI1 SLP091

2010/08/09 21:00
CYWK 092100Z 28010KT 5SM -SHRA BR BKN020 OVC032 12/11 A2970 RMK SC5SC3 CU ASOCTD VIS HIER S SLP068

2010/08/09 21:00
CYXU 092100Z 24005KT 3SM -SHRA BR SCT022 BKN037 BKN053 OVC130 25/22 A2996 RMK SF3SC2SC2AC1 SLP141

2010/08/09 21:00
CYXX 092100Z 22008KT 3SM -SHRA BR SCT015 OVC030 16/11 A2998 RMK SF4SC4 CVCTV CLD EMBD SLP152

2010/08/09 21:00
CYXY 092100Z 15012G17KT 40SM FEW058 SCT150 BKN200 16/06 A2981 RMK SC2AC2CI1 SLP110

2010/08/09 21:00
CYYC 092100Z 12007KT 40SM FEW060TCU SCT190 SCT260 23/08 A2984 RMK TCU1AC2CI0 SH W SLP097

2010/08/09 21:00
CYYJ 092100Z 12005KT 15SM FEW014 BKN030 OVC090 16/14 A2997 RMK SC2SC3AC3 SLP150

2010/08/09 21:00
CYYQ 092100Z 05013KT 15SM SCT012 14/11 A3001 RMK SC3 SLP162

2010/08/09 21:00
CYYR 092100Z 24008KT 15SM FEW044 SCT080 BKN098 BKN130 20/14 A2960 RMK CU2AC2AC2AC1 SLP026

2010/08/09 21:00
CYYT 092100Z 25013G22KT 15SM BKN170 OVC230 21/14 A3007 RMK AC6CI2 SLP185

2010/08/09 21:00
CYYZ 092100Z 01010G17KT 7SM -SHRA OVC027 22/21 A2995 RETSRA RMK SC8 WSHFT 2054Z SLP142

2010/08/09 21:00
CYZF 092100Z 15010KT 15SM FEW030 FEW110 BKN210 20/12 A2972 RMK SC1AC1CI1 TCU TOPS DIST W SLP071

2010/08/09 21:00
CYZV 092100Z 22008KT 30SM SCT070 BKN150 BKN250 19/14 A2969 RMK CU4AC1CI0 SLP054

2010/08/09 21:00
LRAR 092100Z 31002KT CAVOK 18/17 Q1017

2010/08/09 21:00
LRTC 092100Z AUTO 33010KT 9999 NCD 25/20 Q1011

2010/08/09 21:00
LRTM 092100Z VRB02KT CAVOK 21/18 Q1017

2010/08/09 21:00
UKKK 092100Z 12001MPS 7000 TS BKN030CB BKN050 24/19 Q1015 08CLRD70 TEMPO 36009G14MPS 2100 -TSRAGR SCT005 BKN020CB

2010/08/09 21:00
UMMS 092100Z 32004MPS 8000 NSC 19/18 Q1015 R31/290060 NOSIG

2010/08/09 21:00
LJLJ 092100Z VRB01KT 9999 BKN030 19/16 Q1018 NOSIG

2010/08/09 21:00
LJMB 092100Z 00000KT CAVOK 17/16 Q1018

2010/08/09 21:00
LJPZ 092100Z AUTO 12006KT 9999NDV NCD 20/18 Q1015

2010/08/09 21:00
LKMT 092100Z 21005KT CAVOK 16/15 Q1017 NOSIG RMK REG QNH 1015

2010/08/09 21:00
LKPR 092100Z VRB02KT CAVOK 16/14 Q1018 NOSIG RMK REG QNH 1015

2010/08/09 21:00
LKTB 092100Z 13001KT CAVOK 16/13 Q1017 NOSIG RMK REG QNH 1015

2010/08/09 21:00
LPAZ 092100Z 04009KT 9999 SCT018 BKN036 21/16 Q1020

2010/08/09 21:00
LPPD 092100Z 05007KT 020V090 9999 FEW018 BKN035 21/15 Q1021

2010/08/09 21:00
LFVP 092100Z 20003KT 170V240 CAVOK 18/16 Q1018 NOSIG

2010/08/09 21:00
FMEE 092100Z 13013KT 9999 FEW026 SCT050 20/18 Q1023 TEMPO 5000 SHRA

2010/08/09 21:03
FSIA 092103Z 15006KT 9999 SCT018 26/23 Q1011 NOSIG

2010/08/09 20:50
LIPB 092050Z 00000KT 9999 FEW070 SCT100 24/15 Q1015 RMK MON LIB VIS MIN 9999

2010/08/09 20:50
LIPO 092050Z 05004KT CAVOK 23/18 Q1015 RMK VIS MIN 9999

2010/08/09 20:50
LIPY 092050Z 16003KT 120V180 CAVOK 22/19 Q1015 RMK VIS MIN 9999

2010/08/09 20:50
LIRZ 092050Z 36004KT CAVOK 22/17 Q1016 RMK VIS MIN 9999

2010/08/09 20:50
LIBD 092050Z 26004KT 230V290 CAVOK 22/16 Q1014 RMK VIS MIN 9999

2010/08/09 20:50
LIBP 092050Z 00000KT 9999 SCT070 23/20 Q1014 RMK VIS MIN 9999

2010/08/09 20:50
LICA 092050Z 24004KT 9999 SCT020 25/21 Q1015 RMK VIS MIN 9999

2010/08/09 20:50
LICC 092050Z 28007KT CAVOK 25/21 Q1014 RMK VIS MIN 9999

2010/08/09 20:50
LICJ 092050Z 05008KT CAVOK 25/19 Q1016 RMK VIS MIN 9999

2010/08/09 20:50
LICR 092050Z 36013KT 9999 FEW030 25/19 Q1015 RMK VIS MIN 9999

2010/08/09 20:55
LICT 092055Z 00000KT CAVOK 25/20 Q1016 RMK SKC VIS MIN 9999 WIND THR13 06001KT BLU

2010/08/09 20:50
LIEA 092050Z VRB02KT CAVOK 19/15 Q1017 RMK VIS MIN 9999

2010/08/09 20:50
LIEO 092050Z 08004KT CAVOK 24/19 Q1016 RMK VIS MIN 9999

2010/08/09 20:45
LIBR 092045Z 33009KT CAVOK 24/20 Q1014 NOSIG RMK SKC VIS MIN 9999 WIND THR13 WIND THR31 31007KT BLU

2010/08/09 20:45
LIPH 092045Z 00000KT 9999 SCT080 24/20 Q1015 RMK SCT VIS MIN 9999 WIND THR07 /////KT BLU

2010/08/09 20:45
LIPR 092045Z 16001KT CAVOK 24/21 Q1014 RMK SKC VIS MIN 9999 WIND THR31 00000KT BLU

2010/08/09 20:45
LIPX 092045Z 34004KT CAVOK 24/23 Q1015 RMK SKC VIS MIN 9999 BLU

2010/08/09 20:55
LIBV 092055Z 35004KT CAVOK 22/18 Q1013 RMK SKC VIS MIN 9999 WIND THR14 34005KT BLU

2010/08/09 20:55
LIED 092055Z 33008KT 9999 BKN060 26/06 Q1015 RMK BKN VIS MIN 9999 BLU

2010/08/09 20:55
LIMU 092055Z 23005KT 9999 FEW026 23/22 Q1017 RMK SCT QUK / QUL / VIS MAR 20 KM VIS MIN 9999

2010/08/09 20:55
LIPA 092055Z 07003KT 9999 FEW040 21/20 Q1015 RMK FEW VIS MIN 9999 A2998 BLU

2010/08/09 20:55
LIPC 092055Z 21003KT CAVOK 22/19 Q1014 RMK SCT SCT200 VIS MIN 9999 WIND THR12 21003KT BLU

2010/08/09 20:55
LIPS 092055Z 00000KT 9999 FEW025 23/19 Q1015 RMK FEW VIS MIN 9999 BLU

2010/08/09 20:55
LIRE 092055Z 00000KT CAVOK 22/20 Q1015 RMK SKC VIS MIN 9999 WIND THR31 09002KT BLU

2010/08/09 20:55
LIRS 092055Z 01007KT CAVOK 23/14 Q1015 RMK SKC VIS MIN 9999 WIND THR21 /////KT BLU

2010/08/09 20:50
LIRZ 092050Z 36004KT CAVOK 22/17 Q1016 RMK VIS MIN 9999

2010/08/09 20:55
LIVD 092055Z 00000KT CAVOK 17/13 Q1020 RMK SKC VIS MIN 9999

2010/08/09 20:55
LIVE 092055Z 00000KT CAVOK 13/09 Q1020 RMK SKC VIS MIN 9999

2010/08/09 20:55
LIVP 092055Z 20009KT 9999 0100S FEW000 10/10 Q1024 RMK FEW MON CLD SCT VAL S NEBBIA VIS MIN 0100S

2010/08/09 20:55
LIVR 092055Z 13008KT 0500 FG VV002 12/12 Q1023 RMK MON INVIS VIS MIN 0500

2010/08/09 20:55
LIVT 092055Z 04004KT CAVOK 22/18 Q1015 RMK FEW FEW100 QUK / QUL / VIS MAR 20 KM VIS MIN 9999

2010/08/09 20:45
LIPX 092045Z 34004KT CAVOK 24/23 Q1015 RMK SKC VIS MIN 9999 BLU

2010/08/09 21:00
LCLK 092100Z VRB02KT CAVOK 28/26 Q1005 NOSIG

2010/08/09 21:00
LCPH 092100Z 30008KT 9999 FEW011 28/26 Q1005

2010/08/09 21:00
LPAZ 092100Z 04009KT 9999 SCT018 BKN036 21/16 Q1020

2010/08/09 21:00
LPHR 092100Z 36005KT 9999 FEW016 22/16 Q1022

2010/08/09 21:00
LPPD 092100Z 05007KT 020V090 9999 FEW018 BKN035 21/15 Q1021

2010/08/09 21:00
UAAA 092100Z 17003MPS 9999 FEW050CB SCT100 20/08 Q1008 88CLRD65 NOSIG

2010/08/09 21:00
UACC 092100Z 02006MPS CAVOK 11/04 Q1015 040/0070 NOSIG RMK QFE730/0973

2010/08/09 21:00
UARR 092100Z 03006MPS CAVOK 26/09 Q1016 04CLRD70 NOSIG RMK QFE758/1011

2010/08/09 21:00
UATE 092100Z 10003MPS CAVOK 26/05 Q1010 120///70 NOSIG RMK QFE755/1007

2010/08/09 21:00
UATT 092100Z 07005MPS CAVOK 22/04 Q1018 31CLRD70 NOSIG RMK QFE743/0991

2010/08/09 21:00
UMGG 092100Z 30003MPS 9999 FEW036CB BKN100 22/19 Q1014 R10/290350 NOSIG

2010/08/09 21:00
UMMS 092100Z 32004MPS 8000 NSC 19/18 Q1015 R31/290060 NOSIG

2010/08/09 21:00
UTAA 092100Z VRB01MPS 7000 SKC 27/01 Q1009 NOSIG

2010/08/09 21:00
UTAK 092100Z 00000MPS 6000 SKC 26/23 Q1009 NOSIG

2010/08/09 21:00
UTAT 092100Z 33005MPS P5000 SKC 23/12 Q1008 NOSIG

2010/08/09 21:00
UTDD 092100Z VRB01MPS 9999 FEW200 24/09 Q1006 09CLRD70 NOSIG RMK QFE687/0916

2010/08/09 21:00
UTDL 092100Z 24005MPS 9999 FEW070CB FEW170 26/09 Q1006 NOSIG RMK QFE717 8809//70

2010/08/09 21:00
UTAM 092100Z 33006MPS 6300 SKC 27/05 Q1006 NOSIG

2010/08/09 21:00
SEGU 092100Z 22012KT 9999 SCT026 BKN100 27/20 Q1010 NOSIG

2010/08/09 21:00
SEQU 092100Z 11008KT 9999 SCT040 17/03 Q1025 RMK A3029 NOSIG

2010/08/09 21:00
SMJP 092100Z 00000KT 9999 FEW020CB 28/24 Q1012 TEMPO TS

2010/08/09 21:00
UKCW 092100Z 07003MPS CAVOK 26/07 Q1013 0909//70 NOSIG

2010/08/09 21:00
UKKK 092100Z 12001MPS 7000 TS BKN030CB BKN050 24/19 Q1015 08CLRD70 TEMPO 36009G14MPS 2100 -TSRAGR SCT005 BKN020CB

2010/08/09 21:00
UKKM 092100Z 00000MPS 5000 BR FEW030CB BKN100 22/21 Q1015

2010/08/09 21:00
UKLU 092100Z 00000MPS 9999 BKN100 17/16 Q1016 10090070 NOSIG

2010/08/09 20:55
KQHT 092055Z 13005KT 9999 FEW150 21/10 A2981 RMK AO2A SLP058 58005

2010/08/09 21:00
LERT 092100Z VRB01KT CAVOK 28/20 Q1014 NOSIG

2010/08/09 21:00
CWAE 092100Z 18005KT 15SM SCT016 BKN045 16/12 A2993 RMK SC3SC4 WND ESTD SLP131

2010/08/09 21:00
CWCA 092100Z 21010KT 15SM VCSH BKN030 BKN070 17/14 A2962 RMK SC5AC1 SLP031

2010/08/09 21:00
CWCL 092100Z AUTO 03002KT 9SM SCT012 SCT046 SCT063 SCT083 11/08 A2997 RMK SLP154

2010/08/09 21:00
CWDL 092100Z 24005KT 15SM FEW050 FEW070 BKN075 18/05 A2991 RMK CU2AC1AS5 18.0/6.6/0/0/0 LAST OBS/NXT OBS 10 1400Z SLP129

2010/08/09 21:00
CWEU 092100Z 27012KT 40SM FEW020 FEW080 FEW200 03/00 A3002 RMK CU1AC1CS1 AC LENT SLP166

2010/08/09 21:00
CWFD 092100Z AUTO 35021G28KT 0SM 04/ RMK ALTM MISG

2010/08/09 21:00
CWHN 092100Z AUTO 18011KT 160V220 9SM FEW046 FEW074 SCT085 26/10 A2982 RMK SLP101

2010/08/09 21:00
CWIL 092100Z AUTO 19008KT 19/ A2984 RMK SLP111

2010/08/09 21:00
CWKM 092100Z AUTO 07012KT 10/ A2972 RMK SLP068

2010/08/09 21:00
CWKW 092100Z AUTO 14003KT 08/ A2969 RMK SLP075

2010/08/09 21:00
CWLI 092100Z AUTO 23005KT 10/ A2979 RMK SLP098

2010/08/09 21:00
CWLX 092100Z AUTO 30011KT 18/ A2987 RMK SLP124

2010/08/09 21:00
CWLY 092100Z AUTO 01008KT 6SM OVC014 14/13 A2995 RMK PCPN 2.0MM PAST HR SLP143

2010/08/09 21:00
CWOB 092100Z AUTO ///// 0SM CLR 04/ A2972 RMK SLP100

2010/08/09 21:00
CWRH 092100Z AUTO ///// 04/ A2975 RMK SLP102

2010/08/09 21:00
CWRX 092100Z AUTO 32007KT 14/ A2989

2010/08/09 21:00
CWSA 092100Z AUTO 14010KT 9SM BKN039 OVC065 19/15 A2999 RMK SLP155

2010/08/09 21:00
CWSW 092100Z 17007KT 20SM BKN056 BKN260 23/09 A2986 RMK CU6CI1 TCU EMBD SLP102

2010/08/09 21:00
CWTU 092100Z AUTO 16017G22KT 11/ A2958 RMK SLP030

2010/08/09 21:00
CWUP 092100Z AUTO 31002KT 04/ A2991 RMK SLP151

2010/08/09 21:00
CWUW 092100Z AUTO ///// 9SM CLR 13/ A2989 RMK SLP148

2010/08/09 21:00
CWVD 092100Z AUTO ///// 02/ A2985 RMK SLP145

2010/08/09 21:00
CWVH 092100Z AUTO 15010KT 13/ A2974 RMK SLP084

2010/08/09 21:00
CWXR 092100Z AUTO 07004KT 08/ A2979 RMK SLP096

2010/08/09 21:00
CWYK 092100Z AUTO ///// 08/ A2957 RMK SLP034

2010/08/09 21:00
CWYM 092100Z AUTO 05030G40KT 05/ RMK ALTM MISG SLP113

2010/08/09 21:00
CWZZ 092100Z AUTO ///// 0SM CLR 06/ A2963 RMK SLP052

2010/08/09 21:00
CYAH 092100Z 25009KT 12SM BKN012 BKN047 13/11 A2977 RMK SC5SC2 LAST STFD OB/NEXT 101300UTC SLP090

2010/08/09 21:00
CYAM 092100Z 18005KT 15SM FEW040 FEW220 28/20 A2988 RMK CU2CI1 SLP118

2010/08/09 21:00
CYAY 092100Z AUTO 24015G26KT 9SM SCT024 BKN100 BKN120 20/15 A2975 RMK SLP078 DENSITY ALT 900FT MAX WND 25028KT AT 2033Z

2010/08/09 21:00
CYAZ 092100Z 17006KT 5SM BR SCT003 BKN008 BKN015 14/13 A2998 RMK SF2SF2SC1 CIG AND VIS LWR E SLP154

2010/08/09 21:00
CYBB 092100Z 00000KT 15SM FEW140 FEW220 23/M10 A2994 RMK AC1CI1 SLP141

2010/08/09 21:00
CYBC 092100Z AUTO 23011KT 9SM FEW037 FEW068 FEW081 SCT098 23/15 A2973 RMK SLP068

2010/08/09 21:00
CYBD 092100Z 27012KT 15SM FEW075TCU BKN100 21/10 A2994 RMK TCU2AC6 SLP140

2010/08/09 21:00
CYBK 092100Z 12007KT 20SM FEW030 18/12 A2999 RMK SC1 SLP156

2010/08/09 21:00
CYBL 092100Z 11006KT 30SM FEW045 FEW100 21/12 A2994 RMK CU2AC1 SLP137

2010/08/09 21:00
CYBN 092100Z AUTO 20009KT 9SM -RA CLR 21/19 A2992 RMK SLP130

2010/08/09 21:00
CYBU 092100Z AUTO VRB08KT 9SM CLR 28/16 A2981 RMK SLP096 DENSITY ALT 3100FT

2010/08/09 21:00
CYBV 092100Z 22008KT 15SM FEW090 SCT230 28/19 A2982 RMK AC2CC2 LAST OBS/NEXT 101200Z SLP099

2010/08/09 21:00
CYBW 092100Z 13005KT 30SM FEW035 SCT045CB BKN250 22/08 A2984 RMK CU2CB2CI2 SH S-N/ CB W SLP103

2010/08/09 21:00
CYBX 092100Z 21017G24KT 1 1/2SM BR OVC002 15/14 A2975 RMK FG4SF4 SLP076

2010/08/09 21:00
CYCB 092100Z 05011KT 15SM FEW070 18/14 A2984 RMK AC0 FU SLP105

2010/08/09 21:00
CYCD 092100Z 16003KT 20SM FEW019 BKN050 BKN100 18/12 A2997 RMK SC2SC3AC1 SLP149

2010/08/09 21:00
CYCG 092100Z 15005KT 15SM BKN065TCU BKN120 BKN260 27/10 A2977 RMK TCU5AC1CI1 SLP071

2010/08/09 21:00
CYCO 092100Z 08006KT 1 1/2SM BR OVC003 10/10 A2976 RMK FG2ST6 BLN EST SLP079

2010/08/09 21:00
CYCP 092100Z 00000KT 5SM -RA BR FEW002 BKN015 BKN055 OVC095 15/12 A2993 RMK SF2SF3SC2AS2 SLP142

2010/08/09 21:00
CYCQ 092100Z 24005KT 35SM BKN045TCU 20/05 A2979 RMK TCU7 CB EMBDD SLP098

2010/08/09 21:00
CYCX 092100Z 17007KT 12SM FEW045 SCT077 SCT250 24/21 A2985 RMK CU2AC1CI1 DA+1614FT SLP107

2010/08/09 21:00
CYDA 092100Z 00000KT 20SM SCT055 BKN100 BKN240 19/09 A2967 RMK SC4AC2CI0 SLP056

2010/08/09 21:00
CYDB 092100Z 10017G25KT 25SM FEW080 FEW110 SCT250 16/05 A2969 RMK AC1AC1CC1 SLP069

2010/08/09 21:00
CYDC 092100Z 27006KT 15SM FEW050 OVC090 19/07 A2988 RMK SC2AC6 TCU EMBD SLP113

2010/08/09 21:00
CYDF 092100Z 23015G20KT 12SM -SHRA FEW015 BKN045 OVC090 19/16 A2991 RMK SF1SC4AC3 SLP130

2010/08/09 21:00
CYDN 092100Z AUTO 31011KT 9SM CLR 31/15 A2978 RMK SLP084 DENSITY ALT 3200FT

2010/08/09 21:00
CYDP 092100Z 36004KT 15SM -SHRA FEW015 OVC028 11/09 A2959 RMK SF1SC8 TR SF SLP020

2010/08/09 21:00
CYED 092100Z AUTO 12004KT 9SM FEW054 SCT064 SCT071 BKN078 24/12 A2980 RMK SLP093

2010/08/09 21:00
CYEK 092100Z 08005KT 15SM OVC066 12/11 A3005 RMK AS7 SLP175

2010/08/09 21:00
CYEL 092100Z 18002KT 15SM FEW050 FEW220 27/16 A2991 RMK CU1CI1 WNDS ESTD/ SLP125

2010/08/09 21:00
CYEN 092100Z 03005KT 15SM FEW140 FEW260 32/14 A2985 RMK AC1CI0 SLP101

2010/08/09 21:00
CYET 092100Z AUTO 07005KT 040V100 9SM BKN044 BKN069 BKN079 BKN096 17/12 A2982 RMK SLP104

2010/08/09 21:00
CYEV 092100Z 22003KT 15SM FEW021 FEW050 15/10 A2974 RMK SC2SC1 SLP074

2010/08/09 21:00
CYFO 092100Z 22007KT 15SM FEW015 BKN035 BKN250 22/18 A2981 RMK SC2SC3CI0 SLP097

2010/08/09 21:00
CYFR 092100Z 00000KT 15SM FEW090 OVC120 20/15 A2973 RMK AC1AC6 SLP073

2010/08/09 21:00
CYFS 092100Z 32013KT 15SM OVC010 17/14 A2970 RMK SC8 SLP062

2010/08/09 21:00
CYGE 092100Z 04006KT 10SM TSRA BKN020 OVC050CB 15/13 A2986 RERA RMK SC5CB3 CB MOVG S SLP115

2010/08/09 21:00
CYGH 092100Z 02003KT 25SM FEW100 18/11 A2974 RMK AC1 SLP075

2010/08/09 21:00
CYGK 092100Z 24008KT 6SM HZ SCT075 OVC140 26/21 A2991 RMK AC3AC5 SLP128

2010/08/09 21:00
CYGP 092100Z 23007KT 15SM FEW035 SCT220 26/16 A2972 RMK CU1CI1 SLP066

2010/08/09 21:00
CYGQ 092100Z 30008KT 15SM FEW030 SCT035 SCT110 28/18 A2988 RMK CF1CU3AC0 SLP118

2010/08/09 21:00
CYGR 092100Z 19012G17KT 20SM FEW020 BKN080 OVC230 20/15 A2987 RMK SC2AC5CI2 SLP116

2010/08/09 21:00
CYGT 092100Z 00000KT 15SM BKN095 18/08 A2992 RMK AC5 19.1/11.1/0 LAST OBS/NXT OBS 101200Z SLP134

2010/08/09 21:00
CYGV 092100Z AUTO 23010KT 9SM CLR 19/14 A2970 RMK SLP060

2010/08/09 21:00
CYGW 092100Z 27007KT 1SM -DZ BR BKN002 OVC009 11/10 A2984 RMK SF6SC2 VIS VRB 3/4-11/4 SLP107

2010/08/09 21:00
CYGX 092100Z 09003KT 15SM BKN080 BKN200 22/07 A2994 RMK AS5CI0 SLP143

2010/08/09 21:00
CYHA 092100Z 33009KT 15SM MIFG FEW002 FEW015 BKN030 07/05 A2982 RMK SF1SC1SC5 LAST OBS/NEXT 101200UTC SLP099

2010/08/09 21:00
CYHD 092100Z AUTO 32004KT 9SM FEW035 FEW047 FEW083 28/19 A2990 RMK SLP128

2010/08/09 21:00
CYHE 092100Z AUTO 32003KT 250V040 8SM -RA OVC019 OVC046 OVC057 17/15 A2993 RMK SLP137

2010/08/09 21:00
CYHK 092100Z 19010KT 15SM SKC 16/09 A2991 RMK SLP131

2010/08/09 21:00
CYHM 092100Z 28004KT 1SM -SHRA BR FEW004 SCT022 OVC042 23/23 A2995 RETS RMK SF2SC2SC5 SLP141

2010/08/09 21:00
CYHU 092100Z AUTO 27008KT 9SM FEW081 27/16 A2986 RMK SLP112 DENSITY ALT 1500FT RVR MISG

2010/08/09 21:00
CYHY 092100Z 18007KT 15SM BKN015 BKN230 22/12 A2970 RMK SC6CI0 SLP062

2010/08/09 21:00
CYIK 092100Z 31004KT 15SM FEW007 FEW019 FEW060 FEW150 FEW300 10/08 A2988 RMK ST1CU1SC1AC1CC1 LAST OBS/NEXT 101200UTC SLP123

2010/08/09 21:00
CYIO 092100Z 02003KT 30SM FEW030 BKN140 BKN250 11/05 A2990 RMK SC1AS5CI2 SLP129

2010/08/09 21:00
CYIV 092100Z 09003KT 15SM FEW050 FEW100 SCT250 25/14 A2989 RMK SC1AC0CI0 SLP125

2010/08/09 21:00
CYJF 092100Z 00000KT 10SM -RA FEW007 BKN020 OVC120 16/15 A2975 RMK SF2SC4AS2 -RA INTMT SLP079

2010/08/09 21:00
CYKA 092100Z 28004KT 20SM -SHRA BKN055 OVC085 16/13 A2993 RMK SC6AC2 SLP138

2010/08/09 21:00
CYKD 092100Z 16007KT 15SM OVC018 16/10 A2971 RMK SC5 SLP063

2010/08/09 21:00
CYKF 092100Z AUTO 25003KT 9SM -RA FEW043 OVC089 22/21 A2996 RMK SLP144 DENSITY ALT 2000FT

2010/08/09 21:00
CYKG 092100Z 36015KT 15SM OVC032 11/06 A2981 RMK SC7 SLP104

2010/08/09 21:00
CYKJ 092100Z AUTO 08004KT 6SM -RA SCT006 BKN012 OVC016 16/15 A2981 RMK SLP107 DENSITY ALT 2300FT PCPN 1.2MM PAST HR

2010/08/09 21:00
CYKO 092100Z 31012KT 15SM FEW023 FEW050 FEW210 13/08 A2989 RMK CU1SC1CI1 LAST OBS/NEXT 101200UTC SLP123

2010/08/09 21:00
CYKQ 092100Z 32008KT 15SM FEW290 21/13 A2985 RMK CI0 LAST OBS/NEXT 221400 UTC SLP110

2010/08/09 21:00
CYKY 092100Z 15009KT 12SM FEW053 FEW250 25/13 A2985 RMK CU1CI0 SLP108

2010/08/09 21:00
CYKZ 092100Z 28003KT 8SM -SHRA FEW012 BKN035 OVC060 21/20 A2994 RETSRA RMK SF1SC6SC2 SF TR /R17/ SLP137

2010/08/09 21:00
CYLD 092100Z 29003KT 15SM TS VCSH BKN025TCU BKN140 25/18 A2991 RMK TCU4AC2 CB ASOCTD SLP130

2010/08/09 21:00
CYLJ 092100Z 24006KT 15SM FEW060 FEW250 27/11 A2982 RMK CU2CI1 TR CI SLP101

2010/08/09 21:00
CYLK 092100Z 00000KT 6SM FU BKN022 OVC080 24/15 A2971 RMK SC5AC2 SLP065

2010/08/09 21:00
CYLL 092100Z 19006KT 15SM FEW047 SCT300 24/14 A2985 RMK CU2CI1 SLP110

2010/08/09 21:00
CYLU 092100Z 19004KT 10SM -RA BKN015 BKN040 11/10 A2963 RMK SC6SC2 LASTOBS/NEXT101200Z SLP036

2010/08/09 21:00
CYLW 092100Z AUTO 18008KT 160V230 9SM SCT091 24/07 A2979 RMK SLP082 DENSITY ALT 2900FT

2010/08/09 21:00
CYMA 092100Z 00000KT 20SM FEW055 SCT070 BKN100 BKN230 20/16 A2970 RMK SC2AC2AS1CI1 TCU ASOCTD ACSL SLP069

2010/08/09 21:00
CYMJ 092100Z 08003KT 15SM FEW052 SCT280 28/13 A2987 RMK CU1CI1 SLP113

2010/08/09 21:00
CYMO 092100Z AUTO 09013KT 9SM FEW095 20/16 A2985 RMK SLP109

2010/08/09 21:00
CYMT 092100Z 27008KT 15SM FEW040 SCT045 BKN070 23/12 A2984 RMK SC2CU2AC2 SLP111

2010/08/09 21:00
CYMU 092100Z 27003KT 15SM FEW006 BKN025 12/09 A2981 RMK SC2SC3 LAST OBS/ NEXT 101200Z SLP097

2010/08/09 21:00
CYNA 092100Z AUTO 24005KT 210V270 9SM FEW030 20/15 A2974 RMK SLP071

2010/08/09 21:00
CYND 092100Z 27004KT 15SM FEW040 BKN250 27/17 A2988 RMK CU1CI5 SLP118

2010/08/09 21:00
CYNE 092100Z AUTO 11007KT 9SM BKN037 BKN062 BKN082 BKN097 26/18 A2980 RMK SLP097

2010/08/09 21:00
CYNM 092100Z AUTO 29008KT 240V310 9SM FEW062 26/12 A2983 RMK SLP107

2010/08/09 21:00
CYOA 092100Z 12015KT 2SM FU SKC 22/12 A2979 RMK FU2 SLP100

2010/08/09 21:00
CYOC 092100Z 06008KT 35SM FEW028 FEW100 BKN210 16/10 A2965 RMK CF1AC1CI2 SLP049

2010/08/09 21:00
CYOD 092100Z 23009KT 15SM SCT060 SCT110 26/11 A2982 RMK CU3AC1 MDT CU ASOCTD SLP102

2010/08/09 21:00
CYOJ 092100Z 13010G15KT 15SM FEW048 SCT060 22/10 A2971 RMK CU2SC1 SLP068

2010/08/09 21:00
CYOY 092100Z AUTO 23006KT 210V270 9SM FEW036 FEW065 SCT070 SCT090 25/16 A2983 RMK SLP103

2010/08/09 21:00
CYPA 092100Z 21006KT 15SM FEW056 27/13 A2983 RMK CU1 TCU ASOCTD NE SLP102

2010/08/09 21:00
CYPC 092100Z 35004KT 15SM BKN004 OVC010 09/08 A2979 RMK ST5SC3 BLN EST SLP090

2010/08/09 21:00
CYPE 092100Z 22010KT 15SM BKN055 BKN250 21/06 A2978 RMK CU5CI2 SLP091

2010/08/09 21:00
CYPG 092100Z 18005KT 120V210 12SM FEW150 32/20 A2981 RMK AC2 SLP092

2010/08/09 21:00
CYPH 092100Z 04008KT 15SM SCT030 BKN065 BKN230 17/12 A2984 RMK SC3SC1CI1 LAST STFD OBS/NEXT 101200 UTC SLP105

2010/08/09 21:00
CYPQ 092100Z AUTO ///// 1 3/4SM -RA FEW001 FEW012 SCT021 BKN029 23/23 A2990 RMK PCPN 0.5MM PAST HR SLP127

2010/08/09 21:00
CYPR 092100Z AUTO /////KT 9SM BKN005 BKN051 15/13 A3003 RMK SLP169 WND MISG

2010/08/09 21:00
CYPW 092100Z 27005KT 50SM FEW030 FEW045 FEW130 FEW280 19/12 A2995 RMK CU1SC1AC1CI1 TR CLDS FEW TCU SLP144

2010/08/09 21:00
CYPX 092100Z 30015KT 15SM BKN040 18/10 A2985 RMK SC6 LAST OBS/NEXT 101200UTC SLP108

2010/08/09 21:00
CYPY 092100Z AUTO 11007KT 060V140 9SM FEW095 24/13 A2974 RMK SLP077

2010/08/09 21:00
CYQA 092100Z AUTO 30004KT 260V340 9SM BKN190 25/21 A2990 RMK SLP125 DENSITY ALT 2300FT

2010/08/09 21:00
CYQD 092100Z 16007KT 15SM SCT035TCU BKN100 25/18 A2979 RMK TCU4AC1 TCU ALQDS SLP091

2010/08/09 21:00
CYQF 092100Z 12003KT 15SM FEW035 BKN260 23/14 A2982 RMK CU2CI2 SLP100

2010/08/09 21:00
CYQH 092100Z 27004KT 30SM BKN038 21/10 A2979 RMK SC5 SLP094

2010/08/09 21:00
CYQI 092100Z 23014KT 10SM OVC020 20/18 A2996 RMK SC8 SLP146

2010/08/09 21:00
CYQK 092100Z 18005KT 15SM FEW240 28/16 A2991 RMK CI1 SLP128

2010/08/09 21:00
CYQL 092100Z 21009KT 40SM FEW070 BKN280 26/10 A2982 RMK CU2CI2 SLP088

2010/08/09 21:00
CYQR 092100Z 32005KT 15SM FEW040 FEW330 26/16 A2988 RMK CF1CI1 SLP119

2010/08/09 21:00
CYQT 092100Z 23007KT 20SM FEW050 30/20 A2985 RMK CU1 SLP109

2010/08/09 21:00
CYQU 092100Z 27010KT 25SM SCT065 BKN250 20/06 A2981 RMK CU4CI0 SLP105

2010/08/09 21:00
CYQV 092100Z AUTO 29008KT 9SM FEW044 FEW063 FEW090 27/17 A2984 RMK SLP108

2010/08/09 21:00
CYQW 092100Z AUTO 17005KT 9SM CLR 26/13 A2987 RMK SLP114 DENSITY ALT 3500FT

2010/08/09 21:00
CYQZ 092100Z AUTO 20006KT 090V260 9SM FEW045 OVC076 17/07 A2992 RMK SLP141 DENSITY ALT 2400FT

2010/08/09 21:00
CYRA 092100Z 16005KT 12SM FEW022 23/15 A2968 RMK SC1 SLP056

2010/08/09 21:00
CYRJ 092100Z 07003KT 25SM BKN035 BKN100 25/16 A2980 RMK CU6AC1 SLP093

2010/08/09 21:00
CYRL 092100Z 00000KT 15SM FEW030 OVC240 28/17 A2989 RMK CU1CI0 SLP123

2010/08/09 21:00
CYRT 092100Z 27010KT 15SM BKN090 19/10 A3005 RMK AC5 SLP177

2010/08/09 21:00
CYRV 092100Z AUTO 17003KT 9SM FEW027 BKN081 BKN095 19/16 A2981 RMK SLP097

2010/08/09 21:00
CYSB 092100Z 12006KT 15SM FEW052 FEW210 27/14 A2990 RMK CU1CI0 SLP124

2010/08/09 21:00
CYSC 092100Z AUTO 26005KT 240V300 9SM FEW029 SCT051 24/20 A2988 RMK DENSITY ALT 2000FT

2010/08/09 21:00
CYSF 092100Z AUTO 05003KT 3SM HZ OVC034 18/15 A2980 RMK DENSITY ALT 1400FT

2010/08/09 21:00
CYSK 092100Z 01010KT 15SM FEW010 SCT220 12/09 A2985 RMK SF1CI2 SLP110

2010/08/09 21:00
CYSM 092100Z 00000KT 15SM FEW035TCU SCT110 BKN220 22/12 A2975 RMK TCU1AC2CI1 SLP079

2010/08/09 21:00
CYSN 092100Z 26008KT 4SM -SHRA BR FEW017 SCT029 OVC044 24/23 A2994 RMK SC2SC2SC5 SLP138

2010/08/09 21:00
CYSY 092100Z 09015KT 15SM BKN018 09/04 A2986 RMK SC6 SLP117

2010/08/09 21:00
CYTH 092100Z 10008KT 15SM FEW038 BKN056TCU OVC110 21/10 A2989 RMK SC2TCU4AC2 SLP126

2010/08/09 21:00
CYTQ 092100Z 03012G17KT 15SM OVC012 08/07 A2978 RMK SC8 LAST OBS/NEXT 101200Z SLP088

2010/08/09 21:00
CYTS 092100Z 29004KT 15SM SCT070 BKN160 29/12 A2986 RMK CU3AC2 SLP112

2010/08/09 21:00
CYTZ 092100Z AUTO 30016G25KT 3SM RA VCTS 22/20 A2993 RMK PRESRR SLP136 DENSITY ALT 1100FT PCPN 15.2MM PAST HR MAX WND 23029KT AT 2024Z LTNG DIST NE E SE CLD MISG RVR MISG

2010/08/09 21:00
CYUA 092100Z AUTO 08011KT 9SM 12/ A2971 RMK SLP064

2010/08/09 21:00
CYUB 092100Z 11006KT 15SM BKN012 13/08 A2976 RMK SC6 SLP078

2010/08/09 21:00
CYUS 092100Z AUTO 10003KT 9SM CLR A3100

2010/08/09 21:00
CYUT 092100Z 25002KT 25SM FEW200 16/05 A2994 RMK CS1 SLP140

2010/08/09 21:00
CYUX 092100Z 06007KT 15SM FEW150 FEW250 11/05 A2992 RMK AC1CI1 SLP134

2010/08/09 21:00
CYVC 092100Z 29010KT 15SM BKN037TCU 25/17 A2979 RMK TCU6 SLP091

2010/08/09 21:00
CYVM 092100Z AUTO 06004KT 9SM OVC004 04/04 A2993 RMK SLP137

2010/08/09 21:00
CYVO 092100Z 30005KT 15SM FEW040 FEW062 SCT080 SCT250 26/14 A2989 RMK CU1SC1AC4CI1 SLP127

2010/08/09 21:00
CYVQ 092100Z 00000KT 30SM FEW040 SCT100 SCT290 20/12 A2973 RMK CU1AC3CI1 SLP070

2010/08/09 21:00
CYVT 092100Z 30004KT 250V350 15SM FEW036TCU SCT100 BKN240 24/16 A2979 RMK TCU2ACC2CI1 CB TPS W-NW SLP092

2010/08/09 21:00
CYVV 092100Z 22002KT 4SM BR BKN016 BKN030 23/21 A2992 RMK SC5SC2 WND L/V SLP130

2010/08/09 21:00
CYWA 092100Z AUTO 10003KT 9SM CLR 27/17 A2988 RMK SLP121

2010/08/09 21:00
CYWH 092100Z 22003KT 12SM -SHRA FEW010 SCT015 BKN030 BKN090 14/11 A2997 RMK SF1SC2SC2AC1 SLP150

2010/08/09 21:00
CYWJ 092100Z 29006KT 40SM FEW030 BKN080 20/11 A2971 RMK SC1AC4 SLP066

2010/08/09 21:00
CYWL 092100Z 32002KT 15SM FEW009 BKN040 BKN100 13/08 A2996 RMK SF2SC4AC1 SLP151

2010/08/09 21:00
CYXD 092100Z AUTO 11006KT 9SM BKN054 24/12 A2979 RMK SLP086

2010/08/09 21:00
CYXE 092100Z 28004KT 15SM FEW046 26/14 A2985 RMK CU1 SLP111

2010/08/09 21:00
CYXH 092100Z 19006KT 120V230 30SM FEW070 BKN270 29/11 A2981 RMK CU2CI1 SLP089

2010/08/09 21:00
CYXJ 092100Z 24010KT 15SM BKN070 BKN220 19/06 A2980 RMK AC6CI0 SLP099

2010/08/09 21:00
CYXL 092100Z 00000KT 15SM FEW046 FEW230 28/16 A2990 RMK CU1CI0 SLP125

2010/08/09 21:07
CYKJ 092107Z AUTO 08002KT 5SM -RA FEW007 OVC014 16/15 A2981 RMK SLP108 DENSITY ALT 2300FT

2010/08/09 21:00
CYXQ 092100Z 06004KT 30SM FEW045 FEW085 SCT120 BKN210 19/11 A2967 RMK SC1AC1AC2CI2 SLP053

2010/08/09 21:00
CYXR 092100Z AUTO 05002KT 9SM FEW053 FEW072 28/15 A2986 RMK SLP106

2010/08/09 21:00
CYXS 092100Z AUTO 18007KT 140V240 9SM OVC071 17/07 A2991 RMK SLP136 DENSITY ALT 3000FT

2010/08/09 21:00
CYXT 092100Z 20005KT 20SM FEW040 BKN070 BKN140 BKN250 18/10 A2999 RMK CU1AC5AC0CI1 TCU E SLP158

2010/08/09 21:00
CYXZ 092100Z 27008KT 200V290 15SM FEW029TCU FEW040 24/17 A2989 RMK TCU1SC1 TR TCU SC SLP125

2010/08/09 21:00
CYYB 092100Z 32002KT 15SM FEW038 FEW240 26/15 A2992 RMK CU1CI1 SLP129

2010/08/09 21:00
CYYD 092100Z 36009KT 25SM BKN060 20/03 A2992 RMK CU6 SLP132

2010/08/09 21:00
CYYF 092100Z 36008KT 15SM FEW080 SCT140 BKN250 25/09 A2979 RMK CF2AC2CI2 SLP082

2010/08/09 21:00
CYYG 092100Z 19013KT 15SM VCSH BKN072 OVC110 22/15 A2987 RMK AC6AC2 SLP115

2010/08/09 21:00
CYYH 092100Z 22009KT 15SM FEW200 SCT250 17/09 A2991 RMK CI1CI0 SLP131

2010/08/09 21:00
CYYL 092100Z AUTO 12006KT 9SM -RA SCT037 OVC048 16/13 A2985 RMK SLP120 DENSITY ALT 1600FT

2010/08/09 21:00
CYYN 092100Z AUTO 14003KT 080V230 9SM FEW067 FEW073 26/11 A2985 RMK SLP102

2010/08/09 21:00
CYYY 092100Z 24011G16KT 15SM FEW045 SCT150 26/14 A2975 RMK CU2AC2 SLP074

2010/08/09 21:00
CYZE 092100Z AUTO 22007KT 9SM CLR 25/19 A2990 RMK DENSITY ALT 1900FT

2010/08/09 21:00
CYZG 092100Z 07006KT 15SM FEW032 FEW170 BKN240 12/06 A2986 RMK CU1AC2CC2 LAST OBS/NEXT101200 UTC SLP122

2010/08/09 21:00
CYZH 092100Z AUTO 32006KT 300V020 9SM CLR 20/10 A2981 RMK SLP100

2010/08/09 21:00
CYZP 092100Z AUTO 26009KT 9SM -RA FEW030 OVC047 15/13 A3003 RMK SLP170

2010/08/09 21:00
CYZR 092100Z AUTO 34006KT 9SM -RA FEW038 BKN089 25/22 A2994 RMK SLP136 DENSITY ALT 1800FT

2010/08/09 21:00
CYZT 092100Z 34010KT 20SM FEW027 SCT055 17/10 A3002 RMK SC1SC3 SLP164

2010/08/09 21:00
CYZU 092100Z 11004KT 15SM BKN050 BKN120 BKN250 21/11 A2981 RMK CU5AC1CI0 SLP095

2010/08/09 21:00
CYZW 092100Z 16008KT 30SM FEW055 BKN120 BKN160 16/07 A2985 RMK SC2AS3AC2 SLP125

2010/08/09 21:00
CZCP 092100Z AUTO 06008KT 1/8SM CLR 07/ A2979 RMK SLP096

2010/08/09 21:00
CZFA 092100Z 33004KT 30SM FEW060 SCT160 BKN240 20/05 A2974 RMK CU2AC2CI0 SLP083

2010/08/09 21:00
CZFM 092100Z 18005KT 35SM FEW030 SCT200 18/10 A2971 RMK SC1CI1 SLP063

2010/08/09 21:00
CZFN 092100Z 24006KT 30SM FEW020 BKN065 BKN100 19/11 A2972 RMK SC1SC4AC2 SLP068

2010/08/09 21:00
CZPC 092100Z AUTO 23006KT 9SM FEW035 FEW048 SCT064 24/11 A2984 RMK SLP091

2010/08/09 21:00
CZST 092100Z 21004KT 15SM SCT048 BKN062 OVC120 16/11 A3000 RMK SC3SC3AC2 SLP158

2010/08/09 21:00
CZUM 092100Z AUTO 24003KT 9SM BKN032 BKN062 BKN074 15/11 A2964 RMK SLP047

2010/08/09 21:00
FAMM 092100Z AUTO 17006KT //// // ////// 03/M12 Q1029

2010/08/09 21:00
FAPP 092100Z AUTO 18013G23KT //// // ////// 15/M06 Q1024

2010/08/09 21:00
FYML 092100Z AUTO 13003KT //// // ////// ///// Q1033

2010/08/09 21:00
FYOA 092100Z AUTO 06004KT //// // ////// 18/M03 Q1020

2010/08/09 21:00
FYOJ 092100Z AUTO 09004KT //// // ////// 17/M04 Q1022

2010/08/09 21:00
FYOW 092100Z AUTO 12006KT //// // ////// 17/M04 Q1024

2010/08/09 21:00
FYWW 092100Z AUTO 11007KT //// // ////// 10/M08 Q1029

2010/08/09 20:55
KESN 092055Z 23008KT 07SM HZ FEW070 33/22 A3001

2010/08/09 20:50
LIMP 092050Z 21005KT CAVOK 24/18 Q1015 RMK VIS MIN 9999

2010/08/09 20:50
LIMZ 092050Z 22004KT 9999 SCT080 20/18 Q1016 RMK VIS MIN 9999

2010/08/09 20:55
LIRM 092055Z 13003KT 9999 FEW040 26/25 Q1016 RMK FEW VIS MIN 9999 WIND THR06 13003KT BLU

2010/08/09 21:00
LKCV 092100Z 10003KT 080V170 CAVOK 15/14 Q1017 NOSIG

2010/08/09 21:00
LKKB 092100Z 36001KT CAVOK 16/15 Q1017

2010/08/09 21:00
LKKV 092100Z 10001KT CAVOK 14/13 Q1019 RMK REG QNH 1015

2010/08/09 21:00
LKLN 092100Z AUTO 00000KT CAVOK 15/14 Q1018

2010/08/09 21:00
LKNA 092100Z 35003KT CAVOK 18/12 Q1018

2010/08/09 21:00
LKPD 092100Z 00000KT CAVOK 17/16 Q1017

2010/08/09 21:00
LKPO 092100Z 20004KT CAVOK 16/14 Q1017 NOSIG

2010/08/09 20:50
LTFH 092050Z 28009KT 9999 SCT033 27/24 Q1006 NOSIG

2010/08/09 21:00
UDYZ 092100Z 04004MPS 9999 SKC 27/10 Q1010 09010070 NOSIG

2010/08/09 21:00
WMAU 092100Z 18006KT 150V220 9999 FEW005 SCT140 BKN270 25/24 Q//// QFF1007

2010/08/09 21:00
WMBA 092100Z 00000KT 8000 FEW005 SCT150 BKN280 25/24 Q1006

2010/08/09 21:00
WMKA 092100Z 06001KT 9999 FEW030 SCT140 BKN260 26/25 Q1006

2010/08/09 21:00
WMKB 092100Z 03001KT 9000 FEW025 SCT140 BKN270 26/24 Q1006 NOSIG

2010/08/09 21:00
WMKC 092100Z 00000KT 9999 FEW017CB SCT020 BKN200 26/25 Q1006

2010/08/09 21:00
WMKD 092100Z 00000KT 9999 FEW025 BKN280 26/24 Q1007 NOSIG

2010/08/09 21:00
WMKI 092100Z 03004KT 9999 FEW027 SCT140 BKN270 25/22 Q1007

2010/08/09 21:00
WMKL 092100Z 07004KT 9999 -RA FEW010 FEW017CB SCT026 BKN260 24/23 Q1006

2010/08/09 21:00
WMKM 092100Z 09005KT 4000 -TSRA FEW010 FEW016CB SCT026 BKN260 23/22 Q1008

2010/08/09 21:00
WMKN 092100Z 19003KT 9999 FEW024 BKN250 26/25 Q1006

2010/08/09 21:00
CYAM 092100Z CCA 18005KT 15SM FEW040 SCT220 28/20 A2988 RMK CU2CI1 SLP118

2010/08/09 21:00
CYBW 092100Z CCA 13005KT 30SM FEW035 SCT045CB BKN250 22/08 A2984 RMK CU2CB2CI2 SH S-N/ CB S + W SLP103

2010/08/09 21:00
CYGQ 092100Z CCA 30008KT 15SM FEW030 SCT035 SCT110 28/18 A2988 RMK CF1CU2AC0 SLP118

2010/08/09 21:00
CYYB 092100Z CCA 32002KT 15SM FEW038 FEW240 26/15 A2992 RMK CU1CI1 TR CU SLP129

2010/08/09 20:50
LIBD 092050Z 26004KT 230V290 CAVOK 22/16 Q1014 RMK VIS MIN 9999

2010/08/09 20:50
LIBP 092050Z 00000KT 9999 SCT070 23/20 Q1014 RMK VIS MIN 9999

2010/08/09 20:45
LIBR 092045Z 33009KT CAVOK 24/20 Q1014 NOSIG RMK SKC VIS MIN 9999 WIND THR13 WIND THR31 31007KT BLU

2010/08/09 20:55
LIBV 092055Z 35004KT CAVOK 22/18 Q1013 RMK SKC VIS MIN 9999 WIND THR14 34005KT BLU

2010/08/09 20:50
LICC 092050Z 28007KT CAVOK 25/21 Q1014 RMK VIS MIN 9999

2010/08/09 20:50
LICJ 092050Z 05008KT CAVOK 25/19 Q1016 RMK VIS MIN 9999

2010/08/09 20:50
LICR 092050Z 36013KT 9999 FEW030 25/19 Q1015 RMK VIS MIN 9999

2010/08/09 20:55
LICT 092055Z 00000KT CAVOK 25/20 Q1016 RMK SKC VIS MIN 9999 WIND THR13 06001KT BLU

2010/08/09 20:50
LIEA 092050Z VRB02KT CAVOK 19/15 Q1017 RMK VIS MIN 9999

2010/08/09 20:55
LIED 092055Z 33008KT 9999 BKN060 26/06 Q1015 RMK BKN VIS MIN 9999 BLU

2010/08/09 20:50
LIEO 092050Z 08004KT CAVOK 24/19 Q1016 RMK VIS MIN 9999

2010/08/09 20:55
LIRE 092055Z 00000KT CAVOK 22/20 Q1015 RMK SKC VIS MIN 9999 WIND THR31 09002KT BLU

2010/08/09 20:55
LIRM 092055Z 13003KT 9999 FEW040 26/25 Q1016 RMK FEW VIS MIN 9999 WIND THR06 13003KT BLU

2010/08/09 20:55
LIRS 092055Z 01007KT CAVOK 23/14 Q1015 RMK SKC VIS MIN 9999 WIND THR21 /////KT BLU

2010/08/09 20:50
LIRZ 092050Z 36004KT CAVOK 22/17 Q1016 RMK VIS MIN 9999

2010/08/09 21:06
KJAN 092106Z 24004KT 4SM -RA BR BKN022 OVC045 27/26 A2991

2010/08/09 21:00
GQPP 092100Z 31010KT CAVOK 22/19 Q1013 NOSIG

2010/08/09 21:06
KJAN 092106Z 24004KT 4SM -RA BR BKN022 OVC045 27/26 A2991

2010/08/09 21:06
KJAN 092106Z 24004KT 4SM -RA BR BKN022 OVC045 27/26 A2991

2010/08/09 21:00
DAAG 092100Z 29003KT CAVOK 24/22 Q1015

2010/08/09 21:00
DABB 092100Z 03003KT CAVOK 24/20 Q1015

2010/08/09 21:00
DABC 092100Z 00000KT CAVOK 24/08 Q1019

2010/08/09 21:00
DABS 092100Z 12010KT CAVOK 26/08 Q1020

2010/08/09 21:00
DAON 092100Z 00000KT CAVOK 25/21 Q1016

2010/08/09 21:00
DAOO 092100Z 36004KT CAVOK 25/22 Q1015

2010/08/09 21:00
DAUH 092100Z 08006KT CAVOK 36/13 Q1012

2010/08/09 21:00
DAUZ 092100Z 12004KT 9999 FEW040 31/02 Q1015

2010/08/09 21:00
DAAE 092100Z 00000KT CAVOK 23/18 Q1013

2010/08/09 21:00
DAAJ 092100Z 06012KT CAVOK 32/06 Q1017

2010/08/09 21:00
DAAP 092100Z 04010KT CAVOK 34/11 Q1014

2010/08/09 21:00
DAAS 092100Z 04009KT CAVOK 27/05 Q1021

2010/08/09 21:00
DAAV 092100Z 00000KT CAVOK 25/22 Q1012

2010/08/09 21:00
DABT 092100Z 09006KT CAVOK 27/07 Q1019

2010/08/09 21:00
DAOB 092100Z 00000KT CAVOK 28/09 Q1020

2010/08/09 21:00
DAOF 092100Z 30012KT 5000 TS FEW033CB SCT046 38/12 Q1012

2010/08/09 21:00
DAOI 092100Z 00000KT CAVOK 31/14 Q1012

2010/08/09 21:00
DAOL 092100Z 03006KT CAVOK 25/20 Q1015

2010/08/09 21:00
DAOR 092100Z 04010KT 9999 SCT033 35/08 Q1019

2010/08/09 21:00
DAOV 092100Z 36004KT CAVOK 29/19 Q1017

2010/08/09 21:00
DAUA 092100Z 03014KT CAVOK 38/// Q1010

2010/08/09 21:00
DAUB 092100Z 00000KT CAVOK 33/14 Q1012

2010/08/09 21:00
DAUE 092100Z 03005KT CAVOK 36/12 Q1015

2010/08/09 21:00
DAUG 092100Z 09005KT CAVOK 34/14 Q1017

2010/08/09 21:00
DAUI 092100Z 07014KT CAVOK 37/03 Q1011

2010/08/09 21:00
DAUK 092100Z 00000KT CAVOK 32/16 Q1013

2010/08/09 21:00
DAUL 092100Z 00000KT 7000 FEW030 31/14 Q1019

2010/08/09 21:00
DAUO 092100Z /////KT CAVOK 33/16 Q1013

2010/08/09 21:00
DAUT 092100Z 04006KT CAVOK 38/// Q1012

2010/08/09 21:00
DAUU 092100Z 02010KT CAVOK 35/18 Q1012

2010/08/09 21:00
CYCG 092100Z CCA 15005KT 15SM BKN065TCU BKN120 BKN260 27/10 A2977 RMK TCU5AC1CI1 RETS SLP071

2010/08/09 21:00
BIAR 092100Z 33007KT CAVOK 13/08 Q1013

2010/08/09 21:00
BIEG 092100Z 02010KT 3000N 8000S VCFG BKN001 09/09 Q1012

2010/08/09 21:00
BIKF 092100Z 31008KT 9999 BKN012 11/08 Q1014

2010/08/09 21:00
BIRK 092100Z 33002KT 9999 BKN011 11/09 Q1014

2010/08/09 20:56
PHBK 092056Z AUTO 31008KT 10SM BKN050 28/19 A3011 RMK AO2 SLP197 6//// T02830189 TSNO $

2010/08/09 20:56
PHBK 092056Z AUTO 31008KT 10SM BKN050 28/19 A3011 RMK AO2 SLP197 6//// T02830189 TSNO $

2010/08/09 20:57
PHNG 092057Z AUTO 07011G16KT 10SM SCT043 OVC050 28/18 A3012 RMK AO2 SLP195 T02780178 51006 $

2010/08/09 20:57
PWAK 092057Z 07014KT 10SM FEW026 29/24 A3007 RMK AO2A

2010/08/09 21:00
RJOO 092100Z 00000KT 9999 -SHRA FEW002 SCT010 BKN020 26/24 Q1014 RMK 1ST002 4CU010 6CU020 A2995

2010/08/09 21:00
RJSM 092100Z 06003KT 020V080 0300 R10/0400V0600D -DZ FG VV000 23/22 Q1014 RMK A2995 R0500 29/22 R024 FCST 2103 BECMG 2122 1500 BR SCT003ST BKN005ST BECMG 2223 7000 NSW FEW003ST SCT005ST

2010/08/09 21:00
RJTT 092100Z 14005KT 9999 FEW010 BKN030 BKN100 27/23 Q1015 RMK 1CU010 5CU030 7AC100 A2999

2010/08/09 21:00
FBSK 092100Z 20010KT CAVOK 12/07 Q1028 NOSIG

2010/08/09 21:00
OIII 092100Z 00000KT CAVOK 29/04 Q1013 A2993 878.7

2010/08/09 21:00
UAFM 092100Z 12004MPS CAVOK 21/10 Q1008 NOSIG

2010/08/09 21:00
OOMS 092100Z 00000KT 8000 NSC 30/27 Q0998 NOSIG

2010/08/09 20:50
OOSA 092050Z 16005KT 140V200 6000 BKN012 OVC025 25/22 Q1003 NOSIG RMK05 RH82

2010/08/09 21:07
CYKF 092107Z AUTO 30005KT 230V310 9SM FEW040 OVC086 22/21 A2997 RMK SLP145 DENSITY ALT 2000FT

2010/08/09 21:06
CYLD 092106Z 27006KT 15SM -SHRA BKN025TCU RETS RMK TCU4 CB NE ASOCTD

2010/08/09 21:05
CYTZ 092105Z AUTO 31015G24KT 5SM -RA 23/21 A2993 RMK SLP136 DENSITY ALT 1200FT MAX WND 30024KT AT 2103Z LTNG DIST NE E CLD MISG RVR MISG

2010/08/09 21:06
CYTZ 092106Z AUTO 31014G24KT 6SM -RA 23/21 A2993 RMK SLP137 DENSITY ALT 1200FT PCPN 0.5MM PAST HR MAX WND 30024KT AT 2103Z LTNG DIST NE E CLD MISG RVR MISG

2010/08/09 21:05
KCBM 092105Z AUTO 09009KT 5SM -TSRA OVC050 26/24 A2994 RMK AO2 SLP139 $

2010/08/09 21:05
KNQX 092105Z 28007KT 10SM SCT010 BKN020 BKN040 BKN140 27/24 A2988 RMK AO2 TSE05RAE05 TSE04 T1 SET P0000 $

2010/08/09 21:04
MHSC 092104Z AUTO 15010KT 9999 -TSRA BKN046 BKN060 BKN080 25/22 A2993 RMK AO2 TSB2104 CLDS LWR RWY17 SLP100 $

2010/08/09 21:00
WBSB 092100Z 08007KT 7000 -RA FEW003 SCT020 BKN150 26/25 Q1009 NOSIG

2010/08/09 21:00
YBCS 092100Z 13008KT 6000 -SHRA FEW002 SCT025 BKN035 22/21 Q1015 FM2100 12008KT 9999 -SHRA SCT018 BKN040 TEMPO 2100/2400 3000 SHRA BKN014

2010/08/09 21:00
YMML 092100Z 27005KT 5000 RA FEW010 BKN045 BKN055 06/05 Q1015 FM2100 34005KT 9999 -RA FEW030 BKN055 INTER 2100/2400 4000 RA BKN015

2010/08/09 21:00
YSCB 092100Z 08006KT 4000 RA FEW009 SCT023 OVC055 08/07 Q1018 FM2100 09010KT 4000 -RA BKN019 BKN060 FM2230 09010KT 9000 -RA BKN024 BKN060 TEMPO 2100/2400 3000 RA BKN009

2010/08/09 21:02
YSDU 092102Z AUTO 09006KT 2200NDV // SCT005 BKN017 OVC035 11/11 Q1015

2010/08/09 21:00
CWAE 092100Z 18005KT 15SM SCT016 BKN045 16/12 A2993 RMK SC3SC4 WND ESTD SLP131

2010/08/09 21:00
CYPC 092100Z 35004KT 15SM BKN004 OVC010 09/08 A2979 RMK ST5SC3 BLN EST SLP090

2010/08/09 21:00
DAAJ 092100Z 06012KT CAVOK 32/06 Q1017

2010/08/09 21:00
DAAP 092100Z 04010KT CAVOK 34/11 Q1014

2010/08/09 21:00
DAUB 092100Z 00000KT CAVOK 33/14 Q1012

2010/08/09 21:00
DAUE 092100Z 03005KT CAVOK 36/12 Q1015

2010/08/09 21:00
DAUG 092100Z 09005KT CAVOK 34/14 Q1017

2010/08/09 21:00
DAUT 092100Z 04006KT CAVOK 38/// Q1012

2010/08/09 21:00
DAUU 092100Z 02010KT CAVOK 35/18 Q1012

2010/08/09 20:55
KDPG 092055Z 31013KT 50SM BKN100 BKN130 28/03 A3008 RMK VIRGA ALQDS SLP137 8/270 T02830029 55003

2010/08/09 20:56
KNFL 092056Z 16007KT 10SM FEW080 32/02 A2992 RMK AO2 SLP107 T03170017 58017

2010/08/09 21:00
MKJS 092100Z COR 26005KT 9999 SCT022 BKN220 30/22 Q1012

2010/08/09 21:00
MKJS 092100Z 26005KT 9999 FEW022 FEW024CB BKN220 30/22 Q1012

2010/08/09 21:00
OEMA 092100Z 27012KT 9000 FEW045 40/08 Q1005 NOSIG

2010/08/09 20:57
PHNG 092057Z AUTO 07011G16KT 10SM SCT043 OVC050 28/18 A3012 RMK AO2 SLP195 T02780178 51006 $

2010/08/09 20:58
ROTM 092058Z 18016G22KT 9999 BKN010 BKN040 OVC100 28/26 A2975 RMK PK WND 16027/20 SHRAB15E30 SLP060 WND WRNG XWND ADV P0005 60005 T02780256 51003

2010/08/09 21:00
TAPA 092100Z 07011KT 9999 SCT016TCU BKN250 29/24 Q1013 CB TOP-OHEAD TCU-N/S

2010/08/09 21:00
TVSV 092100Z 09006KT 9999 FEW021 BKN260 FEW///CB 29/25 Q1013/ CB NW/W

2010/08/09 20:55
TXKF 092055Z 19011KT 9999 FEW018 SCT180 BKN300 29/23 Q1021 /

2010/08/09 21:00
UAFM 092100Z 12004MPS CAVOK 21/10 Q1008 NOSIG

2010/08/09 21:00
ZSNJ 092100Z 06002MPS 2000 BR SCT005 BKN040 26/24 Q1003 NOSIG

2010/08/09 21:00
ORBI 092100Z 30006KT CAVOK 33/10 Q1000 NOSIG 

2010/08/09 21:00
ORMM 092100Z 29006KT 8000 NSC 36/20 Q0997

2010/08/09 21:10
PADM 092110Z AUTO 18015G21KT 3/4SM -RA BR SCT009 BKN017 OVC065 11/09 A2940 RMK AO2 TSNO P0002 $

2010/08/09 21:06
PAPM 092106Z AUTO 18021KT 1 1/4SM -RA BR SCT007 BKN050 OVC070 09/09 A2942 RMK AO2 TSNO BKN V SCT RAB04 P0001 $

2010/08/09 21:00
SVCS 092100Z 16012KT 9000 FG BKN080 27/XX Q1014

2010/08/09 21:00
SVMP 092100Z 12012KT 9000 FG SCT045 XX/XX Q1010

2010/08/09 21:08
EYVI 092108Z VRB01KT 0800 R20/1200VP1500U FG NSC 15/15 Q1017 NOSIG

2010/08/09 21:00
SKBQ 092100Z 32004KT 9999 800N VCSH SCT012 FEW020TCU SCT200 28/27 A2983

2010/08/09 21:00
MROC 092100Z 25008KT 9999 SCT020 BKN045 25/24 A2996 RMK FEW250 TCU ARND RN DST NE NOSIG

2010/08/09 21:00
MRPV 092100Z 27009KT 9999 SH SCT020 BKN120 26/21 A2993 RKM VIS 6KM N NOSIG

2010/08/09 21:00
MRLB 092100Z 28008KT 9999 SCT020 BKN130 29/26 A2980

2010/08/09 21:00
MRLM 092100Z 01007KT CAVOK 29/24 A2980 RMK FEW120 BKN250 TCU DST SE/SW

2010/08/09 21:00
SASJ 092100Z 05008KT CAVOK 17/02 Q1018

2010/08/09 21:00
YBCS 092100Z 13008KT 6000 -SHRA FEW002 SCT025 BKN035 22/21 Q1015 FM2100 12008KT 9999 -SHRA SCT018 BKN040 TEMPO 2100/2400 3000 SHRA BKN014

2010/08/09 21:00
YMML 092100Z 27005KT 5000 RA FEW010 BKN045 BKN055 06/05 Q1015 FM2100 34005KT 9999 -RA FEW030 BKN055 INTER 2100/2400 4000 RA BKN015

2010/08/09 20:50
EGDM 092050Z 21012KT 9999 -DZ BKN005 OVC007 17/16 Q1013

2010/08/09 21:00
SARI 092100Z 23005KT 6000 NSC 18/14 Q1021

2010/08/09 21:02
YSDU 092102Z AUTO 09006KT 2200NDV // SCT005 BKN017 OVC035 11/11 Q1015

2010/08/09 21:00
MROC 092100Z 25008KT 9999 SCT020 BKN045 25/24 A2996 RMK FEW250 TCU ARND RN DST NE NOSIG

2010/08/09 21:00
MRPV 092100Z 27009KT 9999 SH SCT020 BKN120 26/21 A2993 RKM VIS 6KM N NOSIG

2010/08/09 21:00
MRLB 092100Z 28008KT 9999 SCT020 BKN130 29/26 A2980

2010/08/09 21:00
MRLM 092100Z 01007KT CAVOK 29/24 A2980 RMK FEW120 BKN250 TCU DST SE/SW

2010/08/09 21:00
SKBO 092100Z 28003KT 9999 BKN0020 17/10 A3027 NOSIG

2010/08/09 21:00
SKBQ 092100Z 32004KT 9999 800N VCSH SCT012 FEW020TCU SCT200 28/27 A2983

2010/08/09 21:00
SKCG 092100Z 24004KT 9999 FEW018 BKN080 29/25 A2981 RETS

2010/08/09 21:00
SKCC 092100Z VRB02KT 9999 TS SCT018CB SCT090 27/22 A2986 RERA

2010/08/09 21:00
SKLT 092100Z VRB02KT 5000 HZ FEW020 32/25 A2988 RMK/APCLO

2010/08/09 21:00
SKRG 092100Z 09010KT 9999 FEW020TCU SCT200 22/11 A3021

2010/08/09 21:00
SKSP 092100Z 09005KT 9999 SCT015 BKN200 29/26 A2982

2010/08/09 21:00
SKBG 092100Z VRB02KT 9999 FEW010 BKN080 23/20 A2997 RMK VCSH/E

2010/08/09 21:00
LFLL 092100Z 03006KT 360V090 CAVOK 23/15 Q1016 NOSIG

2010/08/09 21:00
LFMN 092100Z VRB02KT 9999 FEW015 BKN033 24/20 Q1016 NOSIG

2010/08/09 21:00
LFPG 092100Z 36008KT CAVOK 20/13 Q1016 NOSIG

2010/08/09 21:00
LFPO 092100Z 34005KT CAVOK 21/12 Q1015 NOSIG

2010/08/09 21:00
LFQQ 092100Z 26006KT CAVOK 17/11 Q1016 NOSIG

2010/08/09 21:00
LFRB 092100Z 22009KT 3000 -DZ BR BKN005 BKN009 17/16 Q1017 NOSIG

2010/08/09 21:00
LFRS 092100Z 26004KT CAVOK 16/14 Q1018 NOSIG

2010/08/09 21:00
LRBS 092100Z 00000KT CAVOK 23/20 Q1013 NOSIG

2010/08/09 21:00
LRCK 092100Z 31004KT CAVOK 24/20 Q1011 NOSIG

2010/08/09 21:00
LROP 092100Z VRB02KT CAVOK 23/20 Q1013 880///95 NOSIG

2010/08/09 21:00
LRSB 092100Z 26004KT 9999 FEW037 BKN067 18/17 Q1017

2010/08/09 21:00
LRTR 092100Z 01006KT CAVOK 19/17 Q1016

2010/08/09 21:00
LFAQ 092100Z AUTO 32004KT 9999NDV FEW046 16/11 Q1016

2010/08/09 21:00
LFBU 092100Z AUTO 28008KT 9999NDV FEW034 SCT040 19/12 Q1019

2010/08/09 21:00
LFLN 092100Z AUTO VRB02KT 9999NDV NSC 19/17 Q1017

2010/08/09 21:00
LFPM 092100Z AUTO 06003KT 9999NDV NSC 20/12 Q1015

2010/08/09 21:00
LFRH 092100Z 26003KT 9999 SCT009 OVC018 17/16 Q1018

2010/08/09 21:00
LFRQ 092100Z AUTO 24004KT 200V280 9999NDV BKN005 OVC018 17/16 Q1018

2010/08/09 21:00
LFRT 092100Z AUTO 24005KT 210V270 9999NDV FEW015 16/15 Q1017

2010/08/09 21:00
LFSD 092100Z AUTO 27002KT 9999NDV NSC 19/13 Q1016

2010/08/09 21:00
LFTW 092100Z AUTO 18005KT 9999NDV //////TCU 22/17 Q1015

2010/08/09 21:00
LFBA 092100Z AUTO 25003KT 9999NDV NSC 18/15 Q1019

2010/08/09 21:00
LFBE 092100Z AUTO 26006KT 9999NDV FEW039 19/14 Q1019

2010/08/09 21:00
LFGJ 092100Z AUTO 07005KT 9999NDV NSC 18/15 Q1016

2010/08/09 21:00
LFJR 092100Z AUTO 35003KT 320V020 9999NDV NSC 20/12 Q1017

2010/08/09 21:00
LFMD 092100Z AUTO 00000KT 9999NDV OVC025 24/21 Q1015

2010/08/09 21:00
LFMH 092100Z AUTO 26003KT 9999NDV NSC 23/15 Q1017

2010/08/09 21:00
LFOT 092100Z 31005KT CAVOK 23/12 Q1016 NOSIG

2010/08/09 21:00
LFPN 092100Z AUTO 34006KT 9999NDV NSC 18/12 Q1016

2010/08/09 21:00
LFRC 092100Z AUTO 23010KT 9999NDV OVC003 17/16 Q1016

2010/08/09 21:00
LFRG 092100Z AUTO 22002KT 9999NDV NSC 12/11 Q1017

2010/08/09 21:00
LFRK 092100Z AUTO VRB02KT 9999NDV ///////// 16/11 Q1017

2010/08/09 21:00
RKSI 092100Z 06005KT 9999 SCT040 BKN120 26/23 Q1008 NOSIG

2010/08/09 21:00
RKSS 092100Z 02002KT CAVOK 25/22 Q1008 NOSIG 

2010/08/09 21:00
RKPC 092100Z 13011KT 100V160 7000 BKN025 BKN130 28/24 Q1005 NOSIG 

2010/08/09 21:00
RKPK 092100Z 36005KT 9999 SCT010 BKN040 BKN080 26/23 Q1010 NOSIG 

2010/08/09 21:00
RKTU 092100Z 33002KT 9000 -RA SCT020 OVC030 25/24 Q1009 NOSIG 

2010/08/09 21:00
RKTN 092100Z 12002KT 9000 FEW005 SCT020 BKN030 26/25 Q1009 NOSIG

2010/08/09 21:00
RKJB 092100Z 13007KT 100V160 9999 FEW040 BKN140 27/24 Q1007 NOSIG 

2010/08/09 21:00
RKNY 092100Z AUTO 31005KT3000NDV NCD 23/21 Q1008 

2010/08/09 21:00
YSCB 092100Z 08006KT 4000 RA FEW009 SCT023 OVC055 08/07 Q1018 FM2100 09010KT 4000 -RA BKN019 BKN060 FM2230 09010KT 9000 -RA BKN024 BKN060 TEMPO 2100/2400 3000 RA BKN009

2010/08/09 21:00
WBSB 092100Z 08007KT 7000 -RA FEW003 SCT020 BKN150 26/25 Q1009 NOSIG

2010/08/09 21:00
FBMN 092100Z 18009KT CAVOK 19/M01 Q1024

2010/08/09 21:00
KWDR 092100Z AUTO 00000KT 10SM CLR 33/20 A3003

2010/08/09 20:56
KSAT 092056Z 15005KT 10SM FEW060 35/20 A2991

2010/08/09 21:03
KGLE 092103Z AUTO 17006G18KT 10SM BKN065 BKN090 37/18 A2989

2010/08/09 21:06
KCLM 092106Z AUTO VRB03KT 10SM -RA FEW003 SCT016 SCT095 14/13 A2999

2010/08/09 21:00
UIAA 092100Z 00000MPS 0050 R29/0075N FG VV001 08/08 Q1007 NOSIG RMK QBB040 QFE697 29190060

2010/08/09 21:00
UIBB 092100Z 23002MPS 9999 SCT040CB BKN100 13/13 Q1003 NOSIG RMK QFE710/0946 30190055

2010/08/09 21:00
UIII 092100Z 09002MPS CAVOK 06/05 Q1004 NOSIG RMK QFE711/0948 12CLRD60

2010/08/09 21:00
UIUU 092100Z 29002MPS 240V310 9999 SKC 06/04 Q1006 NOSIG RMK QFE710/0947 26CLRD60

2010/08/09 21:00
USPP 092100Z 00000MPS CAVOK 17/13 Q1019 NOSIG 21090060 RMK QFE754/1005

2010/08/09 21:00
UWKD 092100Z 24002MPS CAVOK 26/13 Q1020 NOSIG RMK QFE755/1007 11CLRD70

2010/08/09 21:00
UWKE 092100Z 24003MPS CAVOK 23/11 Q1020 NOSIG RMK QFE748/0997 04090070

2010/08/09 21:00
UWKS 092100Z VRB01MPS 6000 FU OVC007 26/14 Q1020 NOSIG RMK QFE751 SC0.60

2010/08/09 21:00
UWLL 092100Z 00000MPS CAVOK 22/13 Q1020 NOSIG RMK QFE752/1003 SC065

2010/08/09 21:00
UWLW 092100Z 00000MPS P5000 SKC 21/14 Q1020 NOSIG 02CLRD60 RMK QFE759

2010/08/09 21:00
UWOR 092100Z 08005MPS CAVOK 20/05 Q1021 07CLRD65 NOSIG RMK QFE740/0987

2010/08/09 21:00
UWOO 092100Z 06003MPS 4400 HZ SCT220 20/05 Q1018 08CLRD65 NOSIG RMK QFE753/1004

2010/08/09 21:00
UWPP 092100Z 06002MPS CAVOK 21/16 Q1018 RMK QFE748

2010/08/09 21:00
UWSS 092100Z 09003MPS CAVOK 27/09 Q1018 NOSIG RMK QFE751 120///60

2010/08/09 21:00
UWWW 092100Z 05003MPS CAVOK 23/05 Q1020 NOSIG RMK QFE752/1003 05CLRD60 15//99//

2010/08/09 21:00
ULLI 092100Z 25002MPS CAVOK 20/17 Q1014 NOSIG

2010/08/09 21:00
UUDD 092100Z 13003MPS 100V160 0500 R14R/1400N R14L/P1500N FU VV004 21/16 Q1016 TEMPO 0500

2010/08/09 21:00
UUEE 092100Z 08004MPS 1400 R25R/P1500N FU OVC008 23/14 Q1016 TEMPO 1000 FU

2010/08/09 21:00
UUWW 092100Z 12003MPS 0700 R24/P1500N HZ VV005 26/13 Q1016 24000070 TEMPO 0400 FU RMK QBB160

2010/08/09 20:50
LIBD 092050Z 26004KT 230V290 CAVOK 22/16 Q1014 RMK VIS MIN 9999

2010/08/09 20:50
LIBP 092050Z 00000KT 9999 SCT070 23/20 Q1014 RMK VIS MIN 9999

2010/08/09 20:45
LIBR 092045Z 33009KT CAVOK 24/20 Q1014 NOSIG RMK SKC VIS MIN 9999 WIND THR13 WIND THR31 31007KT BLU

2010/08/09 20:55
LIBV 092055Z 35004KT CAVOK 22/18 Q1013 RMK SKC VIS MIN 9999 WIND THR14 34005KT BLU

2010/08/09 20:50
LICA 092050Z 24004KT 9999 SCT020 25/21 Q1015 RMK VIS MIN 9999

2010/08/09 20:50
LICC 092050Z 28007KT CAVOK 25/21 Q1014 RMK VIS MIN 9999

2010/08/09 20:50
LICJ 092050Z 05008KT CAVOK 25/19 Q1016 RMK VIS MIN 9999

2010/08/09 20:50
LICR 092050Z 36013KT 9999 FEW030 25/19 Q1015 RMK VIS MIN 9999

2010/08/09 20:55
LICT 092055Z 00000KT CAVOK 25/20 Q1016 RMK SKC VIS MIN 9999 WIND THR13 06001KT BLU

2010/08/09 21:03
K11R 092103Z AUTO 14007KT 10SM CLR 36/19 A2990

2010/08/09 20:55
KESN 092055Z 23008KT 07SM HZ FEW070 33/22 A3001

2010/08/09 20:56
KSAT 092056Z 15005KT 10SM FEW060 35/20 A2991

2010/08/09 21:05
KYIP 092105Z AUTO 11009KT 10SM -RA BKN035 BKN080 24/22 A2993

2010/08/09 21:06
KCLM 092106Z AUTO VRB03KT 10SM -RA FEW003 SCT016 SCT095 14/13 A2999

2010/08/09 21:00
GABS 092100Z VRB01KT 9999 FEW025 26/24 Q1015 NOSIG

2010/08/09 21:00
GOOY 092100Z 27004KT 240V310 9999 SCT013 27/22 Q1012 NOSIG

2010/08/09 21:00
DIAP 092100Z VRB03KT 7000 SCT011 SCT080 25/23 Q1015 NOSIG

2010/08/09 21:00
GQNN 092100Z 27008KT 240V300 8000 NSC 27/21 Q1012 NOSIG

2010/08/09 21:00
GQPP 092100Z 31010KT CAVOK 22/19 Q1013 NOSIG

2010/08/09 21:00
GUCY 092100Z 00000KT 9999 BKN013 SCT110 26/25 Q1013 NOSIG

2010/08/09 21:00
GVAC 092100Z 08006KT 9999 BKN014 25/19 Q1014 NOSIG

2010/08/09 21:00
GBYD 092100Z VRB02KT 9999 SCT011 FEW018CB SCT120 26/24 Q1012 CB NE-E

2010/08/09 21:06
KOXR 092106Z 23007KT 10SM FEW012 19/13 A2993

2010/08/09 20:56
KSAT 092056Z 15005KT 10SM FEW060 35/20 A2991

2010/08/09 20:50
EGDR 092050Z 26007KT 0400 FG SCT000 OVC002 16/16 Q1013 RED

2010/08/09 20:50
EGOS 092050Z AUTO 23005KT 9999NDV -SHRA BKN050/// 16/13 Q1010

2010/08/09 20:50
EGVP 092050Z AUTO 22010KT 9999NDV // OVC007/// 17/16 Q1013

2010/08/09 20:50
EGXE 092050Z AUTO 26007KT 9999NDV FEW027/// BKN070/// 15/13 Q1009

2010/08/09 20:50
EGXG 092050Z AUTO 27002KT 9999NDV FEW070/// 15/14 Q1009

2010/08/09 20:50
EGXJ 092050Z AUTO 21014KT 9999NDV // BKN046/// 18/14 Q1010

2010/08/09 20:50
EGXT 092050Z AUTO 21011KT 9999NDV FEW060/// 18/14 Q1011

2010/08/09 20:50
EGXU 092050Z AUTO 23005KT 9999NDV // SCT070/// 16/13 Q1009

2010/08/09 20:50
EGXZ 092050Z AUTO 28004KT 9999NDV SCT080/// 16/12 Q1009

2010/08/09 20:50
EGYD 092050Z AUTO 21009KT 9999NDV // FEW070/// 18/14 Q1010

2010/08/09 21:00
EICK 092100Z 29005KT 9999 BKN037 SCT250 14/09 Q1012 NOSIG

2010/08/09 21:00
EIDW 092100Z 25008KT 9999 FEW028 14/10 Q1010 NOSIG

2010/08/09 21:00
EINN 092100Z 25010KT 9999 FEW024 BKN050 14/11 Q1011 NOSIG

2010/08/09 21:00
CYAW 092100Z 18006KT 15SM BKN110 BKN300 19/17 A2997 RMK AC6CI0 DA+837FT SLP148

2010/08/09 21:00
MKJS 092100Z COR 26005KT 9999 SCT022 BKN220 30/22 Q1012

2010/08/09 21:00
MKJS 092100Z 26005KT 9999 FEW022 FEW024CB BKN220 30/22 Q1012

2010/08/09 21:00
MWCR 092100Z 06005KT 020V090 9999 -SHRA BKN018TCU BKN220 30/26 Q1013 NOSIG

2010/08/09 21:00
MYNN 092100Z 00000KT 9999 -SHRA SCT012CB SCT018 BKN080 27/24 A2996

2010/08/09 21:00
SPHI 092100Z 19015KT CAVOK 22/15 Q1014 RMK BIRD HAZARD RWY 19/01 PP000

2010/08/09 21:00
TVSV 092100Z 09006KT 9999 FEW021 BKN260 FEW///CB 29/25 Q1013/ CB NW/W

2010/08/09 20:55
TXKF 092055Z 19011KT 9999 FEW018 SCT180 BKN300 29/23 Q1021 /

2010/08/09 20:55
KQAR 092055Z AUTO 33002KT 12SM CLR 33/00 A2956 RMK AO2 SLP947 T03271004 57003 $

2010/08/09 20:55
KQAY 092055Z AUTO 27006KT 9000 FEW210 37/12 A2947 RMK AO2 SLP975 T03650124 58002 $

2010/08/09 20:55
KQDM 092055Z AUTO 30001KT 12SM SCT095 BKN200 17/15 A3010 RMK AO2 SLP073 60002 T01650150 58011 PWINO $

2010/08/09 20:55
KQON 092055Z AUTO 35004KT 9000 CLR 33/03 A2961 RMK AO2 SLP008 T03300027 50002

2010/08/09 20:55
KQPV 092055Z AUTO 29003KT 8000 CLR 35/05 A2957 RMK AO2 SLP006 T03520049 50001

2010/08/09 20:55
KQQR 092055Z AUTO 00000KT 9999 BKN031 BKN036 26/21 A2984 RMK AO2 SLP029 T02550207 57003 $

2010/08/09 20:55
KQSB 092055Z AUTO 22008KT 6000 30/09 A2976 RMK AO2 SLP974 T02990085 58002 $

2010/08/09 20:55
KQVE 092055Z AUTO VRB02KT 9999 BKN039 BKN120 23/20 A2985 RMK AO2 SLP043

2010/08/09 21:00
CYTH 092100Z CCA 10008KT 15SM -SHRA FEW038 BKN056TCU OVC110 21/10 A2989 RMK SC2TCU4AC2 SLP126

2010/08/09 21:00
UAAA 092100Z 17003MPS 9999 FEW050CB SCT100 20/08 Q1008 88CLRD65 NOSIG

2010/08/09 21:00
UACC 092100Z 02006MPS CAVOK 11/04 Q1015 040/0070 NOSIG RMK QFE730/0973

2010/08/09 21:00
UAFM 092100Z 12004MPS CAVOK 21/10 Q1008 NOSIG

2010/08/09 21:00
UATE 092100Z 10003MPS CAVOK 26/05 Q1010 120///70 NOSIG RMK QFE755/1007

2010/08/09 21:00
UATT 092100Z 07005MPS CAVOK 22/04 Q1018 31CLRD70 NOSIG RMK QFE743/0991

2010/08/09 21:00
UKKK 092100Z 12001MPS 7000 TS BKN030CB BKN050 24/19 Q1015 08CLRD70 TEMPO 36009G14MPS 2100 -TSRAGR SCT005 BKN020CB

2010/08/09 21:00
ULLI 092100Z 25002MPS CAVOK 20/17 Q1014 NOSIG

2010/08/09 21:00
UMGG 092100Z 30003MPS 9999 FEW036CB BKN100 22/19 Q1014 R10/290350 NOSIG

2010/08/09 21:00
UMMS 092100Z 32004MPS 8000 NSC 19/18 Q1015 R31/290060 NOSIG

2010/08/09 21:00
URKA 092100Z 06007MPS CAVOK 26/15 Q1007

2010/08/09 21:00
URMM 092100Z 07003MPS 9999 SKC 24/13 Q1010 NOSIG RMK / SC070

2010/08/09 21:00
URSS 092100Z 06002MPS 9999 SKC 27/23 Q1006 NOSIG RMK / QFE754 06CLRD70

2010/08/09 21:00
UTAA 092100Z VRB01MPS 7000 SKC 27/01 Q1009 NOSIG

2010/08/09 21:00
UTDD 092100Z VRB01MPS 9999 FEW200 24/09 Q1006 09CLRD70 NOSIG RMK QFE687/0916

2010/08/09 21:00
UUEE 092100Z 08004MPS 1400 R25R/P1500N FU OVC008 23/14 Q1016 TEMPO 1000 FU

2010/08/09 21:00
UUWW 092100Z 12003MPS 0700 R24/P1500N HZ VV005 26/13 Q1016 24000070 TEMPO 0400 FU RMK QBB160

2010/08/09 21:00
UWKD 092100Z 24002MPS CAVOK 26/13 Q1020 NOSIG RMK QFE755/1007 11CLRD70

2010/08/09 21:00
UWOO 092100Z 06003MPS 4400 HZ SCT220 20/05 Q1018 08CLRD65 NOSIG RMK QFE753/1004

2010/08/09 21:00
UWPP 092100Z 06002MPS CAVOK 21/16 Q1018 RMK QFE748

2010/08/09 21:00
VTBD 092100Z 23005KT 9999 FEW020 SCT120 BKN300 26/23 Q1003 NOSIG

2010/08/09 21:00
YWLM 092100Z 04005KT 9999 -RA FEW050 SCT080 OVC100 13/12 Q1019 FM2100 MOD TURB BLW 5000FT

2010/08/09 21:00
YWLM 092100Z 04005KT 9999 -RA FEW050 SCT080 OVC100 13/12 Q1019 FM2100 MOD TURB BLW 5000FT

2010/08/09 21:00
YWLM 092100Z 04005KT 9999 -RA FEW050 SCT080 OVC100 13/12 Q1019 FM2100 MOD TURB BLW 5000FT

2010/08/09 21:00
YWLM 092100Z 04005KT 9999 -RA FEW050 SCT080 OVC100 13/12 Q1019 FM2100 MOD TURB BLW 5000FT

2010/08/09 21:00
YWLM 092100Z 04005KT 9999 -RA FEW050 SCT080 OVC100 13/12 Q1019 FM2100 MOD TURB BLW 5000FT

2010/08/09 21:00
YWLM 092100Z 04005KT 9999 -RA FEW050 SCT080 OVC100 13/12 Q1019 FM2100 MOD TURB BLW 5000FT

2010/08/09 21:00
SACO 092100Z 05013KT CAVOK 15/00 Q1024

2010/08/09 21:00
SARI 092100Z 23005KT 6000 NSC 18/14 Q1021

2010/08/09 21:00
SARP 092100Z 14005KT CAVOK 18/09 Q1020

2010/08/09 21:00
SASJ 092100Z 05008KT CAVOK 17/02 Q1018

2010/08/09 21:00
SAVC 092100Z 32005KT CAVOK 14/M00 Q1017

2010/08/09 21:00
SAWE 092100Z 25026G36KT CAVOK 01/M02 Q1002

2010/08/09 21:00
SAZM 092100Z 00000KT CAVOK 11/07 Q1023

2010/08/09 21:00
SEGU 092100Z 22012KT 9999 SCT026 BKN100 27/20 Q1010 NOSIG

2010/08/09 21:00
SELT 092100Z 16013KT 130V190 9999 SCT040 18/02 Q1030

2010/08/09 21:00
SEQU 092100Z 11008KT 9999 SCT040 17/03 Q1025 RMK A3029 NOSIG

2010/08/09 21:00
SKBG 092100Z VRB02KT 9999 FEW010 BKN080 23/20 A2997 RMK VCSH/E

2010/08/09 21:00
SKBO 092100Z 28003KT 9999 BKN0020 17/10 A3027 NOSIG

2010/08/09 21:00
SKBQ 092100Z 32004KT 9999 800N VCSH SCT012 FEW020TCU SCT200 28/27 A2983

2010/08/09 21:00
SKLT 092100Z VRB02KT 5000 HZ FEW020 32/25 A2988 RMK/APCLO

2010/08/09 21:00
SKRG 092100Z 09010KT 9999 FEW020TCU SCT200 22/11 A3021

2010/08/09 21:00
SKSP 092100Z 09005KT 9999 SCT015 BKN200 29/26 A2982

2010/08/09 21:00
SLCA 092100Z 18005KT 9999 SKC 23/06 Q1019

2010/08/09 21:00
SLCO 092100Z 19004KT 5000 FU FEW025 33/20 Q1012

2010/08/09 21:00
SLJO 092100Z 14004KT 5000 FU SKC 32/16 Q1014

2010/08/09 21:00
SLOR 092100Z 30006KT 9999 SKC 19/M08 Q1034

2010/08/09 21:00
SLPO 092100Z 05010KT 9999 SKC 16/M03 Q1034

2010/08/09 21:00
SLPS 092100Z 19008KT 4000SE FU SKC 29/13 Q1015

2010/08/09 21:00
SLRB 092100Z 00000KT 7000 SKC 28/18 Q1017

2010/08/09 21:00
SLRI 092100Z 17005KT 5000 FU FEW020 34/18 Q1012

2010/08/09 21:00
SLSA 092100Z 14005KT 7000 SKC 32/16 Q1013

2010/08/09 21:00
SLVM 092100Z 00000KT 9999 SKC 24/19 Q1016

2010/08/09 21:00
SLYA 092100Z 09005KT 9999 SKC 21/11 Q1022

2010/08/09 21:00
SMJP 092100Z 00000KT 9999 FEW020CB 28/24 Q1012 TEMPO TS

2010/08/09 21:00
SUCA 092100Z 00000KT CAVOK 15/02 Q1022

2010/08/09 21:00
UAKK 092100Z 01006MPS CAVOK 12/07 Q1012 050///70 NOSIG RMK QFE712/0949

2010/08/09 20:50
OIYY 092050Z 22004KT CAVOK 25/M02 Q1014 A2995

2010/08/09 21:00
UOHH 092100Z 30003MPS CAVOK 02/00 Q1012 NOSIG RMK QFE753 06090060

2010/08/09 21:00
UOII 092100Z 34005MPS CAVOK 07/05 Q1008 NOSIG RMK QFE753 30////60

2010/08/09 21:00
UOOO 092100Z 34003G04MPS 9999 BKN016 06/06 Q1008 TEMPO 0500 FG VV002 RMK QFE741 010///60

2010/08/09 21:00
USCM 092100Z 00000MPS 5000 FU SCT200 15/10 Q1021 NOSIG 01090065 RMK QFE727

2010/08/09 21:00
URKA 092100Z 06007MPS CAVOK 26/15 Q1007

2010/08/09 21:00
URKK 092100Z 03005MPS CAVOK 27/08 Q1006 NOSIG RMK QFE752 SC070

2010/08/09 21:00
URKM 092100Z 17002MPS CAVOK 23/12 Q1007 RMK QFE737

2010/08/09 21:00
URML 092100Z 22003MPS 9999 SKC 24/22 Q1010 NOSIG RMK QFE757 / 07

2010/08/09 21:00
URMM 092100Z 07003MPS 9999 SKC 24/13 Q1010 NOSIG RMK / SC070

2010/08/09 21:00
URMN 092100Z 25002MPS 9999 SKC 21/15 Q1011 NOSIG RMK / QFE721 SC07

2010/08/09 21:00
URMT 092100Z 08005MPS CAVOK 24/09 Q1012 NOSIG RMK QFE719 SC07

2010/08/09 21:00
URRR 092100Z 07005G08MPS CAVOK 30/07 Q1010 NOSIG RMK SC070

2010/08/09 21:00
URSS 092100Z 06002MPS 9999 SKC 27/23 Q1006 NOSIG RMK / QFE754 06CLRD70

2010/08/09 21:00
URWA 092100Z 00000MPS CAVOK 25/17 Q1011 NOSIG RMK SC07

2010/08/09 21:00
URWW 092100Z 07005MPS CAVOK 30/06 Q1014 NOSIG RMK SC070

2010/08/09 21:00
UOHH 092100Z 30003MPS CAVOK 02/00 Q1012 NOSIG RMK QFE753 06090060

2010/08/09 21:00
UOII 092100Z 34005MPS CAVOK 07/05 Q1008 NOSIG RMK QFE753 30////60

2010/08/09 21:00
UOOO 092100Z 34003G04MPS 9999 BKN016 06/06 Q1008 TEMPO 0500 FG VV002 RMK QFE741 010///60

2010/08/09 21:00
USCM 092100Z 00000MPS 5000 FU SCT200 15/10 Q1021 NOSIG 01090065 RMK QFE727

2010/08/09 21:00
USCC 092100Z 14003MPS 5000 HZ SCT070 BKN200 15/08 Q1021 NOSIG RMK QFE745 09000070

2010/08/09 21:00
USDD 092100Z 23002MPS CAVOK 12/09 Q1014 NOSIG RMK QFE756/1008 SC057

2010/08/09 21:00
USMU 092100Z 29002MPS CAVOK 08/06 Q1014 NOSIG RMK QFE754 27CLRD60

2010/08/09 21:00
USNN 092100Z 34003MPS P6000 SCT066 OVC200 10/08 Q1015 NOSIG RMK QFE757 SC065

2010/08/09 21:00
USRR 092100Z 30003MPS 7000 BKN049 10/07 Q1017 NOSIG RMK QFE757 25////60

2010/08/09 21:00
USSS 092100Z 00000MPS 5000 FU SCT036 11/08 Q1021 NOSIG RMK QFE745 260///70

2010/08/09 21:00
UEEE 092100Z 11002MPS CAVOK 14/13 Q1008 NOSIG RMK QFE747 2309//60

2010/08/09 21:00
UELL 092100Z VRB01MPS 9999 SCT033CB OVC200 13/12 Q1010 NOSIG RMK QFE683 08CLRD70

2010/08/09 21:00
UERP 092100Z 32002MPS 2500 BR OVC004 07/06 Q1003 BECMG 1500 RMK QBB120 QFE709 35190260

2010/08/09 21:00
UERR 092100Z VRB01MPS 9999 BKN041 OVC100 11/11 Q1004 NOSIG RMK QFE721 24290350

2010/08/09 21:00
UESO 092100Z 11003MPS CAVOK 04/02 Q1012 NOSIG RMK QFE757

2010/08/09 21:00
UEST 092100Z 17004MPS CAVOK 09/07 Q1006 NOSIG RMK QFE754

2010/08/09 21:00
UHHH 092100Z 11004MPS 9999 BKN003 OVC019CB 20/20 Q1005 NOSIG RMK QBB100 QFE747/0997 / 23290045

2010/08/09 21:00
UHMA 092100Z 02005MPS 9999 OVC080 08/05 Q1003 NOSIG RMK QFE748/0998 880///70

2010/08/09 21:00
UHMM 092100Z 00000MPS 9999 FEW046 SCT066 10/07 Q1012 NOSIG RMK QFE744 88010070

2010/08/09 21:00
UHNN 092100Z 06003MPS 9999 OVC004 15/14 Q1014 NOSIG RMK QBB120 / QFE756

2010/08/09 21:00
UHPP 092100Z 29002MPS 180V340 9999 FEW040 BKN/// 16/10 Q1013 NOSIG RMK QFE756/1008 MT OBSC SC070

2010/08/09 21:00
UHSH 092100Z 14001MPS 1000 BR FEW003 BKN200 12/12 Q1016 BECMG 9999 NSW SCT200 RMK QFE759 13090070

2010/08/09 21:00
UHSS 092100Z 36003MPS 6000 OVC006 17/17 Q1014 NOSIG RMK MT OBSC QFE759/1012 19190065

2010/08/09 21:00
UHWW 092100Z 14004MPS 9999 -SHRA SCT010 BKN033CB OVC100 24/23 Q1009 NOSIG RMK QFE755/1007 7529//60

2010/08/09 21:00
UUYH 092100Z 22002MPS CAVOK 22/19 Q1012 RMK QFE 747

2010/08/09 21:00
UNAA 092100Z 01003MPS 9999 SCT033CB BKN100 14/12 Q1006 NOSIG RMK QFE732 020///65

2010/08/09 21:00
UNBB 092100Z 03003MPS CAVOK 11/09 Q1007 NOSIG RMK QFE733

2010/08/09 21:00
UNEE 092100Z 31004MPS CAVOK 11/10 Q1008 NOSIG RMK QFE733 23CLRD60

2010/08/09 21:00
UNKL 092100Z 00000MPS 0350 R29/0750V1400U FG SCT004 BKN240 07/06 Q1006 TEMPO 0300 FG VV002 RMK QFE729 29////60

2010/08/09 21:00
UNNT 092100Z VRB01MPS 9999 MIFG SKC 09/08 Q1010 NOSIG RMK QFE747/0997 07090070

2010/08/09 21:00
UNOO 092100Z 01006MPS CAVOK 10/08 Q1016 NOSIG 07CLRD06 RMK QFE754

2010/08/09 21:00
UNWW 092100Z 02002MPS 9999 SCT033 BKN130 11/11 Q1007 NOSIG RMK QFE728 19CLRD70

2010/08/09 21:00
USTR 092100Z 17002MPS CAVOK 11/07 Q1021 NOSIG RMK QFE756/1009 21CLRD65 30CLRD65

2010/08/09 21:00
USHH 092100Z 25003MPS CAVOK 11/07 Q1018 NOSIG RMK QFE760 SC06

2010/08/09 21:00
ULMM 092100Z 02005MPS 6000 -SHRA OVC008CB 09/08 Q1011 NOSIG RMK QFE751 32290250

2010/08/09 21:00
ULOO 092100Z 23002MPS P6000 BKN070 OVC200 20/16 Q1015 NOSIG RMK QFE757

2010/08/09 21:00
UMKK 092100Z 25002MPS 4000 MIFG BR NSC 16/15 Q1016 R24/CLRD65 NOSIG RMK QFE761/1015

2010/08/09 21:00
UUOB 092100Z 04003MPS CAVOK 27/12 Q1014 NOSIG

2010/08/09 21:00
UUOO 092100Z 08003MPS 5000 HZ SKC 27/08 Q1015 NOSIG RMK 13090070

2010/08/09 21:00
UWGG 092100Z 15002MPS 3300 FU SCT230 28/15 Q1019 NOSIG 18090070 RMK QFE757

2010/08/09 21:00
CYGQ 092100Z CCB 30008KT 15SM FEW030 SCT035 SCT110 28/18 A2988 RMK CF1CU2AC0 TCU EMBD SLP118

2010/08/09 21:00
GMFK 092100Z 22009KT 9999 BKN033 FEW040CB 31/10 Q1019

